TBA - TO BE ASSIGNED
1 38284U 88005AM  12110.73439740  .00001353  00000-0  11444-2 0  9996
2 38284 082.5357 122.4721 0012681 101.0303 259.1992 13.86956061211806
METEOR 2-17 DEB
1 38284U 88005AM  12142.61975258  .00001468  00000-0  12408-2 0  9995
2 38284 082.5379 096.9978 0014116 021.7117 338.8077 13.87048316216221
METEOR 2-17 DEB
1 38284U 88005AM  12156.54176093  .00000397  00000-0  32602-3 0  9991
2 38284 082.5445 085.8585 0009831 341.2402 017.6202 13.87048903218159
METEOR 2-17 DEB
1 38284U 88005AM  12160.50949108  .00000418  00000-0  34416-3 0  9996
2 38284 082.5406 082.6922 0010551 332.1341 027.9259 13.87052368218705
METEOR 2-17 DEB
1 38284U 88005AM  12164.47696650  .00000517  00000-0  42861-3 0  9990
2 38284 082.5348 079.5202 0011356 321.8075 038.2449 13.87057345219256
METEOR 2-17 DEB
1 38284U 88005AM  12165.48686309 +.00000511 +00000-0 +42343-3 0  9991
2 38284 082.5347 078.7132 0010987 318.2827 041.7506 13.87058228219391
METEOR 2-17 DEB
1 38284U 88005AM  12171.47411364  .00000603  00000-0  50225-3 0  9994
2 38284 082.5502 073.9194 0011201 301.5741 058.4669 13.87066380220226
METEOR 2-17 DEB
1 38284U 88005AM  12179.98604430  .00000646  00000-0  53904-3 0  9990
2 38284 082.5409 067.1294 0012240 289.6074 070.3703 13.87077301221405
METEOR 2-17 DEB
1 38284U 88005AM  12180.99593154 +.00000673 +00000-0 +56195-3 0  9998
2 38284 082.5412 066.3204 0011759 287.3778 072.6090 13.87079056221549
METEOR 2-17 DEB
1 38284U 88005AM  12183.95343722  .00000689  00000-0  57509-3 0  9998
2 38284 082.5403 063.9562 0011068 275.8817 084.1162 13.87083292221958
METEOR 2-17 DEB
1 38284U 88005AM  12188.35362868  .00000781  00000-0  65365-3 0  9991
2 38284 082.5404 060.4416 0009546 242.7635 117.3052 13.87091171222568
METEOR 2-17 DEB
1 38284U 88005AM  12214.82645410  .00001256  00000-0  10577-2 0  9992
2 38284 082.5380 039.2812 0009879 179.8115 181.8179 13.87160105226235
METEOR 2-17 DEB
1 38284U 88005AM  12252.04425574  .00000990  00000-0  83003-3 0  9994
2 38284 082.5354 009.5225 0011437 072.6512 285.3230 13.87225677231395
METEOR 2-17 DEB
1 38284U 88005AM  12261.99816823  .00000298  00000-0  24128-3 0  9993
2 38284 082.5349 001.5646 0010737 050.7021 308.7231 13.87215844232771
METEOR 2-17 DEB
1 38284U 88005AM  12267.98490159  .00000382  00000-0  31273-3 0  9991
2 38284 082.5324 356.7805 0010787 037.1650 323.0510 13.87220981233609
METEOR 2-17 DEB
1 38284U 88005AM  12268.56191428 +.00000384 +00000-0 +31436-3 0  9996
2 38284 082.5352 356.3172 0009816 035.8429 324.3597 13.87221629233680
METEOR 2-17 DEB
1 38284U 88005AM  12279.88584613  .00000888  00000-0  74313-3 0  9995
2 38284 082.5381 347.2623 0009737 006.0475 354.4617 13.87245132235252
METEOR 2-17 DEB
1 38284U 88005AM  12281.90529444  .00000929  00000-0  77825-3 0  9999
2 38284 082.5377 345.6538 0010426 355.9245 004.2022 13.87249686235531
METEOR 2-17 DEB
1 38284U 88005AM  12282.48229624 +.00001159 +00000-0 +97325-3 0  9993
2 38284 082.5377 345.1948 0011139 352.8929 007.2194 13.87254278235613
METEOR 2-17 DEB
1 38284U 88005AM  12286.44918284  .00001104  00000-0  92656-3 0  9992
2 38284 082.5391 342.0222 0010819 339.8327 020.2308 13.87262162236165
METEOR 2-17 DEB
1 38284U 88005AM  12290.56030156  .00001034  00000-0  86706-3 0  9994
2 38284 082.5380 338.7324 0009810 323.3539 036.6951 13.87269768236737
METEOR 2-17 DEB
1 38284U 88005AM  12292.43554150  .00001381  00000-0  11617-2 0  9990
2 38284 082.5418 337.2376 0009791 319.5183 040.6258 13.87280387236993
METEOR 2-17 DEB
1 38284U 88005AM  13016.00593092  .00001640  00000-0  13742-2 0  9995
2 38284 082.5353 265.5869 0014291 067.0080 301.0800 13.87573004249401
METEOR 2-17 DEB
1 38284U 88005AM  13023.35941467  .00000284  00000-0  22815-3 0  9999
2 38284 082.5377 259.7051 0015254 041.1127 317.0593 13.87509429250420
METEOR 2-17 DEB
1 38284U 88005AM  13026.96543851  .00000069  00000-0  45448-4 0  9993
2 38284 082.5381 256.8235 0014251 034.3635 325.8410 13.87508464250929
METEOR 2-17 DEB
1 38284U 88005AM  13033.88821541  .00000036  00000-0  17681-4 0  9999
2 38284 082.5412 251.2872 0013714 015.4280 344.7196 13.87508452251883
METEOR 2-17 DEB
1 38284U 88005AM  13040.88310550  .00000291  00000-0  23355-3 0  9997
2 38284 082.5430 245.6916 0013679 349.5258 010.6803 13.87514977252856
METEOR 2-17 DEB
1 38284U 88005AM  13049.24805294  .00000522  00000-0  42935-3 0  9992
2 38284 082.5385 238.9950 0014590 329.2979 030.8374 13.87525164254013
METEOR 2-17 DEB
1 38284U 88005AM  13055.81015277  .00000642  00000-0  53087-3 0  9999
2 38284 082.5359 233.7555 0016015 308.2903 051.7337 13.87534873254924
METEOR 2-17 DEB
1 38284U 88005AM  13063.16542638  .00000793  00000-0  65881-3 0  9994
2 38284 082.5398 227.8738 0015880 287.9626 071.9805 13.87546971255936
METEOR 2-17 DEB
1 38284U 88005AM  13064.17496408  .00000826  00000-0  68640-3 0  9992
2 38284 082.5370 227.0676 0016867 281.1535 078.7731 13.87550385256073
METEOR 2-17 DEB
1 38284U 88005AM  13069.15054029  .00000929  00000-0  77367-3 0  9994
2 38284 082.5433 223.0856 0015516 260.0391 099.8759 13.87560104256776
METEOR 2-17 DEB
1 38284U 88005AM  13069.15054030  .00001010  00000-0  84169-3 0  9996
2 38284 082.5361 223.0863 0017931 265.8803 094.0310 13.87562385256760
METEOR 2-17 DEB
1 38284U 88005AM  13069.15054041  .00000955  00000-0  79533-3 0  9994
2 38284 082.5361 223.0863 0017935 265.8722 094.0390 13.87562540256765
METEOR 2-17 DEB
1 38284U 88005AM  13336.34188323  .00001100  00000-0  90682-3 0  9994
2 38284 082.5376 009.2470 0016705 261.8554 248.6030 13.88252556293822
METEOR 2-17 DEB
1 38284U 88005AM  13338.83432354  .00001125  00000-0  92767-3 0  9999
2 38284 082.5370 007.2510 0016563 254.5040 105.4321 13.88258317294173
METEOR 2-17 DEB
1 38284U 88005AM  13340.78030436  .00001294  00000-0  10693-2 0  9995
2 38284 082.5378 005.6968 0015783 247.5373 112.4472 13.88265681294441
METEOR 2-17 DEB
1 38284U 88005AM  13343.37492373  .00001397  00000-0  11547-2 0  9998
2 38284 082.5321 003.6153 0016275 252.9134 107.0459 13.88274496294804
METEOR 2-17 DEB
1 38284U 88005AM  13347.33890015  .00001763  00000-0  14596-2 0  9997
2 38284 082.5353 000.4371 0017246 235.3709 124.7485 13.88293680295350
METEOR 2-17 DEB
1 38284U 88005AM  13351.37485721  .00002042  00000-0  16922-2 0  9996
2 38284 082.5452 357.2208 0017595 210.3537 149.7623 13.88314470295915
METEOR 2-17 DEB
1 38284U 88005AM  13351.73519008  .00002122  00000-0  17581-2 0  9993
2 38284 082.5484 356.9372 0019104 197.3375 162.7567 13.88317846295967
METEOR 2-17 DEB
1 38284U 88005AM  13357.71698120  .00002626  00000-0  21779-2 0  9993
2 38284 082.5400 352.1383 0016998 195.0749 165.2272 13.88355431296798
METEOR 2-17 DEB
1 38284U 88005AM  13357.71698120  .00002626  00000-0  21779-2 0  9993
2 38284  82.5400 352.1383 0016998 195.0749 165.2272 13.88355431295854
METEOR 2-17 DEB
1 38284U 88005AM  14007.20241517  .00003989  00000-0  33104-2 0  9992
2 38284 082.5359 340.4981 0017631 151.3361 208.8774 13.88414865298807
METEOR 2-17 DEB
1 38284U 88005AM  14007.20241517  .00003989  00000-0  33104-2 0  9992
2 38284 082.5359 340.4981 0017631 151.3361 208.8774 13.88414865298807
METEOR 2-17 DEB
1 38284U 88005AM  14007.20241517  .00003989  00000-0  33104-2 0  9992
2 38284 082.5359 340.4981 0017631 151.3361 208.8774 13.88414865298807
METEOR 2-17 DEB
1 38284U 88005AM  14007.20241517 +.00003989 +00000-0 +33104-2 0  9992
2 38284 082.5359 340.4981 0017631 151.3361 208.8774 13.88414865298593
METEOR 2-17 DEB
1 38284U 88005AM  14360.47870035  .00002535  00000-0  19295-2 0  9997
2 38284 082.8479 057.4163 0118011 152.4028 208.3935 13.90462581347817
METEOR 2-17 DEB
1 38284U 88005AM  15005.40904559  .00002520  00000-0  20120-2 0  9999
2 38284 082.5443 049.0127 0020826 309.1458 050.7883 13.90512147349194
METEOR 2-17 DEB
1 38284U 88005AM  15018.36094288  .00001471  00000-0  11688-2 0  9990
2 38284 082.5421 038.5970 0020147 272.0012 086.7650 13.90539439351006
METEOR 2-17 DEB
1 38284U 88005AM  15021.31133197  .00001345  00000-0  10681-2 0  9994
2 38284 082.5358 036.2101 0019453 261.5138 098.3977 13.90545582351418
METEOR 2-17 DEB
1 38284U 88005AM  15023.32606558  .00001345  00000-0  10681-2 0  9993
2 38284 082.5358 034.5905 0019453 255.8023 104.0979 13.90550937351697
METEOR 2-17 DEB
1 38284U 88005AM  15033.25573126  .00001234  00000-0  97849-3 0  9999
2 38284 082.5374 026.6111 0019992 230.6162 129.2643 13.90574785353077
METEOR 2-17 DEB
1 38284U 88005AM  15037.28513024  .00001463  00000-0  11618-2 0  9990
2 38284 082.5373 023.3759 0019277 210.2853 149.8032 13.90589824353637
METEOR 2-17 DEB
1 38284U 88005AM  15051.17161123  .00001751  00000-0  13909-2 0  9998
2 38284 082.5409 012.2140 0020852 168.8477 191.3153 13.90655894355560
METEOR 2-17 DEB
1 38284U 88005AM  15052.61059781  .00001695  00000-0  13455-2 0  9997
2 38284 082.5369 011.0497 0020375 164.1630 196.0235 13.90662788355762
METEOR 2-17 DEB
1 38284U 88005AM  15057.57505368  .00002213  00000-0  17595-2 0  9990
2 38284 082.5383 007.0593 0020656 150.7488 209.5547 13.90685751356452
METEOR 2-17 DEB
1 38284U 88005AM  15063.11497867  .00002183  00000-0  17347-2 0  9992
2 38284 082.5384 002.6061 0020850 135.2401 225.0429 13.90709579357226
METEOR 2-17 DEB
1 38284U 88005AM  15065.12947837  .00002241  00000-0  17806-2 0  9997
2 38284 082.5388 000.9859 0021488 129.5489 230.7722 13.90719408357508
METEOR 2-17 DEB
1 38284U 88005AM  15076.49674840  .00002548  00000-0  20233-2 0  9998
2 38284 082.5413 351.8530 0022497 099.2614 261.3624 13.90779496359084
METEOR 2-17 DEB
1 38284U 88005AM  15085.99299496  .00002768  00000-0  21967-2 0  9992
2 38284 082.5426 344.2294 0024591 066.7591 293.6966 13.90833456360391
METEOR 2-17 DEB
1 38284U 88005AM  15129.22518347  .00002539  00000-0  20073-2 0  9999
2 38284 082.5384 309.4491 0023263 304.3590 053.5794 13.91049314366415
METEOR 2-17 DEB
1 38284U 88005AM  15129.22518347  .00002539  00000-0  20072-2 0  9998
2 38284 082.5384 309.4518 0023265 304.3666 053.5717 13.91049313366415
METEOR 2-17 DEB
1 38284U 88005AM  15134.18862197  .00001691  00000-0  13338-2 0  9999
2 38284 082.5384 305.4596 0023262 290.2800 068.8683 13.91029445367109
METEOR 2-17 DEB
1 38284U 88005AM  15141.16591180  .00001184  00000-0  92957-3 0  9998
2 38284 082.5484 299.8440 0023683 280.1231 079.5626 13.91044377368071
METEOR 2-17 DEB
1 38284U 88005AM  15145.12203768  .00000936  00000-0  73262-3 0  9992
2 38284 082.5505 296.6562 0024223 262.8324 096.9688 13.91048570368627
METEOR 2-17 DEB
1 38284U 88005AM  15147.13605611  .00000868  00000-0  67838-3 0  9994
2 38284 082.5555 295.0353 0024388 252.7129 107.1324 13.91050861368905
METEOR 2-17 DEB
1 38284U 88005AM  15151.09216486  .00000459  00000-0  35330-3 0  9990
2 38284 082.5414 291.8691 0023880 245.4940 114.3734 13.91050668369455
METEOR 2-17 DEB
1 38284U 88005AM  15157.06225889  .00000496  00000-0  38236-3 0  9999
2 38284 082.5360 287.0690 0025392 227.8470 132.0537 13.91055734370283
METEOR 2-17 DEB
1 38284U 88005AM  15158.06926818  .00000633  00000-0  49185-3 0  9998
2 38284 082.5360 286.2601 0023612 225.6432 134.2798 13.91057135370429
METEOR 2-17 DEB
1 38284U 88005AM  15160.65868592  .00000770  00000-0  60028-3 0  9991
2 38284 082.5349 284.1775 0026749 217.9584 141.9695 13.91061863370784
METEOR 2-17 DEB
1 38284U 88005AM  15162.02532664 +.00001040 +00000-0 +81489-3 0  9997
2 38284 082.5392 283.0724 0025584 214.2127 145.7390 13.91066412074211
METEOR 2-17 DEB
1 38284U 88005AM  15163.60774355  .00001217  00000-0  95498-3 0  9998
2 38284 082.5388 281.8004 0026070 209.9907 149.9765 13.91071129371191
METEOR 2-17 DEB
1 38284U 88005AM  15164.03931120 +.00001205 +00000-0 +94509-3 0  9990
2 38284 082.5391 281.4541 0026191 208.7658 151.2063 13.91072146074491
METEOR 2-17 DEB
1 38284U 88005AM  15168.57075115  .00001086  00000-0  85020-3 0  9991
2 38284 082.5390 277.8087 0027061 196.6919 163.3358 13.91083283371884
METEOR 2-17 DEB
1 38284U 88005AM  15169.57773304 +.00001039 +00000-0 +81287-3 0  9996
2 38284 082.5392 276.9986 0027242 194.1430 165.8975 13.91085592075266
METEOR 2-17 DEB
1 38284U 88005AM  15170.58471314  .00001005  00000-0  78581-3 0  9991
2 38284 082.5392 276.1887 0027428 191.5439 168.5100 13.91087946372168
METEOR 2-17 DEB
1 38284U 88005AM  15172.59866990  .00000874  00000-0  68214-3 0  9997
2 38284 082.5393 274.5685 0027751 186.4561 173.6250 13.91091713372446
METEOR 2-17 DEB
1 38284U 88005AM  15178.56857391  .00000821  00000-0  63923-3 0  9999
2 38284 082.5394 269.7667 0028574 171.6555 188.5090 13.91104714373260
METEOR 2-17 DEB
1 38284U 88005AM  15182.52449911  .00000705  00000-0  54758-3 0  9992
2 38284 082.5389 266.5840 0027747 162.6271 197.5849 13.91111175373810
METEOR 2-17 DEB
1 38284U 88005AM  15184.53842332  .00000777  00000-0  60484-3 0  9991
2 38284 082.5392 264.9647 0027900 157.4983 202.7412 13.91114548374097
METEOR 2-17 DEB
1 38284U 88005AM  15186.55234222  .00001106  00000-0  86595-3 0  9996
2 38284 082.5390 263.3448 0027691 152.4405 207.8235 13.91119646374372
METEOR 2-17 DEB
1 38284U 88005AM  15198.49185780  .00000878  00000-0  68447-3 0  9997
2 38284 082.5389 253.7386 0028850 122.4083 237.9878 13.91144902376036
METEOR 2-17 DEB
1 38284U 88005AM  15198.49186031  .00001204  00000-0  94320-3 0  9990
2 38284 082.5471 253.7461 0026049 117.9121 242.4518 13.91146867376036
METEOR 2-17 DEB
1 38284U 88005AM  15201.44074217  .00000610  00000-0  47137-3 0  9996
2 38284 082.5372 251.3642 0027770 113.7317 246.6765 13.91148660376442
METEOR 2-17 DEB
1 38284U 88005AM  15206.40347788  .00000617  00000-0  47711-3 0  9998
2 38284 082.5380 247.3739 0027957 101.4308 258.9998 13.91154835377136
METEOR 2-17 DEB
1 38284U 88005AM  15210.79080217  .00000746  00000-0  57915-3 0  9996
2 38284 082.5391 243.8456 0028320 091.3931 269.0478 13.91161051377740
METEOR 2-17 DEB
1 38284U 88005AM  15212.37310921  .00000915  00000-0  71365-3 0  9993
2 38284 082.5402 242.5753 0028118 087.3087 273.1295 13.91164639377963
METEOR 2-17 DEB
1 38284U 88005AM  15219.34960143  .00001048  00000-0  81853-3 0  9995
2 38284 082.5385 236.9608 0027491 069.0193 291.3908 13.91178297378933
METEOR 2-17 DEB
1 38284U 88005AM  15222.72993783  .00001008  00000-0  78691-3 0  9999
2 38284 082.5377 234.2399 0027239 060.2306 300.1562 13.91184369379406
METEOR 2-17 DEB
1 38284U 88005AM  15225.31912144  .00000872  00000-0  67955-3 0  9998
2 38284 082.5370 232.1544 0027144 053.3035 307.0617 13.91188345379769
METEOR 2-17 DEB
1 38284U 88005AM  15229.27480171  .00000908  00000-0  70809-3 0  9999
2 38284 082.5373 228.9732 0026799 043.0245 317.3007 13.91195198380312
METEOR 2-17 DEB
1 38284U 88005AM  15231.28859619  .00000681  00000-0  52807-3 0  9996
2 38284 082.5372 227.3528 0026659 037.6670 322.6354 13.91196964380599
METEOR 2-17 DEB
1 38284U 88005AM  15235.67577528  .00000786  00000-0  61138-3 0  9992
2 38284 082.5381 223.8237 0026450 026.4643 333.7865 13.91203995381204
METEOR 2-17 DEB
1 38284U 88005AM  15241.64517968  .00000830  00000-0  64586-3 0  9998
2 38284 082.5380 219.0191 0026114 011.3158 348.8587 13.91213634382031
METEOR 2-17 DEB
1 38284U 88005AM  15243.22742294 +.00000825 +00000-0 +64169-3 0  9997
2 38284 082.5382 217.7465 0025933 006.8653 353.2861 13.91216457085502
METEOR 2-17 DEB
1 38284U 88005AM  15246.24806051  .00000864  00000-0  67262-3 0  9994
2 38284  82.5390 215.3169 0025733 359.0881   1.0231 13.91222399382679
METEOR 2-17 DEB
1 38284U 88005AM  15246.60765941 +.00000874 +00000-0 +68048-3 0  9990
2 38284 082.5388 215.0272 0025700 358.2342 001.8727 13.91223139085979
METEOR 2-17 DEB
1 38284U 88005AM  15247.18301605 +.00000952 +00000-0 +74278-3 0  9996
2 38284 082.5387 214.5658 0025526 356.4247 003.6730 13.91224848086052
METEOR 2-17 DEB
1 38284U 88005AM  15249.19676224  .00001057  00000-0  82562-3 0  9993
2 38284  82.5391 212.9468 0025277 351.1748   8.8968 13.91230027383088
METEOR 2-17 DEB
1 38284U 88005AM  15252.57695976  .00001197  00000-0  93690-3 0  9993
2 38284  82.5391 210.2276 0024899 342.4090  17.6209 13.91240149383552
METEOR 2-17 DEB
1 38284U 88005AM  15254.59068298  .00001319  00000-0  10336-2 0  9999
2 38284  82.5400 208.6098 0024634 337.1302  22.8763 13.91246826383832
METEOR 2-17 DEB
1 38284U 88005AM  15255.59754156 +.00001340 +00000-0 +10497-2 0  9997
2 38284 082.5401 207.7999 0024507 334.4863 025.5090 13.91249931087221
METEOR 2-17 DEB
1 38284U 88005AM  15256.17288824 +.00001327 +00000-0 +10393-2 0  9996
2 38284 082.5401 207.3371 0024441 332.9518 027.0371 13.91251606087308
METEOR 2-17 DEB
1 38284U 88005AM  15258.54618784  .00001324  00000-0  10369-2 0  9991
2 38284  82.5400 205.4275 0024105 326.7562  33.2087 13.91258269384389
METEOR 2-17 DEB
1 38284U 88005AM  15260.12838113 +.00001333 +00000-0 +10445-2 0  9993
2 38284 082.5402 204.1550 0023893 322.4684 037.4811 13.91262756087853
METEOR 2-17 DEB
1 38284U 88005AM  15262.14207392  .00001490  00000-0  11685-2 0  9997
2 38284  82.5402 202.5348 0023594 317.0901  42.8421 13.91269545384883
METEOR 2-17 DEB
1 38284U 88005AM  15263.58042006 +.00001675 +00000-0 +13153-2 0  9992
2 38284 082.5404 201.3779 0023378 313.2126 046.7085 13.91275110088332
METEOR 2-17 DEB
1 38284U 88005AM  15267.10434920  .00001525  00000-0  11959-2 0  9990
2 38284  82.5403 198.5429 0022786 303.5326  56.3661 13.91285701385576
METEOR 2-17 DEB
1 38284U 88005AM  15268.11118048 +.00001639 +00000-0 +12866-2 0  9996
2 38284 082.5405 197.7329 0022623 300.8051 059.0887 13.91289792088960
METEOR 2-17 DEB
1 38284U 88005AM  15268.11118048  .00001639  00000-0  12866-2 0  9996
2 38284  82.5405 197.7329 0022623 300.8051  59.0887 13.91289792385713
METEOR 2-17 DEB
1 38284U 88005AM  15277.46021250  .00001907  00000-0  14978-2 0  9996
2 38284  82.5398 190.2094 0020894 273.7677  86.1098 13.91324137387014
METEOR 2-17 DEB
1 38284U 88005AM  15278.03553022 +.00001808 +00000-0 +14196-2 0  9999
2 38284 082.5397 189.7462 0020812 271.9719 087.9061 13.91325671090342
METEOR 2-17 DEB
1 38284U 88005AM  15284.00440695  .00001457  00000-0  11413-2 0  9993
2 38284  82.5372 184.9377 0019798 253.6734 106.2253 13.91345002387923
METEOR 2-17 DEB
1 38284U 88005AM  15285.01119782 +.00001487 +00000-0 +11654-2 0  9995
2 38284 082.5387 184.1332 0019693 250.4651 109.4386 13.91348505091317
METEOR 2-17 DEB
1 38284U 88005AM  15286.44946693  .00001537  00000-0  12052-2 0  9991
2 38284  82.5415 182.9812 0019558 246.1228 113.7887 13.91353457388269
METEOR 2-17 DEB
1 38284U 88005AM  15287.45625204  .00001819  00000-0  14272-2 0  9994
2 38284  82.5398 182.1578 0021051 246.4980 113.4245 13.91359163388411
METEOR 2-17 DEB
1 38284U 88005AM  15287.45625205 +.00001701 +00000-0 +13342-2 0  9992
2 38284 082.5413 182.1710 0019428 242.9024 117.0159 13.91357576091659
METEOR 2-17 DEB
1 38284U 88005AM  15287.45625205  .00001701  00000-0  13342-2 0  9992
2 38284  82.5413 182.1710 0019428 242.9024 117.0159 13.91357576388401
METEOR 2-17 DEB
1 38284U 88005AM  15321.25401116  .00002031  00000-0  15916-2 0  9998
2 38284  82.5378 154.9759 0019932 137.0537 223.2188 13.91480563393102
METEOR 2-17 DEB
1 38284U 88005AM  15322.26072582  .00001428  00000-0  11157-2 0  9993
2 38284  82.5400 154.1589 0020038 127.5719 232.7269 13.91467644393241
METEOR 2-17 DEB
1 38284U 88005AM  15327.22231416  .00001247  00000-0  97262-3 0  9998
2 38284  82.5416 150.1741 0020048 120.6619 239.6525 13.91478539393930
METEOR 2-17 DEB
1 38284U 88005AM  15332.18387348  .00000976  00000-0  75885-3 0  9990
2 38284  82.5388 146.1800 0020259 108.1999 252.1373 13.91486874394624
METEOR 2-17 DEB
1 38284U 88005AM  15333.19056440 +.00000872 +00000-0 +67629-3 0  9990
2 38284 082.5374 145.3662 0020419 104.5951 255.7479 13.91487944098011
METEOR 2-17 DEB
1 38284U 88005AM  15334.19725288 +.00000851 +00000-0 +66021-3 0  9996
2 38284 082.5381 144.5556 0020444 101.7031 258.6429 13.91489539098152
METEOR 2-17 DEB
1 38284U 88005AM  15334.19725288  .00000851  00000-0  66021-3 0  9996
2 38284  82.5381 144.5556 0020444 101.7031 258.6429 13.91489539394904
METEOR 2-17 DEB
1 38284U 88005AM  15339.73401472  .00000843  00000-0  65358-3 0  9990
2 38284  82.5378 140.1000 0020232  86.9263 273.4216 13.91498353395670
METEOR 2-17 DEB
1 38284U 88005AM  15340.16544892 +.00000825 +00000-0 +63934-3 0  9991
2 38284 082.5367 139.7534 0020114 085.9327 274.4136 13.91498849098989
METEOR 2-17 DEB
1 38284U 88005AM  15344.12025294  .00000780  00000-0  60390-3 0  9994
2 38284  82.5389 136.5696 0019905  74.3098 286.0260 13.91505247396282
METEOR 2-17 DEB
1 38284U 88005AM  15346.13359985  .00000817  00000-0  63306-3 0  9995
2 38284  82.5389 134.9491 0019770  68.7206 291.6066 13.91508755396569
METEOR 2-17 DEB
1 38284U 88005AM  15346.70884080 +.00000825 +00000-0 +63932-3 0  9991
2 38284 082.5397 134.4856 0019739 066.8976 293.4266 13.91509786099899
METEOR 2-17 DEB
1 38284U 88005AM  15357.06310712  .00000833  00000-0  64584-3 0  9991
2 38284  82.5400 126.1523 0018915  36.8455 323.4004 13.91527053398081
METEOR 2-17 DEB
1 38284U 88005AM  15359.07641822  .00000878  00000-0  68088-3 0  9995
2 38284  82.5404 124.5325 0018708  30.7944 329.4313 13.91531618398365
METEOR 2-17 DEB
1 38284U 88005AM  15360.08307191 +.00000791 +00000-0 +61244-3 0  9997
2 38284 082.5402 123.7222 0018612 027.7109 332.5043 13.91533084101752
METEOR 2-17 DEB
1 38284U 88005AM  15361.66495292  .00000798  00000-0  61780-3 0  9994
2 38284  82.5402 122.4492 0018452  22.6778 337.5197 13.91536105398722
METEOR 2-17 DEB
1 38284U 88005AM  15363.60635025 +.00000705 +00000-0 +54438-3 0  9990
2 38284 082.5394 120.8872 0018118 016.4372 343.7376 13.91538232102247
METEOR 2-17 DEB
1 38284U 88005AM  15365.04442017  .00000605  00000-0  46586-3 0  9991
2 38284  82.5395 119.7293 0017985  12.0473 348.1118 13.91539664399192
METEOR 2-17 DEB
1 38284U 88005AM  16001.05106749 +.00000725 +00000-0 +56026-3 0  9992
2 38284 082.5395 118.9192 0017941 008.8249 351.3227 13.91541787102588
METEOR 2-17 DEB
1 38284U 88005AM  16003.63958374  .00000750  00000-0  57997-3 0  9993
2 38284  82.5398 116.8356 0017887   0.4807 359.6371 13.91545925399696
METEOR 2-17 DEB
1 38284U 88005AM  16004.57432473 +.00000644 +00000-0 +49641-3 0  9993
2 38284 082.5400 116.0835 0017891 357.2921 002.8144 13.91546569103074
METEOR 2-17 DEB
1 38284U 88005AM  16006.58760911  .00000654  00000-0  50462-3 0  9991
2 38284  82.5403 114.4629 0017900 350.7071   9.3759 13.91549545400100
METEOR 2-17 DEB
1 38284U 88005AM  16011.54890049  .00000708  00000-0  54653-3 0  9995
2 38284  82.5401 110.4694 0018032 334.5282  25.4992 13.91556563400798
METEOR 2-17 DEB
1 38284U 88005AM  16012.55553549 +.00000873 +00000-0 +67692-3 0  9998
2 38284 082.5401 109.6593 0018106 331.2052 028.8111 13.91559170104188
METEOR 2-17 DEB
1 38284U 88005AM  16014.56880214  .00000849  00000-0  65764-3 0  9994
2 38284  82.5402 108.0392 0018270 324.5784  35.4165 13.91562534401213
METEOR 2-17 DEB
1 38284U 88005AM  16020.53667390  .00000779  00000-0  60284-3 0  9990
2 38284  82.5400 103.2355 0018784 305.7009  54.2406 13.91571959402048
METEOR 2-17 DEB
1 38284U 88005AM  16023.48464336  .00000864  00000-0  66970-3 0  9995
2 38284  82.5391 100.8597 0018974 297.1116  62.8112 13.91577612402458
METEOR 2-17 DEB
1 38284U 88005AM  16024.49126515 +.00000813 +00000-0 +62908-3 0  9992
2 38284 082.5394 100.0505 0019107 294.0901 065.8264 13.91579084105848
METEOR 2-17 DEB
1 38284U 88005AM  16024.49126515  .00000813  00000-0  62908-3 0  9992
2 38284  82.5394 100.0505 0019107 294.0901  65.8264 13.91579084402590
METEOR 2-17 DEB
1 38284U 88005AM  16024.49126515 +.00000813 +00000-0 +62908-3 0  9992
2 38284 082.5394 100.0505 0019107 294.0901 065.8264 13.91579084402590
METEOR 2-17 DEB
1 38284U 88005AM  16098.54661634 -.00002026  00000-0 -16050-2 0  9991
2 38284  82.5408  40.4177 0026544  80.5559 279.8604 13.91705312412892
METEOR 2-17 DEB
1 38284U 88005AM  16105.52026082  .00001630  00000-0  12672-2 0  9994
2 38284  82.5389  34.7978 0027230  64.2934 296.1038 13.91751021413863
METEOR 2-17 DEB
1 38284U 88005AM  16112.06243146  .00001486  00000-0  11540-2 0  9995
2 38284  82.5464  29.5358 0027581  47.1184 313.2290 13.91773018414779
METEOR 2-17 DEB
1 38284U 88005AM  16113.50025411 +.00001631 +00000-0 +12672-2 0  9997
2 38284 082.5412 028.3785 0027247 044.9470 315.3894 13.91779154118226
METEOR 2-17 DEB
1 38284U 88005AM  16113.50025411  .00001631  00000-0  12672-2 0  9997
2 38284  82.5412  28.3785 0027247  44.9470 315.3894 13.91779154414977
METEOR 2-17 DEB
1 38284U 88005AM  16175.17844822  .00000619  00000-0  47313-3 0  9999
2 38284  82.5364 338.6928 0025889 229.8243 124.7379 13.91892214423558
METEOR 2-17 DEB
1 38284U 88005AM  16181.14602232  .00000072  00000-0  44866-4 0  9994
2 38284  82.5362 333.8893 0024481 212.8213 147.1432 13.91892796424386
METEOR 2-17 DEB
1 38284U 88005AM  16185.67481491  .00000040  00000-0  19413-4 0  9993
2 38284  82.5439 330.2351 0024537 200.2297 159.7898 13.91893201425014
METEOR 2-17 DEB
1 38284U 88005AM  16186.10612796 +.00000009 +00000-0 -46351-5 0  9994
2 38284 082.5387 329.8922 0024876 199.2149 160.8080 13.91892697128321
METEOR 2-17 DEB
1 38284U 88005AM  16187.11252585 +.00000038 +00000-0 +18144-4 0  9991
2 38284 082.5380 329.0820 0024850 196.6771 163.3580 13.91892905128467
METEOR 2-17 DEB
1 38284U 88005AM  16191.06623230  .00000054  00000-0  30357-4 0  9997
2 38284  82.5395 325.8962 0025658 186.1003 173.9853 13.91893239425767
METEOR 2-17 DEB
1 38284U 88005AM  16193.07902668  .00000128  00000-0  88337-4 0  9998
2 38284  82.5395 324.2749 0026000 181.0004 179.1114 13.91894172426047
METEOR 2-17 DEB
1 38284U 88005AM  16194.08542314 +.00000163 +00000-0 +11562-3 0  9992
2 38284 082.5394 323.4640 0026197 178.5697 181.5547 13.91894755129430
METEOR 2-17 DEB
1 38284U 88005AM  16198.03912172  .00000167  00000-0  11906-3 0  9990
2 38284  82.5385 320.2792 0026618 168.3443 191.8344 13.91896619426730
METEOR 2-17 DEB
1 38284U 88005AM  16199.62059858 +.00000170 +00000-0 +12102-3 0  9992
2 38284 082.5390 319.0050 0026923 164.9371 195.2602 13.91897374130208
METEOR 2-17 DEB
1 38284U 88005AM  16206.59346527  .00000221  00000-0  16118-3 0  9997
2 38284  82.5408 313.3878 0027232 147.5320 212.7526 13.91901267427923
METEOR 2-17 DEB
1 38284U 88005AM  16207.59985649 +.00000228 +00000-0 +16638-3 0  9996
2 38284 082.5404 312.5771 0027285 145.1768 215.1189 13.91901833131316
METEOR 2-17 DEB
1 38284U 88005AM  16219.53275557  .00000244  00000-0  17881-3 0  9992
2 38284  82.5398 302.9648 0026715 116.1820 244.2096 13.91906679429726
METEOR 2-17 DEB
1 38284U 88005AM  16221.54552473  .00000271  00000-0  19964-3 0  9995
2 38284  82.5404 301.3432 0028180 113.2910 247.1225 13.91907854430009
METEOR 2-17 DEB
1 38284U 88005AM  16222.91133451 +.00000313 +00000-0 +23283-3 0  9994
2 38284 082.5385 300.2409 0026570 107.8586 252.5479 13.91909107133440
METEOR 2-17 DEB
1 38284U 88005AM  16224.49279423 +.00000381 +00000-0 +28585-3 0  9994
2 38284 082.5385 298.9672 0026368 103.9335 256.4765 13.91910625430414
METEOR 2-17 DEB
1 38284U 88005AM  16226.50555936 +.00000373 +00000-0 +28011-3 0  9999
2 38284 082.5387 297.3467 0026095 098.8508 261.5613 13.91911964430698
METEOR 2-17 DEB
1 38284U 88005AM  16229.45281838  .00000349  00000-0  26101-3 0  9994
2 38284  82.5388 294.9728 0025677  91.2355 269.1751 13.91913725431105
METEOR 2-17 DEB
1 38284U 88005AM  16231.46557808  .00000318  00000-0  23686-3 0  9992
2 38284  82.5387 293.3510 0025370  85.9412 274.4651 13.91914710431383
METEOR 2-17 DEB
1 38284U 88005AM  16237.43196034  .00000291  00000-0  21575-3 0  9990
2 38284  82.5386 288.5453 0024512  69.8883 290.4916 13.91917916432210
METEOR 2-17 DEB
1 38284U 88005AM  16241.81688128  .00000302  00000-0  22449-3 0  9991
2 38284  82.5373 285.0097 0023942  57.8291 302.5191 13.91920051432829
METEOR 2-17 DEB
1 38284U 88005AM  16241.81688128  .00000294  00000-0  21850-3 0  9996
2 38284  82.5380 285.0119 0025586  51.6243 308.6920 13.91920109432839
METEOR 2-17 DEB
1 38284U 88005AM  16282.21525693  .00000655  00000-0  50082-3 0  9992
2 38284  82.5373 252.4642 0023939 303.0318  59.1889 13.91973603438449
METEOR 2-17 DEB
1 38284U 88005AM  16306.50992750  .00001373  00000-0  10622-2 0  9996
2 38284  82.5400 232.8869 0018868 228.9361 131.0174 13.92049091441820
METEOR 2-17 DEB
1 38284U 88005AM  16306.51037651  .00001428  00000-0  11050-2 0  9994
2 38284  82.5401 232.8823 0019550 232.0913 130.1170 13.92049494441822
METEOR 2-17 DEB
1 38284U 88005AM  16340.36304142  .00001421  00000-0  10972-2 0  9992
2 38284  82.5412 205.6195 0018905 133.8178 226.3729 13.92144423446526
METEOR 2-17 DEB
1 38284U 88005AM  16340.36307127  .00001196  00000-0  92206-3 0  9998
2 38284  82.5412 205.6200 0018474 122.0031 238.2932 13.92140152446536
METEOR 2-17 DEB
1 38284U 88005AM  16359.26527569  .00001200  00000-0  92459-3 0  9997
2 38284  82.5388 190.3844 0017815  78.1887 281.9370 13.92181685449158
METEOR 2-17 DEB
1 38284U 88005AM  16364.22435370  .00000630  00000-0  47976-3 0  9997
2 38284  82.5388 186.3884 0017814  64.0900 295.9654 13.92176939449848
METEOR 2-17 DEB
1 38284U 88005AM  16365.23059847 +.00000594 +00000-0 +45173-3 0  9996
2 38284 082.5333 185.5798 0019462 055.2142 305.0851 13.92177953449999
METEOR 2-17 DEB
1 38284U 88005AM  16365.23059847  .00000594  00000-0  45173-3 0  9996
2 38284  82.5333 185.5798 0019462  55.2142 305.0851 13.92177953449999
METEOR 2-17 DEB
1 38284U 88005AM  17005.19583742  .00000494  00000-0  37379-3 0  9997
2 38284  82.5368 180.7728 0019298  37.6448 322.6063 13.92182456450825
METEOR 2-17 DEB
1 38284U 88005AM  17010.15488302  .00000407  00000-0  30603-3 0  9992
2 38284  82.5380 176.7771 0018904  22.6728 337.5268 13.92185844451513
METEOR 2-17 DEB
1 38284U 88005AM  17011.16106445 +.00000388 +00000-0 +29095-3 0  9990
2 38284 082.5374 175.9660 0018797 019.6889 340.4997 13.92186484451656
METEOR 2-17 DEB
1 38284U 88005AM  17016.12010077  .00000269  00000-0  19804-3 0  9991
2 38284  82.5402 171.9685 0019112   5.2933 354.8430 13.92188275452342
METEOR 2-17 DEB
1 38284U 88005AM  17018.13245790  .00000181  00000-0  12960-3 0  9995
2 38284  82.5349 170.3504 0018107 357.1969   2.9091 13.92187974452626
METEOR 2-17 DEB
1 38284U 88005AM  17018.70742165 +.00000193 +00000-0 +13889-3 0  9990
2 38284 082.5386 169.8839 0018867 357.1386 002.9668 13.92188127452707
METEOR 2-17 DEB
1 38284U 88005AM  17025.10385342  .00000083  00000-0  53252-4 0  9999
2 38284  82.5392 164.7294 0018707 337.2752  22.7582 13.92188264453597
METEOR 2-17 DEB
1 38284U 88005AM  17026.68499279 +.00000124 +00000-0 +84765-4 0  9997
2 38284 082.5401 163.4555 0018837 332.3761 027.6401 13.92189001453813
METEOR 2-17 DEB
1 38284U 88005AM  17029.63166194 +.00000092 +00000-0 +59853-4 0  9996
2 38284 082.5399 161.0830 0018977 322.4177 037.5660 13.92188996454220
METEOR 2-17 DEB
1 38284U 88005AM  17030.06288179 +.00000092 +00000-0 +60494-4 0  9996
2 38284 082.5398 160.7354 0018966 321.0658 038.9139 13.92189071454280
METEOR 2-17 DEB
1 38284U 88005AM  17031.06906146 +.00000101 +00000-0 +66910-4 0  9998
2 38284 082.5397 159.9244 0019006 317.8695 042.1007 13.92189243454425
METEOR 2-17 DEB
1 38284U 88005AM  17035.02190828  .00000150  00000-0  10517-3 0  9995
2 38284  82.5395 156.7392 0019212 305.3167  54.6201 13.92190514454974
METEOR 2-17 DEB
1 38284U 88005AM  17036.02808700 +.00000160 +00000-0 +11320-3 0  9995
2 38284 082.5396 155.9285 0019292 302.1795 057.7498 13.92190941455110
METEOR 2-17 DEB
1 38284U 88005AM  17037.03426531  .00000164  00000-0  11594-3 0  9992
2 38284  82.5396 155.1172 0019395 298.9303  60.9916 13.92191374455255
METEOR 2-17 DEB
1 38284U 88005AM  17041.99328700  .00000129  00000-0  88862-4 0  9995
2 38284  82.5395 151.1213 0019918 283.6676  76.2271 13.92192636455943
METEOR 2-17 DEB
1 38284U 88005AM  17057.51714825  .00000251  00000-0  18429-3 0  9994
2 38284  82.5390 138.6114 0022323 238.1369 121.7623 13.92200174458101
METEOR 2-17 DEB
1 38284U 88005AM  17082.38388168 +.00000217 +00000-0 +15690-3 0  9993
2 38284 082.5361 118.5668 0024851 172.4996 187.6545 13.92215773461563
METEOR 2-17 DEB
1 38284U 88005AM  17087.77402385 +.00000295 +00000-0 +21770-3 0  9991
2 38284 082.5356 114.2214 0025248 158.0094 202.2160 13.92224113462316
METEOR 2-17 DEB
1 38284U 88005AM  17094.74522849 +.00000493 +00000-0 +37170-3 0  9995
2 38284 082.5367 108.6090 0025424 140.3231 219.9800 13.92234639463287
METEOR 2-17 DEB
1 38284U 88005AM  17095.75137835 +.00000660 +00000-0 +50213-3 0  9993
2 38284 082.5358 107.7970 0025531 137.4591 222.8558 13.92236987463426
METEOR 2-17 DEB
1 38284U 88005AM  17096.32632014 +.00000669 +00000-0 +50869-3 0  9992
2 38284 082.5353 107.3328 0025628 136.0899 224.2308 13.92237777463503
METEOR 2-17 DEB
1 38284U 88005AM  17097.33246855 +.00000629 +00000-0 +47753-3 0  9992
2 38284 082.5361 106.5215 0025603 133.1740 227.1570 13.92238808463648
METEOR 2-17 DEB
1 38284U 88005AM  17099.34476190 +.00000612 +00000-0 +46443-3 0  9999
2 38284 082.5365 104.8993 0025677 127.6214 232.7287 13.92241230463922
METEOR 2-17 DEB
1 38284U 88005AM  17101.28518383 +.00000578 +00000-0 +43782-3 0  9991
2 38284 082.5365 103.3341 0025854 122.4057 237.9614 13.92243441464195
METEOR 2-17 DEB
1 38284U 88005AM  17103.29746968 +.00000551 +00000-0 +41672-3 0  9993
2 38284 082.5364 101.7117 0025985 116.9735 243.4087 13.92245643464476
METEOR 2-17 DEB
1 38284U 88005AM  17109.26243884 +.00000602 +00000-0 +45673-3 0  9997
2 38284 082.5366 096.9018 0026414 100.8692 259.5447 13.92252408465303
METEOR 2-17 DEB
1 38284U 88005AM  17110.26857480 +.00000627 +00000-0 +47589-3 0  9997
2 38284 082.5366 096.0905 0026562 098.1556 262.2623 13.92253742465445
METEOR 2-17 DEB
1 38284U 88005AM  17110.26857480 +.00000627 +00000-0 +47589-3 0  9997
2 38284 082.5366 096.0905 0026562 098.1556 262.2623 13.92253742465445
METEOR 2-17 DEB
1 38284U 88005AM  17110.26857480  .00000627  00000-0  47589-3 0  9997
2 38284  82.5366  96.0905 0026562  98.1556 262.2623 13.92253742464242
METEOR 2-17 DEB
1 38284U 88005AM  17110.26857480 +.00000627 +00000-0 +47589-3 0  9997
2 38284 082.5366 096.0905 0026562 098.1556 262.2623 13.92253742464242
METEOR 2-17 DEB
1 38284U 88005AM  17110.26857480 +.00000627 +00000-0 +47589-3 0  9997
2 38284 082.5366 096.0905 0026562 098.1556 262.2623 13.92253742464242
METEOR 2-17 DEB
1 38284U 88005AM  17110.26857480 +.00000627 +00000-0 +47589-3 0  9997
2 38284 082.5366 096.0905 0026562 098.1556 262.2623 13.92253742464242
METEOR 2-17 DEB
1 38284U 88005AM  17110.26857480 +.00000627 +00000-0 +47589-3 0  9997
2 38284 082.5366 096.0905 0026562 098.1556 262.2623 13.92253742464242
METEOR 2-17 DEB
1 38284U 88005AM  17110.26857480 +.00000627 +00000-0 +47589-3 0  9997
2 38284 082.5366 096.0905 0026562 098.1556 262.2623 13.92253742464242
METEOR 2-17 DEB
1 38284U 88005AM  17110.26857480 +.00000627 +00000-0 +47589-3 0  9997
2 38284 082.5366 096.0905 0026562 098.1556 262.2623 13.92253742464242
METEOR 2-17 DEB
1 38284U 88005AM  17110.26857480 +.00000627 +00000-0 +47589-3 0  9997
2 38284 082.5366 096.0905 0026562 098.1556 262.2623 13.92253742464242
METEOR 2-17 DEB
1 38284U 88005AM  17110.26857480 +.00000627 +00000-0 +47589-3 0  9997
2 38284 082.5366 096.0905 0026562 098.1556 262.2623 13.92253742464242
METEOR 2-17 DEB
1 38284U 88005AM  17110.26857480 +.00000627 +00000-0 +47589-3 0  9997
2 38284 082.5366 096.0905 0026562 098.1556 262.2623 13.92253742464242
METEOR 2-17 DEB
1 38284U 88005AM  17110.26857480 +.00000627 +00000-0 +47589-3 0  9997
2 38284 082.5366 096.0905 0026562 098.1556 262.2623 13.92253742464242
METEOR 2-17 DEB
1 38284U 88005AM  17110.26857480  .00000627  00000-0  47589-3 0  9997
2 38284  82.5366  96.0905 0026562  98.1556 262.2623 13.92253742464242
METEOR 2-17 DEB
1 38284U 88005AM  17110.26858470  .00000563  00000-0  43832-3 0  9993
2 38284  82.5422  96.0910 0025345  96.9619 263.4927 13.92253311605244
METEOR 2-17 DEB
1 38284U 88005AM  18201.96948369 +.00000575 +00000-0 +43225-3 0  9998
2 38284 082.5538 088.3945 0025102 236.9517 122.9698 13.92768394000018
METEOR 2-17 DEB
1 38284U 88005AM  18201.96948369  .00000575  00000-0  43225-3 0  9998
2 38284  82.5538  88.3945 0025102 236.9517 122.9698 13.92768394528350
METEOR 2-17 DEB
1 38284U 88005AM  18201.96948369 +.00000575 +00000-0 +43225-3 0  9998
2 38284 082.5538 088.3945 0025102 236.9517 122.9698 13.92768394528350
METEOR 2-17 DEB
1 38284U 88005AM  24156.26543218  .00003568  00000-0  24635-2 0  9999
2 38284  82.5280 150.6209 0024314 128.4108 231.9248 13.98778664489619
METEOR 2-17 DEB
1 38284U 88005AM  24156.26543218  .00003568  00000-0  24635-2 0  9999
2 38284  82.5280 150.6209 0024314 128.4108 231.9248 13.98778664826300
METEOR 2-17 DEB
1 38284U 88005AM  24156.26543218  .00003568  00000-0  24635-2 0  9999
2 38284  82.5280 150.6209 0024314 128.4108 231.9248 13.98778664826300
METEOR 2-17 DEB
1 38284U 88005AM  26018.26327223  .00004110  00000-0  25676-2 0  9994
2 38284  82.5304  24.2368 0021167 229.7795 130.1525 14.04397324572695
METEOR 2-17 DEB
1 38284U 88005AM  26044.19527575  .00003855  00000-0  24003-2 0  9995
2 38284  82.5408   2.9145 0020353 152.3488 207.8771 14.04583675576338
METEOR 2-17 DEB
1 38284U 88005AM  26044.19527576  .00003855  00000-0  24003-2 0  9996
2 38284  82.5408   2.9145 0020353 152.3488 207.8771 14.04583675576338
METEOR 2-17 DEB
1 38284U 88005AM  26083.94465742  .00001400  00000-0  86328-3 0  9991
2 38284  82.5317 330.1552 0024699  36.7998 323.4863 14.04666942581919
METEOR 2-17 DEB
1 38284U 88005AM  26083.94465742  .00001400  00000-0  86328-3 0  9991
2 38284  82.5317 330.1552 0024699  36.7998 323.4863 14.04666942581919
METEOR 2-17 DEB
1 38284U 88005AM  26083.94465745  .00003002  00000-0  18624-2 0  9997
2 38284  82.5344 330.1601 0024566  35.6251 324.6554 14.04675070581919
METEOR 2-17 DEB
1 38284U 88005AM  26123.19151620  .00001595  00000-0  98403-3 0  9992
2 38284  82.5292 297.8167 0021218 284.3800  75.5017 14.04797923587421
METEOR 2-17 DEB
1 38284U 88005AM  26123.19151621  .00001595  00000-0  98403-3 0  9993
2 38284  82.5292 297.8167 0021218 284.3800  75.5017 14.04797923587421
METEOR 2-17 DEB
1 38284U 88005AM  26130.74124499  .00001520  00000-0  93612-3 0  9990
2 38284  82.5284 291.5853 0021857 262.2753  97.5937 14.04842920588486
METEOR 2-17 DEB
1 38284U 88005AM  26130.74124499  .00001520  00000-0  93612-3 0  9990
2 38284  82.5284 291.5853 0021857 262.2753  97.5937 14.04842920588486
METEOR 2-17 DEB
1 38284U 88005AM  26155.02765443  .00002317  00000-0  14283-2 0  9999
2 38284  82.5331 271.5770 0025520 190.3840 169.6808 14.04942319591894
METEOR 2-17 DEB
1 38284U 88005AM  26155.02765444  .00002317  00000-0  14283-2 0  9990
2 38284  82.5331 271.5770 0025520 190.3840 169.6808 14.04942319591894
METEOR 2-17 DEB
1 38284U 88005AM  26155.02765444  .00002317  00000-0  14283-2 0  9990
2 38284  82.5331 271.5770 0025520 190.3840 169.6808 14.04942319591894
METEOR 2-17 DEB
1 38284U 88005AM  26167.56195738  .00001499  00000-0  92075-3 0  9991
2 38284  82.5446 261.2622 0021123 153.4630 206.7628 14.04979501593657
METEOR 2-17 DEB
1 38284U 88005AM  26193.84018003  .00000981  00000-0  59776-3 0  9996
2 38284  82.5328 239.5898 0024575  79.5293 280.8646 14.05051467597342
METEOR 2-17 DEB
1 38284U 88005AM  26193.84018004  .00000981  00000-0  59776-3 0  9997
2 38284  82.5328 239.5898 0024575  79.5293 280.8646 14.05051467597342
METEOR 2-17 DEB
1 38284U 88005AM  26201.38871314  .00000860  00000-0  52313-3 0  9993
2 38284  82.5282 233.3588 0024421  59.6131 300.7451 14.05058265598406
METEOR 2-17 DEB
1 38284U 88005AM  26201.81598588  .00000957  00000-0  58302-3 0  9991
2 38284  82.5268 233.0046 0024438  58.7782 301.5780 14.05059543598466
METEOR 2-17 DEB
1 38284U 88005AM  26201.81598588  .00000957  00000-0  58302-3 0  9991
2 38284  82.5268 233.0046 0024438  58.7782 301.5780 14.05059543598466
METEOR 2-17 DEB
1 38284U 88005AM  26204.80688259  .00001536  00000-0  94183-3 0  9999
2 38284  82.5282 230.5407 0024110  50.1047 310.2240 14.05070557598884
METEOR 2-17 DEB
1 38284U 88005AM  26204.80688260  .00001536  00000-0  94183-3 0  9991
2 38284  82.5282 230.5407 0024110  50.1047 310.2240 14.05070557598884
METEOR 2-17 DEB
1 38284U 88005AM  26213.77942003  .00002054  00000-0  12618-2 0  9993
2 38284  82.5270 223.1406 0023131  25.3149 334.9151 14.05107051600144
METEOR 2-17 DEB
1 38284U 88005AM  26217.26867709  .00001695  00000-0  10392-2 0  9997
2 38284  82.5288 220.2674 0023165  15.4978 344.6898 14.05119250600639
METEOR 2-17 DEB
1 38284U 88005AM  26222.25327984  .00001316  00000-0  80494-3 0  9999
2 38284  82.5254 216.1526 0022776   2.9384 357.1917 14.05134474601335
METEOR 2-17 DEB
1 38284U 88005AM  26222.25327984  .00001316  00000-0  80494-3 0  9999
2 38284  82.5254 216.1526 0022776   2.9384 357.1917 14.05134474601335
METEOR 2-17 DEB
1 38284U 88005AM  26223.25019483  .00001305  00000-0  79803-3 0  9992
2 38284  82.5299 215.3353 0022683 359.4427   0.6715 14.05137263601478
METEOR 2-17 DEB
1 38284U 88005AM  26223.25019483  .00001305  00000-0  79803-3 0  9992
2 38284  82.5299 215.3353 0022683 359.4427   0.6715 14.05137263601478
METEOR 2-17 DEB
1 38284U 88005AM  26225.24401981  .00001226  00000-0  74918-3 0  9995
2 38284  82.5299 213.6911 0022524 353.9885   6.1013 14.05141960601752
METEOR 2-17 DEB
1 38284U 88005AM  26225.24401982  .00001226  00000-0  74918-3 0  9996
2 38284  82.5299 213.6911 0022524 353.9885   6.1013 14.05141960601752
METEOR 2-17 DEB
1 38284U 88005AM  26226.66817622  .00001231  00000-0  75205-3 0  9991
2 38284  82.5286 212.5163 0022282 350.8469   9.2293 14.05145680601959
METEOR 2-17 DEB
1 38284U 88005AM  26226.66817622  .00001231  00000-0  75205-3 0  9991
2 38284  82.5286 212.5163 0022282 350.8469   9.2293 14.05145680601959
