TBA - TO BE ASSIGNED
1 39723U 92093KP  14053.74364550  .00002125  00000-0  11063-2 0  9997
2 39723 071.0960 194.8566 0062052 289.9125 069.5712 14.14734841449216
SL-16 DEB
1 39723U 92093KP  14053.74364550  .00002125  00000-0  11063-2 0  9997
2 39723 071.0960 194.8566 0062052 289.9125 069.5712 14.14734841449216
SL-16 DEB
1 39723U 92093KP  14053.74364550  .00002125  00000-0  11063-2 0  9997
2 39723 071.0960 194.8566 0062052 289.9125 069.5712 14.14734841449216
SL-16 DEB
1 39723U 92093KP  14277.87454910  .00002212  00000-0  11250-2 0  9994
2 39723 071.0922 086.3150 0068153 309.7058 058.4444 14.15739879480909
SL-16 DEB
1 39723U 92093KP  14282.81870652  .00053528  00000-0  26729-1 0  9991
2 39723 071.1299 076.0822 0047696 287.4438 069.4789 14.15857620481610
SL-16 DEB
1 39723U 92093KP  14362.08908553  .00003043  00000-0  15324-2 0  9998
2 39723 071.0914 270.1413 0063608 181.8905 178.1989 14.16098270492838
SL-16 DEB
1 39723U 92093KP  14362.08909751  .00003184  00000-0  15794-2 0  9996
2 39723 071.1041 270.1270 0062280 181.3385 178.8051 14.16099967726913
SL-16 DEB
1 39723U 92093KP  15012.27578499  .00002413  00000-0  12205-2 0  9999
2 39723 071.0961 238.3444 0060332 156.8219 202.5809 14.16165437494982
SL-16 DEB
1 39723U 92093KP  15012.27597803  .00002404  00000-0  12164-2 0  9993
2 39723 071.0961 238.3440 0060332 156.8216 203.5666 14.16165251494981
SL-16 DEB
1 39723U 92093KP  15015.24264499  .00002316  00000-0  11716-2 0  9999
2 39723 071.0874 232.1399 0061564 144.1508 216.2690 14.16175407495401
SL-16 DEB
1 39723U 92093KP  15021.88214817  .00001876  00000-0  95261-3 0  9993
2 39723 071.0990 218.2341 0062129 141.5255 218.5656 14.16194126496340
SL-16 DEB
1 39723U 92093KP  15037.06783477  .00002949  00000-0  14845-2 0  9993
2 39723 071.0971 186.4342 0059498 117.3464 242.1015 14.16268958498499
SL-16 DEB
1 39723U 92093KP  15042.71835633  .00002964  00000-0  14632-2 0  9994
2 39723 071.0806 174.6288 0063897 119.5151 241.2848 14.16302567733377
SL-16 DEB
1 39723U 92093KP  15062.84641567  .00002069  00000-0  10458-2 0  9999
2 39723 071.0967 132.4632 0060411 074.2116 285.0623 14.16385146502136
SL-16 DEB
1 39723U 92093KP  15119.05820487  .00002150  00000-0  10810-2 0  9998
2 39723 071.0967 014.7442 0060295 347.6656 013.3744 14.16633281510099
SL-16 DEB
1 39723U 92093KP  15124.00072524  .00002623  00000-0  13125-2 0  9997
2 39723 071.0770 004.2944 0059808 342.8144 017.6136 14.16685251510792
SL-16 DEB
1 39723U 92093KP  15270.07110624  .00000890  00000-0  45788-3 0  9995
2 39723  71.1022  58.1572 0059107 116.6714 243.9863 14.17014957531480
SL-16 DEB
1 39723U 92093KP  15277.97741726  .00000766  00000-0  39714-3 0  9998
2 39723  71.0994  41.5900 0058589 103.6715 257.0470 14.17027338532600
SL-16 DEB
1 39723U 92093KP  15278.00015252  .00000909  00000-0  46712-3 0  9996
2 39723  71.0997  41.5400 0058587 103.9595  12.7086 14.17028218532602
SL-16 DEB
1 39723U 92093KP  15332.54261599  .00001173  00000-0  59458-3 0  9998
2 39723  71.0918 287.1885 0059403  16.8832 346.6816 14.17163319540324
SL-16 DEB
1 39723U 92093KP  16016.80793916  .00001321  00000-0  66503-3 0  9994
2 39723  71.0918 183.8691 0059345 300.9722  61.2118 14.17306035547305
SL-16 DEB
1 39723U 92093KP  16030.99332870  .00001046  00000-0  53041-3 0  9995
2 39723  71.0936 154.1201 0062379 281.4498  77.0453 14.17323491549312
SL-16 DEB
1 39723U 92093KP  16039.60382483  .00000919  00000-0  46827-3 0  9999
2 39723  71.0992 136.0535 0063285 267.6036  91.7213 14.17338756550537
SL-16 DEB
1 39723U 92093KP  16039.61707354  .00001210  00000-0  60906-3 0  9997
2 39723  71.0988 136.0150 0064334 268.4706 158.4249 14.17339754550533
SL-16 DEB
1 39723U 92093KP  16039.61707354 +.00001210 +00000-0 +60906-3 0  9997
2 39723 071.0988 136.0150 0064334 268.4706 158.4249 14.17339754550533
SL-16 DEB
1 39723U 92093KP  16113.98629191  .00001063  00000-0  53616-3 0  9998
2 39723  71.0936 340.0191 0062859 154.2065 203.2810 14.17504850561062
SL-16 DEB
1 39723U 92093KP  16113.98629191 +.00001063 +00000-0 +53616-3 0  9998
2 39723 071.0936 340.0191 0062859 154.2065 203.2810 14.17504850061056
SL-16 DEB
1 39723U 92093KP  16129.18185450  .00000973  00000-0  49314-3 0  9991
2 39723  71.0985 308.1043 0061466 131.4388 345.8000 14.17520658563223
SL-16 DEB
1 39723U 92093KP  16149.97600128  .00000870  00000-0  44331-3 0  9994
2 39723  71.0918 264.4764 0060694  99.2778 261.1946 14.17556371566165
SL-16 DEB
1 39723U 92093KP  16154.64648297  .00000288  00000-0  16214-3 0  9995
2 39723  71.0939 254.6640 0059905  92.4065 335.2507 14.17555750566839
SL-16 DEB
1 39723U 92093KP  16154.64648297 +.00000288 +00000-0 +16214-3 0  9995
2 39723 071.0939 254.6640 0059905 092.4065 335.2507 14.17555750566839
SL-16 DEB
1 39723U 92093KP  17014.71246149  .00000212  00000-0  12469-3 0  9994
2 39723  71.1083 140.1656 0056770 103.8049 311.8566 14.17851179598869
SL-16 DEB
1 39723U 92093KP  17029.58784445  .00000584  00000-0  30368-3 0  9991
2 39723  71.0919 108.9639 0058423  79.2350 281.5813 14.17860871600970
SL-16 DEB
1 39723U 92093KP  17139.92252277 +.00000590 +00000-0 +30627-3 0  9999
2 39723 071.0916 237.2765 0058225 270.3816 089.8334 14.18002989616618
SL-16 DEB
1 39723U 92093KP  17164.40056507 +.00000577 +00000-0 +29953-3 0  9993
2 39723 071.0910 185.8681 0057829 235.1433 124.2284 14.18031852620085
SL-16 DEB
1 39723U 92093KP  17164.40061147 -.00012277  00000-0  00000+0 0  9998
2 39723  71.1322 185.9208 0058547 237.0999 122.4947 14.17717849620087
SL-16 DEB
1 39723U 92093KP  17185.22333512 +.00000548 +00000-0 +28515-3 0  9991
2 39723 071.1107 142.1798 0059636 202.3964 224.0528 14.18052527623032
SL-16 DEB
1 39723U 92093KP  17191.51156399 +.00000509 +00000-0 +26629-3 0  9997
2 39723 071.1041 128.9626 0060297 191.0149 287.1649 14.18059915623925
SL-16 DEB
1 39723U 92093KP  17273.45367647  .00000464  00000-0  24456-3 0  9997
2 39723  71.0801 316.7967 0059587  63.8478 295.0020 14.18140047635543
SL-16 DEB
1 39723U 92093KP  17316.40979895  .00000720  00000-0  36684-3 0  9995
2 39723  71.0945 226.5976 0058121 350.6115  11.3197 14.18208240641639
SL-16 DEB
1 39723U 92093KP  17320.07712988  .00000442  00000-0  23365-3 0  9994
2 39723  71.0980 218.8884 0061462 348.0011  11.9645 14.18211044642156
SL-16 DEB
1 39723U 92093KP  17321.06458472 +.00000439 +00000-0 +23213-3 0  9997
2 39723 071.0979 216.8137 0061520 346.5758 013.3727 14.18211729642303
SL-16 DEB
1 39723U 92093KP  17322.05203867 +.00000550 +00000-0 +28492-3 0  9991
2 39723 071.0980 214.7423 0061550 344.9399 014.9891 14.18212995642446
SL-16 DEB
1 39723U 92093KP  17324.02694394  .00000689  00000-0  35132-3 0  9991
2 39723  71.0980 210.5965 0061486 341.9236  17.9702 14.18215654642715
SL-16 DEB
1 39723U 92093KP  17337.92168204  .00000376  00000-0  20203-3 0  9996
2 39723  71.0997 181.4198 0060895 320.9803  38.6936 14.18235796644683
SL-16 DEB
1 39723U 92093KP  17337.92168204 +.00000376 +00000-0 +20203-3 0  9996
2 39723 071.0997 181.4198 0060895 320.9803 038.6936 14.18235796644694
SL-16 DEB
1 39723U 92093KP  17354.77855088  .00000347  00000-0  18771-3 0  9996
2 39723  71.1050 146.0297 0064277 295.9310  63.5200 14.18255609647064
SL-16 DEB
1 39723U 92093KP  17354.77858503  .00000596  00000-0  30714-3 0  9998
2 39723  71.0997 146.0223 0060888 294.9392  64.7364 14.18257383647071
SL-16 DEB
1 39723U 92093KP  18036.68030413  .00000471  00000-0  24652-3 0  9994
2 39723  71.0936  47.4724 0063606 225.6463 132.5035 14.18303138653712
SL-16 DEB
1 39723U 92093KP  18036.68058497 +.00000336 +00000-0 +18227-3 0  9997
2 39723 071.0992 047.4576 0063739 227.2545 132.3206 14.18301567653739
SL-16 DEB
1 39723U 92093KP  18036.68058497  .00000336  00000-0  18227-3 0  9997
2 39723  71.0992  47.4576 0063739 227.2545 132.3206 14.18301567653717
SL-16 DEB
1 39723U 92093KP  18104.10455712  .00000419  00000-0  22161-3 0  9995
2 39723  71.0915 265.8113 0061475 122.2458 239.6010 14.18363222663279
SL-16 DEB
1 39723U 92093KP  18138.80231618 +.00000443 +00000-0 +23321-3 0  9992
2 39723 071.0904 192.8971 0059700 068.1902 292.8692 14.18398835668199
SL-16 DEB
1 39723U 92093KP  18210.87511842  .00000407  00000-0  21649-3 0  9991
2 39723  71.0884  41.4173 0058776 317.2883  41.4140 14.18463285678411
SL-16 DEB
1 39723U 92093KP  18210.87511842 +.00000407 +00000-0 +21649-3 0  9991
2 39723 071.0884 041.4173 0058776 317.2883 041.4140 14.18463285078404
SL-16 DEB
1 39723U 92093KP  18219.12612237  .00000363  00000-0  19527-3 0  9991
2 39723  71.0884  24.0749 0058772 304.5533  54.9022 14.18466877679581
SL-16 DEB
1 39723U 92093KP  18219.12612237 +.00000363 +00000-0 +19527-3 0  9991
2 39723 071.0884 024.0749 0058772 304.5533 054.9022 14.18466877679581
SL-16 DEB
1 39723U 92093KP  18287.52905890  .00000460  00000-0  24065-3 0  9991
2 39723  71.0987 240.3153 0061269 200.6029 159.2625 14.18533170689285
SL-16 DEB
1 39723U 92093KP  18287.52922854 +.00000403 +00000-0 +21390-3 0  9995
2 39723 071.0927 240.3315 0060862 199.8767 160.8483 14.18529558089295
SL-16 DEB
1 39723U 92093KP  18287.52922854  .00000403  00000-0  21390-3 0  9995
2 39723  71.0927 240.3315 0060862 199.8767 160.8483 14.18529558689280
SL-16 DEB
1 39723U 92093KP  18303.39533585  .00000433  00000-0  22780-3 0  9995
2 39723  71.0906 206.9835 0060555 175.9269 184.3799 14.18546727691532
SL-16 DEB
1 39723U 92093KP  18318.83828657  .00000564  00000-0  29021-3 0  9997
2 39723  71.0978 174.5118 0058632 150.1637 210.2853 14.18564928693728
SL-16 DEB
1 39723U 92093KP  18318.83828657 +.00000564 +00000-0 +29021-3 0  9997
2 39723 071.0978 174.5118 0058632 150.1637 210.2853 14.18564928693740
SL-16 DEB
1 39723U 92093KP  18321.94095697  .00000390  00000-0  20732-3 0  9990
2 39723  71.0983 167.9911 0058460 145.1942 215.3030 14.18568013694164
SL-16 DEB
1 39723U 92093KP  18321.94095697  .00000390  00000-0  20732-3 0  9990
2 39723  71.0983 167.9911 0058460 145.1942 215.3030 14.18568013694164
SL-16 DEB
1 39723U 92093KP  18321.94095697 +.00000390 +00000-0 +20732-3 0  9990
2 39723 071.0983 167.9911 0058460 145.1942 215.3030 14.18568013694186
SL-16 DEB
1 39723U 92093KP  18321.94095697 +.00000390 +00000-0 +20732-3 0  9990
2 39723 071.0983 167.9911 0058460 145.1942 215.3030 14.18568013694164
SL-16 DEB
1 39723U 92093KP  18321.94095697 +.00000390 +00000-0 +20732-3 0  9990
2 39723 071.0983 167.9911 0058460 145.1942 215.3030 14.18568013694164
SL-16 DEB
1 39723U 92093KP  18321.94095697 +.00000390 +00000-0 +20732-3 0  9990
2 39723 071.0983 167.9911 0058460 145.1942 215.3030 14.18568013694164
SL-16 DEB
1 39723U 92093KP  18321.94095697 +.00000390 +00000-0 +20732-3 0  9990
2 39723 071.0983 167.9911 0058460 145.1942 215.3030 14.18568013694164
SL-16 DEB
1 39723U 92093KP  18321.94095697 +.00000390 +00000-0 +20732-3 0  9990
2 39723 071.0983 167.9911 0058460 145.1942 215.3030 14.18568013694164
SL-16 DEB
1 39723U 92093KP  18321.94095697 +.00000390 +00000-0 +20732-3 0  9990
2 39723 071.0983 167.9911 0058460 145.1942 215.3030 14.18568013694164
SL-16 DEB
1 39723U 92093KP  18321.94095697 +.00000390 +00000-0 +20732-3 0  9990
2 39723 071.0983 167.9911 0058460 145.1942 215.3030 14.18568013694164
SL-16 DEB
1 39723U 92093KP  18321.94095697 +.00000390 +00000-0 +20732-3 0  9990
2 39723 071.0983 167.9911 0058460 145.1942 215.3030 14.18568013694164
SL-16 DEB
1 39723U 92093KP  18321.94095697 +.00000390 +00000-0 +20732-3 0  9990
2 39723 071.0983 167.9911 0058460 145.1942 215.3030 14.18568013694164
SL-16 DEB
1 39723U 92093KP  18321.94095697 +.00000390 +00000-0 +20732-3 0  9990
2 39723 071.0983 167.9911 0058460 145.1942 215.3030 14.18568013694164
SL-16 DEB
1 39723U 92093KP  18321.94095697 +.00000390 +00000-0 +20732-3 0  9990
2 39723 071.0983 167.9911 0058460 145.1942 215.3030 14.18568013694164
SL-16 DEB
1 39723U 92093KP  18321.94095697 +.00000390 +00000-0 +20732-3 0  9990
2 39723 071.0983 167.9911 0058460 145.1942 215.3030 14.18568013694164
SL-16 DEB
1 39723U 92093KP  18321.94095697  .00000390  00000-0  20732-3 0  9990
2 39723  71.0983 167.9911 0058460 145.1942 215.3030 14.18568013694186
SL-16 DEB
1 39723U 92093KP  18321.94095697  .00000390  00000-0  20732-3 0  9990
2 39723  71.0983 167.9911 0058460 145.1942 215.3030 14.18568013694096
SL-16 DEB
1 39723U 92093KP  19083.15767203  .00000441  00000-0  23127-3 0  9996
2 39723  71.0900 262.6910 0058715 307.3082  54.2271 14.18687236712061
SL-16 DEB
1 39723U 92093KP  19083.15767203 +.00000441 +00000-0 +23127-3 0  9996
2 39723 071.0900 262.6910 0058715 307.3082 054.2271 14.18687236712061
SL-16 DEB
1 39723U 92093KP  21056.10849691 -.00001642  00000-0 -74254-3 0  9999
2 39723  71.0343 222.0047 0061340 305.9823  54.1009 14.19493195811897
SL-16 DEB
1 39723U 92093KP  21056.10849691 -.00001642  00000-0 -74254-3 0  9999
2 39723  71.0343 222.0047 0061340 305.9823  54.1009 14.19493195    11
SL-16 DEB
1 39723U 92093KP  21056.10849691 -.00001642  00000-0 -74254-3 0  9999
2 39723  71.0343 222.0047 0061340 305.9823  54.1009 14.19493195811897
SL-16 DEB
1 39723U 92093KP  21056.10849691 -.00001642  00000-0 -74254-3 0  9999
2 39723  71.0343 222.0047 0061340 305.9823  54.1009 14.19493195811897
SL-16 DEB
1 39723U 92093KP  21056.10849691 -.00001642  00000-0 -74254-3 0  9999
2 39723  71.0343 222.0047 0061340 305.9823  54.1009 14.19493195811897
SL-16 DEB
1 39723U 92093KP  21056.10849691 -.00001642  00000-0 -74254-3 0  9999
2 39723  71.0343 222.0047 0061340 305.9823  54.1009 14.19493195811897
SL-16 DEB
1 39723U 92093KP  26145.19801828  .00002350  00000-0  87863-3 0  9997
2 39723  71.0905 118.6891 0050383 192.7358 167.2506 14.32136480236635
SL-16 DEB
1 39723U 92093KP  26145.19801828  .00002350  00000-0  87863-3 0  9997
2 39723  71.0905 118.6891 0050383 192.7358 167.2506 14.32136481236636
SL-16 DEB
1 39723U 92093KP  26157.07181179  .00002898  00000-0  10778-2 0  9994
2 39723  71.0915  93.1626 0050070 173.2769 186.9047 14.32203568238331
SL-16 DEB
1 39723U 92093KP  26157.07181180  .00002898  00000-0  10778-2 0  9996
2 39723  71.0915  93.1626 0050070 173.2769 186.9047 14.32203568238331
SL-16 DEB
1 39723U 92093KP  26158.53853822  .00002861  00000-0  10644-2 0  9999
2 39723  71.0931  90.0094 0049764 172.0602 188.1330 14.32209481238547
SL-16 DEB
1 39723U 92093KP  26158.53853822  .00002861  00000-0  10644-2 0  9999
2 39723  71.0931  90.0094 0049764 172.0602 188.1330 14.32209481238547
SL-16 DEB
1 39723U 92093KP  26159.51635071  .00002521  00000-0  93984-3 0  9994
2 39723  71.0929  87.9065 0049739 170.4093 189.8002 14.32213391238689
SL-16 DEB
1 39723U 92093KP  26159.51635071  .00002521  00000-0  93984-3 0  9994
2 39723  71.0929  87.9065 0049739 170.4093 189.8002 14.32213391238689
SL-16 DEB
1 39723U 92093KP  26166.98953740  .00002084  00000-0  77966-3 0  9995
2 39723  71.0937  71.8395 0049589 157.8874 202.4413 14.32245291239756
SL-16 DEB
1 39723U 92093KP  26166.98953740  .00002084  00000-0  77966-3 0  9995
2 39723  71.0937  71.8395 0049589 157.8874 202.4413 14.32245291239756
SL-16 DEB
1 39723U 92093KP  26169.43400139  .00001875  00000-0  70312-3 0  9992
2 39723  71.0932  66.5831 0049597 153.8009 206.5649 14.32254421240104
SL-16 DEB
1 39723U 92093KP  26169.43400139  .00001875  00000-0  70312-3 0  9992
2 39723  71.0932  66.5831 0049597 153.8009 206.5649 14.32254421240104
SL-16 DEB
1 39723U 92093KP  26169.43400139  .00001875  00000-0  70312-3 0  9992
2 39723  71.0932  66.5831 0049597 153.8009 206.5649 14.32254421240104
SL-16 DEB
1 39723U 92093KP  26174.39272296  .00001870  00000-0  70125-3 0  9991
2 39723  71.0933  55.9202 0049567 145.6661 214.7692 14.32272857240819
SL-16 DEB
1 39723U 92093KP  26175.92921421  .00002424  00000-0  90325-3 0  9992
2 39723  71.0945  52.6174 0049601 143.1249 217.3312 14.32280853241036
SL-16 DEB
1 39723U 92093KP  26175.92921422  .00002424  00000-0  90325-3 0  9993
2 39723  71.0945  52.6174 0049601 143.1249 217.3312 14.32280853241036
SL-16 DEB
1 39723U 92093KP  26179.35136724  .00002358  00000-0  87897-3 0  9993
2 39723  71.0933  45.2581 0049604 137.5584 222.9401 14.32297975241523
SL-16 DEB
1 39723U 92093KP  26186.82408352  .00003102  00000-0  11493-2 0  9998
2 39723  71.0930  29.1871 0049649 125.5050 235.0729 14.32339821242590
SL-16 DEB
1 39723U 92093KP  26186.82408353  .00003102  00000-0  11493-2 0  9999
2 39723  71.0930  29.1871 0049649 125.5051 235.0729 14.32339822242592
SL-16 DEB
1 39723U 92093KP  26198.20741299  .00001255  00000-0  47557-3 0  9991
2 39723  71.0944   4.7067 0049410 107.3245 253.3301 14.32375650244222
SL-16 DEB
1 39723U 92093KP  26198.20741299  .00001255  00000-0  47557-3 0  9991
2 39723  71.0944   4.7067 0049410 107.3245 253.3301 14.32375650244222
SL-16 DEB
1 39723U 92093KP  26200.16280589  .00001191  00000-0  45225-3 0  9999
2 39723  71.0947   0.5012 0049386 104.2213 256.4412 14.32380098244502
SL-16 DEB
1 39723U 92093KP  26211.61559668  .00002558  00000-0  94963-3 0  9999
2 39723  71.0935 335.8697 0049195  85.6803 274.9949 14.32434158246146
SL-16 DEB
1 39723U 92093KP  26214.05973334  .00002084  00000-0  77693-3 0  9995
2 39723  71.0946 330.6139 0048650  81.6859 278.9786 14.32442069246495
SL-16 DEB
1 39723U 92093KP  26214.05973335  .00002084  00000-0  77693-3 0  9996
2 39723  71.0946 330.6139 0048650  81.6859 278.9786 14.32442069246495
SL-16 DEB
1 39723U 92093KP  26216.57368417  .00001775  00000-0  66456-3 0  9995
2 39723  71.0953 325.2082 0048438  77.4219 283.2325 14.32451428246854
SL-16 DEB
1 39723U 92093KP  26219.99542897  .00000902  00000-0  34636-3 0  9996
2 39723  71.0950 317.8484 0048335  71.7775 288.8610 14.32459102247344
SL-16 DEB
1 39723U 92093KP  26219.99542897  .00000902  00000-0  34636-3 0  9996
2 39723  71.0950 317.8484 0048335  71.7775 288.8610 14.32459102247344
SL-16 DEB
1 39723U 92093KP  26226.48971198  .00000908  00000-0  34870-3 0  9994
2 39723  71.0933 303.8804 0047946  60.9245 299.6677 14.32471959248275
SL-16 DEB
1 39723U 92093KP  26226.48971199  .00000908  00000-0  34870-3 0  9995
2 39723  71.0933 303.8804 0047946  60.9245 299.6677 14.32471959248275
