TBA - TO BE ASSIGNED
1 49050U 92093LX  25308.86038299  .00018527  00000-0  93648-2 0  9999
2 49050  71.0201 266.2909 0002699 144.5745 215.5559 14.16146335  1345
TBA - TO BE ASSIGNED
1 49050U 92093LX  25309.14292348  .00019081  00000-0  96413-2 0  9997
2 49050  71.0200 265.6968 0002665 143.4524 216.6781 14.16156643  1384
TBA - TO BE ASSIGNED
1 49050U 92093LX  25309.28419224  .00022429  00000-0  11321-1 0  9990
2 49050  71.0191 265.3993 0002719 141.2805 218.8514 14.16166084  1407
SL-16 R/B DEB
1 49050U 92093LX  25310.13179191  .00025023  00000-0  12614-1 0  9991
2 49050  71.0192 263.6175 0002761 138.6043 221.5290 14.16207829  1520
SL-16 R/B DEB
1 49050U 92093LX  25310.83809852  .00027387  00000-0  13785-1 0  9997
2 49050  71.0194 262.1324 0002867 138.9465 221.1874 14.16258925  1628
SL-16 R/B DEB
1 49050U 92093LX  25312.25064950  .00027231  00000-0  13685-1 0  9994
2 49050  71.0188 259.1613 0002906 135.1907 224.9451 14.16343059  1829
SL-16 R/B DEB
1 49050U 92093LX  25314.22809141  .00026700  00000-0  13394-1 0  9999
2 49050  71.0192 255.0050 0003020 125.2844 234.8562 14.16445322  2103
SL-16 R/B DEB
1 49050U 92093LX  25315.21676065  .00029102  00000-0  14577-1 0  9999
2 49050  71.0196 252.9255 0003252 118.3566 241.7886 14.16499004  2248
SL-16 R/B DEB
1 49050U 92093LX  25315.56984639  .00028909  00000-0  14476-1 0  9998
2 49050  71.0201 252.1839 0003182 121.1381 239.0055 14.16519501  2292
SL-16 R/B DEB
1 49050U 92093LX  25316.48783505  .00064079  00000-0  31839-1 0  9999
2 49050  71.0195 250.2533 0003199 119.9905 240.1536 14.16620451  2428
SL-16 R/B DEB
1 49050U 92093LX  25317.47635072  .00045873  00000-0  22806-1 0  9999
2 49050  71.0194 248.1739 0003291 116.3358 243.8104 14.16739729  2562
SL-16 R/B DEB
1 49050U 92093LX  25318.18239656  .00025488  00000-0  12708-1 0  9996
2 49050  71.0171 246.6888 0003414 111.6594 248.4893 14.16781826  2664
SL-16 R/B DEB
1 49050U 92093LX  25320.15923504  .00022132  00000-0  11025-1 0  9992
2 49050  71.0186 242.5270 0003583 112.5400 247.6103 14.16869595  2949
SL-16 R/B DEB
1 49050U 92093LX  25321.14760516  .00024448  00000-0  12160-1 0  9997
2 49050  71.0187 240.4471 0003634 111.2331 248.9181 14.16921767  3082
SL-16 R/B DEB
1 49050U 92093LX  25322.77129071  .00016008  00000-0  79710-2 0  9990
2 49050  71.0188 237.0297 0003850 107.1439 253.0107 14.16983194  3317
SL-16 R/B DEB
1 49050U 92093LX  25323.12425701  .00014316  00000-0  71316-2 0  9993
2 49050  71.0184 236.2876 0003547 109.8093 250.3414 14.16990618  3360
SL-16 R/B DEB
1 49050U 92093LX  25325.17141040  .00017450  00000-0  86721-2 0  9999
2 49050  71.0188 231.9778 0003870 102.6844 257.4712 14.17059754  3650
SL-16 R/B DEB
1 49050U 92093LX  25326.15965637  .00015679  00000-0  77913-2 0  9998
2 49050  71.0186 229.8975 0004132  99.8589 260.3002 14.17093233  3798
SL-16 R/B DEB
1 49050U 92093LX  25328.13608032  .00015625  00000-0  77558-2 0  9997
2 49050  71.0187 225.7367 0004339  95.6100 264.5519 14.17155660  4075
SL-16 R/B DEB
1 49050U 92093LX  25328.77134038  .00018323  00000-0  90834-2 0  9997
2 49050  71.0187 224.3991 0004389  94.3369 265.8256 14.17179760  4160
SL-16 R/B DEB
1 49050U 92093LX  25329.12425729  .00019348  00000-0  95861-2 0  9990
2 49050  71.0178 223.6552 0004425  95.0295 265.1335 14.17194513  4212
SL-16 R/B DEB
1 49050U 92093LX  25329.75950013  .00018267  00000-0  90493-2 0  9993
2 49050  71.0180 222.3177 0004494  93.5530 266.6108 14.17217380  4307
SL-16 R/B DEB
1 49050U 92093LX  25330.74763467  .00017524  00000-0  86769-2 0  9995
2 49050  71.0180 220.2373 0004519  91.4161 268.7481 14.17253057  4440
SL-16 R/B DEB
1 49050U 92093LX  25331.73574572  .00016087  00000-0  79644-2 0  9999
2 49050  71.0185 218.1565 0004523  89.6825 270.4817 14.17285163  4586
SL-16 R/B DEB
1 49050U 92093LX  25332.08863682  .00017278  00000-0  85486-2 0  9995
2 49050  71.0183 217.4132 0004640  88.7681 271.3974 14.17298801  4639
SL-16 R/B DEB
1 49050U 92093LX  25332.72383270  .00015721  00000-0  77787-2 0  9992
2 49050  71.0181 216.0753 0004670  87.2868 272.8790 14.17319308  4723
SL-16 R/B DEB
1 49050U 92093LX  25334.41763762  .00017882  00000-0  88317-2 0  9999
2 49050  71.0195 212.5082 0004821  83.9146 276.2528 14.17383483  4962
SL-16 R/B DEB
1 49050U 92093LX  25334.91164916  .00017280  00000-0  85330-2 0  9994
2 49050  71.0187 211.4677 0004696  82.9648 277.2010 14.17401848  5039
SL-16 R/B DEB
1 49050U 92093LX  25335.05279424  .00017311  00000-0  85469-2 0  9999
2 49050  71.0189 211.1704 0004758  82.5046 277.6618 14.17407804  5054
SL-16 R/B DEB
1 49050U 92093LX  25335.40565390  .00019957  00000-0  98431-2 0  9999
2 49050  71.0194 210.4271 0004769  81.8062 278.3603 14.17424636  5103
SL-16 R/B DEB
1 49050U 92093LX  25336.04079368  .00018624  00000-0  91848-2 0  9990
2 49050  71.0202 209.0892 0004773  80.6693 279.4970 14.17447561  5198
SL-16 R/B DEB
1 49050U 92093LX  25336.39364381  .00019515  00000-0  96194-2 0  9999
2 49050  71.0205 208.3460 0004790  79.8733 280.2931 14.17462508  5249
SL-16 R/B DEB
1 49050U 92093LX  25337.31103674  .00021379  00000-0  10525-1 0  9992
2 49050  71.0205 206.4135 0004824  78.0481 282.1184 14.17503401  5379
SL-16 R/B DEB
1 49050U 92093LX  25339.00458077  .00036605  00000-0  17921-1 0  9995
2 49050  71.0194 202.8455 0004806  74.3868 285.7786 14.17635854  5611
SL-16 R/B DEB
1 49050U 92093LX  25339.71018377  .00029267  00000-0  14337-1 0  9992
2 49050  71.0194 201.3579 0004718  74.2140 285.9504 14.17673581  5716
SL-16 R/B DEB
1 49050U 92093LX  25340.27465086  .00031500  00000-0  15414-1 0  9998
2 49050  71.0193 200.1687 0004850  72.7577 287.4078 14.17709358  5799
SL-16 R/B DEB
1 49050U 92093LX  25340.69799282  .00029321  00000-0  14348-1 0  9995
2 49050  71.0186 199.2772 0004942  71.4891 288.6770 14.17732612  5859
SL-16 R/B DEB
1 49050U 92093LX  25341.26243856  .00026448  00000-0  12943-1 0  9996
2 49050  71.0188 198.0874 0005009  70.4388 289.7277 14.17760099  5939
SL-16 R/B DEB
1 49050U 92093LX  25341.89742603  .00023518  00000-0  11510-1 0  9993
2 49050  71.0188 196.7492 0005171  68.9662 291.2015 14.17790595  6020
SL-16 R/B DEB
1 49050U 92093LX  25342.03853271  .00022946  00000-0  11229-1 0  9995
2 49050  71.0188 196.4518 0005152  68.4374 291.7299 14.17796681  6043
SL-16 R/B DEB
1 49050U 92093LX  25342.95571066  .00021036  00000-0  10292-1 0  9993
2 49050  71.0191 194.5188 0005250  66.6036 293.5640 14.17834845  6172
SL-16 R/B DEB
1 49050U 92093LX  25343.02626180  .00021172  00000-0  10358-1 0  9994
2 49050  71.0190 194.3701 0005289  66.5871 293.5809 14.17838105  6189
SL-16 R/B DEB
1 49050U 92093LX  25343.30846466  .00024306  00000-0  11879-1 0  9997
2 49050  71.0190 193.7754 0005305  66.4322 293.7359 14.17852483  6221
SL-16 R/B DEB
1 49050U 92093LX  25344.01395916  .00025877  00000-0  12634-1 0  9999
2 49050  71.0191 192.2883 0005386  64.7185 295.4497 14.17888247  6326
SL-16 R/B DEB
1 49050U 92093LX  25345.56597398  .00026218  00000-0  12776-1 0  9995
2 49050  71.0193 189.0166 0005509  62.3679 297.8004 14.17984882  6541
SL-16 R/B DEB
1 49050U 92093LX  25345.98923098  .00026786  00000-0  13044-1 0  9990
2 49050  71.0190 188.1241 0005524  60.9668 299.2009 14.18013923  6609
SL-16 R/B DEB
1 49050U 92093LX  25346.83572206  .00027303  00000-0  13281-1 0  9995
2 49050  71.0188 186.3398 0005667  59.9718 300.1968 14.18064793  6721
SL-16 R/B DEB
1 49050U 92093LX  25347.61164470  .00022189  00000-0  10797-1 0  9998
2 49050  71.0188 184.7035 0005752  58.6230 301.5457 14.18110097  6830
SL-16 R/B DEB
1 49050U 92093LX  25347.96432996  .00021400  00000-0  10412-1 0  9996
2 49050  71.0190 183.9599 0005835  58.2068 301.9623 14.18126739  6880
SL-16 R/B DEB
1 49050U 92093LX  25348.95183168  .00014746  00000-0  71839-2 0  9996
2 49050  71.0188 181.8774 0005949  56.2641 303.9050 14.18158985  7021
SL-16 R/B DEB
1 49050U 92093LX  25349.93931131  .00016456  00000-0  80072-2 0  9995
2 49050  71.0197 179.7958 0006040  54.4114 305.7573 14.18191557  7166
SL-16 R/B DEB
1 49050U 92093LX  25350.57410668  .00017281  00000-0  84027-2 0  9995
2 49050  71.0196 178.4567 0006007  53.6390 306.5288 14.18215745  7255
SL-16 R/B DEB
1 49050U 92093LX  25351.56154585  .00016787  00000-0  81581-2 0  9990
2 49050  71.0195 176.3743 0006053  51.5283 308.6383 14.18251308  7395
SL-16 R/B DEB
1 49050U 92093LX  25351.91419698  .00017595  00000-0  85465-2 0  9991
2 49050  71.0198 175.6309 0006082  50.6903 309.4760 14.18263783  7443
SL-16 R/B DEB
1 49050U 92093LX  25353.46582233  .00016519  00000-0  80180-2 0  9993
2 49050  71.0191 172.3575 0006177  46.8749 313.2891 14.18319111  7664
SL-16 R/B DEB
1 49050U 92093LX  25354.24161451  .00015300  00000-0  74260-2 0  9994
2 49050  71.0192 170.7208 0006250  43.9609 316.2011 14.18342727  7773
SL-16 R/B DEB
1 49050U 92093LX  25357.13306387  .00023073  00000-0  11149-1 0  9996
2 49050  71.0203 164.6212 0006354  34.0059 326.1472 14.18463551  8184
SL-16 R/B DEB
1 49050U 92093LX  25359.53064155  .00024151  00000-0  11641-1 0  9991
2 49050  71.0207 159.5615 0006359  28.3070 331.8399 14.18581266  8525
SL-16 R/B DEB
1 49050U 92093LX  25360.51782026  .00023808  00000-0  11466-1 0  9998
2 49050  71.0207 157.4771 0006284  23.5759 336.5653 14.18631531  8664
SL-16 R/B DEB
1 49050U 92093LX  25361.15241606  .00028496  00000-0  13700-1 0  9994
2 49050  71.0224 156.1391 0006398  18.7377 341.3982 14.18668832  8758
SL-16 R/B DEB
1 49050U 92093LX  25361.43445406  .00024364  00000-0  11721-1 0  9990
2 49050  71.0242 155.5416 0006569  18.4415 341.6946 14.18681964  8797
SL-16 R/B DEB
1 49050U 92093LX  25362.84459073  .00030450  00000-0  14606-1 0  9999
2 49050  71.0231 152.5670 0006765  14.7158 345.4163 14.18770615  8992
SL-16 R/B DEB
1 49050U 92093LX  25364.11362919  .00037015  00000-0  17700-1 0  9995
2 49050  71.0204 149.8866 0006944  11.3123 348.8157 14.18867960  9173
SL-16 R/B DEB
1 49050U 92093LX  25364.46612446  .00036059  00000-0  17237-1 0  9998
2 49050  71.0183 149.1430 0006942  10.1592 349.9671 14.18894745  9224
SL-16 R/B DEB
1 49050U 92093LX  25364.81861427  .00037018  00000-0  17684-1 0  9994
2 49050  71.0180 148.3986 0007027   8.8185 351.3062 14.18919431  9271
SL-16 R/B DEB
1 49050U 92093LX  25365.45307827  .00035919  00000-0  17147-1 0  9996
2 49050  71.0182 147.0588 0007095   6.7732 353.3487 14.18967502  9362
SL-16 R/B DEB
1 49050U 92093LX  26001.43998195  .00034468  00000-0  16436-1 0  9994
2 49050  71.0179 144.9745 0007301   3.7650 356.3528 14.19038067  9506
SL-16 R/B DEB
1 49050U 92093LX  26002.42683668  .00035483  00000-0  16895-1 0  9997
2 49050  71.0206 142.8914 0007367   2.5216 357.5944 14.19109093  9647
SL-16 R/B DEB
1 49050U 92093LX  26002.77927403  .00035733  00000-0  17005-1 0  9995
2 49050  71.0190 142.1457 0007558 359.3139   0.7975 14.19130839  9691
SL-16 R/B DEB
1 49050U 92093LX  26003.41364448  .00040883  00000-0  19420-1 0  9996
2 49050  71.0197 140.8063 0007654 357.4106   2.6978 14.19180787  9787
SL-16 R/B DEB
1 49050U 92093LX  26005.31665794  .00026348  00000-0  12527-1 0  9996
2 49050  71.0187 136.7848 0008215 352.2817   7.8180 14.19275481 10057
SL-16 R/B DEB
1 49050U 92093LX  26005.73953218  .00030590  00000-0  14524-1 0  9996
2 49050  71.0190 135.8913 0008353 350.8528   9.2443 14.19299705 10110
SL-16 R/B DEB
1 49050U 92093LX  26007.43097148  .00016099  00000-0  76606-2 0  9994
2 49050  71.0182 132.3169 0008682 346.7118  13.3777 14.19365715 10357
SL-16 R/B DEB
1 49050U 92093LX  26008.06524119  .00016286  00000-0  77455-2 0  9998
2 49050  71.0173 130.9753 0008844 343.4286  16.6549 14.19388611 10443
SL-16 R/B DEB
1 49050U 92093LX  26009.05186071  .00015514  00000-0  73746-2 0  9991
2 49050  71.0167 128.8894 0009104 339.9400  20.1366 14.19426947 10583
SL-16 R/B DEB
1 49050U 92093LX  26010.03845621  .00015046  00000-0  71484-2 0  9991
2 49050  71.0162 126.8042 0009357 337.8488  22.2232 14.19461732 10726
SL-16 R/B DEB
1 49050U 92093LX  26011.02503342  .00016723  00000-0  79365-2 0  9991
2 49050  71.0160 124.7193 0009459 337.1564  22.9139 14.19489479 10865
SL-16 R/B DEB
1 49050U 92093LX  26012.71625514  .00013749  00000-0  65255-2 0  9992
2 49050  71.0146 121.1444 0009660 333.9635  26.1003 14.19541534 11101
SL-16 R/B DEB
1 49050U 92093LX  26013.63231354  .00009516  00000-0  45245-2 0  9993
2 49050  71.0144 119.2076 0009856 331.8240  28.2351 14.19556987 11235
SL-16 R/B DEB
1 49050U 92093LX  26014.33696654  .00009187  00000-0  43682-2 0  9996
2 49050  71.0143 117.7179 0009853 331.2131  28.8449 14.19569821 11337
SL-16 R/B DEB
1 49050U 92093LX  26015.32347182  .00009501  00000-0  45152-2 0  9999
2 49050  71.0167 115.6324 0010211 328.6800  31.3716 14.19586123 11470
SL-16 R/B DEB
1 49050U 92093LX  26016.23950084  .00010363  00000-0  49205-2 0  9992
2 49050  71.0153 113.6951 0010286 327.4346  32.6144 14.19603631 11601
SL-16 R/B DEB
1 49050U 92093LX  26016.52135327  .00010712  00000-0  50846-2 0  9990
2 49050  71.0153 113.0994 0010250 327.2935  32.7554 14.19609946 11640
SL-16 R/B DEB
1 49050U 92093LX  26017.29643924  .00015390  00000-0  72867-2 0  9996
2 49050  71.0152 111.4605 0010313 326.4509  33.5962 14.19635029 11753
SL-16 R/B DEB
1 49050U 92093LX  26017.64874707  .00013892  00000-0  65797-2 0  9999
2 49050  71.0161 110.7159 0010553 325.0468  34.9963 14.19643361 11804
SL-16 R/B DEB
1 49050U 92093LX  26018.63519563  .00013136  00000-0  62203-2 0  9995
2 49050  71.0182 108.6312 0010573 324.0366  36.0046 14.19671213 11949
SL-16 R/B DEB
1 49050U 92093LX  26020.88980050  .00047909  00000-0  22438-1 0  9998
2 49050  71.0167 103.8622 0011200 320.4918  39.5390 14.19847339 12264
SL-16 R/B DEB
1 49050U 92093LX  26022.58053724  .00018401  00000-0  86493-2 0  9993
2 49050  71.0161 100.2856 0011614 318.8215  41.2033 14.19958734 12501
SL-16 R/B DEB
1 49050U 92093LX  26024.27119359  .00026328  00000-0  12333-1 0  9996
2 49050  71.0158  96.7075 0011955 317.3245  42.6951 14.20035310 12742
SL-16 R/B DEB
1 49050U 92093LX  26025.46868313  .00024550  00000-0  11493-1 0  9990
2 49050  71.0161  94.1740 0011824 316.3420  43.6769 14.20091255 12913
SL-16 R/B DEB
1 49050U 92093LX  26026.59568733  .00021339  00000-0  99870-2 0  9996
2 49050  71.0160  91.7888 0011981 315.2057  44.8100 14.20143712 13072
SL-16 R/B DEB
1 49050U 92093LX  26027.22960645  .00024771  00000-0  11576-1 0  9994
2 49050  71.0161  90.4479 0012130 313.7164  46.2956 14.20179885 13169
SL-16 R/B DEB
1 49050U 92093LX  26027.58177868  .00022875  00000-0  10691-1 0  9990
2 49050  71.0164  89.7028 0012189 313.5508  46.4604 14.20194183 13213
SL-16 R/B DEB
1 49050U 92093LX  26028.56783795  .00024137  00000-0  11267-1 0  9994
2 49050  71.0171  87.6162 0012330 312.5623  47.4461 14.20242080 13359
SL-16 R/B DEB
1 49050U 92093LX  26030.18771461  .00022851  00000-0  10653-1 0  9991
2 49050  71.0169  84.1872 0012389 310.4463  49.5581 14.20326840 13587
SL-16 R/B DEB
1 49050U 92093LX  26031.52581123  .00015722  00000-0  73367-2 0  9995
2 49050  71.0177  81.3541 0012532 309.0703  50.9307 14.20375500 13779
SL-16 R/B DEB
1 49050U 92093LX  26032.51174773  .00015686  00000-0  73150-2 0  9993
2 49050  71.0179  79.2668 0012591 307.7046  52.2938 14.20411274 13917
SL-16 R/B DEB
1 49050U 92093LX  26034.20185994  .00018494  00000-0  86049-2 0  9999
2 49050  71.0182  75.6874 0012726 305.6156  54.3784 14.20485460 14156
SL-16 R/B DEB
1 49050U 92093LX  26035.11729916  .00019278  00000-0  89604-2 0  9999
2 49050  71.0161  73.7500 0012949 304.2238  55.7661 14.20528413 14280
SL-16 R/B DEB
1 49050U 92093LX  26035.82146596  .00020788  00000-0  96526-2 0  9993
2 49050  71.0165  72.2590 0013007 303.7599  56.2286 14.20559387 14381
SL-16 R/B DEB
1 49050U 92093LX  26036.52561245  .00032525  00000-0  15050-1 0  9997
2 49050  71.0164  70.7679 0013089 303.1814  56.8056 14.20608108 14483
SL-16 R/B DEB
1 49050U 92093LX  26037.08891572  .00026480  00000-0  12261-1 0  9992
2 49050  71.0164  69.5748 0013121 302.3547  57.6308 14.20636522 14566
SL-16 R/B DEB
1 49050U 92093LX  26037.44097570  .00024500  00000-0  11346-1 0  9992
2 49050  71.0165  68.8292 0013180 302.1897  57.7950 14.20649364 14612
SL-16 R/B DEB
1 49050U 92093LX  26038.07467398  .00024313  00000-0  11254-1 0  9991
2 49050  71.0166  67.4871 0013142 301.2489  58.7349 14.20677029 14708
SL-16 R/B DEB
1 49050U 92093LX  26039.13081144  .00020494  00000-0  94876-2 0  9998
2 49050  71.0169  65.2502 0013117 300.0497  59.9328 14.20718878 14850
SL-16 R/B DEB
1 49050U 92093LX  26039.48284982  .00021718  00000-0  10049-1 0  9990
2 49050  71.0170  64.5045 0013096 299.8526  60.1298 14.20733744 14905
SL-16 R/B DEB
1 49050U 92093LX  26040.11650956  .00018310  00000-0  84751-2 0  9996
2 49050  71.0170  63.1624 0013093 298.8614  61.1197 14.20758467 14994
SL-16 R/B DEB
1 49050U 92093LX  26041.10217859  .00019965  00000-0  92294-2 0  9995
2 49050  71.0174  61.0748 0013027 297.6879  62.2925 14.20802037 15130
SL-16 R/B DEB
1 49050U 92093LX  26041.45419660  .00019920  00000-0  92063-2 0  9992
2 49050  71.0173  60.3292 0013142 297.6544  62.3248 14.20815595 15189
SL-16 R/B DEB
1 49050U 92093LX  26042.01741792  .00019819  00000-0  91558-2 0  9994
2 49050  71.0173  59.1361 0013136 296.7357  63.2424 14.20838712 15268
SL-16 R/B DEB
1 49050U 92093LX  26043.14382931  .00022158  00000-0  10220-1 0  9991
2 49050  71.0176  56.7499 0013139 295.5580  64.4187 14.20891831 15422
SL-16 R/B DEB
1 49050U 92093LX  26043.42542510  .00025194  00000-0  11608-1 0  9997
2 49050  71.0173  56.1532 0013156 295.4213  64.5550 14.20908075 15460
SL-16 R/B DEB
1 49050U 92093LX  26044.41099414  .00021621  00000-0  99629-2 0  9998
2 49050  71.0176  54.0652 0013211 294.3943  65.5804 14.20946634 15605
SL-16 R/B DEB
1 49050U 92093LX  26046.38205012  .00029182  00000-0  13403-1 0  9994
2 49050  71.0174  49.8881 0013231 291.9080  68.0639 14.21030638 15889
SL-16 R/B DEB
1 49050U 92093LX  26047.43792474  .00023980  00000-0  11017-1 0  9993
2 49050  71.0169  47.6497 0013217 291.8009  68.1710 14.21075158 16031
SL-16 R/B DEB
1 49050U 92093LX  26048.07143278  .00024256  00000-0  11137-1 0  9996
2 49050  71.0170  46.3068 0013190 290.7880  69.1832 14.21103032 16127
SL-16 R/B DEB
1 49050U 92093LX  26048.35298787  .00023625  00000-0  10846-1 0  9998
2 49050  71.0167  45.7101 0013209 290.5849  69.3860 14.21114124 16169
SL-16 R/B DEB
1 49050U 92093LX  26049.40880078  .00019294  00000-0  88610-2 0  9997
2 49050  71.0166  43.4720 0013221 289.1437  70.8257 14.21152675 16318
SL-16 R/B DEB
1 49050U 92093LX  26050.04227443  .00017744  00000-0  81494-2 0  9991
2 49050  71.0167  42.1292 0013166 288.2193  71.7500 14.21176355 16408
SL-16 R/B DEB
1 49050U 92093LX  26050.39419959  .00019541  00000-0  89675-2 0  9990
2 49050  71.0172  41.3833 0013075 288.0645  71.9056 14.21190828 16459
SL-16 R/B DEB
1 49050U 92093LX  26051.02765633  .00017904  00000-0  82166-2 0  9993
2 49050  71.0175  40.0403 0013007 286.9036  73.0664 14.21214461 16545
SL-16 R/B DEB
1 49050U 92093LX  26051.37957249  .00017154  00000-0  78725-2 0  9990
2 49050  71.0171  39.2950 0012974 287.0065  72.9639 14.21226161 16599
SL-16 R/B DEB
1 49050U 92093LX  26052.36491957  .00022065  00000-0  10105-1 0  9993
2 49050  71.0172  37.2061 0012858 285.8305  74.1403 14.21268837 16730
SL-16 R/B DEB
1 49050U 92093LX  26054.33552359  .00026671  00000-0  12180-1 0  9998
2 49050  71.0175  33.0282 0012718 283.4788  76.4921 14.21362555 17010
SL-16 R/B DEB
1 49050U 92093LX  26055.32077606  .00021719  00000-0  99218-2 0  9991
2 49050  71.0176  30.9390 0012684 282.1326  77.8379 14.21403733 17154
SL-16 R/B DEB
1 49050U 92093LX  26057.57267744  .00023829  00000-0  10861-1 0  9994
2 49050  71.0165  26.1626 0012253 280.9760  78.9987 14.21501492 17474
SL-16 R/B DEB
1 49050U 92093LX  26058.90966561  .00021641  00000-0  98571-2 0  9990
2 49050  71.0153  23.3273 0012465 277.3883  82.5826 14.21560211 17667
SL-16 R/B DEB
1 49050U 92093LX  26058.90966561  .00021641  00000-0  98571-2 0  9990
2 49050  71.0153  23.3273 0012465 277.3883  82.5826 14.21560211 17667
SL-16 R/B DEB
1 49050U 92093LX  26059.33186098  .00021084  00000-0  96014-2 0  9998
2 49050  71.0155  22.4321 0012336 276.6016  83.3706 14.21578235 17728
SL-16 R/B DEB
1 49050U 92093LX  26059.33186099  .00021084  00000-0  96014-2 0  9999
2 49050  71.0155  22.4321 0012336 276.6016  83.3706 14.21578235 17728
SL-16 R/B DEB
1 49050U 92093LX  26060.31696302  .00024842  00000-0  11293-1 0  9992
2 49050  71.0158  20.3419 0012160 275.2251  84.7487 14.21624429 17860
SL-16 R/B DEB
1 49050U 92093LX  26060.95022560  .00023007  00000-0  10457-1 0  9994
2 49050  71.0162  18.9984 0011975 274.3557  85.6201 14.21654972 17957
SL-16 R/B DEB
1 49050U 92093LX  26060.95022560  .00023007  00000-0  10457-1 0  9994
2 49050  71.0161  18.9984 0011975 274.3557  85.6201 14.21654972 17956
SL-16 R/B DEB
1 49050U 92093LX  26061.30203198  .00024695  00000-0  11217-1 0  9991
2 49050  71.0162  18.2520 0011887 274.1306  85.8462 14.21673010 18000
SL-16 R/B DEB
1 49050U 92093LX  26061.30203199  .00024695  00000-0  11217-1 0  9992
2 49050  71.0162  18.2520 0011887 274.1306  85.8462 14.21673010 18000
SL-16 R/B DEB
1 49050U 92093LX  26061.93527257  .00023423  00000-0  10636-1 0  9997
2 49050  71.0163  16.9087 0011751 273.1150  86.8631 14.21704091 18092
SL-16 R/B DEB
1 49050U 92093LX  26061.93527257  .00023423  00000-0  10636-1 0  9997
2 49050  71.0163  16.9087 0011751 273.1150  86.8631 14.21704091 18092
SL-16 R/B DEB
1 49050U 92093LX  26062.28706737  .00023907  00000-0  10851-1 0  9994
2 49050  71.0164  16.1624 0011747 272.6562  87.3220 14.21719623 18141
SL-16 R/B DEB
1 49050U 92093LX  26062.28706738  .00023907  00000-0  10851-1 0  9995
2 49050  71.0164  16.1624 0011747 272.6562  87.3220 14.21719623 18141
SL-16 R/B DEB
1 49050U 92093LX  26063.27206701  .00034809  00000-0  15747-1 0  9992
2 49050  71.0171  14.0721 0011557 271.0664  88.9138 14.21781318 18289
SL-16 R/B DEB
1 49050U 92093LX  26063.27206702  .00034809  00000-0  15747-1 0  9993
2 49050  71.0171  14.0721 0011557 271.0664  88.9138 14.21781318 18289
SL-16 R/B DEB
1 49050U 92093LX  26064.25702747  .00024739  00000-0  11204-1 0  9997
2 49050  71.0176  11.9815 0011436 269.2804  90.7012 14.21828992 18423
SL-16 R/B DEB
1 49050U 92093LX  26064.25702747  .00024739  00000-0  11204-1 0  9997
2 49050  71.0176  11.9815 0011436 269.2804  90.7012 14.21828992 18423
SL-16 R/B DEB
1 49050U 92093LX  26064.89019882  .00020834  00000-0  94388-2 0  9995
2 49050  71.0178  10.6380 0011325 268.1625  91.8205 14.21857949 18514
SL-16 R/B DEB
1 49050U 92093LX  26065.24195588  .00022360  00000-0  10123-1 0  9993
2 49050  71.0180   9.8913 0011456 267.4829  92.4986 14.21871665 18561
SL-16 R/B DEB
1 49050U 92093LX  26066.22685523  .00029909  00000-0  13507-1 0  9990
2 49050  71.0164   7.8014 0011304 266.0645  93.9189 14.21921016 18709
SL-16 R/B DEB
1 49050U 92093LX  26066.22685523  .00029909  00000-0  13507-1 0  9990
2 49050  71.0164   7.8014 0011304 266.0645  93.9189 14.21921016 18709
SL-16 R/B DEB
1 49050U 92093LX  26067.91517119  .00023443  00000-0  10584-1 0  9991
2 49050  71.0165   4.2177 0010969 263.5311  96.4566 14.22006394 18946
SL-16 R/B DEB
1 49050U 92093LX  26068.47792255  .00018367  00000-0  83004-2 0  9996
2 49050  71.0164   3.0233 0010953 262.8402  97.1479 14.22025856 19026
SL-16 R/B DEB
1 49050U 92093LX  26068.47792256  .00018367  00000-0  83004-2 0  9997
2 49050  71.0164   3.0233 0010953 262.8402  97.1479 14.22025856 19026
SL-16 R/B DEB
1 49050U 92093LX  26068.89997972  .00019107  00000-0  86296-2 0  9994
2 49050  71.0164   2.1278 0011015 261.8911  98.0966 14.22043846 19085
SL-16 R/B DEB
1 49050U 92093LX  26068.89997972  .00019107  00000-0  86296-2 0  9994
2 49050  71.0164   2.1278 0011015 261.8911  98.0966 14.22043846 19085
SL-16 R/B DEB
1 49050U 92093LX  26070.16612183  .00019672  00000-0  88749-2 0  9997
2 49050  71.0163 359.4404 0010976 259.7140 100.2749 14.22094477 19269
SL-16 R/B DEB
1 49050U 92093LX  26070.23646223  .00019375  00000-0  87415-2 0  9996
2 49050  71.0161 359.2893 0010965 260.6174  99.3712 14.22097107 19275
SL-16 R/B DEB
1 49050U 92093LX  26070.23646224  .00019375  00000-0  87415-2 0  9997
2 49050  71.0161 359.2893 0010965 260.6175  99.3712 14.22097107 19276
SL-16 R/B DEB
1 49050U 92093LX  26070.86951572  .00015076  00000-0  68078-2 0  9999
2 49050  71.0161 357.9451 0010911 259.4738 100.5159 14.22118891 19367
SL-16 R/B DEB
1 49050U 92093LX  26070.86951572  .00015076  00000-0  68078-2 0  9999
2 49050  71.0161 357.9451 0010911 259.4738 100.5159 14.22118891 19367
SL-16 R/B DEB
1 49050U 92093LX  26071.15086995  .00017059  00000-0  76972-2 0  9995
2 49050  71.0150 357.3480 0011024 258.7788 101.2099 14.22127575 19409
SL-16 R/B DEB
1 49050U 92093LX  26071.22120815  .00017262  00000-0  77876-2 0  9993
2 49050  71.0151 357.1986 0010957 258.3533 101.6364 14.22130396 19412
SL-16 R/B DEB
1 49050U 92093LX  26071.22120816  .00017262  00000-0  77876-2 0  9994
2 49050  71.0151 357.1986 0010957 258.3533 101.6364 14.22130396 19412
SL-16 R/B DEB
1 49050U 92093LX  26072.20593256  .00015743  00000-0  71020-2 0  9992
2 49050  71.0151 355.1075 0010802 256.2994 103.6930 14.22161012 19551
SL-16 R/B DEB
1 49050U 92093LX  26073.82364496  .00018795  00000-0  84615-2 0  9997
2 49050  71.0148 351.6723 0010543 253.5216 106.4752 14.22219933 19781
SL-16 R/B DEB
1 49050U 92093LX  26074.10497921  .00018018  00000-0  81121-2 0  9996
2 49050  71.0151 351.0749 0010568 253.2525 106.7442 14.22229523 19824
SL-16 R/B DEB
1 49050U 92093LX  26074.80830798  .00013215  00000-0  59574-2 0  9997
2 49050  71.0156 349.5816 0010446 251.7263 108.2727 14.22247420 19923
SL-16 R/B DEB
1 49050U 92093LX  26075.72262215  .00012058  00000-0  54365-2 0  9999
2 49050  71.0158 347.6400 0010337 250.3243 109.6768 14.22270212 20056
SL-16 R/B DEB
1 49050U 92093LX  26075.72262216  .00012058  00000-0  54365-2 0  9990
2 49050  71.0158 347.6400 0010337 250.3243 109.6768 14.22270212 20056
SL-16 R/B DEB
1 49050U 92093LX  26076.84791195  .00010913  00000-0  49205-2 0  9992
2 49050  71.0163 345.2508 0010443 249.3290 110.6717 14.22295970 20215
SL-16 R/B DEB
1 49050U 92093LX  26076.84791195  .00010913  00000-0  49205-2 0  9992
2 49050  71.0163 345.2508 0010443 249.3290 110.6717 14.22295970 20215
SL-16 R/B DEB
1 49050U 92093LX  26078.11384007  .00011825  00000-0  53264-2 0  9997
2 49050  71.0159 342.5617 0010294 247.1961 112.8079 14.22324657 20395
SL-16 R/B DEB
1 49050U 92093LX  26078.81712444  .00010699  00000-0  48212-2 0  9999
2 49050  71.0169 341.0692 0010082 245.3929 114.6148 14.22337136 20496
SL-16 R/B DEB
1 49050U 92093LX  26078.81712446  .00010699  00000-0  48212-2 0  9991
2 49050  71.0169 341.0692 0010082 245.3929 114.6148 14.22337136 20496
SL-16 R/B DEB
1 49050U 92093LX  26079.16876378  .00009307  00000-0  41972-2 0  9995
2 49050  71.0163 340.3222 0009977 245.0915 114.9175 14.22343181 20540
SL-16 R/B DEB
1 49050U 92093LX  26079.16876378  .00009307  00000-0  41972-2 0  9995
2 49050  71.0163 340.3222 0009977 245.0915 114.9175 14.22343181 20540
SL-16 R/B DEB
1 49050U 92093LX  26079.37974674  .00009450  00000-0  42609-2 0  9993
2 49050  71.0162 339.8742 0009935 245.0335 114.9760 14.22347062 20574
SL-16 R/B DEB
1 49050U 92093LX  26079.37974674  .00009450  00000-0  42609-2 0  9993
2 49050  71.0162 339.8742 0009935 245.0335 114.9760 14.22347062 20574
SL-16 R/B DEB
1 49050U 92093LX  26080.43464481  .00020592  00000-0  92368-2 0  9999
2 49050  71.0162 337.6327 0009927 242.8877 117.1237 14.22388827 20721
SL-16 R/B DEB
1 49050U 92093LX  26080.71594432  .00020851  00000-0  93498-2 0  9993
2 49050  71.0157 337.0355 0010063 242.8869 117.1232 14.22401392 20766
SL-16 R/B DEB
1 49050U 92093LX  26081.77079879  .00017762  00000-0  79650-2 0  9994
2 49050  71.0154 334.7945 0009935 241.1751 118.8379 14.22444675 20918
SL-16 R/B DEB
1 49050U 92093LX  26082.12240971  .00019507  00000-0  87403-2 0  9991
2 49050  71.0152 334.0474 0009888 240.4728 119.5414 14.22461197 20960
SL-16 R/B DEB
1 49050U 92093LX  26084.93519936  .00013565  00000-0  60805-2 0  9997
2 49050  71.0153 328.0712 0009526 234.7035 125.3202 14.22544154 21365
SL-16 R/B DEB
1 49050U 92093LX  26085.07583480  .00013500  00000-0  60508-2 0  9997
2 49050  71.0153 327.7724 0009616 235.1221 124.9002 14.22547798 21388
SL-16 R/B DEB
1 49050U 92093LX  26085.07583481  .00013500  00000-0  60508-2 0  9998
2 49050  71.0153 327.7724 0009616 235.1221 124.9002 14.22547798 21388
SL-16 R/B DEB
1 49050U 92093LX  26086.06026927  .00016114  00000-0  72109-2 0  9999
2 49050  71.0153 325.6806 0009590 233.6977 126.3265 14.22580865 21523
SL-16 R/B DEB
1 49050U 92093LX  26086.06026927  .00016114  00000-0  72109-2 0  9999
2 49050  71.0153 325.6806 0009590 233.6977 126.3265 14.22580866 21524
SL-16 R/B DEB
1 49050U 92093LX  26086.90405336  .00015147  00000-0  67775-2 0  9995
2 49050  71.0158 323.8875 0009613 232.7320 127.2930 14.22605818 21640
SL-16 R/B DEB
1 49050U 92093LX  26087.67750697  .00017250  00000-0  77088-2 0  9998
2 49050  71.0159 322.2439 0009597 231.8292 128.1971 14.22634426 21753
SL-16 R/B DEB
1 49050U 92093LX  26087.67750697  .00017250  00000-0  77088-2 0  9998
2 49050  71.0159 322.2439 0009597 231.8292 128.1971 14.22634426 21753
SL-16 R/B DEB
1 49050U 92093LX  26090.06806079  .00021700  00000-0  96653-2 0  9995
2 49050  71.0172 317.1647 0009330 226.6732 133.3618 14.22746161 22092
SL-16 R/B DEB
1 49050U 92093LX  26090.06806079  .00021700  00000-0  96653-2 0  9995
2 49050  71.0172 317.1647 0009330 226.6732 133.3618 14.22746161 22092
SL-16 R/B DEB
1 49050U 92093LX  26091.89601799  .00018385  00000-0  81849-2 0  9995
2 49050  71.0158 313.2791 0009391 225.2269 134.8095 14.22815337 22356
SL-16 R/B DEB
1 49050U 92093LX  26091.89601799  .00018385  00000-0  81849-2 0  9995
2 49050  71.0158 313.2791 0009391 225.2269 134.8095 14.22815337 22356
SL-16 R/B DEB
1 49050U 92093LX  26092.03662639  .00018567  00000-0  82648-2 0  9992
2 49050  71.0159 312.9803 0009227 223.6392 136.4006 14.22821513 22379
SL-16 R/B DEB
1 49050U 92093LX  26092.31784073  .00024874  00000-0  11051-1 0  9997
2 49050  71.0161 312.3827 0009237 222.4621 137.5792 14.22839140 22419
SL-16 R/B DEB
1 49050U 92093LX  26093.02085769  .00033745  00000-0  14950-1 0  9990
2 49050  71.0153 310.8878 0009236 221.9571 138.0849 14.22892915 22515
SL-16 R/B DEB
1 49050U 92093LX  26093.65355344  .00029030  00000-0  12863-1 0  9991
2 49050  71.0151 309.5428 0009245 220.4734 139.5706 14.22932998 22608
SL-16 R/B DEB
1 49050U 92093LX  26093.65355344  .00029030  00000-0  12863-1 0  9991
2 49050  71.0151 309.5428 0009245 220.4734 139.5706 14.22932998 22608
SL-16 R/B DEB
1 49050U 92093LX  26094.00504266  .00034792  00000-0  15391-1 0  9990
2 49050  71.0156 308.7952 0009162 220.0725 139.9727 14.22959675 22653
SL-16 R/B DEB
1 49050U 92093LX  26094.00504266  .00034792  00000-0  15391-1 0  9990
2 49050  71.0156 308.7952 0009162 220.0725 139.9727 14.22959675 22653
SL-16 R/B DEB
1 49050U 92093LX  26094.63770914  .00025076  00000-0  11107-1 0  9990
2 49050  71.0150 307.4501 0009228 218.4759 141.5711 14.22994713 22748
SL-16 R/B DEB
1 49050U 92093LX  26094.98918499  .00022557  00000-0  99943-2 0  9996
2 49050  71.0151 306.7026 0009165 217.9528 142.0954 14.23009604 22798
SL-16 R/B DEB
1 49050U 92093LX  26095.83271119  .00023642  00000-0  10465-1 0  9999
2 49050  71.0156 304.9090 0009160 216.0835 143.9675 14.23047278 22913
SL-16 R/B DEB
1 49050U 92093LX  26095.83271120  .00023642  00000-0  10465-1 0  9991
2 49050  71.0156 304.9090 0009160 216.0835 143.9675 14.23047278 22913
SL-16 R/B DEB
1 49050U 92093LX  26096.95738133  .00022217  00000-0  98289-2 0  9995
2 49050  71.0161 302.5171 0009171 214.1491 145.9047 14.23092128 23079
SL-16 R/B DEB
1 49050U 92093LX  26096.95738134  .00022217  00000-0  98289-2 0  9996
2 49050  71.0161 302.5171 0009171 214.1491 145.9047 14.23092128 23079
SL-16 R/B DEB
1 49050U 92093LX  26097.66028233  .00017590  00000-0  77877-2 0  9995
2 49050  71.0167 301.0224 0009258 212.2891 147.7670 14.23117287 23174
SL-16 R/B DEB
1 49050U 92093LX  26097.66028233  .00017590  00000-0  77877-2 0  9995
2 49050  71.0167 301.0224 0009258 212.2891 147.7670 14.23117287 23174
SL-16 R/B DEB
1 49050U 92093LX  26098.99576065  .00014971  00000-0  66280-2 0  9999
2 49050  71.0173 298.1823 0009316 209.4492 150.6111 14.23162208 23369
SL-16 R/B DEB
1 49050U 92093LX  26098.99576065  .00014971  00000-0  66280-2 0  9999
2 49050  71.0173 298.1823 0009316 209.4492 150.6111 14.23162208 23369
SL-16 R/B DEB
1 49050U 92093LX  26100.54205072  .00017003  00000-0  75148-2 0  9993
2 49050  71.0166 294.8942 0009224 208.8384 151.2234 14.23215508 23586
SL-16 R/B DEB
1 49050U 92093LX  26100.89347346  .00017574  00000-0  77643-2 0  9997
2 49050  71.0159 294.1468 0009105 209.5937 150.4676 14.23226541 23630
SL-16 R/B DEB
1 49050U 92093LX  26100.89347347  .00017574  00000-0  77643-2 0  9998
2 49050  71.0159 294.1468 0009105 209.5937 150.4676 14.23226541 23630
SL-16 R/B DEB
1 49050U 92093LX  26101.52602617  .00016053  00000-0  70930-2 0  9996
2 49050  71.0156 292.8010 0009032 208.9438 151.1189 14.23245779 23724
SL-16 R/B DEB
1 49050U 92093LX  26101.52602617  .00016053  00000-0  70930-2 0  9996
2 49050  71.0156 292.8010 0009032 208.9438 151.1189 14.23245779 23724
SL-16 R/B DEB
1 49050U 92093LX  26102.50998132  .00012785  00000-0  56536-2 0  9999
2 49050  71.0146 290.7091 0009087 207.3423 152.7227 14.23270444 23868
SL-16 R/B DEB
1 49050U 92093LX  26102.50998133  .00012785  00000-0  56536-2 0  9990
2 49050  71.0146 290.7091 0009087 207.3423 152.7227 14.23270444 23868
SL-16 R/B DEB
1 49050U 92093LX  26103.91560297  .00011799  00000-0  52163-2 0  9998
2 49050  71.0142 287.7188 0009132 204.3412 155.7285 14.23303985 24060
SL-16 R/B DEB
1 49050U 92093LX  26103.91560298  .00011799  00000-0  52163-2 0  9999
2 49050  71.0142 287.7188 0009132 204.3412 155.7285 14.23303985 24060
SL-16 R/B DEB
1 49050U 92093LX  26104.47784272  .00011476  00000-0  50732-2 0  9993
2 49050  71.0139 286.5228 0009151 203.2918 156.7795 14.23316243 24145
SL-16 R/B DEB
1 49050U 92093LX  26104.47784272  .00011476  00000-0  50732-2 0  9993
2 49050  71.0139 286.5229 0009151 203.2918 156.7796 14.23316243 24147
SL-16 R/B DEB
1 49050U 92093LX  26104.75896079  .00011357  00000-0  50204-2 0  9995
2 49050  71.0140 285.9242 0009246 202.2731 157.7996 14.23322215 24187
SL-16 R/B DEB
1 49050U 92093LX  26104.75896079  .00011357  00000-0  50204-2 0  9995
2 49050  71.0140 285.9242 0009246 202.2731 157.7996 14.23322215 24187
SL-16 R/B DEB
1 49050U 92093LX  26105.60230738  .00011760  00000-0  51953-2 0  9994
2 49050  71.0138 284.1298 0009286 201.1788 158.8956 14.23341701 24303
SL-16 R/B DEB
1 49050U 92093LX  26105.74286410  .00011890  00000-0  52523-2 0  9995
2 49050  71.0140 283.8307 0009317 200.8603 159.2145 14.23344895 24324
SL-16 R/B DEB
1 49050U 92093LX  26105.88342055  .00011869  00000-0  52427-2 0  9997
2 49050  71.0147 283.5321 0009301 200.6315 159.4438 14.23348212 24341
SL-16 R/B DEB
1 49050U 92093LX  26106.72675230  .00011941  00000-0  52725-2 0  9997
2 49050  71.0148 281.7374 0009374 199.0941 160.9836 14.23366911 24464
SL-16 R/B DEB
1 49050U 92093LX  26106.72675231  .00011941  00000-0  52725-2 0  9998
2 49050  71.0148 281.7374 0009374 199.0942 160.9836 14.23366911 24465
SL-16 R/B DEB
1 49050U 92093LX  26109.81885977  .00015304  00000-0  67366-2 0  9995
2 49050  71.0147 275.1578 0009668 196.2989 163.7828 14.23454036 24900
SL-16 R/B DEB
1 49050U 92093LX  26109.81885978  .00015304  00000-0  67366-2 0  9996
2 49050  71.0147 275.1578 0009668 196.2989 163.7829 14.23454036 24901
SL-16 R/B DEB
1 49050U 92093LX  26110.45131050  .00012773  00000-0  56263-2 0  9994
2 49050  71.0145 273.8116 0009499 195.7352 164.3481 14.23472010 24994
SL-16 R/B DEB
1 49050U 92093LX  26110.45131050  .00012773  00000-0  56263-2 0  9994
2 49050  71.0145 273.8116 0009499 195.7352 164.3481 14.23472011 24995
SL-16 R/B DEB
1 49050U 92093LX  26110.87294044  .00015698  00000-0  69050-2 0  9990
2 49050  71.0151 272.9144 0009368 194.7167 165.3689 14.23487675 25052
SL-16 R/B DEB
1 49050U 92093LX  26111.85672735  .00016602  00000-0  72958-2 0  9993
2 49050  71.0145 270.8213 0009376 193.3023 166.7858 14.23518707 25193
SL-16 R/B DEB
1 49050U 92093LX  26111.85672736  .00016602  00000-0  72958-2 0  9994
2 49050  71.0145 270.8214 0009376 193.3023 166.7858 14.23518707 25194
SL-16 R/B DEB
1 49050U 92093LX  26112.48915104  .00013534  00000-0  59522-2 0  9996
2 49050  71.0142 269.4755 0009382 192.4092 167.6806 14.23534344 25286
SL-16 R/B DEB
1 49050U 92093LX  26113.47290476  .00014893  00000-0  65429-2 0  9996
2 49050  71.0139 267.3821 0009255 190.7772 169.3159 14.23564756 25424
SL-16 R/B DEB
1 49050U 92093LX  26113.68370643  .00014890  00000-0  65409-2 0  9999
2 49050  71.0136 266.9339 0009361 190.7187 169.3742 14.23570750 25450
SL-16 R/B DEB
1 49050U 92093LX  26114.45663778  .00015358  00000-0  67422-2 0  9996
2 49050  71.0141 265.2882 0009439 190.7665 169.3262 14.23594644 25565
SL-16 R/B DEB
1 49050U 92093LX  26114.45663778  .00015358  00000-0  67422-2 0  9996
2 49050  71.0141 265.2882 0009439 190.7665 169.3262 14.23594644 25565
SL-16 R/B DEB
1 49050U 92093LX  26115.79166475  .00018738  00000-0  82091-2 0  9990
2 49050  71.0146 262.4472 0009336 189.5573 170.5378 14.23646997 25756
SL-16 R/B DEB
1 49050U 92093LX  26115.79166475  .00018738  00000-0  82091-2 0  9990
2 49050  71.0146 262.4472 0009336 189.5574 170.5378 14.23646997 25757
SL-16 R/B DEB
1 49050U 92093LX  26116.14297799  .00022682  00000-0  99232-2 0  9992
2 49050  71.0132 261.6982 0009361 188.9948 171.1013 14.23666601 25808
SL-16 R/B DEB
1 49050U 92093LX  26116.77533281  .00023420  00000-0  10239-1 0  9990
2 49050  71.0130 260.3521 0009325 188.8113 171.2852 14.23695833 25894
SL-16 R/B DEB
1 49050U 92093LX  26116.77533282  .00023420  00000-0  10239-1 0  9991
2 49050  71.0130 260.3521 0009325 188.8113 171.2852 14.23695833 25894
SL-16 R/B DEB
1 49050U 92093LX  26118.11026402  .00021681  00000-0  94717-2 0  9993
2 49050  71.0130 257.5099 0009219 187.6634 172.4354 14.23752302 26086
SL-16 R/B DEB
1 49050U 92093LX  26118.11026402  .00021681  00000-0  94717-2 0  9993
2 49050  71.0130 257.5099 0009219 187.6634 172.4354 14.23752302 26086
SL-16 R/B DEB
1 49050U 92093LX  26118.74258294  .00018896  00000-0  82583-2 0  9990
2 49050  71.0134 256.1631 0009175 187.6777 172.4212 14.23772421 26173
SL-16 R/B DEB
1 49050U 92093LX  26118.74258294  .00018896  00000-0  82583-2 0  9990
2 49050  71.0134 256.1631 0009175 187.6777 172.4212 14.23772421 26173
SL-16 R/B DEB
1 49050U 92093LX  26119.44514793  .00017169  00000-0  75034-2 0  9992
2 49050  71.0135 254.6673 0009139 186.4184 173.6828 14.23797201 26272
SL-16 R/B DEB
1 49050U 92093LX  26119.44514793  .00017169  00000-0  75034-2 0  9992
2 49050  71.0135 254.6673 0009139 186.4184 173.6828 14.23797201 26272
SL-16 R/B DEB
1 49050U 92093LX  26119.79642601  .00018233  00000-0  79641-2 0  9991
2 49050  71.0123 253.9194 0009227 187.5199 172.5791 14.23809554 26323
SL-16 R/B DEB
1 49050U 92093LX  26119.79642601  .00018233  00000-0  79641-2 0  9991
2 49050  71.0123 253.9194 0009227 187.5199 172.5791 14.23809554 26323
SL-16 R/B DEB
1 49050U 92093LX  26120.07744635  .00019915  00000-0  86929-2 0  9999
2 49050  71.0124 253.3209 0009185 187.1962 172.9035 14.23820878 26363
SL-16 R/B DEB
1 49050U 92093LX  26120.07744636  .00019915  00000-0  86929-2 0  9990
2 49050  71.0124 253.3209 0009185 187.1962 172.9035 14.23820878 26363
SL-16 R/B DEB
1 49050U 92093LX  26120.42871956  .00018448  00000-0  80541-2 0  9999
2 49050  71.0126 252.5727 0009115 186.3690 173.7323 14.23831411 26413
SL-16 R/B DEB
1 49050U 92093LX  26120.42871957  .00018448  00000-0  80541-2 0  9990
2 49050  71.0126 252.5727 0009115 186.3690 173.7323 14.23831412 26414
SL-16 R/B DEB
1 49050U 92093LX  26121.34201219  .00025376  00000-0  11050-1 0  9996
2 49050  71.0123 250.6283 0009072 185.6680 174.4346 14.23874898 26542
SL-16 R/B DEB
1 49050U 92093LX  26121.34201219  .00025376  00000-0  11050-1 0  9996
2 49050  71.0123 250.6283 0009072 185.6680 174.4346 14.23874898 26542
SL-16 R/B DEB
1 49050U 92093LX  26122.04452815  .00018541  00000-0  80846-2 0  9990
2 49050  71.0122 249.1321 0009017 184.6813 175.4231 14.23897189 26646
SL-16 R/B DEB
1 49050U 92093LX  26122.39578006  .00019025  00000-0  82918-2 0  9999
2 49050  71.0126 248.3841 0009020 184.6751 175.4293 14.23913304 26694
SL-16 R/B DEB
1 49050U 92093LX  26122.39578006  .00019025  00000-0  82918-2 0  9999
2 49050  71.0126 248.3841 0009020 184.6752 175.4293 14.23913304 26695
SL-16 R/B DEB
1 49050U 92093LX  26123.30902132  .00019247  00000-0  83826-2 0  9997
2 49050  71.0122 246.4388 0008957 184.0319 176.0738 14.23948120 26827
SL-16 R/B DEB
1 49050U 92093LX  26123.44951821  .00018335  00000-0  79865-2 0  9996
2 49050  71.0122 246.1396 0008949 183.9051 176.2008 14.23952149 26845
SL-16 R/B DEB
1 49050U 92093LX  26123.44951821  .00018335  00000-0  79865-2 0  9996
2 49050  71.0122 246.1396 0008949 183.9051 176.2008 14.23952149 26845
SL-16 R/B DEB
1 49050U 92093LX  26125.41642297  .00022919  00000-0  99573-2 0  9990
2 49050  71.0126 241.9506 0008731 182.4491 177.6595 14.24027480 27126
SL-16 R/B DEB
1 49050U 92093LX  26125.41642298  .00022919  00000-0  99573-2 0  9991
2 49050  71.0126 241.9506 0008731 182.4491 177.6595 14.24027480 27126
SL-16 R/B DEB
1 49050U 92093LX  26127.73445025  .00011186  00000-0  48738-2 0  9998
2 49050  71.0104 237.0120 0008624 181.6054 178.5047 14.24080452 27453
SL-16 R/B DEB
1 49050U 92093LX  26127.73445026  .00011186  00000-0  48738-2 0  9999
2 49050  71.0104 237.0120 0008624 181.6054 178.5047 14.24080452 27453
SL-16 R/B DEB
1 49050U 92093LX  26128.71783098  .00012048  00000-0  52451-2 0  9997
2 49050  71.0099 234.9160 0008823 180.3867 179.7255 14.24101753 27592
SL-16 R/B DEB
1 49050U 92093LX  26128.71783099  .00012048  00000-0  52451-2 0  9998
2 49050  71.0099 234.9160 0008823 180.3867 179.7255 14.24101753 27592
SL-16 R/B DEB
1 49050U 92093LX  26128.99879377  .00012840  00000-0  55869-2 0  9999
2 49050  71.0108 234.3190 0008584 180.2660 179.8465 14.24109655 27632
SL-16 R/B DEB
1 49050U 92093LX  26129.27975543  .00011400  00000-0  49635-2 0  9998
2 49050  71.0108 233.7207 0008604 179.9751 180.1379 14.24114828 27674
SL-16 R/B DEB
1 49050U 92093LX  26129.34999604  .00011096  00000-0  48319-2 0  9999
2 49050  71.0110 233.5712 0008554 179.5909 180.5227 14.24115853 27687
SL-16 R/B DEB
1 49050U 92093LX  26129.70119632  .00010004  00000-0  43583-2 0  9990
2 49050  71.0114 232.8230 0008532 179.3326 180.7814 14.24122375 27732
SL-16 R/B DEB
1 49050U 92093LX  26129.70119632  .00010004  00000-0  43583-2 0  9990
2 49050  71.0114 232.8230 0008532 179.3326 180.7814 14.24122375 27732
SL-16 R/B DEB
1 49050U 92093LX  26130.26311338  .00008798  00000-0  38354-2 0  9997
2 49050  71.0111 231.6258 0008506 178.6371 181.4781 14.24131860 27818
SL-16 R/B DEB
1 49050U 92093LX  26130.54407036  .00009117  00000-0  39730-2 0  9994
2 49050  71.0117 231.0272 0008505 178.3670 181.7487 14.24137461 27855
SL-16 R/B DEB
1 49050U 92093LX  26130.68454852  .00009081  00000-0  39575-2 0  9994
2 49050  71.0120 230.7279 0008504 178.3969 181.7187 14.24140140 27879
SL-16 R/B DEB
1 49050U 92093LX  26130.68454852  .00009081  00000-0  39575-2 0  9994
2 49050  71.0120 230.7279 0008504 178.3969 181.7187 14.24140140 27879
SL-16 R/B DEB
1 49050U 92093LX  26131.31669745  .00008804  00000-0  38367-2 0  9994
2 49050  71.0125 229.3811 0008492 177.7535 182.3633 14.24150542 27968
SL-16 R/B DEB
1 49050U 92093LX  26131.31669746  .00008804  00000-0  38367-2 0  9995
2 49050  71.0125 229.3811 0008492 177.7535 182.3633 14.24150542 27968
SL-16 R/B DEB
1 49050U 92093LX  26132.22979263  .00008642  00000-0  37656-2 0  9994
2 49050  71.0128 227.4357 0008447 177.0420 183.0760 14.24166251 28099
SL-16 R/B DEB
1 49050U 92093LX  26132.37026870  .00008290  00000-0  36129-2 0  9990
2 49050  71.0131 227.1362 0008442 176.8220 183.2962 14.24167493 28114
SL-16 R/B DEB
1 49050U 92093LX  26132.37026871  .00008290  00000-0  36129-2 0  9991
2 49050  71.0131 227.1362 0008442 176.8221 183.2962 14.24167493 28115
SL-16 R/B DEB
1 49050U 92093LX  26134.89878546  .00008757  00000-0  38121-2 0  9996
2 49050  71.0123 221.7476 0008228 174.5314 185.5905 14.24210700 28473
SL-16 R/B DEB
1 49050U 92093LX  26135.53090419  .00008030  00000-0  34970-2 0  9995
2 49050  71.0128 220.4017 0008128 173.4082 186.7154 14.24219057 28567
SL-16 R/B DEB
1 49050U 92093LX  26136.65465552  .00010930  00000-0  47485-2 0  9990
2 49050  71.0124 218.0069 0007990 171.6735 188.4526 14.24244772 28726
SL-16 R/B DEB
1 49050U 92093LX  26136.93558992  .00010591  00000-0  46011-2 0  9999
2 49050  71.0123 217.4083 0007965 171.3118 188.8149 14.24250686 28768
SL-16 R/B DEB
1 49050U 92093LX  26137.21652370  .00009486  00000-0  41240-2 0  9996
2 49050  71.0124 216.8097 0007936 170.7279 189.3996 14.24255231 28808
SL-16 R/B DEB
1 49050U 92093LX  26137.49745536  .00009223  00000-0  40099-2 0  9993
2 49050  71.0121 216.2113 0007953 171.3300 188.7966 14.24261131 28849
SL-16 R/B DEB
1 49050U 92093LX  26137.49745537  .00009223  00000-0  40099-2 0  9994
2 49050  71.0121 216.2113 0007953 171.3300 188.7966 14.24261131 28849
SL-16 R/B DEB
1 49050U 92093LX  26137.91885174  .00009301  00000-0  40427-2 0  9995
2 49050  71.0125 215.3134 0007905 170.7921 189.3353 14.24270399 28905
SL-16 R/B DEB
1 49050U 92093LX  26138.19978162  .00008089  00000-0  35192-2 0  9991
2 49050  71.0123 214.7148 0007902 170.4352 189.6927 14.24274049 28943
SL-16 R/B DEB
1 49050U 92093LX  26138.48071047  .00008487  00000-0  36905-2 0  9994
2 49050  71.0119 214.1162 0007892 170.0973 190.0312 14.24279421 28988
SL-16 R/B DEB
1 49050U 92093LX  26138.90210174  .00009386  00000-0  40782-2 0  9994
2 49050  71.0117 213.2183 0007865 169.5069 190.6225 14.24288561 29040
SL-16 R/B DEB
1 49050U 92093LX  26138.90210174  .00009386  00000-0  40782-2 0  9994
2 49050  71.0117 213.2182 0007865 169.5069 190.6225 14.24288561 29049
SL-16 R/B DEB
1 49050U 92093LX  26139.25325968  .00008704  00000-0  37834-2 0  9998
2 49050  71.0116 212.4702 0007854 168.8623 191.2680 14.24293891 29092
SL-16 R/B DEB
1 49050U 92093LX  26139.25325968  .00008704  00000-0  37834-2 0  9998
2 49050  71.0116 212.4702 0007854 168.8623 191.2680 14.24293891 29092
SL-16 R/B DEB
1 49050U 92093LX  26140.23649149  .00010770  00000-0  46727-2 0  9995
2 49050  71.0113 210.3750 0007787 167.4951 192.6371 14.24316304 29236
SL-16 R/B DEB
1 49050U 92093LX  26140.23649150  .00010770  00000-0  46727-2 0  9997
2 49050  71.0113 210.3750 0007787 167.4951 192.6371 14.24316305 29237
SL-16 R/B DEB
1 49050U 92093LX  26140.58764174  .00010652  00000-0  46212-2 0  9997
2 49050  71.0113 209.6267 0007753 166.9200 193.2130 14.24324654 29286
SL-16 R/B DEB
1 49050U 92093LX  26143.18609351  .00011233  00000-0  48661-2 0  9997
2 49050  71.0123 204.0891 0007502 164.2313 195.9049 14.24383821 29657
SL-16 R/B DEB
1 49050U 92093LX  26143.60745419  .00010340  00000-0  44807-2 0  9996
2 49050  71.0119 203.1906 0007463 162.4667 197.6719 14.24392951 29711
SL-16 R/B DEB
1 49050U 92093LX  26144.16926212  .00011169  00000-0  48365-2 0  9993
2 49050  71.0129 201.9935 0007421 162.5190 197.6194 14.24408062 29792
SL-16 R/B DEB
1 49050U 92093LX  26144.87151516  .00012525  00000-0  54181-2 0  9998
2 49050  71.0129 200.4965 0007259 161.5225 198.6168 14.24426963 29899
SL-16 R/B DEB
1 49050U 92093LX  26145.15241347  .00012834  00000-0  55500-2 0  9991
2 49050  71.0132 199.8977 0007198 161.6114 198.5275 14.24434918 29939
SL-16 R/B DEB
1 49050U 92093LX  26145.22263795  .00013594  00000-0  58768-2 0  9993
2 49050  71.0132 199.7480 0007194 161.1805 198.9590 14.24437749 29945
SL-16 R/B DEB
1 49050U 92093LX  26145.22263796  .00013594  00000-0  58768-2 0  9994
2 49050  71.0132 199.7480 0007194 161.1805 198.9590 14.24437749 29945
SL-16 R/B DEB
1 49050U 92093LX  26146.13554471  .00014144  00000-0  61098-2 0  9990
2 49050  71.0128 197.8023 0007147 159.6794 200.4620 14.24465340 30076
SL-16 R/B DEB
1 49050U 92093LX  26147.18887454  .00018240  00000-0  78625-2 0  9991
2 49050  71.0127 195.5570 0007087 158.3156 201.8273 14.24504379 30220
SL-16 R/B DEB
1 49050U 92093LX  26147.18887454  .00018240  00000-0  78625-2 0  9991
2 49050  71.0127 195.5570 0007087 158.3156 201.8273 14.24504379 30220
SL-16 R/B DEB
1 49050U 92093LX  26147.53997860  .00017703  00000-0  76304-2 0  9998
2 49050  71.0131 194.8086 0007033 157.8542 202.2890 14.24516088 30278
SL-16 R/B DEB
1 49050U 92093LX  26147.53997861  .00017703  00000-0  76304-2 0  9999
2 49050  71.0131 194.8086 0007033 157.8542 202.2890 14.24516088 30278
SL-16 R/B DEB
1 49050U 92093LX  26148.17195733  .00019074  00000-0  82143-2 0  9999
2 49050  71.0134 193.4615 0006981 156.8909 203.2534 14.24540774 30366
SL-16 R/B DEB
1 49050U 92093LX  26148.17195733  .00019074  00000-0  82143-2 0  9999
2 49050  71.0134 193.4615 0006981 156.8909 203.2534 14.24540774 30366
SL-16 R/B DEB
1 49050U 92093LX  26151.75293986  .00019777  00000-0  84902-2 0  9991
2 49050  71.0118 185.8256 0006622 153.2610 206.8861 14.24695929 30877
SL-16 R/B DEB
1 49050U 92093LX  26151.75293987  .00019777  00000-0  84902-2 0  9992
2 49050  71.0118 185.8256 0006622 153.2610 206.8861 14.24695930 30879
SL-16 R/B DEB
1 49050U 92093LX  26153.15714430  .00016749  00000-0  71897-2 0  9994
2 49050  71.0132 182.8332 0006420 153.8079 206.3374 14.24748254 31073
SL-16 R/B DEB
1 49050U 92093LX  26154.42088382  .00018488  00000-0  79244-2 0  9991
2 49050  71.0121 180.1369 0006381 148.9271 211.2236 14.24797704 31253
SL-16 R/B DEB
1 49050U 92093LX  26154.49109037  .00018229  00000-0  78134-2 0  9999
2 49050  71.0115 179.9865 0006349 149.0000 211.1504 14.24799886 31260
SL-16 R/B DEB
1 49050U 92093LX  26154.49109038  .00018229  00000-0  78134-2 0  9990
2 49050  71.0115 179.9865 0006349 149.0000 211.1504 14.24799886 31260
SL-16 R/B DEB
1 49050U 92093LX  26155.12294331  .00018518  00000-0  79328-2 0  9999
2 49050  71.0122 178.6378 0006281 146.7963 213.3560 14.24824953 31350
SL-16 R/B DEB
1 49050U 92093LX  26155.12294332  .00018518  00000-0  79328-2 0  9990
2 49050  71.0122 178.6378 0006281 146.7963 213.3560 14.24824953 31350
SL-16 R/B DEB
1 49050U 92093LX  26155.12294332  .00018518  00000-0  79328-2 0  9990
2 49050  71.0122 178.6378 0006281 146.7963 213.3560 14.24824953 31350
SL-16 R/B DEB
1 49050U 92093LX  26157.79064512  .00023635  00000-0  10090-1 0  9996
2 49050  71.0142 172.9508 0006067 142.2864 217.8690 14.24938329 31735
SL-16 R/B DEB
1 49050U 92093LX  26157.79064512  .00023635  00000-0  10090-1 0  9996
2 49050  71.0142 172.9508 0006067 142.2864 217.8690 14.24938329 31735
SL-16 R/B DEB
1 49050U 92093LX  26160.73892345  .00018417  00000-0  78574-2 0  9991
2 49050  71.0143 166.6613 0005800 141.7107 218.4433 14.25041486 32150
SL-16 R/B DEB
1 49050U 92093LX  26160.73892346  .00018417  00000-0  78574-2 0  9992
2 49050  71.0143 166.6613 0005800 141.7107 218.4434 14.25041486 32151
SL-16 R/B DEB
1 49050U 92093LX  26162.07259923  .00017360  00000-0  74018-2 0  9994
2 49050  71.0123 163.8152 0005902 137.2512 222.9076 14.25088908 32342
SL-16 R/B DEB
1 49050U 92093LX  26163.26584818  .00020811  00000-0  88562-2 0  9994
2 49050  71.0142 161.2702 0006011 133.6739 226.4888 14.25137058 32519
SL-16 R/B DEB
1 49050U 92093LX  26164.24849324  .00019676  00000-0  83697-2 0  9990
2 49050  71.0139 159.1735 0006038 131.7387 228.4258 14.25175636 32656
SL-16 R/B DEB
1 49050U 92093LX  26164.24849325  .00019676  00000-0  83697-2 0  9991
2 49050  71.0139 159.1735 0006038 131.7387 228.4258 14.25175636 32656
SL-16 R/B DEB
1 49050U 92093LX  26165.02055264  .00020483  00000-0  87058-2 0  9992
2 49050  71.0146 157.5264 0006046 130.2126 229.9532 14.25207389 32761
SL-16 R/B DEB
1 49050U 92093LX  26165.02055264  .00020483  00000-0  87058-2 0  9992
2 49050  71.0146 157.5264 0006046 130.2126 229.9532 14.25207389 32761
SL-16 R/B DEB
1 49050U 92093LX  26165.37148267  .00019451  00000-0  82671-2 0  9995
2 49050  71.0130 156.7752 0006205 129.4156 230.7522 14.25220723 32819
SL-16 R/B DEB
1 49050U 92093LX  26165.37148268  .00019451  00000-0  82671-2 0  9996
2 49050  71.0130 156.7752 0006205 129.4156 230.7522 14.25220723 32819
SL-16 R/B DEB
1 49050U 92093LX  26166.35407323  .00015708  00000-0  66797-2 0  9997
2 49050  71.0132 154.6782 0006345 127.0989 233.0720 14.25251408 32959
SL-16 R/B DEB
1 49050U 92093LX  26166.35407323  .00015708  00000-0  66797-2 0  9997
2 49050  71.0132 154.6782 0006345 127.0989 233.0720 14.25251409 32950
SL-16 R/B DEB
1 49050U 92093LX  26167.61737131  .00015589  00000-0  66242-2 0  9992
2 49050  71.0132 151.9817 0006352 124.8697 235.3029 14.25291595 33136
SL-16 R/B DEB
1 49050U 92093LX  26167.61737131  .00015589  00000-0  66242-2 0  9992
2 49050  71.0132 151.9817 0006352 124.8697 235.3029 14.25291595 33136
SL-16 R/B DEB
1 49050U 92093LX  26168.03846329  .00016587  00000-0  70442-2 0  9995
2 49050  71.0128 151.0834 0006379 123.7789 236.3948 14.25305606 33196
SL-16 R/B DEB
1 49050U 92093LX  26168.31918929  .00015018  00000-0  63802-2 0  9992
2 49050  71.0129 150.4842 0006384 123.2760 236.8980 14.25312024 33237
SL-16 R/B DEB
1 49050U 92093LX  26168.31918930  .00015018  00000-0  63802-2 0  9994
2 49050  71.0129 150.4842 0006384 123.2760 236.8981 14.25312024 33238
SL-16 R/B DEB
1 49050U 92093LX  26169.02099674  .00016520  00000-0  70120-2 0  9998
2 49050  71.0131 148.9862 0006477 121.6741 238.5020 14.25335041 33337
SL-16 R/B DEB
1 49050U 92093LX  26170.35440523  .00016260  00000-0  68971-2 0  9991
2 49050  71.0135 146.1389 0006673 117.5451 242.6356 14.25372209 33521
SL-16 R/B DEB
1 49050U 92093LX  26171.33689205  .00016643  00000-0  70544-2 0  9996
2 49050  71.0134 144.0420 0006875 115.7347 244.4492 14.25402895 33662
SL-16 R/B DEB
1 49050U 92093LX  26173.16145524  .00015012  00000-0  63598-2 0  9990
2 49050  71.0122 140.1476 0007060 112.8559 247.3316 14.25456636 33925
SL-16 R/B DEB
1 49050U 92093LX  26174.14388300  .00016165  00000-0  68415-2 0  9993
2 49050  71.0120 138.0500 0006937 111.1311 249.0560 14.25487638 34069
SL-16 R/B DEB
1 49050U 92093LX  26176.59984830  .00024919  00000-0  10501-1 0  9992
2 49050  71.0121 132.8058 0007342 107.3496 252.8436 14.25588060 34416
SL-16 R/B DEB
1 49050U 92093LX  26176.88051978  .00021675  00000-0  91394-2 0  9998
2 49050  71.0119 132.2064 0007636 106.6399 253.5568 14.25595440 34452
SL-16 R/B DEB
1 49050U 92093LX  26176.88051979  .00021675  00000-0  91394-2 0  9999
2 49050  71.0119 132.2064 0007636 106.6399 253.5568 14.25595440 34452
SL-16 R/B DEB
1 49050U 92093LX  26177.93301575  .00019126  00000-0  80639-2 0  9994
2 49050  71.0118 129.9587 0007776 105.1025 255.0964 14.25634540 34608
SL-16 R/B DEB
1 49050U 92093LX  26178.21367654  .00019046  00000-0  80285-2 0  9994
2 49050  71.0117 129.3592 0007939 104.8441 255.3567 14.25644989 34640
SL-16 R/B DEB
1 49050U 92093LX  26178.21367654  .00019046  00000-0  80285-2 0  9994
2 49050  71.0117 129.3592 0007939 104.8441 255.3568 14.25644989 34641
SL-16 R/B DEB
1 49050U 92093LX  26178.84515674  .00017659  00000-0  74440-2 0  9994
2 49050  71.0107 128.0099 0007858 103.6882 256.5121 14.25665041 34734
SL-16 R/B DEB
1 49050U 92093LX  26178.84515674  .00017659  00000-0  74440-2 0  9994
2 49050  71.0107 128.0099 0007858 103.6882 256.5121 14.25665042 34735
SL-16 R/B DEB
1 49050U 92093LX  26179.26613846  .00016511  00000-0  69610-2 0  9990
2 49050  71.0108 127.1106 0007954 103.0801 257.1216 14.25678125 34791
SL-16 R/B DEB
1 49050U 92093LX  26179.82744120  .00016620  00000-0  70041-2 0  9993
2 49050  71.0109 125.9116 0008060 102.2234 257.9798 14.25696322 34870
SL-16 R/B DEB
1 49050U 92093LX  26182.91447570  .00021554  00000-0  90508-2 0  9998
2 49050  71.0113 119.3171 0008533  97.7998 262.4100 14.25807175 35311
SL-16 R/B DEB
1 49050U 92093LX  26182.91447570  .00021554  00000-0  90508-2 0  9998
2 49050  71.0113 119.3171 0008533  97.7998 262.4100 14.25807175 35311
SL-16 R/B DEB
1 49050U 92093LX  26185.08929378  .00021135  00000-0  88638-2 0  9996
2 49050  71.0122 114.6714 0008722  95.0258 265.1866 14.25877059 35623
SL-16 R/B DEB
1 49050U 92093LX  26185.08929379  .00021135  00000-0  88638-2 0  9997
2 49050  71.0122 114.6714 0008722  95.0258 265.1866 14.25877059 35623
SL-16 R/B DEB
1 49050U 92093LX  26185.79081747  .00038396  00000-0  16030-1 0  9996
2 49050  71.0115 113.1721 0008641  94.0803 266.1313 14.25930106 35724
SL-16 R/B DEB
1 49050U 92093LX  26186.21172519  .00027526  00000-0  11513-1 0  9996
2 49050  71.0102 112.2717 0008689  93.0853 267.1270 14.25938712 35781
SL-16 R/B DEB
1 49050U 92093LX  26186.21172519  .00027526  00000-0  11513-1 0  9996
2 49050  71.0102 112.2717 0008689  93.0853 267.1270 14.25938712 35781
SL-16 R/B DEB
1 49050U 92093LX  26186.21172519  .00027526  00000-0  11513-1 0  9996
2 49050  71.0102 112.2716 0008689  93.0853 267.1270 14.25938712 35780
SL-16 R/B DEB
1 49050U 92093LX  26187.19382634  .00014925  00000-0  62605-2 0  9993
2 49050  71.0094 110.1723 0008944  91.8211 268.3942 14.25961112 35928
SL-16 R/B DEB
1 49050U 92093LX  26187.19382634  .00014925  00000-0  62605-2 0  9993
2 49050  71.0094 110.1723 0008944  91.8211 268.3942 14.25961112 35928
SL-16 R/B DEB
1 49050U 92093LX  26188.17591095  .00010608  00000-0  44567-2 0  9996
2 49050  71.0095 108.0734 0009102  90.4543 269.7628 14.25980298 36065
SL-16 R/B DEB
1 49050U 92093LX  26188.17591096  .00010608  00000-0  44567-2 0  9997
2 49050  71.0095 108.0734 0009102  90.4543 269.7628 14.25980298 36065
SL-16 R/B DEB
1 49050U 92093LX  26190.42062552  .00010010  00000-0  42032-2 0  9990
2 49050  71.0098 103.2757 0009298  86.9552 273.2640 14.26024126 36385
SL-16 R/B DEB
1 49050U 92093LX  26192.10411713  .00007875  00000-0  33103-2 0  9998
2 49050  71.0101  99.6776 0009481  84.5428 275.6782 14.26053014 36627
SL-16 R/B DEB
1 49050U 92093LX  26192.10411713  .00007875  00000-0  33103-2 0  9998
2 49050  71.0101  99.6776 0009481  84.5428 275.6782 14.26053014 36627
SL-16 R/B DEB
1 49050U 92093LX  26192.10411713  .00007875  00000-0  33103-2 0  9998
2 49050  71.0101  99.6776 0009481  84.5428 275.6782 14.26053014 36627
SL-16 R/B DEB
1 49050U 92093LX  26193.15628301  .00007516  00000-0  31597-2 0  9994
2 49050  71.0099  97.4287 0009550  82.8960 277.3254 14.26069412 36773
SL-16 R/B DEB
1 49050U 92093LX  26193.15628301  .00007516  00000-0  31597-2 0  9994
2 49050  71.0099  97.4287 0009550  82.8960 277.3254 14.26069412 36773
SL-16 R/B DEB
1 49050U 92093LX  26193.78757751  .00009313  00000-0  39079-2 0  9995
2 49050  71.0107  96.0794 0009712  81.3265 278.8963 14.26080739 36861
SL-16 R/B DEB
1 49050U 92093LX  26194.13829432  .00007953  00000-0  33406-2 0  9997
2 49050  71.0106  95.3297 0009753  80.9828 279.2404 14.26084821 36912
SL-16 R/B DEB
1 49050U 92093LX  26194.13829432  .00007953  00000-0  33406-2 0  9997
2 49050  71.0106  95.3297 0009753  80.9828 279.2404 14.26084821 36912
SL-16 R/B DEB
1 49050U 92093LX  26194.76958148  .00007695  00000-0  32325-2 0  9995
2 49050  71.0108  93.9805 0009833  80.0634 280.1604 14.26094502 37009
SL-16 R/B DEB
1 49050U 92093LX  26195.12029459  .00008082  00000-0  33933-2 0  9997
2 49050  71.0108  93.2308 0009893  79.6766 280.5477 14.26100462 37056
SL-16 R/B DEB
1 49050U 92093LX  26195.12029460  .00008082  00000-0  33933-2 0  9999
2 49050  71.0108  93.2308 0009893  79.6766 280.5477 14.26100462 37056
SL-16 R/B DEB
1 49050U 92093LX  26195.75157441  .00007566  00000-0  31776-2 0  9998
2 49050  71.0105  91.8812 0009933  78.8778 281.3467 14.26110007 37140
SL-16 R/B DEB
1 49050U 92093LX  26195.75157441  .00007566  00000-0  31776-2 0  9998
2 49050  71.0105  91.8812 0009933  78.8778 281.3467 14.26110007 37140
SL-16 R/B DEB
1 49050U 92093LX  26196.10228367  .00007855  00000-0  32980-2 0  9993
2 49050  71.0106  91.1317 0009971  78.2604 281.9643 14.26115755 37190
SL-16 R/B DEB
1 49050U 92093LX  26196.10228367  .00007855  00000-0  32980-2 0  9993
2 49050  71.0106  91.1317 0009971  78.2604 281.9643 14.26115755 37190
SL-16 R/B DEB
1 49050U 92093LX  26197.36482558  .00006939  00000-0  29149-2 0  9991
2 49050  71.0104  88.4326 0010065  76.3706 283.8543 14.26134259 37375
SL-16 R/B DEB
1 49050U 92093LX  26197.36482558  .00006939  00000-0  29149-2 0  9991
2 49050  71.0104  88.4326 0010065  76.3706 283.8543 14.26134259 37375
SL-16 R/B DEB
1 49050U 92093LX  26197.78566875  .00007314  00000-0  30707-2 0  9992
2 49050  71.0104  87.5326 0010044  75.5798 284.6445 14.26141570 37435
SL-16 R/B DEB
1 49050U 92093LX  26197.78566876  .00007314  00000-0  30707-2 0  9993
2 49050  71.0104  87.5326 0010044  75.5798 284.6445 14.26141570 37435
SL-16 R/B DEB
1 49050U 92093LX  26199.11832692  .00007240  00000-0  30386-2 0  9995
2 49050  71.0101  84.6830 0010164  73.8004 286.4243 14.26161943 37627
SL-16 R/B DEB
1 49050U 92093LX  26200.10027394  .00007223  00000-0  30308-2 0  9997
2 49050  71.0103  82.5832 0010226  72.2333 287.9910 14.26176410 37762
SL-16 R/B DEB
1 49050U 92093LX  26200.73152010  .00006979  00000-0  29287-2 0  9991
2 49050  71.0101  81.2339 0010250  71.3409 288.8831 14.26185505 37856
SL-16 R/B DEB
1 49050U 92093LX  26201.08221088  .00007552  00000-0  31667-2 0  9995
2 49050  71.0102  80.4843 0010293  70.4783 289.7457 14.26191372 37909
SL-16 R/B DEB
1 49050U 92093LX  26201.78358745  .00008376  00000-0  35088-2 0  9999
2 49050  71.0101  78.9851 0010341  69.5534 290.6704 14.26203854 38003
SL-16 R/B DEB
1 49050U 92093LX  26201.78358746  .00008376  00000-0  35088-2 0  9990
2 49050  71.0101  78.9851 0010341  69.5534 290.6704 14.26203854 38003
SL-16 R/B DEB
1 49050U 92093LX  26202.06413590  .00010317  00000-0  43151-2 0  9999
2 49050  71.0097  78.3854 0010411  69.5138 290.7107 14.26211963 38044
SL-16 R/B DEB
1 49050U 92093LX  26203.04604388  .00015385  00000-0  64165-2 0  9993
2 49050  71.0101  76.2860 0010416  67.9808 292.2426 14.26242171 38186
SL-16 R/B DEB
1 49050U 92093LX  26204.02793009  .00016277  00000-0  67823-2 0  9996
2 49050  71.0104  74.1868 0010419  66.4289 293.7933 14.26273426 38326
SL-16 R/B DEB
1 49050U 92093LX  26204.37859852  .00014582  00000-0  60787-2 0  9992
2 49050  71.0107  73.4371 0010433  65.9534 294.2685 14.26282859 38378
SL-16 R/B DEB
1 49050U 92093LX  26204.37859853  .00014582  00000-0  60787-2 0  9993
2 49050  71.0107  73.4371 0010433  65.9534 294.2685 14.26282859 38378
SL-16 R/B DEB
1 49050U 92093LX  26206.06176456  .00016182  00000-0  67339-2 0  9990
2 49050  71.0106  69.8384 0010427  62.8935 297.3256 14.26342724 38617
SL-16 R/B DEB
1 49050U 92093LX  26207.04358240  .00014483  00000-0  60273-2 0  9994
2 49050  71.0106  67.7390 0010497  61.6009 298.6176 14.26370991 38754
SL-16 R/B DEB
1 49050U 92093LX  26207.60461181  .00016059  00000-0  66769-2 0  9992
2 49050  71.0105  66.5392 0010501  60.8193 299.3985 14.26389558 38837
SL-16 R/B DEB
1 49050U 92093LX  26208.02537978  .00015494  00000-0  64417-2 0  9997
2 49050  71.0103  65.6395 0010617  60.8895 299.3295 14.26402041 38898
SL-16 R/B DEB
1 49050U 92093LX  26208.86690318  .00017210  00000-0  71473-2 0  9995
2 49050  71.0099  63.8398 0010611  59.7334 300.4844 14.26430059 39013
SL-16 R/B DEB
1 49050U 92093LX  26209.98890745  .00017103  00000-0  70974-2 0  9991
2 49050  71.0099  61.4396 0010640  58.1456 302.0707 14.26468918 39173
SL-16 R/B DEB
1 49050U 92093LX  26209.98890746  .00017103  00000-0  70974-2 0  9992
2 49050  71.0099  61.4396 0010640  58.1456 302.0707 14.26468918 39173
SL-16 R/B DEB
1 49050U 92093LX  26212.65354359  .00015435  00000-0  63978-2 0  9997
2 49050  71.0103  55.7396 0010607  54.0848 306.1263 14.26558382 39557
SL-16 R/B DEB
1 49050U 92093LX  26212.65354359  .00015435  00000-0  63978-2 0  9997
2 49050  71.0103  55.7396 0010607  54.0848 306.1263 14.26558382 39557
SL-16 R/B DEB
1 49050U 92093LX  26212.93402244  .00015484  00000-0  64168-2 0  9991
2 49050  71.0106  55.1394 0010603  53.7612 306.4495 14.26567150 39590
SL-16 R/B DEB
1 49050U 92093LX  26213.56509362  .00014919  00000-0  61816-2 0  9999
2 49050  71.0101  53.7897 0010594  52.5365 307.6725 14.26585643 39684
SL-16 R/B DEB
1 49050U 92093LX  26213.91568524  .00015021  00000-0  62227-2 0  9995
2 49050  71.0103  53.0396 0010599  52.1304 308.0782 14.26596311 39735
SL-16 R/B DEB
1 49050U 92093LX  26213.98580336  .00015022  00000-0  62226-2 0  9997
2 49050  71.0104  52.8897 0010607  52.0847 308.1240 14.26598449 39745
SL-16 R/B DEB
1 49050U 92093LX  26214.26627432  .00013493  00000-0  55917-2 0  9997
2 49050  71.0104  52.2897 0010613  51.5910 308.6170 14.26604846 39781
SL-16 R/B DEB
1 49050U 92093LX  26214.61686191  .00013289  00000-0  55067-2 0  9992
2 49050  71.0105  51.5397 0010637  51.1651 309.0425 14.26613736 39835
SL-16 R/B DEB
1 49050U 92093LX  26215.52837458  .00017531  00000-0  72491-2 0  9991
2 49050  71.0107  49.5897 0010630  50.0601 310.1460 14.26646770 39965
SL-16 R/B DEB
1 49050U 92093LX  26215.59849024  .00017504  00000-0  72375-2 0  9991
2 49050  71.0107  49.4397 0010640  49.9248 310.2812 14.26649025 39973
SL-16 R/B DEB
1 49050U 92093LX  26216.93066381  .00013271  00000-0  54913-2 0  9992
2 49050  71.0110  46.5896 0010616  48.1052 312.0981 14.26689310 40167
SL-16 R/B DEB
1 49050U 92093LX  26217.91224459  .00010065  00000-0  41699-2 0  9998
2 49050  71.0113  44.4895 0010592  46.5353 313.6655 14.26710711 40306
SL-16 R/B DEB
1 49050U 92093LX  26218.61336597  .00009291  00000-0  38503-2 0  9992
2 49050  71.0113  42.9894 0010554  45.3888 314.8100 14.26723287 40407
SL-16 R/B DEB
1 49050U 92093LX  26218.89381284  .00009140  00000-0  37876-2 0  9990
2 49050  71.0110  42.3891 0010568  44.7842 315.4138 14.26728253 40443
SL-16 R/B DEB
1 49050U 92093LX  26219.87536870  .00009080  00000-0  37617-2 0  9998
2 49050  71.0108  40.2889 0010554  42.9781 317.2170 14.26745913 40584
SL-16 R/B DEB
1 49050U 92093LX  26219.87536871  .00009080  00000-0  37617-2 0  9999
2 49050  71.0108  40.2889 0010554  42.9781 317.2170 14.26745913 40584
SL-16 R/B DEB
1 49050U 92093LX  26220.22592145  .00008099  00000-0  33579-2 0  9998
2 49050  71.0107  39.5391 0010468  42.6486 317.5454 14.26750655 40638
SL-16 R/B DEB
1 49050U 92093LX  26220.22592145  .00008099  00000-0  33579-2 0  9998
2 49050  71.0107  39.5391 0010468  42.6486 317.5454 14.26750655 40638
SL-16 R/B DEB
1 49050U 92093LX  26221.83844333  .00010338  00000-0  42761-2 0  9997
2 49050  71.0109  36.0887 0010525  40.1399 320.0506 14.26785358 40862
SL-16 R/B DEB
1 49050U 92093LX  26221.90855198  .00010128  00000-0  41895-2 0  9990
2 49050  71.0110  35.9388 0010535  40.1287 320.0618 14.26787092 40877
SL-16 R/B DEB
1 49050U 92093LX  26222.53952742  .00008391  00000-0  34747-2 0  9990
2 49050  71.0108  34.5886 0010544  38.9611 321.2276 14.26797950 40965
SL-16 R/B DEB
1 49050U 92093LX  26222.53952742  .00008391  00000-0  34747-2 0  9990
2 49050  71.0108  34.5886 0010544  38.9611 321.2276 14.26797950 40965
SL-16 R/B DEB
1 49050U 92093LX  26223.52103625  .00007828  00000-0  32423-2 0  9991
2 49050  71.0107  32.4877 0010464  37.4733 322.7124 14.26813160 41108
SL-16 R/B DEB
1 49050U 92093LX  26223.87157240  .00008966  00000-0  37097-2 0  9997
2 49050  71.0107  31.7374 0010455  36.9305 323.2542 14.26820300 41150
SL-16 R/B DEB
1 49050U 92093LX  26223.87157240  .00008966  00000-0  37097-2 0  9997
2 49050  71.0107  31.7374 0010455  36.9305 323.2542 14.26820300 41150
SL-16 R/B DEB
1 49050U 92093LX  26224.50253450  .00008142  00000-0  33702-2 0  9993
2 49050  71.0110  30.3869 0010450  35.9308 324.2521 14.26828955 41247
SL-16 R/B DEB
1 49050U 92093LX  26224.50253451  .00008142  00000-0  33702-2 0  9994
2 49050  71.0110  30.3869 0010450  35.9308 324.2521 14.26828955 41247
SL-16 R/B DEB
1 49050U 92093LX  26224.85306676  .00008543  00000-0  35347-2 0  9992
2 49050  71.0112  29.6367 0010425  35.4777 324.7043 14.26835121 41292
SL-16 R/B DEB
1 49050U 92093LX  26226.81602200  .00009891  00000-0  40858-2 0  9992
2 49050  71.0119  25.4354 0010189  32.0641 328.1106 14.26869436 41574
SL-16 R/B DEB
1 49050U 92093LX  26226.81602201  .00009891  00000-0  40858-2 0  9993
2 49050  71.0119  25.4354 0010189  32.0641 328.1106 14.26869436 41574
SL-16 R/B DEB
1 49050U 92093LX  26227.51706488  .00009146  00000-0  37794-2 0  9991
2 49050  71.0127  23.9356 0009915  30.9172 329.2539 14.26881539 41670
SL-16 R/B DEB
1 49050U 92093LX  26227.72737725  .00009606  00000-0  39674-2 0  9992
2 49050  71.0124  23.4852 0010255  30.0941 330.0775 14.26886222 41707
SL-16 R/B DEB
1 49050U 92093LX  26227.72737725  .00009606  00000-0  39674-2 0  9992
2 49050  71.0124  23.4852 0010255  30.0941 330.0775 14.26886222 41707
SL-16 R/B DEB
1 49050U 92093LX  26228.42841209  .00009661  00000-0  39890-2 0  9994
2 49050  71.0132  21.9855 0010168  29.0094 331.1598 14.26899942 41801
SL-16 R/B DEB
1 49050U 92093LX  26228.49851545  .00009681  00000-0  39969-2 0  9994
2 49050  71.0128  21.8349 0010240  28.8180 331.3513 14.26901012 41819
SL-16 R/B DEB
1 49050U 92093LX  26228.84903023  .00009943  00000-0  41040-2 0  9996
2 49050  71.0118  21.0842 0010232  27.7573 332.4100 14.26907537 41860
SL-16 R/B DEB
1 49050U 92093LX  26229.40985037  .00010609  00000-0  43764-2 0  9990
2 49050  71.0117  19.8842 0010155  26.6848 333.4802 14.26919248 41942
SL-16 R/B DEB
1 49050U 92093LX  26230.46137486  .00015559  00000-0  64006-2 0  9996
2 49050  71.0107  17.6341 0010255  25.0909 335.0716 14.26947398 42099
SL-16 R/B DEB
1 49050U 92093LX  26231.79327358  .00016535  00000-0  67944-2 0  9991
2 49050  71.0107  14.7829 0010310  22.4432 337.7146 14.26987100 42284
SL-16 R/B DEB
1 49050U 92093LX  26232.49425742  .00013700  00000-0  56334-2 0  9997
2 49050  71.0106  13.2819 0010227  20.5031 339.6506 14.27004600 42385
SL-16 R/B DEB
1 49050U 92093LX  26235.36819432  .00012525  00000-0  51455-2 0  9992
2 49050  71.0108   7.1288 0010209  12.9551 347.1838 14.27081623 42798
SL-16 R/B DEB
1 49050U 92093LX  26236.06913209  .00013058  00000-0  53611-2 0  9995
2 49050  71.0106   5.6277 0010202  11.8241 348.3126 14.27099088 42892
SL-16 R/B DEB
1 49050U 92093LX  26236.34950492  .00013012  00000-0  53415-2 0  9993
2 49050  71.0111   5.0277 0010173  11.3945 348.7412 14.27106007 42932
SL-16 R/B DEB
1 49050U 92093LX  26236.34950492  .00013012  00000-0  53415-2 0  9993
2 49050  71.0111   5.0277 0010173  11.3945 348.7412 14.27106007 42932
SL-16 R/B DEB
1 49050U 92093LX  26237.33079825  .00013897  00000-0  56997-2 0  9994
2 49050  71.0115   2.9266 0010189   9.0647 351.0664 14.27132325 43074
SL-16 R/B DEB
1 49050U 92093LX  26237.33079826  .00013897  00000-0  56997-2 0  9995
2 49050  71.0115   2.9266 0010189   9.0647 351.0664 14.27132325 43074
SL-16 R/B DEB
1 49050U 92093LX  26238.38216473  .00012132  00000-0  49774-2 0  9998
2 49050  71.0118   0.6753 0010264   6.9519 353.1750 14.27157748 43223
SL-16 R/B DEB
1 49050U 92093LX  26238.38216474  .00012132  00000-0  49774-2 0  9999
2 49050  71.0118   0.6753 0010264   6.9519 353.1750 14.27157748 43223
SL-16 R/B DEB
1 49050U 92093LX  26240.97545719  .00013993  00000-0  57290-2 0  9992
2 49050  71.0121 355.1223 0010375 359.6357   0.4763 14.27219909 43592
SL-16 R/B DEB
1 49050U 92093LX  26240.97545719  .00013993  00000-0  57290-2 0  9992
2 49050  71.0121 355.1223 0010375 359.6357   0.4763 14.27219910 43594
SL-16 R/B DEB
1 49050U 92093LX  26241.39598086  .00016709  00000-0  68327-2 0  9995
2 49050  71.0090 354.2197 0010560   0.0402   0.0726 14.27234072 43651
SL-16 R/B DEB
1 49050U 92093LX  26241.39598086  .00016709  00000-0  68327-2 0  9995
2 49050  71.0090 354.2197 0010560   0.0402   0.0726 14.27234072 43651
SL-16 R/B DEB
1 49050U 92093LX  26242.02675985  .00013096  00000-0  53610-2 0  9995
2 49050  71.0100 352.8697 0010569 358.2385   1.8705 14.27245938 43748
SL-16 R/B DEB
1 49050U 92093LX  26242.02675986  .00013096  00000-0  53610-2 0  9996
2 49050  71.0100 352.8697 0010569 358.2385   1.8705 14.27245938 43748
SL-16 R/B DEB
1 49050U 92093LX  26243.70880186  .00010307  00000-0  42221-2 0  9990
2 49050  71.0091 349.2667 0010708 354.8073   5.2943 14.27285235 43987
SL-16 R/B DEB
1 49050U 92093LX  26243.70880187  .00010307  00000-0  42221-2 0  9991
2 49050  71.0091 349.2667 0010708 354.8073   5.2943 14.27285235 43987
SL-16 R/B DEB
1 49050U 92093LX  26244.33955709  .00008622  00000-0  35352-2 0  9998
2 49050  71.0093 347.9156 0010760 353.6366   6.4625 14.27296021 44073
SL-16 DEB
1 49050U 92093LX  26244.33955710  .00008622  00000-0  35352-2 0  9990
2 49050  71.0093 347.9156 0010760 353.6366   6.4625 14.27296021 44073
