SL-16 DEB
1 49051U 92093LY  26012.27006013  .00001210  00000-0  64207-3 0  9998
2 49051  71.0236 122.6905 0004403 355.6298   4.4785 14.15598053  4580
SL-16 DEB
1 49051U 92093LY  26012.27006013  .00001210  00000-0  64207-3 0  9998
2 49051  71.0236 122.6905 0004403 355.6298   4.4785 14.15598053  4580
SL-16 DEB
1 49051U 92093LY  26016.93377826  .00000991  00000-0  53027-3 0  9991
2 49051  71.0221 112.8973 0004825 347.3962  12.7040 14.15607837  5245
SL-16 DEB
1 49051U 92093LY  26017.92304757  .00001004  00000-0  53666-3 0  9999
2 49051  71.0222 110.8201 0004913 345.6965  14.4018 14.15610043  5382
SL-16 DEB
1 49051U 92093LY  26019.61893387  .00001006  00000-0  53774-3 0  9991
2 49051  71.0221 107.2591 0005133 342.0064  18.0877 14.15613751  5628
SL-16 DEB
1 49051U 92093LY  26019.90158099  .00001250  00000-0  66232-3 0  9991
2 49051  71.0222 106.6657 0005154 341.6553  18.4383 14.15615743  5669
SL-16 DEB
1 49051U 92093LY  26020.89083954  .00001879  00000-0  98318-3 0  9995
2 49051  71.0222 104.5886 0005277 339.8098  20.2816 14.15623133  5809
SL-16 DEB
1 49051U 92093LY  26021.88009705  .00001970  00000-0  10295-2 0  9996
2 49051  71.0222 102.5113 0005372 338.0501  22.0391 14.15627438  5941
SL-16 DEB
1 49051U 92093LY  26022.30406398  .00001828  00000-0  95689-3 0  9996
2 49051  71.0222 101.6211 0005428 337.2572  22.8309 14.15628326  6003
SL-16 DEB
1 49051U 92093LY  26022.30406399  .00001828  00000-0  95689-3 0  9997
2 49051  71.0222 101.6211 0005428 337.2572  22.8309 14.15628326  6003
SL-16 DEB
1 49051U 92093LY  26023.92926556  .00001866  00000-0  97602-3 0  9997
2 49051  71.0222  98.2088 0005619 334.4537  25.6308 14.15635131  6235
SL-16 DEB
1 49051U 92093LY  26023.92926556  .00001866  00000-0  97602-3 0  9997
2 49051  71.0222  98.2088 0005619 334.4537  25.6308 14.15635131  6235
SL-16 DEB
1 49051U 92093LY  26025.55446104  .00001431  00000-0  75413-3 0  9998
2 49051  71.0217  94.7952 0005715 332.1224  27.9592 14.15639120  6462
SL-16 DEB
1 49051U 92093LY  26025.55446105  .00001431  00000-0  75413-3 0  9999
2 49051  71.0217  94.7952 0005715 332.1224  27.9592 14.15639120  6462
SL-16 DEB
1 49051U 92093LY  26027.25031130  .00001311  00000-0  69284-3 0  9992
2 49051  71.0214  91.2336 0005887 329.5402  30.5379 14.15644146  6709
SL-16 DEB
1 49051U 92093LY  26027.25031130  .00001311  00000-0  69284-3 0  9992
2 49051  71.0214  91.2336 0005887 329.5401  30.5379 14.15644146  6708
SL-16 DEB
1 49051U 92093LY  26030.14737842  .00001045  00000-0  55725-3 0  9996
2 49051  71.0207  85.1491 0006082 325.4738  34.5990 14.15650288  7113
SL-16 DEB
1 49051U 92093LY  26030.14737842  .00001045  00000-0  55725-3 0  9996
2 49051  71.0207  85.1491 0006082 325.4738  34.5990 14.15650288  7113
SL-16 DEB
1 49051U 92093LY  26031.56057861  .00000784  00000-0  42404-3 0  9998
2 49051  71.0208  82.1823 0006243 323.9481  36.1220 14.15651900  7315
SL-16 DEB
1 49051U 92093LY  26031.56057862  .00000784  00000-0  42404-3 0  9999
2 49051  71.0208  82.1823 0006243 323.9481  36.1220 14.15651901  7316
SL-16 DEB
1 49051U 92093LY  26032.54981699  .00000708  00000-0  38524-3 0  9996
2 49051  71.0207  80.1049 0006303 322.8178  37.2508 14.15653472  7452
SL-16 DEB
1 49051U 92093LY  26033.53905400  .00000714  00000-0  38842-3 0  9992
2 49051  71.0206  78.0274 0006351 321.7125  38.3546 14.15655401  7593
SL-16 DEB
1 49051U 92093LY  26035.37620570  .00000833  00000-0  44893-3 0  9993
2 49051  71.0204  74.1691 0006417 319.7715  40.2933 14.15659219  7858
SL-16 DEB
1 49051U 92093LY  26035.37620570  .00000833  00000-0  44893-3 0  9993
2 49051  71.0204  74.1691 0006417 319.7715  40.2933 14.15659219  7858
SL-16 DEB
1 49051U 92093LY  26040.32235901  .00001071  00000-0  57010-3 0  9994
2 49051  71.0204  63.7814 0006583 314.8547  45.2041 14.15669997  8559
SL-16 DEB
1 49051U 92093LY  26047.38822272  .00001247  00000-0  65982-3 0  9992
2 49051  71.0212  48.9408 0006961 307.7250  52.3242 14.15687543  9554
SL-16 DEB
1 49051U 92093LY  26047.38822272  .00001247  00000-0  65982-3 0  9992
2 49051  71.0212  48.9408 0006961 307.7250  52.3242 14.15687543  9554
SL-16 DEB
1 49051U 92093LY  26047.67085543  .00001176  00000-0  62357-3 0  9990
2 49051  71.0212  48.3472 0007015 307.4897  52.5587 14.15687897  9594
SL-16 DEB
1 49051U 92093LY  26047.67085544  .00001176  00000-0  62357-3 0  9991
2 49051  71.0212  48.3472 0007015 307.4897  52.5587 14.15687898  9595
SL-16 DEB
1 49051U 92093LY  26049.36664877  .00001104  00000-0  58702-3 0  9991
2 49051  71.0217  44.7856 0007113 305.9419  54.1044 14.15691807  9836
SL-16 DEB
1 49051U 92093LY  26049.36664878  .00001104  00000-0  58702-3 0  9992
2 49051  71.0217  44.7856 0007113 305.9419  54.1044 14.15691807  9836
SL-16 DEB
1 49051U 92093LY  26051.62770001  .00000927  00000-0  49655-3 0  9999
2 49051  71.0220  40.0363 0007339 304.5128  55.5302 14.15696151 10150
SL-16 DEB
1 49051U 92093LY  26051.62770001  .00000927  00000-0  49655-3 0  9999
2 49051  71.0220  40.0363 0007339 304.5128  55.5302 14.15696151 10150
SL-16 DEB
1 49051U 92093LY  26052.97019536  .00000840  00000-0  45245-3 0  9992
2 49051  71.0219  37.2159 0007363 302.5837  57.4575 14.15698650 10341
SL-16 DEB
1 49051U 92093LY  26052.97019536  .00000840  00000-0  45245-3 0  9992
2 49051  71.0219  37.2159 0007363 302.5836  57.4575 14.15698650 10340
SL-16 DEB
1 49051U 92093LY  26053.60611331  .00000892  00000-0  47864-3 0  9990
2 49051  71.0220  35.8813 0007377 301.0885  58.9514 14.15700204 10434
SL-16 DEB
1 49051U 92093LY  26054.94860556  .00000814  00000-0  43881-3 0  9992
2 49051  71.0222  33.0619 0007436 300.1179  59.9207 14.15702481 10622
SL-16 DEB
1 49051U 92093LY  26056.36175287  .00000781  00000-0  42213-3 0  9991
2 49051  71.0224  30.0935 0007501 299.1263  60.9109 14.15704958 10822
SL-16 DEB
1 49051U 92093LY  26056.36175288  .00000781  00000-0  42213-3 0  9992
2 49051  71.0224  30.0935 0007501 299.1263  60.9109 14.15704958 10822
SL-16 DEB
1 49051U 92093LY  26058.19883928  .00000782  00000-0  42247-3 0  9990
2 49051  71.0230  26.2362 0007562 296.9647  63.0703 14.15708724 11086
SL-16 DEB
1 49051U 92093LY  26058.19883929  .00000782  00000-0  42247-3 0  9991
2 49051  71.0230  26.2362 0007562 296.9647  63.0703 14.15708724 11086
SL-16 DEB
1 49051U 92093LY  26058.34015350  .00000823  00000-0  44343-3 0  9998
2 49051  71.0233  25.9390 0007662 297.2221  62.8121 14.15709239 11105
SL-16 DEB
1 49051U 92093LY  26058.34015350  .00000823  00000-0  44343-3 0  9998
2 49051  71.0233  25.9390 0007662 297.2221  62.8121 14.15709239 11105
SL-16 DEB
1 49051U 92093LY  26059.89460778  .00000837  00000-0  45080-3 0  9991
2 49051  71.0235  22.6746 0007705 295.6043  64.4283 14.15712325 11329
SL-16 DEB
1 49051U 92093LY  26059.89460778  .00000837  00000-0  45080-3 0  9991
2 49051  71.0235  22.6746 0007705 295.6043  64.4283 14.15712325 11329
SL-16 DEB
1 49051U 92093LY  26060.31854907  .00000924  00000-0  49496-3 0  9993
2 49051  71.0237  21.7841 0007728 295.2888  64.7434 14.15713651 11385
SL-16 DEB
1 49051U 92093LY  26060.31854908  .00000924  00000-0  49496-3 0  9994
2 49051  71.0237  21.7841 0007728 295.2888  64.7434 14.15713651 11385
SL-16 DEB
1 49051U 92093LY  26061.87299837  .00000933  00000-0  49948-3 0  9992
2 49051  71.0242  18.5201 0007762 293.2903  66.7403 14.15716874 11602
SL-16 DEB
1 49051U 92093LY  26061.87299838  .00000933  00000-0  49948-3 0  9993
2 49051  71.0242  18.5201 0007762 293.2903  66.7403 14.15716874 11602
SL-16 DEB
1 49051U 92093LY  26062.86219199  .00001117  00000-0  59335-3 0  9991
2 49051  71.0244  16.4428 0007764 292.3775  67.6525 14.15719776 11745
SL-16 DEB
1 49051U 92093LY  26062.86219200  .00001117  00000-0  59335-3 0  9994
2 49051  71.0244  16.4428 0007764 292.3775  67.6525 14.15719776 11745
SL-16 DEB
1 49051U 92093LY  26063.85138300  .00001171  00000-0  62081-3 0  9997
2 49051  71.0228  14.3656 0007234 291.5904  68.4448 14.15722423 11885
SL-16 DEB
1 49051U 92093LY  26064.27532088  .00001226  00000-0  64881-3 0  9996
2 49051  71.0233  13.4748 0007438 291.0280  69.0048 14.15723934 11949
SL-16 DEB
1 49051U 92093LY  26064.27532088  .00001226  00000-0  64881-3 0  9996
2 49051  71.0233  13.4748 0007438 291.0279  69.0048 14.15723934 11947
SL-16 DEB
1 49051U 92093LY  26065.26451021  .00001228  00000-0  64948-3 0  9999
2 49051  71.0234  11.3974 0007409 290.0585  69.9740 14.15726115 12081
SL-16 DEB
1 49051U 92093LY  26065.82975987  .00001278  00000-0  67503-3 0  9998
2 49051  71.0235  10.2105 0007402 289.3042  70.7280 14.15727852 12165
SL-16 DEB
1 49051U 92093LY  26066.25369714  .00001346  00000-0  70988-3 0  9998
2 49051  71.0236   9.3202 0007378 288.9040  71.1283 14.15729183 12222
SL-16 DEB
1 49051U 92093LY  26066.25369715  .00001346  00000-0  70988-3 0  9999
2 49051  71.0236   9.3202 0007378 288.9040  71.1283 14.15729183 12222
SL-16 DEB
1 49051U 92093LY  26067.80813051  .00001348  00000-0  71055-3 0  9996
2 49051  71.0231   6.0553 0007278 287.1352  72.8974 14.15733074 12449
SL-16 DEB
1 49051U 92093LY  26069.22124811  .00001307  00000-0  68959-3 0  9997
2 49051  71.0233   3.0876 0007272 285.7473  74.2847 14.15736428 12641
SL-16 DEB
1 49051U 92093LY  26069.22124812  .00001307  00000-0  68959-3 0  9998
2 49051  71.0233   3.0876 0007272 285.7473  74.2847 14.15736428 12641
SL-16 DEB
1 49051U 92093LY  26072.75402683  .00001364  00000-0  71865-3 0  9998
2 49051  71.0236 355.6685 0007186 282.1762  77.8556 14.15745770 13146
SL-16 DEB
1 49051U 92093LY  26074.73237309  .00001176  00000-0  62290-3 0  9992
2 49051  71.0238 351.5139 0007137 280.3845  79.6474 14.15749845 13422
SL-16 DEB
1 49051U 92093LY  26075.72154394  .00001172  00000-0  62091-3 0  9999
2 49051  71.0239 349.4366 0007132 279.4437  80.5880 14.15752225 13565
SL-16 DEB
1 49051U 92093LY  26075.72154394  .00001172  00000-0  62091-3 0  9999
2 49051  71.0239 349.4366 0007132 279.4437  80.5880 14.15752225 13565
SL-16 DEB
1 49051U 92093LY  26079.11297571  .00001002  00000-0  53438-3 0  9998
2 49051  71.0230 342.3119 0007184 275.8973  84.1331 14.15758955 14047
SL-16 DEB
1 49051U 92093LY  26079.11297572  .00001002  00000-0  53438-3 0  9999
2 49051  71.0230 342.3119 0007184 275.8973  84.1331 14.15758955 14047
SL-16 DEB
1 49051U 92093LY  26079.46624925  .00001001  00000-0  53378-3 0  9995
2 49051  71.0244 341.5718 0007281 275.3098  84.7195 14.15759595 14099
SL-16 DEB
1 49051U 92093LY  26079.46624926  .00001001  00000-0  53378-3 0  9996
2 49051  71.0244 341.5718 0007281 275.3098  84.7195 14.15759595 14099
SL-16 DEB
1 49051U 92093LY  26081.09130404  .00000932  00000-0  49872-3 0  9997
2 49051  71.0239 338.1587 0007148 273.7861  86.2445 14.15762460 14327
SL-16 DEB
1 49051U 92093LY  26086.74364660  .00000479  00000-0  26824-3 0  9995
2 49051  71.0210 326.2866 0007315 268.8202  91.2083 14.15769395 15121
SL-16 DEB
1 49051U 92093LY  26086.74364661  .00000479  00000-0  26824-3 0  9996
2 49051  71.0210 326.2866 0007315 268.8202  91.2083 14.15769395 15121
SL-16 DEB
1 49051U 92093LY  26087.30887941  .00000513  00000-0  28527-3 0  9991
2 49051  71.0222 325.1000 0007084 267.3890  92.6422 14.15770407 15209
SL-16 DEB
1 49051U 92093LY  26087.30887942  .00000513  00000-0  28527-3 0  9992
2 49051  71.0222 325.1000 0007084 267.3890  92.6422 14.15770407 15209
SL-16 DEB
1 49051U 92093LY  26089.07523005  .00000527  00000-0  29223-3 0  9994
2 49051  71.0225 321.3907 0006993 265.7131  94.3193 14.15772598 15458
SL-16 DEB
1 49051U 92093LY  26089.07523006  .00000527  00000-0  29223-3 0  9995
2 49051  71.0225 321.3907 0006993 265.7131  94.3193 14.15772598 15458
SL-16 DEB
1 49051U 92093LY  26089.64046172  .00000519  00000-0  28854-3 0  9992
2 49051  71.0224 320.2035 0006973 264.9777  95.0550 14.15773205 15532
SL-16 DEB
1 49051U 92093LY  26090.06438528  .00000511  00000-0  28436-3 0  9998
2 49051  71.0224 319.3131 0006965 264.4690  95.5639 14.15773619 15596
SL-16 DEB
1 49051U 92093LY  26090.06438528  .00000511  00000-0  28436-3 0  9998
2 49051  71.0224 319.3131 0006965 264.4690  95.5639 14.15773619 15596
SL-16 DEB
1 49051U 92093LY  26090.91223205  .00000514  00000-0  28572-3 0  9990
2 49051  71.0222 317.5324 0006933 263.3661  96.6673 14.15774572 15712
SL-16 DEB
1 49051U 92093LY  26090.91223206  .00000514  00000-0  28572-3 0  9991
2 49051  71.0222 317.5324 0006933 263.3661  96.6673 14.15774572 15712
SL-16 DEB
1 49051U 92093LY  26091.90138598  .00000445  00000-0  25081-3 0  9995
2 49051  71.0220 315.4548 0006891 262.1490  97.8851 14.15775290 15859
SL-16 DEB
1 49051U 92093LY  26092.04269364  .00000442  00000-0  24940-3 0  9997
2 49051  71.0219 315.1579 0006888 261.9959  98.0383 14.15775424 15875
SL-16 DEB
1 49051U 92093LY  26092.04269364  .00000442  00000-0  24940-3 0  9997
2 49051  71.0219 315.1579 0006888 261.9959  98.0383 14.15775424 15875
SL-16 DEB
1 49051U 92093LY  26094.58622592  .00000690  00000-0  37540-3 0  9999
2 49051  71.0215 309.8155 0006783 258.8988 101.1373 14.15780288 16232
SL-16 DEB
1 49051U 92093LY  26094.58622592  .00000690  00000-0  37540-3 0  9999
2 49051  71.0215 309.8155 0006783 258.8988 101.1373 14.15780288 16232
SL-16 DEB
1 49051U 92093LY  26095.29276122  .00000656  00000-0  35785-3 0  9993
2 49051  71.0219 308.3320 0006641 257.0910 102.9472 14.15781270 16335
SL-16 DEB
1 49051U 92093LY  26095.57537475  .00000696  00000-0  37829-3 0  9990
2 49051  71.0213 307.7378 0006731 257.4335 102.6035 14.15781987 16371
SL-16 DEB
1 49051U 92093LY  26095.57537475  .00000696  00000-0  37829-3 0  9990
2 49051  71.0213 307.7377 0006731 257.4335 102.6035 14.15781987 16370
SL-16 DEB
1 49051U 92093LY  26095.99929573  .00000649  00000-0  35449-3 0  9994
2 49051  71.0211 306.8471 0006703 256.9852 103.0523 14.15782329 16435
SL-16 DEB
1 49051U 92093LY  26097.27105660  .00000692  00000-0  37617-3 0  9997
2 49051  71.0208 304.1757 0006674 255.2932 104.7452 14.15784684 16612
SL-16 DEB
1 49051U 92093LY  26097.97759023  .00000650  00000-0  35492-3 0  9995
2 49051  71.0211 302.6916 0006656 254.7125 105.3262 14.15785468 16712
SL-16 DEB
1 49051U 92093LY  26097.97759023  .00000650  00000-0  35492-3 0  9995
2 49051  71.0211 302.6916 0006656 254.7125 105.3262 14.15785468 16712
SL-16 DEB
1 49051U 92093LY  26098.82542948  .00000652  00000-0  35593-3 0  9990
2 49051  71.0206 300.9105 0006677 253.7528 106.2861 14.15786712 16837
SL-16 DEB
1 49051U 92093LY  26112.10813810  .00000670  00000-0  36471-3 0  9993
2 49051  71.0220 273.0091 0006398 240.7601 119.2883 14.15808549 18715
SL-16 DEB
1 49051U 92093LY  26112.10813811  .00000670  00000-0  36471-3 0  9994
2 49051  71.0220 273.0092 0006398 240.7601 119.2883 14.15808549 18716
SL-16 DEB
1 49051U 92093LY  26112.10813811  .00000670  00000-0  36471-3 0  9994
2 49051  71.0220 273.0092 0006398 240.7601 119.2883 14.15808549 18716
SL-16 DEB
1 49051U 92093LY  26116.41790875  .00000693  00000-0  37673-3 0  9996
2 49051  71.0212 263.9540 0006539 234.2368 125.8148 14.15815567 19321
SL-16 DEB
1 49051U 92093LY  26116.41790876  .00000693  00000-0  37673-3 0  9997
2 49051  71.0212 263.9540 0006539 234.2368 125.8148 14.15815567 19321
SL-16 DEB
1 49051U 92093LY  26116.70051632  .00000702  00000-0  38095-3 0  9999
2 49051  71.0209 263.3598 0006511 234.5486 125.5030 14.15815909 19369
SL-16 DEB
1 49051U 92093LY  26116.70051633  .00000702  00000-0  38095-3 0  9990
2 49051  71.0209 263.3598 0006511 234.5486 125.5030 14.15815909 19369
SL-16 DEB
1 49051U 92093LY  26119.38528181  .00000601  00000-0  32993-3 0  9993
2 49051  71.0208 257.7201 0006498 231.7019 128.3520 14.15819300 19747
SL-16 DEB
1 49051U 92093LY  26119.38528181  .00000601  00000-0  32993-3 0  9993
2 49051  71.0208 257.7201 0006498 231.7019 128.3520 14.15819300 19747
SL-16 DEB
1 49051U 92093LY  26120.09179807  .00000588  00000-0  32330-3 0  9999
2 49051  71.0215 256.2362 0006408 230.8354 129.2200 14.15820233 19843
SL-16 DEB
1 49051U 92093LY  26120.09179807  .00000588  00000-0  32330-3 0  9999
2 49051  71.0215 256.2362 0006408 230.8354 129.2201 14.15820233 19844
SL-16 DEB
1 49051U 92093LY  26123.62437178  .00000565  00000-0  31148-3 0  9990
2 49051  71.0215 248.8158 0006453 226.7152 133.3434 14.15824731 20342
SL-16 DEB
1 49051U 92093LY  26123.62437179  .00000565  00000-0  31148-3 0  9991
2 49051  71.0215 248.8158 0006453 226.7152 133.3434 14.15824731 20342
SL-16 DEB
1 49051U 92093LY  26125.74391082  .00000632  00000-0  34566-3 0  9990
2 49051  71.0208 244.3629 0006345 223.8379 136.2241 14.15827761 20644
SL-16 DEB
1 49051U 92093LY  26125.74391083  .00000632  00000-0  34566-3 0  9991
2 49051  71.0208 244.3629 0006345 223.8379 136.2241 14.15827762 20645
SL-16 DEB
1 49051U 92093LY  26126.59172513  .00000649  00000-0  35427-3 0  9995
2 49051  71.0213 242.5825 0006365 222.9099 137.1528 14.15828987 20761
SL-16 DEB
1 49051U 92093LY  26126.59172513  .00000649  00000-0  35427-3 0  9995
2 49051  71.0213 242.5825 0006365 222.9099 137.1528 14.15828987 20761
SL-16 DEB
1 49051U 92093LY  26127.58084138  .00000623  00000-0  34111-3 0  9991
2 49051  71.0212 240.5046 0006349 221.8041 138.2598 14.15830049 20907
SL-16 DEB
1 49051U 92093LY  26127.58084138  .00000623  00000-0  34111-3 0  9991
2 49051  71.0212 240.5046 0006349 221.8041 138.2598 14.15830049 20907
SL-16 DEB
1 49051U 92093LY  26128.28735237  .00000612  00000-0  33519-3 0  9991
2 49051  71.0213 239.0206 0006334 220.9487 139.1161 14.15830889 21007
SL-16 DEB
1 49051U 92093LY  26128.28735238  .00000612  00000-0  33519-3 0  9992
2 49051  71.0213 239.0206 0006334 220.9487 139.1161 14.15830890 21009
SL-16 DEB
1 49051U 92093LY  26129.62972207  .00000621  00000-0  33997-3 0  9990
2 49051  71.0213 236.2011 0006278 219.0699 140.9971 14.15832605 21198
SL-16 DEB
1 49051U 92093LY  26129.62972208  .00000621  00000-0  33997-3 0  9991
2 49051  71.0213 236.2011 0006278 219.0699 140.9971 14.15832605 21198
SL-16 DEB
1 49051U 92093LY  26130.26558087  .00000623  00000-0  34086-3 0  9990
2 49051  71.0213 234.8654 0006265 218.2755 141.7925 14.15833415 21283
SL-16 DEB
1 49051U 92093LY  26130.26558087  .00000623  00000-0  34086-3 0  9990
2 49051  71.0213 234.8654 0006265 218.2755 141.7925 14.15833415 21283
SL-16 DEB
1 49051U 92093LY  26132.24380561  .00000678  00000-0  36897-3 0  9992
2 49051  71.0214 230.7101 0006214 216.1319 143.9385 14.15836240 21567
SL-16 DEB
1 49051U 92093LY  26132.24380562  .00000678  00000-0  36897-3 0  9993
2 49051  71.0214 230.7101 0006214 216.1319 143.9385 14.15836240 21567
SL-16 DEB
1 49051U 92093LY  26134.92853298  .00000728  00000-0  39440-3 0  9994
2 49051  71.0214 225.0708 0006151 213.7599 146.3133 14.15840139 21942
SL-16 DEB
1 49051U 92093LY  26137.89585325  .00000701  00000-0  38052-3 0  9995
2 49051  71.0214 218.8376 0006057 211.4456 148.6306 14.15844669 22361
SL-16 DEB
1 49051U 92093LY  26137.89585326  .00000701  00000-0  38052-3 0  9996
2 49051  71.0214 218.8376 0006057 211.4456 148.6306 14.15844669 22361
SL-16 DEB
1 49051U 92093LY  26139.45015975  .00000602  00000-0  33009-3 0  9995
2 49051  71.0216 215.5726 0006063 210.3832 149.6941 14.15846680 22584
SL-16 DEB
1 49051U 92093LY  26139.45015975  .00000602  00000-0  33009-3 0  9995
2 49051  71.0216 215.5726 0006063 210.3832 149.6941 14.15846681 22585
SL-16 DEB
1 49051U 92093LY  26143.19461504  .00000450  00000-0  25294-3 0  9992
2 49051  71.0213 207.7074 0005895 207.4325 152.6488 14.15851799 23113
SL-16 DEB
1 49051U 92093LY  26143.90111464  .00000421  00000-0  23835-3 0  9995
2 49051  71.0213 206.2234 0005886 206.9066 153.1753 14.15852584 23216
SL-16 DEB
1 49051U 92093LY  26143.90111465  .00000421  00000-0  23835-3 0  9996
2 49051  71.0213 206.2234 0005886 206.9066 153.1753 14.15852584 23216
SL-16 DEB
1 49051U 92093LY  26145.87931169  .00000426  00000-0  24051-3 0  9991
2 49051  71.0210 202.0683 0005803 204.9947 155.0896 14.15855039 23497
SL-16 DEB
1 49051U 92093LY  26148.14010432  .00000471  00000-0  26331-3 0  9998
2 49051  71.0205 197.3194 0005716 202.6198 157.4674 14.15857910 23816
SL-16 DEB
1 49051U 92093LY  26148.14010432  .00000471  00000-0  26331-3 0  9998
2 49051  71.0205 197.3194 0005716 202.6198 157.4674 14.15857911 23817
SL-16 DEB
1 49051U 92093LY  26151.10738775  .00000540  00000-0  29837-3 0  9996
2 49051  71.0212 191.0870 0005576 198.7424 161.3494 14.15861976 24235
SL-16 DEB
1 49051U 92093LY  26152.09648059  .00000511  00000-0  28387-3 0  9997
2 49051  71.0213 189.0097 0005534 197.3992 162.6942 14.15863059 24374
SL-16 DEB
1 49051U 92093LY  26152.09648060  .00000511  00000-0  28387-3 0  9999
2 49051  71.0213 189.0097 0005534 197.3992 162.6942 14.15863059 24374
SL-16 DEB
1 49051U 92093LY  26156.33544135  .00000594  00000-0  32604-3 0  9996
2 49051  71.0213 180.1064 0005325 190.9043 169.1966 14.15868416 24970
SL-16 DEB
1 49051U 92093LY  26156.33544136  .00000594  00000-0  32604-3 0  9997
2 49051  71.0213 180.1064 0005325 190.9043 169.1966 14.15868416 24970
SL-16 DEB
1 49051U 92093LY  26161.28087537  .00000802  00000-0  43154-3 0  9998
2 49051  71.0188 169.7136 0005171 185.0771 175.0300 14.15875467 25676
SL-16 DEB
1 49051U 92093LY  26161.28087538  .00000802  00000-0  43154-3 0  9999
2 49051  71.0188 169.7137 0005171 185.0771 175.0300 14.15875467 25677
SL-16 DEB
1 49051U 92093LY  26164.24811986  .00000980  00000-0  52178-3 0  9993
2 49051  71.0196 163.4802 0004986 182.0849 178.0255 14.15881952 26097
SL-16 DEB
1 49051U 92093LY  26164.38941685  .00000973  00000-0  51851-3 0  9997
2 49051  71.0196 163.1841 0004893 179.0866 181.0267 14.15882192 26116
SL-16 DEB
1 49051U 92093LY  26164.38941686  .00000973  00000-0  51851-3 0  9998
2 49051  71.0196 163.1841 0004893 179.0866 181.0267 14.15882192 26116
SL-16 DEB
1 49051U 92093LY  26167.70988877  .00000805  00000-0  43300-3 0  9994
2 49051  71.0207 156.2081 0004807 171.2482 188.8726 14.15888187 26587
SL-16 DEB
1 49051U 92093LY  26167.70988878  .00000805  00000-0  43300-3 0  9995
2 49051  71.0207 156.2081 0004807 171.2482 188.8726 14.15888187 26587
SL-16 DEB
1 49051U 92093LY  26173.29107564  .00000553  00000-0  30513-3 0  9993
2 49051  71.0206 144.4841 0004329 164.5560 195.5696 14.15896828 27370
SL-16 DEB
1 49051U 92093LY  26174.35079189  .00000532  00000-0  29413-3 0  9996
2 49051  71.0208 142.2582 0004239 163.0161 197.1105 14.15898033 27521
SL-16 DEB
1 49051U 92093LY  26176.61151628  .00000564  00000-0  31048-3 0  9998
2 49051  71.0207 137.5090 0004066 159.6186 200.5100 14.15901056 27846
SL-16 DEB
1 49051U 92093LY  26177.24734490  .00000547  00000-0  30174-3 0  9992
2 49051  71.0207 136.1731 0004116 157.0297 203.1011 14.15901619 27939
SL-16 DEB
1 49051U 92093LY  26177.24734490  .00000547  00000-0  30174-3 0  9992
2 49051  71.0207 136.1731 0004116 157.0297 203.1011 14.15901619 27939
SL-16 DEB
1 49051U 92093LY  26179.86130196  .00000473  00000-0  26408-3 0  9998
2 49051  71.0205 130.6820 0004105 151.1568 208.9783 14.15904152 28305
SL-16 DEB
1 49051U 92093LY  26181.20360236  .00000535  00000-0  29593-3 0  9996
2 49051  71.0205 127.8621 0004090 148.1876 211.9495 14.15905859 28492
SL-16 DEB
1 49051U 92093LY  26181.20360236  .00000535  00000-0  29593-3 0  9996
2 49051  71.0205 127.8621 0004090 148.1876 211.9495 14.15905859 28492
SL-16 DEB
1 49051U 92093LY  26182.19266464  .00000650  00000-0  35439-3 0  9997
2 49051  71.0208 125.7848 0004041 145.8707 214.2677 14.15907606 28632
SL-16 DEB
1 49051U 92093LY  26182.19266465  .00000650  00000-0  35439-3 0  9998
2 49051  71.0208 125.7848 0004041 145.8707 214.2677 14.15907606 28632
SL-16 DEB
1 49051U 92093LY  26184.80661211  .00000786  00000-0  42330-3 0  9994
2 49051  71.0208 120.2933 0004052 139.2437 220.8990 14.15911033 29008
SL-16 DEB
1 49051U 92093LY  26184.80661211  .00000786  00000-0  42330-3 0  9994
2 49051  71.0208 120.2933 0004052 139.2437 220.8990 14.15911033 29008
SL-16 DEB
1 49051U 92093LY  26186.14890567  .00000990  00000-0  52660-3 0  9995
2 49051  71.0208 117.4733 0004066 135.9655 224.1793 14.15914036 29198
SL-16 DEB
1 49051U 92093LY  26186.14890568  .00000990  00000-0  52660-3 0  9996
2 49051  71.0208 117.4733 0004066 135.9655 224.1793 14.15914036 29198
SL-16 DEB
1 49051U 92093LY  26186.78472860  .00000985  00000-0  52412-3 0  9996
2 49051  71.0208 116.1374 0004075 134.3100 225.8358 14.15914909 29287
SL-16 DEB
1 49051U 92093LY  26186.78472861  .00000985  00000-0  52412-3 0  9997
2 49051  71.0208 116.1374 0004075 134.3100 225.8358 14.15914909 29287
SL-16 DEB
1 49051U 92093LY  26190.17577579  .00000749  00000-0  40438-3 0  9990
2 49051  71.0211 109.0133 0004107 125.8468 234.3038 14.15918998 29768
SL-16 DEB
1 49051U 92093LY  26192.15387981  .00000720  00000-0  38937-3 0  9996
2 49051  71.0213 104.8576 0004069 121.2788 238.8735 14.15922173 30042
SL-16 DEB
1 49051U 92093LY  26192.15387982  .00000720  00000-0  38937-3 0  9997
2 49051  71.0213 104.8576 0004069 121.2788 238.8735 14.15922173 30042
SL-16 DEB
1 49051U 92093LY  26192.15387982  .00000720  00000-0  38937-3 0  9997
2 49051  71.0213 104.8576 0004069 121.2788 238.8735 14.15922173 30042
SL-16 DEB
1 49051U 92093LY  26196.11007541  .00000627  00000-0  34225-3 0  9999
2 49051  71.0215  96.5460 0004039 111.8799 248.2754 14.15927906 30604
SL-16 DEB
1 49051U 92093LY  26196.11007541  .00000627  00000-0  34225-3 0  9999
2 49051  71.0215  96.5460 0004039 111.8799 248.2754 14.15927906 30604
SL-16 DEB
1 49051U 92093LY  26202.04434002  .00000375  00000-0  21436-3 0  9995
2 49051  71.0217  84.0791 0003973  98.2632 261.8942 14.15934712 31441
SL-16 DEB
1 49051U 92093LY  26202.32692339  .00000399  00000-0  22662-3 0  9993
2 49051  71.0216  83.4852 0003980  97.6377 262.5198 14.15935148 31487
SL-16 DEB
1 49051U 92093LY  26203.03338132  .00000475  00000-0  26531-3 0  9994
2 49051  71.0218  82.0014 0003967  95.6334 264.5241 14.15936410 31585
SL-16 DEB
1 49051U 92093LY  26203.38661017  .00000424  00000-0  23936-3 0  9993
2 49051  71.0215  81.2588 0003974  94.8804 265.2774 14.15936531 31639
SL-16 DEB
1 49051U 92093LY  26206.00050179  .00000463  00000-0  25922-3 0  9996
2 49051  71.0206  75.7649 0004070  90.2300 269.9289 14.15939256 32005
SL-16 DEB
1 49051U 92093LY  26209.32084486  .00000433  00000-0  24400-3 0  9999
2 49051  71.0205  68.7896 0004149  82.9362 277.2233 14.15942113 32471
SL-16 DEB
1 49051U 92093LY  26210.87504552  .00000432  00000-0  24312-3 0  9993
2 49051  71.0203  65.5238 0004215  80.0729 280.0870 14.15943446 32697
SL-16 DEB
1 49051U 92093LY  26214.90182898  .00000597  00000-0  32724-3 0  9994
2 49051  71.0202  57.0626 0004369  71.7818 288.3780 14.15948350 33263
SL-16 DEB
1 49051U 92093LY  26215.96150673  .00000613  00000-0  33520-3 0  9991
2 49051  71.0202  54.8356 0004428  69.7875 290.3724 14.15949574 33411
SL-16 DEB
1 49051U 92093LY  26215.96150673  .00000613  00000-0  33520-3 0  9991
2 49051  71.0202  54.8356 0004428  69.7875 290.3724 14.15949574 33411
SL-16 DEB
1 49051U 92093LY  26218.92859837  .00000666  00000-0  36172-3 0  9992
2 49051  71.0205  48.6014 0004501  64.2974 295.8613 14.15953484 33836
SL-16 DEB
1 49051U 92093LY  26220.90665447  .00000694  00000-0  37593-3 0  9994
2 49051  71.0209  44.4461 0004510  60.6572 299.5001 14.15956338 34119
SL-16 DEB
1 49051U 92093LY  26220.90665447  .00000694  00000-0  37593-3 0  9994
2 49051  71.0209  44.4461 0004510  60.6572 299.5001 14.15956338 34119
SL-16 DEB
1 49051U 92093LY  26223.23792949  .00000651  00000-0  35427-3 0  9998
2 49051  71.0214  39.5478 0004546  55.3236 304.8315 14.15959520 34445
SL-16 DEB
1 49051U 92093LY  26223.23792950  .00000651  00000-0  35427-3 0  9990
2 49051  71.0214  39.5478 0004546  55.3236 304.8316 14.15959520 34446
SL-16 DEB
1 49051U 92093LY  26226.13435538  .00000502  00000-0  27875-3 0  9991
2 49051  71.0220  33.4618 0004626  49.2893 310.8631 14.15962804 34853
SL-16 DEB
1 49051U 92093LY  26226.13435539  .00000502  00000-0  27875-3 0  9992
2 49051  71.0220  33.4618 0004626  49.2893 310.8631 14.15962804 34853
SL-16 DEB
1 49051U 92093LY  26228.11239848  .00000419  00000-0  23681-3 0  9995
2 49051  71.0225  29.3057 0004691  44.9258 315.2244 14.15964749 35139
SL-16 DEB
1 49051U 92093LY  26228.11239849  .00000419  00000-0  23681-3 0  9996
2 49051  71.0225  29.3057 0004691  44.9258 315.2244 14.15964749 35139
SL-16 DEB
1 49051U 92093LY  26230.16108267  .00000465  00000-0  25977-3 0  9994
2 49051  71.0226  25.0007 0004604  40.5835 319.5631 14.15967130 35421
SL-16 DEB
1 49051U 92093LY  26231.15010162  .00000478  00000-0  26672-3 0  9997
2 49051  71.0227  22.9228 0004622  38.2857 321.8594 14.15968224 35565
SL-16 DEB
1 49051U 92093LY  26231.15010163  .00000478  00000-0  26672-3 0  9998
2 49051  71.0227  22.9228 0004622  38.2857 321.8594 14.15968224 35565
SL-16 DEB
1 49051U 92093LY  26232.06847580  .00000437  00000-0  24562-3 0  9991
2 49051  71.0228  20.9933 0004641  36.3964 323.7474 14.15968952 35696
SL-16 DEB
1 49051U 92093LY  26234.68230670  .00000372  00000-0  21291-3 0  9991
2 49051  71.0231  15.5018 0004650  30.5650 329.5743 14.15971224 36063
SL-16 DEB
1 49051U 92093LY  26235.38874677  .00000349  00000-0  20103-3 0  9995
2 49051  71.0231  14.0176 0004672  29.2098 330.9285 14.15971809 36164
SL-16 DEB
1 49051U 92093LY  26236.37776240  .00000337  00000-0  19507-3 0  9995
2 49051  71.0231  11.9398 0004684  27.1684 332.9684 14.15972653 36306
SL-16 DEB
1 49051U 92093LY  26236.37776240  .00000337  00000-0  19507-3 0  9995
2 49051  71.0231  11.9398 0004684  27.1684 332.9684 14.15972653 36306
SL-16 DEB
1 49051U 92093LY  26237.08420204  .00000321  00000-0  18715-3 0  9993
2 49051  71.0231  10.4555 0004708  25.7533 334.3824 14.15973105 36405
SL-16 DEB
1 49051U 92093LY  26238.00257316  .00000336  00000-0  19471-3 0  9994
2 49051  71.0232   8.5261 0004729  24.0087 336.1256 14.15973866 36534
SL-16 DEB
1 49051U 92093LY  26238.00257317  .00000336  00000-0  19471-3 0  9995
2 49051  71.0232   8.5261 0004729  24.0087 336.1256 14.15973866 36534
SL-16 DEB
1 49051U 92093LY  26241.04026030  .00000433  00000-0  24363-3 0  9993
2 49051  71.0230   2.1436 0004814  18.4750 341.6548 14.15976121 36964
SL-16 DEB
1 49051U 92093LY  26241.04026031  .00000433  00000-0  24363-3 0  9994
2 49051  71.0230   2.1436 0004814  18.4750 341.6548 14.15976121 36964
SL-16 DEB
1 49051U 92093LY  26241.60541133  .00000487  00000-0  27090-3 0  9990
2 49051  71.0232   0.9563 0004901  18.3119 341.8180 14.15976711 37047
SL-16 DEB
1 49051U 92093LY  26241.74669892  .00000501  00000-0  27795-3 0  9997
2 49051  71.0231   0.6594 0004915  18.0543 342.0753 14.15976873 37060
SL-16 DEB
1 49051U 92093LY  26241.74669893  .00000501  00000-0  27795-3 0  9998
2 49051  71.0231   0.6594 0004915  18.0543 342.0753 14.15976873 37060
