SL-16 DEB
1 54753U 92093LZ  26012.41145903  .00002430  00000-0  12625-2 0  9992
2 54753  71.0216 122.3925 0004472 346.9091  13.1915 14.15693003  4754
SL-16 DEB
1 54753U 92093LZ  26012.41145903  .00002430  00000-0  12625-2 0  9992
2 54753  71.0216 122.3925 0004472 346.9091  13.1915 14.15693003  4754
SL-16 DEB
1 54753U 92093LZ  26013.25935242  .00002414  00000-0  12545-2 0  9991
2 54753  71.0214 120.6119 0004558 345.2551  14.8438 14.15697391  4871
SL-16 DEB
1 54753U 92093LZ  26013.25935243  .00002414  00000-0  12545-2 0  9992
2 54753  71.0214 120.6119 0004558 345.2551  14.8438 14.15697391  4871
SL-16 DEB
1 54753U 92093LZ  26014.31921664  .00001954  00000-0  10200-2 0  9996
2 54753  71.0217 118.3860 0004664 343.1746  16.9221 14.15700934  5021
SL-16 DEB
1 54753U 92093LZ  26015.66170688  .00001773  00000-0  92756-3 0  9993
2 54753  71.0221 115.5667 0004856 339.9270  20.1661 14.15705718  5219
SL-16 DEB
1 54753U 92093LZ  26015.66170688  .00001773  00000-0  92756-3 0  9993
2 54753  71.0221 115.5667 0004856 339.9270  20.1661 14.15705718  5219
SL-16 DEB
1 54753U 92093LZ  26016.22696447  .00002020  00000-0  10535-2 0  9992
2 54753  71.0222 114.3796 0004930 338.7481  21.3436 14.15708629  5299
SL-16 DEB
1 54753U 92093LZ  26016.36827873  .00002024  00000-0  10553-2 0  9990
2 54753  71.0222 114.0829 0004942 338.5510  21.5405 14.15709176  5316
SL-16 DEB
1 54753U 92093LZ  26017.00419194  .00002317  00000-0  12046-2 0  9999
2 54753  71.0224 112.7475 0005092 336.3267  23.7621 14.15712525  5408
SL-16 DEB
1 54753U 92093LZ  26017.64010362  .00002267  00000-0  11792-2 0  9994
2 54753  71.0224 111.4120 0005188 334.9189  25.1682 14.15715171  5496
SL-16 DEB
1 54753U 92093LZ  26018.62929746  .00002307  00000-0  11990-2 0  9993
2 54753  71.0225 109.3346 0005341 332.9538  27.1306 14.15719609  5631
SL-16 DEB
1 54753U 92093LZ  26018.98257982  .00002372  00000-0  12323-2 0  9991
2 54753  71.0224 108.5926 0005399 332.2604  27.8230 14.15721607  5684
SL-16 DEB
1 54753U 92093LZ  26019.61848713  .00002429  00000-0  12614-2 0  9996
2 54753  71.0224 107.2571 0005527 330.7474  29.3339 14.15724915  5779
SL-16 DEB
1 54753U 92093LZ  26021.59683603  .00005721  00000-0  29348-2 0  9991
2 54753  71.0221 103.1019 0005827 327.3250  32.7512 14.15755181  6057
SL-16 DEB
1 54753U 92093LZ  26023.64581027  .00003377  00000-0  17423-2 0  9992
2 54753  71.0218  98.7980 0006201 323.4562  36.6137 14.15772313  6343
SL-16 DEB
1 54753U 92093LZ  26025.90672583  .00003443  00000-0  17752-2 0  9990
2 54753  71.0216  94.0486 0006510 319.9357  40.1285 14.15786842  6667
SL-16 DEB
1 54753U 92093LZ  26028.59153305  .00002977  00000-0  15379-2 0  9998
2 54753  71.0215  88.4095 0006816 316.1791  43.8791 14.15802810  7048
SL-16 DEB
1 54753U 92093LZ  26029.51001232  .00002984  00000-0  15410-2 0  9996
2 54753  71.0221  86.4809 0006892 315.7669  44.2903 14.15808851  7174
SL-16 DEB
1 54753U 92093LZ  26030.14588087  .00002792  00000-0  14436-2 0  9999
2 54753  71.0217  85.1452 0006938 315.1572  44.8990 14.15812059  7264
SL-16 DEB
1 54753U 92093LZ  26030.21653262  .00002656  00000-0  13745-2 0  9996
2 54753  71.0220  84.9968 0006982 314.9895  45.0662 14.15812479  7277
SL-16 DEB
1 54753U 92093LZ  26030.21653262  .00002656  00000-0  13745-2 0  9996
2 54753  71.0220  84.9968 0006982 314.9895  45.0662 14.15812479  7277
SL-16 DEB
1 54753U 92093LZ  26031.13500664  .00002046  00000-0  10643-2 0  9992
2 54753  71.0216  83.0674 0007057 314.0515  46.0026 14.15815416  7404
SL-16 DEB
1 54753U 92093LZ  26031.13500665  .00002046  00000-0  10643-2 0  9993
2 54753  71.0216  83.0674 0007057 314.0516  46.0026 14.15815416  7405
SL-16 DEB
1 54753U 92093LZ  26031.48826536  .00001935  00000-0  10078-2 0  9997
2 54753  71.0214  82.3252 0007104 313.5981  46.4552 14.15816737  7450
SL-16 DEB
1 54753U 92093LZ  26031.55891675  .00001994  00000-0  10378-2 0  9999
2 54753  71.0213  82.1766 0007102 313.5254  46.5279 14.15817433  7460
SL-16 DEB
1 54753U 92093LZ  26031.55891676  .00001994  00000-0  10378-2 0  9990
2 54753  71.0213  82.1766 0007102 313.5254  46.5279 14.15817433  7460
SL-16 DEB
1 54753U 92093LZ  26032.47738659  .00001745  00000-0  91103-3 0  9993
2 54753  71.0204  80.2474 0007208 312.3014  47.7498 14.15821126  7597
SL-16 DEB
1 54753U 92093LZ  26032.83064358  .00001772  00000-0  92520-3 0  9995
2 54753  71.0210  79.5050 0007186 312.1804  47.8709 14.15822976  7641
SL-16 DEB
1 54753U 92093LZ  26033.11324893  .00001689  00000-0  88298-3 0  9994
2 54753  71.0209  78.9113 0007202 311.8403  48.2104 14.15823987  7683
SL-16 DEB
1 54753U 92093LZ  26033.53715637  .00001942  00000-0  10111-2 0  9990
2 54753  71.0208  78.0207 0007228 311.4124  48.6378 14.15826612  7743
SL-16 DEB
1 54753U 92093LZ  26034.10236571  .00001896  00000-0  98800-3 0  9999
2 54753  71.0206  76.8333 0007253 310.8073  49.2421 14.15828868  7821
SL-16 DEB
1 54753U 92093LZ  26034.24366788  .00002016  00000-0  10489-2 0  9999
2 54753  71.0206  76.5364 0007255 310.6794  49.3697 14.15829800  7847
SL-16 DEB
1 54753U 92093LZ  26034.24366789  .00002016  00000-0  10489-2 0  9990
2 54753  71.0206  76.5364 0007255 310.6795  49.3698 14.15829800  7849
SL-16 DEB
1 54753U 92093LZ  26034.52627202  .00002160  00000-0  11220-2 0  9995
2 54753  71.0206  75.9427 0007273 310.4042  49.6446 14.15831420  7884
SL-16 DEB
1 54753U 92093LZ  26035.16213031  .00002113  00000-0  10981-2 0  9998
2 54753  71.0205  74.6068 0007311 309.7532  50.2946 14.15834139  7971
SL-16 DEB
1 54753U 92093LZ  26035.16213032  .00002113  00000-0  10981-2 0  9999
2 54753  71.0205  74.6068 0007311 309.7532  50.2946 14.15834139  7971
SL-16 DEB
1 54753U 92093LZ  26035.51538464  .00002246  00000-0  11653-2 0  9991
2 54753  71.0205  73.8647 0007339 309.4339  50.6134 14.15835935  8022
SL-16 DEB
1 54753U 92093LZ  26036.08058965  .00002610  00000-0  13505-2 0  9990
2 54753  71.0204  72.6772 0007368 308.8144  51.2321 14.15840005  8104
SL-16 DEB
1 54753U 92093LZ  26036.08058966  .00002610  00000-0  13505-2 0  9991
2 54753  71.0204  72.6772 0007368 308.8144  51.2321 14.15840006  8105
SL-16 DEB
1 54753U 92093LZ  26036.50449264  .00002874  00000-0  14843-2 0  9991
2 54753  71.0205  71.7866 0007403 308.4318  51.6140 14.15842997  8169
SL-16 DEB
1 54753U 92093LZ  26036.50449265  .00002874  00000-0  14843-2 0  9992
2 54753  71.0205  71.7866 0007403 308.4318  51.6140 14.15842997  8169
SL-16 DEB
1 54753U 92093LZ  26037.06969558  .00002794  00000-0  14437-2 0  9996
2 54753  71.0205  70.5992 0007426 307.8536  52.1915 14.15845885  8240
SL-16 DEB
1 54753U 92093LZ  26037.06969559  .00002794  00000-0  14437-2 0  9997
2 54753  71.0205  70.5992 0007426 307.8536  52.1915 14.15845885  8240
SL-16 DEB
1 54753U 92093LZ  26038.05879864  .00002782  00000-0  14372-2 0  9991
2 54753  71.0207  68.5214 0007498 306.9738  53.0698 14.15850892  8386
SL-16 DEB
1 54753U 92093LZ  26038.05879864  .00002782  00000-0  14372-2 0  9991
2 54753  71.0207  68.5214 0007498 306.9738  53.0698 14.15850892  8386
SL-16 DEB
1 54753U 92093LZ  26038.48269898  .00002737  00000-0  14144-2 0  9995
2 54753  71.0208  67.6308 0007547 306.5806  53.4622 14.15852801  8448
SL-16 DEB
1 54753U 92093LZ  26038.48269898  .00002737  00000-0  14144-2 0  9995
2 54753  71.0208  67.6308 0007547 306.5806  53.4622 14.15852801  8448
SL-16 DEB
1 54753U 92093LZ  26039.11854846  .00002406  00000-0  12462-2 0  9993
2 54753  71.0209  66.2951 0007581 306.0513  53.9907 14.15854907  8536
SL-16 DEB
1 54753U 92093LZ  26039.11854847  .00002406  00000-0  12462-2 0  9994
2 54753  71.0209  66.2951 0007581 306.0513  53.9907 14.15854908  8537
SL-16 DEB
1 54753U 92093LZ  26039.47179741  .00002467  00000-0  12775-2 0  9990
2 54753  71.0210  65.5531 0007602 305.7283  54.3133 14.15856815  8589
SL-16 DEB
1 54753U 92093LZ  26039.47179741  .00002467  00000-0  12775-2 0  9990
2 54753  71.0210  65.5531 0007602 305.7283  54.3133 14.15856815  8589
SL-16 DEB
1 54753U 92093LZ  26040.10764460  .00002232  00000-0  11581-2 0  9994
2 54753  71.0210  64.2172 0007650 305.1871  54.8535 14.15859164  8677
SL-16 DEB
1 54753U 92093LZ  26040.46089232  .00002491  00000-0  12895-2 0  9996
2 54753  71.0211  63.4749 0007676 304.8213  55.2188 14.15861599  8723
SL-16 DEB
1 54753U 92093LZ  26040.46089232  .00002491  00000-0  12895-2 0  9996
2 54753  71.0211  63.4749 0007676 304.8213  55.2188 14.15861599  8723
SL-16 DEB
1 54753U 92093LZ  26041.16738661  .00002404  00000-0  12453-2 0  9995
2 54753  71.0212  61.9907 0007739 304.2381  55.8008 14.15864758  8821
SL-16 DEB
1 54753U 92093LZ  26041.16738662  .00002404  00000-0  12453-2 0  9996
2 54753  71.0212  61.9907 0007739 304.2382  55.8008 14.15864758  8822
SL-16 DEB
1 54753U 92093LZ  26041.44998395  .00002408  00000-0  12471-2 0  9992
2 54753  71.0213  61.3971 0007771 304.0276  56.0108 14.15866060  8860
SL-16 DEB
1 54753U 92093LZ  26041.44998395  .00002408  00000-0  12471-2 0  9992
2 54753  71.0213  61.3971 0007771 304.0276  56.0108 14.15866060  8860
SL-16 DEB
1 54753U 92093LZ  26042.43907175  .00002636  00000-0  13626-2 0  9994
2 54753  71.0214  59.3193 0007887 303.4366  56.6003 14.15871788  9005
SL-16 DEB
1 54753U 92093LZ  26046.39538754  .00002930  00000-0  15113-2 0  9996
2 54753  71.0217  51.0072 0008088 299.3443  60.6872 14.15893036  9566
SL-16 DEB
1 54753U 92093LZ  26046.39538754  .00002930  00000-0  15113-2 0  9996
2 54753  71.0217  51.0072 0008088 299.3443  60.6872 14.15893036  9566
SL-16 DEB
1 54753U 92093LZ  26047.10186595  .00002650  00000-0  13693-2 0  9998
2 54753  71.0217  49.5227 0008158 298.8207  61.2097 14.15896021  9664
SL-16 DEB
1 54753U 92093LZ  26047.10186596  .00002650  00000-0  13693-2 0  9999
2 54753  71.0217  49.5227 0008158 298.8207  61.2097 14.15896021  9664
SL-16 DEB
1 54753U 92093LZ  26047.66704727  .00002499  00000-0  12926-2 0  9991
2 54753  71.0217  48.3352 0008188 298.3105  61.7191 14.15898689  9746
SL-16 DEB
1 54753U 92093LZ  26048.02028548  .00002803  00000-0  14466-2 0  9992
2 54753  71.0223  47.5934 0008156 297.7375  62.2921 14.15901415  9791
SL-16 DEB
1 54753U 92093LZ  26048.02028548  .00002803  00000-0  14466-2 0  9992
2 54753  71.0223  47.5934 0008156 297.7375  62.2921 14.15901415  9791
SL-16 DEB
1 54753U 92093LZ  26048.37352294  .00002587  00000-0  13367-2 0  9996
2 54753  71.0224  46.8512 0008192 297.5563  62.4728 14.15902606  9849
SL-16 DEB
1 54753U 92093LZ  26048.37352295  .00002587  00000-0  13367-2 0  9997
2 54753  71.0224  46.8512 0008192 297.5563  62.4728 14.15902606  9849
SL-16 DEB
1 54753U 92093LZ  26049.07999713  .00002277  00000-0  11796-2 0  9997
2 54753  71.0225  45.3669 0008235 297.0104  63.0178 14.15905124  9946
SL-16 DEB
1 54753U 92093LZ  26049.07999714  .00002277  00000-0  11796-2 0  9998
2 54753  71.0225  45.3669 0008235 297.0104  63.0178 14.15905124  9946
SL-16 DEB
1 54753U 92093LZ  26049.36258633  .00002305  00000-0  11936-2 0  9996
2 54753  71.0226  44.7733 0008263 296.9346  63.0933 14.15906564  9981
SL-16 DEB
1 54753U 92093LZ  26049.36258633  .00002305  00000-0  11936-2 0  9996
2 54753  71.0226  44.7733 0008263 296.9346  63.0933 14.15906564  9981
SL-16 DEB
1 54753U 92093LZ  26050.06905818  .00002108  00000-0  10937-2 0  9990
2 54753  71.0227  43.2889 0008301 296.2728  63.7542 14.15909346 10085
SL-16 DEB
1 54753U 92093LZ  26050.06905819  .00002108  00000-0  10937-2 0  9991
2 54753  71.0227  43.2889 0008301 296.2728  63.7542 14.15909347 10086
SL-16 DEB
1 54753U 92093LZ  26051.05811625  .00002044  00000-0  10612-2 0  9991
2 54753  71.0230  41.2109 0008361 295.6991  64.3268 14.15913671 10227
SL-16 DEB
1 54753U 92093LZ  26051.05811625  .00002044  00000-0  10612-2 0  9991
2 54753  71.0230  41.2109 0008361 295.6991  64.3268 14.15913671 10227
SL-16 DEB
1 54753U 92093LZ  26051.62329129  .00002044  00000-0  10614-2 0  9999
2 54753  71.0232  40.0220 0008472 296.5524  63.4731 14.15916122 10303
SL-16 DEB
1 54753U 92093LZ  26051.62329129  .00002044  00000-0  10614-2 0  9999
2 54753  71.0232  40.0220 0008472 296.5524  63.4731 14.15916122 10303
SL-16 DEB
1 54753U 92093LZ  26051.97652531  .00002074  00000-0  10767-2 0  9995
2 54753  71.0235  39.2802 0008443 296.2530  63.7725 14.15917647 10358
SL-16 DEB
1 54753U 92093LZ  26051.97652532  .00002074  00000-0  10767-2 0  9996
2 54753  71.0235  39.2802 0008443 296.2530  63.7725 14.15917647 10358
SL-16 DEB
1 54753U 92093LZ  26052.32975855  .00002108  00000-0  10935-2 0  9997
2 54753  71.0235  38.5388 0008440 295.6580  64.3671 14.15919240 10408
SL-16 DEB
1 54753U 92093LZ  26052.32975855  .00002108  00000-0  10935-2 0  9997
2 54753  71.0235  38.5388 0008440 295.6580  64.3671 14.15919240 10408
SL-16 DEB
1 54753U 92093LZ  26053.03622449  .00001947  00000-0  10120-2 0  9990
2 54753  71.0235  37.0547 0008457 295.1464  64.8781 14.15921657 10506
SL-16 DEB
1 54753U 92093LZ  26053.03622450  .00001947  00000-0  10120-2 0  9992
2 54753  71.0235  37.0547 0008457 295.1464  64.8781 14.15921657 10506
SL-16 DEB
1 54753U 92093LZ  26053.60139593  .00002316  00000-0  11988-2 0  9990
2 54753  71.0235  35.8670 0008492 295.2480  64.7763 14.15925236 10581
SL-16 DEB
1 54753U 92093LZ  26054.02527384  .00002380  00000-0  12316-2 0  9993
2 54753  71.0235  34.9765 0008495 295.0541  64.9699 14.15927331 10640
SL-16 DEB
1 54753U 92093LZ  26054.02527384  .00002380  00000-0  12316-2 0  9993
2 54753  71.0235  34.9765 0008495 295.0542  64.9699 14.15927331 10641
SL-16 DEB
1 54753U 92093LZ  26054.30785873  .00002324  00000-0  12027-2 0  9990
2 54753  71.0236  34.3826 0008498 295.0379  64.9861 14.15928426 10686
SL-16 DEB
1 54753U 92093LZ  26054.59044325  .00002272  00000-0  11764-2 0  9990
2 54753  71.0236  33.7890 0008496 294.8645  65.1594 14.15929652 10724
SL-16 DEB
1 54753U 92093LZ  26054.59044326  .00002272  00000-0  11764-2 0  9991
2 54753  71.0236  33.7890 0008496 294.8645  65.1594 14.15929652 10724
SL-16 DEB
1 54753U 92093LZ  26055.29690349  .00002232  00000-0  11562-2 0  9993
2 54753  71.0235  32.3051 0008500 293.5435  66.4795 14.15932760 10828
SL-16 DEB
1 54753U 92093LZ  26055.36754941  .00002232  00000-0  11560-2 0  9998
2 54753  71.0235  32.1567 0008501 293.4621  66.5608 14.15933112 10832
SL-16 DEB
1 54753U 92093LZ  26055.36754941  .00002232  00000-0  11561-2 0  9999
2 54753  71.0235  32.1567 0008501 293.4621  66.5608 14.15933112 10832
SL-16 DEB
1 54753U 92093LZ  26056.35659100  .00002072  00000-0  10750-2 0  9991
2 54753  71.0234  30.0788 0008490 292.6523  67.3702 14.15937292 10974
SL-16 DEB
1 54753U 92093LZ  26056.35659100  .00002072  00000-0  10750-2 0  9991
2 54753  71.0234  30.0788 0008490 292.6523  67.3702 14.15937292 10974
SL-16 DEB
1 54753U 92093LZ  26057.27498429  .00002059  00000-0  10682-2 0  9997
2 54753  71.0233  28.1492 0008461 291.9944  68.0280 14.15941346 11100
SL-16 DEB
1 54753U 92093LZ  26057.34562998  .00002032  00000-0  10544-2 0  9996
2 54753  71.0233  28.0005 0008471 292.0138  68.0085 14.15941514 11118
SL-16 DEB
1 54753U 92093LZ  26057.34562999  .00002032  00000-0  10544-2 0  9997
2 54753  71.0233  28.0005 0008471 292.0138  68.0085 14.15941514 11118
SL-16 DEB
1 54753U 92093LZ  26058.33466515  .00002253  00000-0  11665-2 0  9994
2 54753  71.0230  25.9226 0008442 290.9312  69.0907 14.15946731 11250
SL-16 DEB
1 54753U 92093LZ  26058.89982678  .00002295  00000-0  11877-2 0  9999
2 54753  71.0230  24.7352 0008404 290.3699  69.6521 14.15949524 11337
SL-16 DEB
1 54753U 92093LZ  26058.97047201  .00002275  00000-0  11775-2 0  9997
2 54753  71.0231  24.5868 0008397 290.3733  69.6488 14.15949747 11348
SL-16 DEB
1 54753U 92093LZ  26059.32369764  .00002287  00000-0  11835-2 0  9998
2 54753  71.0229  23.8447 0008386 289.9760  70.0460 14.15951216 11397
SL-16 DEB
1 54753U 92093LZ  26059.95950234  .00002312  00000-0  11963-2 0  9996
2 54753  71.0230  22.5088 0008341 289.4415  70.5807 14.15954369 11481
SL-16 DEB
1 54753U 92093LZ  26059.95950234  .00002312  00000-0  11963-2 0  9996
2 54753  71.0230  22.5088 0008341 289.4415  70.5807 14.15954369 11481
SL-16 DEB
1 54753U 92093LZ  26060.24208178  .00002535  00000-0  13092-2 0  9995
2 54753  71.0229  21.9150 0008334 289.0589  70.9631 14.15956282 11522
SL-16 DEB
1 54753U 92093LZ  26060.31272656  .00002538  00000-0  13107-2 0  9995
2 54753  71.0229  21.7666 0008333 288.9395  71.0824 14.15956640 11539
SL-16 DEB
1 54753U 92093LZ  26060.94852899  .00002430  00000-0  12561-2 0  9991
2 54753  71.0230  20.4308 0008281 288.3723  71.6499 14.15959519 11623
SL-16 DEB
1 54753U 92093LZ  26061.01917372  .00002409  00000-0  12455-2 0  9996
2 54753  71.0229  20.2823 0008293 288.1602  71.8618 14.15959677 11639
SL-16 DEB
1 54753U 92093LZ  26061.30175211  .00002679  00000-0  13821-2 0  9993
2 54753  71.0230  19.6887 0008247 288.0696  71.9528 14.15961883 11671
SL-16 DEB
1 54753U 92093LZ  26061.30175211  .00002679  00000-0  13821-2 0  9993
2 54753  71.0230  19.6887 0008247 288.0696  71.9528 14.15961883 11671
SL-16 DEB
1 54753U 92093LZ  26061.93755225  .00002594  00000-0  13388-2 0  9995
2 54753  71.0233  18.3528 0008181 287.8644  72.1586 14.15965013 11765
SL-16 DEB
1 54753U 92093LZ  26061.93755225  .00002594  00000-0  13388-2 0  9995
2 54753  71.0233  18.3528 0008181 287.8644  72.1586 14.15965013 11765
SL-16 DEB
1 54753U 92093LZ  26062.29077410  .00002792  00000-0  14393-2 0  9995
2 54753  71.0234  17.6106 0008157 287.5135  72.5097 14.15967263 11811
SL-16 DEB
1 54753U 92093LZ  26062.29077410  .00002792  00000-0  14393-2 0  9995
2 54753  71.0234  17.6106 0008157 287.5135  72.5097 14.15967263 11811
SL-16 DEB
1 54753U 92093LZ  26063.27979122  .00003369  00000-0  17312-2 0  9990
2 54753  71.0236  15.5328 0008075 286.5390  73.4846 14.15974758 11951
SL-16 DEB
1 54753U 92093LZ  26063.27979123  .00003369  00000-0  17312-2 0  9991
2 54753  71.0236  15.5328 0008075 286.5390  73.4846 14.15974758 11951
SL-16 DEB
1 54753U 92093LZ  26064.26880470  .00003211  00000-0  16512-2 0  9994
2 54753  71.0235  13.4549 0007983 285.3491  74.6750 14.15979994 12098
SL-16 DEB
1 54753U 92093LZ  26064.26880470  .00003211  00000-0  16512-2 0  9994
2 54753  71.0235  13.4549 0007983 285.3491  74.6750 14.15979994 12098
SL-16 DEB
1 54753U 92093LZ  26064.83395325  .00003332  00000-0  17123-2 0  9990
2 54753  71.0236  12.2674 0007912 284.9012  75.1235 14.15983881 12174
SL-16 DEB
1 54753U 92093LZ  26064.97524000  .00002760  00000-0  14227-2 0  9995
2 54753  71.0236  11.9706 0007907 284.7295  75.2952 14.15983077 12197
SL-16 DEB
1 54753U 92093LZ  26065.25781387  .00003144  00000-0  16169-2 0  9994
2 54753  71.0235  11.3767 0007874 284.3352  75.6897 14.15985740 12236
SL-16 DEB
1 54753U 92093LZ  26065.82296001  .00003250  00000-0  16708-2 0  9998
2 54753  71.0236  10.1895 0007811 283.8465  76.1789 14.15989615 12316
SL-16 DEB
1 54753U 92093LZ  26066.24681872  .00003353  00000-0  17225-2 0  9998
2 54753  71.0235   9.2989 0007779 283.4208  76.6048 14.15992452 12374
SL-16 DEB
1 54753U 92093LZ  26066.24681872  .00003353  00000-0  17225-2 0  9998
2 54753  71.0235   9.2989 0007779 283.4208  76.6048 14.15992452 12374
SL-16 DEB
1 54753U 92093LZ  26066.81196240  .00003334  00000-0  17129-2 0  9993
2 54753  71.0235   8.1116 0007766 282.7922  77.2333 14.15995895 12452
SL-16 DEB
1 54753U 92093LZ  26066.81196240  .00003334  00000-0  17129-2 0  9993
2 54753  71.0235   8.1116 0007766 282.7922  77.2333 14.15995895 12452
SL-16 DEB
1 54753U 92093LZ  26067.23581891  .00003503  00000-0  17985-2 0  9998
2 54753  71.0235   7.2211 0007718 282.4489  77.5770 14.15999147 12519
SL-16 DEB
1 54753U 92093LZ  26067.23581892  .00003503  00000-0  17985-2 0  9999
2 54753  71.0235   7.2211 0007718 282.4489  77.5770 14.15999147 12519
SL-16 DEB
1 54753U 92093LZ  26067.80096015  .00003343  00000-0  17171-2 0  9999
2 54753  71.0236   6.0339 0007691 281.8774  78.1487 14.16002213 12598
SL-16 DEB
1 54753U 92093LZ  26068.22481517  .00003029  00000-0  15583-2 0  9997
2 54753  71.0236   5.1434 0007651 281.5609  78.4655 14.16003861 12651
SL-16 DEB
1 54753U 92093LZ  26068.22481517  .00003029  00000-0  15583-2 0  9997
2 54753  71.0236   5.1434 0007651 281.5609  78.4655 14.16003861 12651
SL-16 DEB
1 54753U 92093LZ  26068.93123804  .00003054  00000-0  15707-2 0  9993
2 54753  71.0235   3.6590 0007591 280.8623  79.1646 14.16008595 12755
SL-16 DEB
1 54753U 92093LZ  26068.93123805  .00003054  00000-0  15707-2 0  9994
2 54753  71.0235   3.6590 0007591 280.8623  79.1646 14.16008595 12755
SL-16 DEB
1 54753U 92093LZ  26069.21380638  .00003115  00000-0  16014-2 0  9995
2 54753  71.0235   3.0653 0007580 280.5936  79.4333 14.16010711 12794
SL-16 DEB
1 54753U 92093LZ  26069.21380638  .00003115  00000-0  16014-2 0  9995
2 54753  71.0235   3.0653 0007580 280.5936  79.4333 14.16010711 12794
SL-16 DEB
1 54753U 92093LZ  26069.84958463  .00002874  00000-0  14798-2 0  9999
2 54753  71.0239   1.7297 0007523 280.1130  79.9144 14.16014045 12885
SL-16 DEB
1 54753U 92093LZ  26069.84958464  .00002874  00000-0  14798-2 0  9990
2 54753  71.0239   1.7297 0007523 280.1130  79.9144 14.16014045 12885
SL-16 DEB
1 54753U 92093LZ  26070.20279390  .00002896  00000-0  14907-2 0  9992
2 54753  71.0240   0.9875 0007486 279.8138  80.2140 14.16016308 12932
SL-16 DEB
1 54753U 92093LZ  26070.20279390  .00002896  00000-0  14907-2 0  9992
2 54753  71.0240   0.9875 0007486 279.8138  80.2140 14.16016308 12932
SL-16 DEB
1 54753U 92093LZ  26070.83856951  .00002668  00000-0  13753-2 0  9990
2 54753  71.0241 359.6517 0007427 279.2251  80.8032 14.16019456 13029
SL-16 DEB
1 54753U 92093LZ  26070.90921114  .00002665  00000-0  13737-2 0  9991
2 54753  71.0241 359.5032 0007406 279.2155  80.8131 14.16019861 13031
SL-16 DEB
1 54753U 92093LZ  26070.90921114  .00002665  00000-0  13737-2 0  9991
2 54753  71.0241 359.5032 0007406 279.2155  80.8131 14.16019861 13031
SL-16 DEB
1 54753U 92093LZ  26074.72382992  .00002270  00000-0  11732-2 0  9995
2 54753  71.0248 351.4880 0007115 275.8448  84.1864 14.16040220 13576
SL-16 DEB
1 54753U 92093LZ  26077.12560150  .00001924  00000-0  99787-3 0  9998
2 54753  71.0251 346.4416 0007141 273.4202  86.6105 14.16050431 13918
SL-16 DEB
1 54753U 92093LZ  26081.08142829  .00002144  00000-0  11089-2 0  9990
2 54753  71.0242 338.1293 0006946 269.6487  90.3841 14.16065711 14471
SL-16 DEB
1 54753U 92093LZ  26082.42357249  .00002105  00000-0  10889-2 0  9997
2 54753  71.0239 335.3083 0006749 268.2935  91.7415 14.16071989 14664
SL-16 DEB
1 54753U 92093LZ  26082.98868381  .00001968  00000-0  10195-2 0  9998
2 54753  71.0240 334.1212 0006749 267.5354  92.4996 14.16074417 14744
SL-16 DEB
1 54753U 92093LZ  26083.69507185  .00001741  00000-0  90491-3 0  9996
2 54753  71.0240 332.6369 0006696 266.7369  93.2988 14.16077192 14842
SL-16 DEB
1 54753U 92093LZ  26084.40145862  .00001646  00000-0  85705-3 0  9992
2 54753  71.0237 331.1523 0006622 265.8698  94.1669 14.16079920 14946
SL-16 DEB
1 54753U 92093LZ  26084.68401289  .00001655  00000-0  86139-3 0  9992
2 54753  71.0237 330.5585 0006597 265.4184  94.6185 14.16081153 14987
SL-16 DEB
1 54753U 92093LZ  26084.68401289  .00001655  00000-0  86139-3 0  9992
2 54753  71.0237 330.5585 0006597 265.4184  94.6185 14.16081153 14987
SL-16 DEB
1 54753U 92093LZ  26085.10784429  .00001549  00000-0  80773-3 0  9990
2 54753  71.0231 329.6678 0006560 264.7352  95.3023 14.16082255 15043
SL-16 DEB
1 54753U 92093LZ  26085.10784430  .00001549  00000-0  80773-3 0  9992
2 54753  71.0231 329.6678 0006560 264.7352  95.3023 14.16082255 15043
SL-16 DEB
1 54753U 92093LZ  26085.67295191  .00001510  00000-0  78810-3 0  9992
2 54753  71.0230 328.4803 0006508 263.9294  96.1088 14.16084238 15129
SL-16 DEB
1 54753U 92093LZ  26085.67295192  .00001510  00000-0  78810-3 0  9993
2 54753  71.0230 328.4803 0006508 263.9294  96.1088 14.16084238 15129
SL-16 DEB
1 54753U 92093LZ  26086.09678215  .00001653  00000-0  86046-3 0  9999
2 54753  71.0232 327.5897 0006464 263.3400  96.6987 14.16086109 15186
SL-16 DEB
1 54753U 92093LZ  26086.09678216  .00001653  00000-0  86046-3 0  9990
2 54753  71.0232 327.5897 0006464 263.3401  96.6987 14.16086109 15187
SL-16 DEB
1 54753U 92093LZ  26086.37933568  .00001546  00000-0  80605-3 0  9991
2 54753  71.0232 326.9959 0006449 263.0829  96.9561 14.16086611 15227
SL-16 DEB
1 54753U 92093LZ  26086.73252700  .00001507  00000-0  78636-3 0  9991
2 54753  71.0232 326.2537 0006426 262.5808  97.4585 14.16087715 15271
SL-16 DEB
1 54753U 92093LZ  26086.94444173  .00001602  00000-0  83455-3 0  9992
2 54753  71.0231 325.8084 0006413 262.2609  97.7786 14.16088615 15304
SL-16 DEB
1 54753U 92093LZ  26086.94444173  .00001602  00000-0  83455-3 0  9992
2 54753  71.0231 325.8084 0006413 262.2609  97.7786 14.16088615 15304
SL-16 DEB
1 54753U 92093LZ  26087.65082306  .00001738  00000-0  90298-3 0  9990
2 54753  71.0230 324.3240 0006343 261.2121  98.8284 14.16091551 15400
SL-16 DEB
1 54753U 92093LZ  26088.07465137  .00001837  00000-0  95305-3 0  9998
2 54753  71.0229 323.4334 0006304 260.5720  99.4691 14.16093229 15465
SL-16 DEB
1 54753U 92093LZ  26089.06358136  .00002197  00000-0  11353-2 0  9998
2 54753  71.0227 321.3552 0006234 259.1964 100.8458 14.16098226 15604
SL-16 DEB
1 54753U 92093LZ  26089.06358136  .00002197  00000-0  11353-2 0  9998
2 54753  71.0227 321.3552 0006234 259.1964 100.8458 14.16098226 15604
SL-16 DEB
1 54753U 92093LZ  26089.34613225  .00002196  00000-0  11345-2 0  9992
2 54753  71.0227 320.7614 0006199 258.7281 101.3146 14.16099414 15647
SL-16 DEB
1 54753U 92093LZ  26089.62868284  .00002210  00000-0  11417-2 0  9997
2 54753  71.0225 320.1677 0006172 258.2128 101.8303 14.16100733 15685
SL-16 DEB
1 54753U 92093LZ  26090.05250835  .00002244  00000-0  11589-2 0  9990
2 54753  71.0224 319.2770 0006131 257.5559 102.4878 14.16102597 15743
SL-16 DEB
1 54753U 92093LZ  26090.05250835  .00002244  00000-0  11589-2 0  9990
2 54753  71.0224 319.2770 0006131 257.5559 102.4878 14.16102598 15744
SL-16 DEB
1 54753U 92093LZ  26090.61760826  .00002293  00000-0  11834-2 0  9995
2 54753  71.0222 318.0895 0006087 256.6423 103.4022 14.16105191 15820
SL-16 DEB
1 54753U 92093LZ  26090.61760827  .00002293  00000-0  11834-2 0  9996
2 54753  71.0222 318.0895 0006087 256.6423 103.4022 14.16105192 15821
SL-16 DEB
1 54753U 92093LZ  26091.04143245  .00002270  00000-0  11716-2 0  9997
2 54753  71.0221 317.1987 0006042 255.9791 104.0661 14.16106960 15889
SL-16 DEB
1 54753U 92093LZ  26091.04143246  .00002270  00000-0  11716-2 0  9998
2 54753  71.0221 317.1987 0006042 255.9791 104.0661 14.16106960 15889
SL-16 DEB
1 54753U 92093LZ  26092.03035354  .00001979  00000-0  10248-2 0  9992
2 54753  71.0219 315.1203 0005955 254.3502 105.6964 14.16110375 16025
SL-16 DEB
1 54753U 92093LZ  26092.03035355  .00001979  00000-0  10248-2 0  9993
2 54753  71.0219 315.1203 0005955 254.3502 105.6964 14.16110375 16025
SL-16 DEB
1 54753U 92093LZ  26092.87799637  .00002845  00000-0  14623-2 0  9999
2 54753  71.0216 313.3389 0005897 252.8981 107.1497 14.16117333 16148
SL-16 DEB
1 54753U 92093LZ  26092.87799637  .00002845  00000-0  14623-2 0  9999
2 54753  71.0216 313.3389 0005897 252.8981 107.1497 14.16117333 16148
SL-16 DEB
1 54753U 92093LZ  26093.01926997  .00002884  00000-0  14817-2 0  9995
2 54753  71.0218 313.0421 0005881 252.6813 107.3667 14.16118191 16165
SL-16 DEB
1 54753U 92093LZ  26094.00818248  .00003309  00000-0  16962-2 0  9990
2 54753  71.0216 310.9636 0005796 250.9993 109.0503 14.16124996 16306
SL-16 DEB
1 54753U 92093LZ  26094.57327336  .00003046  00000-0  15635-2 0  9999
2 54753  71.0215 309.7757 0005762 250.1620 109.8883 14.16127648 16381
SL-16 DEB
1 54753U 92093LZ  26094.57327336  .00003046  00000-0  15635-2 0  9999
2 54753  71.0215 309.7757 0005762 250.1620 109.8883 14.16127648 16381
SL-16 DEB
1 54753U 92093LZ  26094.99709037  .00002782  00000-0  14302-2 0  9993
2 54753  71.0218 308.8850 0005698 249.0472 111.0042 14.16129587 16441
SL-16 DEB
1 54753U 92093LZ  26095.98599439  .00002613  00000-0  13447-2 0  9998
2 54753  71.0217 306.8065 0005655 247.5767 112.4757 14.16135102 16582
SL-16 DEB
1 54753U 92093LZ  26096.55108066  .00002575  00000-0  13255-2 0  9998
2 54753  71.0213 305.6185 0005655 247.1351 112.9175 14.16138273 16663
SL-16 DEB
1 54753U 92093LZ  26096.97489487  .00002425  00000-0  12493-2 0  9990
2 54753  71.0213 304.7275 0005634 246.5150 113.5382 14.16139990 16721
SL-16 DEB
1 54753U 92093LZ  26096.97489488  .00002425  00000-0  12493-2 0  9991
2 54753  71.0213 304.7275 0005634 246.5150 113.5382 14.16139990 16721
SL-16 DEB
1 54753U 92093LZ  26098.52887590  .00002064  00000-0  10670-2 0  9994
2 54753  71.0222 301.4615 0005565 243.9453 116.1098 14.16146257 16944
SL-16 DEB
1 54753U 92093LZ  26098.95268765  .00001985  00000-0  10270-2 0  9995
2 54753  71.0217 300.5703 0005591 244.0641 115.9907 14.16147758 17007
SL-16 DEB
1 54753U 92093LZ  26098.95268765  .00001985  00000-0  10270-2 0  9995
2 54753  71.0217 300.5703 0005591 244.0641 115.9907 14.16147757 17006
SL-16 DEB
1 54753U 92093LZ  26100.50665957  .00002193  00000-0  11322-2 0  9995
2 54753  71.0222 297.3044 0005558 241.3446 118.7119 14.16155056 17220
SL-16 DEB
1 54753U 92093LZ  26100.50665958  .00002193  00000-0  11322-2 0  9996
2 54753  71.0222 297.3044 0005558 241.3446 118.7119 14.16155056 17220
SL-16 DEB
1 54753U 92093LZ  26101.28364286  .00001968  00000-0  10181-2 0  9993
2 54753  71.0222 295.6714 0005567 240.9603 119.0963 14.16157558 17337
SL-16 DEB
1 54753U 92093LZ  26101.28364287  .00001968  00000-0  10181-2 0  9994
2 54753  71.0222 295.6714 0005567 240.9603 119.0963 14.16157558 17337
SL-16 DEB
1 54753U 92093LZ  26103.61458358  .00001524  00000-0  79401-3 0  9995
2 54753  71.0215 290.7717 0005604 237.3929 122.6654 14.16165102 17668
SL-16 DEB
1 54753U 92093LZ  26103.61458358  .00001524  00000-0  79401-3 0  9995
2 54753  71.0215 290.7717 0005604 237.3929 122.6654 14.16165102 17668
SL-16 DEB
1 54753U 92093LZ  26104.60346402  .00001393  00000-0  72780-3 0  9998
2 54753  71.0213 288.6930 0005617 236.2930 123.7659 14.16167916 17801
SL-16 DEB
1 54753U 92093LZ  26104.60346402  .00001393  00000-0  72780-3 0  9998
2 54753  71.0213 288.6930 0005617 236.2930 123.7659 14.16167916 17801
SL-16 DEB
1 54753U 92093LZ  26106.58122022  .00001293  00000-0  67711-3 0  9994
2 54753  71.0214 284.5358 0005644 234.6979 125.3617 14.16172846 18087
SL-16 DEB
1 54753U 92093LZ  26106.58122023  .00001293  00000-0  67711-3 0  9995
2 54753  71.0214 284.5358 0005644 234.6979 125.3617 14.16172846 18087
SL-16 DEB
1 54753U 92093LZ  26108.13516642  .00001341  00000-0  70131-3 0  9996
2 54753  71.0205 281.2694 0005693 232.6350 127.4256 14.16177106 18300
SL-16 DEB
1 54753U 92093LZ  26109.19467253  .00001330  00000-0  69550-3 0  9997
2 54753  71.0204 279.0423 0005724 231.2882 128.7730 14.16179834 18451
SL-16 DEB
1 54753U 92093LZ  26109.19467254  .00001330  00000-0  69550-3 0  9998
2 54753  71.0204 279.0423 0005724 231.2882 128.7730 14.16179834 18451
SL-16 DEB
1 54753U 92093LZ  26109.75974141  .00001310  00000-0  68543-3 0  9997
2 54753  71.0205 277.8547 0005717 230.6951 129.3665 14.16181293 18532
SL-16 DEB
1 54753U 92093LZ  26109.75974142  .00001310  00000-0  68543-3 0  9998
2 54753  71.0205 277.8547 0005717 230.6952 129.3665 14.16181293 18533
SL-16 DEB
1 54753U 92093LZ  26110.18354345  .00001237  00000-0  64870-3 0  9991
2 54753  71.0204 276.9638 0005724 230.2241 129.8378 14.16181829 18595
SL-16 DEB
1 54753U 92093LZ  26110.18354345  .00001237  00000-0  64870-3 0  9991
2 54753  71.0204 276.9638 0005724 230.2241 129.8378 14.16181829 18595
SL-16 DEB
1 54753U 92093LZ  26110.46607759  .00001231  00000-0  64561-3 0  9993
2 54753  71.0203 276.3699 0005727 229.8343 130.2280 14.16182533 18631
SL-16 DEB
1 54753U 92093LZ  26110.46607760  .00001231  00000-0  64561-3 0  9995
2 54753  71.0203 276.3699 0005727 229.8343 130.2280 14.16182533 18631
SL-16 DEB
1 54753U 92093LZ  26110.88987799  .00001315  00000-0  68823-3 0  9992
2 54753  71.0203 275.4790 0005738 229.3825 130.6800 14.16184223 18691
SL-16 DEB
1 54753U 92093LZ  26113.50330836  .00001266  00000-0  66322-3 0  9995
2 54753  71.0201 269.9854 0005782 226.2487 133.8159 14.16191213 19068
SL-16 DEB
1 54753U 92093LZ  26114.49217067  .00001309  00000-0  68495-3 0  9995
2 54753  71.0202 267.9069 0005808 225.0545 135.0108 14.16194148 19200
SL-16 DEB
1 54753U 92093LZ  26114.84533503  .00001416  00000-0  73887-3 0  9990
2 54753  71.0202 267.1646 0005821 224.6382 135.4273 14.16195745 19258
SL-16 DEB
1 54753U 92093LZ  26114.84533504  .00001416  00000-0  73887-3 0  9991
2 54753  71.0202 267.1646 0005821 224.6382 135.4273 14.16195745 19258
SL-16 DEB
1 54753U 92093LZ  26115.12786575  .00001601  00000-0  83223-3 0  9992
2 54753  71.0202 266.5707 0005819 224.1930 135.8729 14.16197761 19294
SL-16 DEB
1 54753U 92093LZ  26115.12786576  .00001601  00000-0  83223-3 0  9993
2 54753  71.0202 266.5707 0005819 224.1930 135.8729 14.16197761 19294
SL-16 DEB
1 54753U 92093LZ  26115.48102979  .00001509  00000-0  78559-3 0  9994
2 54753  71.0202 265.8284 0005830 223.7083 136.3579 14.16198298 19344
SL-16 DEB
1 54753U 92093LZ  26115.83419291  .00001743  00000-0  90379-3 0  9995
2 54753  71.0202 265.0859 0005833 223.3225 136.7441 14.16200730 19393
SL-16 DEB
1 54753U 92093LZ  26115.83419291  .00001743  00000-0  90379-3 0  9995
2 54753  71.0202 265.0859 0005833 223.3225 136.7441 14.16200730 19393
SL-16 DEB
1 54753U 92093LZ  26116.46988619  .00001876  00000-0  97071-3 0  9993
2 54753  71.0201 263.7496 0005858 222.4888 137.5782 14.16203529 19482
SL-16 DEB
1 54753U 92093LZ  26116.46988620  .00001876  00000-0  97071-3 0  9995
2 54753  71.0201 263.7496 0005858 222.4888 137.5782 14.16203529 19482
SL-16 DEB
1 54753U 92093LZ  26116.82304890  .00001786  00000-0  92541-3 0  9993
2 54753  71.0202 263.0073 0005856 222.1411 137.9262 14.16204157 19535
SL-16 DEB
1 54753U 92093LZ  26116.82304891  .00001786  00000-0  92541-3 0  9994
2 54753  71.0202 263.0073 0005856 222.1411 137.9262 14.16204158 19536
SL-16 DEB
1 54753U 92093LZ  26117.10557858  .00001814  00000-0  93964-3 0  9991
2 54753  71.0202 262.4135 0005856 221.7955 138.2722 14.16205304 19579
SL-16 DEB
1 54753U 92093LZ  26117.10557858  .00001814  00000-0  93964-3 0  9991
2 54753  71.0202 262.4135 0005856 221.7955 138.2722 14.16205304 19579
SL-16 DEB
1 54753U 92093LZ  26117.45874031  .00001876  00000-0  97094-3 0  9990
2 54753  71.0202 261.6711 0005869 221.3468 138.7211 14.16206912 19629
SL-16 DEB
1 54753U 92093LZ  26117.81190152  .00002004  00000-0  10355-2 0  9993
2 54753  71.0202 260.9287 0005874 221.0187 139.0495 14.16208911 19674
SL-16 DEB
1 54753U 92093LZ  26117.81190152  .00002004  00000-0  10355-2 0  9993
2 54753  71.0202 260.9287 0005874 221.0187 139.0495 14.16208911 19674
SL-16 DEB
1 54753U 92093LZ  26118.44759154  .00002033  00000-0  10498-2 0  9996
2 54753  71.0201 259.5925 0005886 220.2354 139.8334 14.16211336 19761
SL-16 DEB
1 54753U 92093LZ  26118.80075190  .00002033  00000-0  10500-2 0  9991
2 54753  71.0204 258.8501 0005887 219.8235 140.2457 14.16212697 19818
SL-16 DEB
1 54753U 92093LZ  26118.80075190  .00002033  00000-0  10500-2 0  9991
2 54753  71.0204 258.8501 0005887 219.8235 140.2457 14.16212697 19818
SL-16 DEB
1 54753U 92093LZ  26119.08328014  .00002111  00000-0  10893-2 0  9990
2 54753  71.0209 258.2563 0005894 219.2902 140.7794 14.16213848 19850
SL-16 DEB
1 54753U 92093LZ  26119.08328014  .00002111  00000-0  10893-2 0  9990
2 54753  71.0209 258.2563 0005894 219.2902 140.7794 14.16213848 19850
SL-16 DEB
1 54753U 92093LZ  26119.36580804  .00002069  00000-0  10681-2 0  9995
2 54753  71.0210 257.6624 0005900 218.9081 141.1618 14.16214876 19891
SL-16 DEB
1 54753U 92093LZ  26119.36580805  .00002069  00000-0  10681-2 0  9996
2 54753  71.0210 257.6624 0005900 218.9081 141.1618 14.16214876 19891
SL-16 DEB
1 54753U 92093LZ  26119.78959935  .00002167  00000-0  11172-2 0  9991
2 54753  71.0208 256.7715 0005903 218.4219 141.6485 14.16216840 19957
SL-16 DEB
1 54753U 92093LZ  26119.78959936  .00002167  00000-0  11172-2 0  9992
2 54753  71.0208 256.7715 0005903 218.4219 141.6485 14.16216840 19957
SL-16 DEB
1 54753U 92093LZ  26120.35465329  .00002173  00000-0  11206-2 0  9990
2 54753  71.0209 255.5836 0005925 217.7868 142.2840 14.16219382 20032
SL-16 DEB
1 54753U 92093LZ  26120.63718026  .00002122  00000-0  10945-2 0  9999
2 54753  71.0210 254.9897 0005923 217.4796 142.5915 14.16220207 20077
SL-16 DEB
1 54753U 92093LZ  26121.34349536  .00002542  00000-0  13064-2 0  9995
2 54753  71.0211 253.5050 0005929 216.7157 143.3561 14.16224848 20175
SL-16 DEB
1 54753U 92093LZ  26121.76728411  .00002420  00000-0  12450-2 0  9997
2 54753  71.0212 252.6141 0005926 216.3164 143.7557 14.16226198 20234
SL-16 DEB
1 54753U 92093LZ  26121.76728412  .00002420  00000-0  12450-2 0  9998
2 54753  71.0212 252.6141 0005926 216.3164 143.7558 14.16226198 20235
SL-16 DEB
1 54753U 92093LZ  26122.40296564  .00002403  00000-0  12365-2 0  9994
2 54753  71.0212 251.2779 0005929 215.7460 144.3268 14.16229198 20320
SL-16 DEB
1 54753U 92093LZ  26122.40296564  .00002403  00000-0  12365-2 0  9994
2 54753  71.0212 251.2779 0005929 215.7460 144.3268 14.16229198 20320
SL-16 DEB
1 54753U 92093LZ  26122.75612154  .00002413  00000-0  12412-2 0  9993
2 54753  71.0213 250.5355 0005932 215.4526 144.6204 14.16230817 20375
SL-16 DEB
1 54753U 92093LZ  26122.75612155  .00002413  00000-0  12412-2 0  9994
2 54753  71.0213 250.5355 0005932 215.4526 144.6204 14.16230817 20375
SL-16 DEB
1 54753U 92093LZ  26123.32116967  .00002490  00000-0  12802-2 0  9996
2 54753  71.0214 249.3478 0005939 214.9200 145.1535 14.16234014 20453
SL-16 DEB
1 54753U 92093LZ  26123.39180058  .00002485  00000-0  12774-2 0  9997
2 54753  71.0214 249.1993 0005940 214.8603 145.2132 14.16234387 20469
SL-16 DEB
1 54753U 92093LZ  26123.60369339  .00002463  00000-0  12664-2 0  9996
2 54753  71.0215 248.7539 0005951 214.6918 145.3818 14.16235288 20496
SL-16 DEB
1 54753U 92093LZ  26123.74495512  .00002453  00000-0  12614-2 0  9998
2 54753  71.0213 248.4569 0005949 214.5660 145.5077 14.16235993 20519
SL-16 DEB
1 54753U 92093LZ  26123.74495512  .00002453  00000-0  12614-2 0  9998
2 54753  71.0213 248.4569 0005949 214.5660 145.5078 14.16235993 20510
SL-16 DEB
1 54753U 92093LZ  26124.31000147  .00002246  00000-0  11569-2 0  9996
2 54753  71.0214 247.2691 0005952 214.0515 146.0227 14.16238247 20597
SL-16 DEB
1 54753U 92093LZ  26124.31000147  .00002246  00000-0  11569-2 0  9996
2 54753  71.0214 247.2691 0005952 214.0515 146.0227 14.16238247 20597
SL-16 DEB
1 54753U 92093LZ  26124.73378544  .00002374  00000-0  12211-2 0  9998
2 54753  71.0214 246.3783 0005957 213.7868 146.2877 14.16240715 20654
SL-16 DEB
1 54753U 92093LZ  26125.29882927  .00002666  00000-0  13686-2 0  9996
2 54753  71.0215 245.1906 0005959 213.2629 146.8120 14.16244748 20737
SL-16 DEB
1 54753U 92093LZ  26125.44009044  .00002476  00000-0  12728-2 0  9999
2 54753  71.0215 244.8936 0005964 213.1996 146.8754 14.16244701 20752
SL-16 DEB
1 54753U 92093LZ  26125.58135117  .00002501  00000-0  12854-2 0  9994
2 54753  71.0214 244.5967 0005972 213.1384 146.9366 14.16245481 20770
SL-16 DEB
1 54753U 92093LZ  26125.58135118  .00002501  00000-0  12854-2 0  9995
2 54753  71.0214 244.5967 0005972 213.1384 146.9366 14.16245481 20770
SL-16 DEB
1 54753U 92093LZ  26126.71143525  .00002367  00000-0  12175-2 0  9998
2 54753  71.0214 242.2211 0005996 212.6383 147.4371 14.16250707 20933
SL-16 DEB
1 54753U 92093LZ  26126.71143526  .00002367  00000-0  12175-2 0  9999
2 54753  71.0214 242.2211 0005996 212.6383 147.4371 14.16250707 20933
SL-16 DEB
1 54753U 92093LZ  26127.70025569  .00002069  00000-0  10673-2 0  9995
2 54753  71.0214 240.1425 0006004 212.2373 147.8384 14.16254426 21079
SL-16 DEB
1 54753U 92093LZ  26127.70025570  .00002069  00000-0  10673-2 0  9997
2 54753  71.0214 240.1425 0006004 212.2373 147.8384 14.16254426 21079
SL-16 DEB
1 54753U 92093LZ  26129.39536968  .00001759  00000-0  91109-3 0  9991
2 54753  71.0214 236.5793 0006031 211.4841 148.5922 14.16260814 21318
SL-16 DEB
1 54753U 92093LZ  26129.67788808  .00001689  00000-0  87553-3 0  9994
2 54753  71.0216 235.9856 0006033 211.5199 148.5564 14.16261633 21358
SL-16 DEB
1 54753U 92093LZ  26129.67788809  .00001689  00000-0  87553-3 0  9995
2 54753  71.0216 235.9856 0006033 211.5199 148.5564 14.16261633 21358
SL-16 DEB
1 54753U 92093LZ  26130.38418322  .00001507  00000-0  78384-3 0  9996
2 54753  71.0216 234.5009 0006041 211.2257 148.8508 14.16263681 21451
SL-16 DEB
1 54753U 92093LZ  26130.38418322  .00001507  00000-0  78384-3 0  9996
2 54753  71.0216 234.5009 0006041 211.2257 148.8508 14.16263681 21451
SL-16 DEB
1 54753U 92093LZ  26131.37299485  .00001441  00000-0  75043-3 0  9999
2 54753  71.0210 232.4223 0006031 210.5086 149.5687 14.16265930 21591
SL-16 DEB
1 54753U 92093LZ  26131.37299485  .00001441  00000-0  75043-3 0  9999
2 54753  71.0210 232.4223 0006031 210.5086 149.5687 14.16265930 21591
SL-16 DEB
1 54753U 92093LZ  26132.64432094  .00001319  00000-0  68889-3 0  9999
2 54753  71.0210 229.7499 0006043 209.9947 150.0832 14.16269579 21778
SL-16 DEB
1 54753U 92093LZ  26132.64432094  .00001319  00000-0  68889-3 0  9999
2 54753  71.0210 229.7499 0006043 209.9946 150.0831 14.16269579 21776
SL-16 DEB
1 54753U 92093LZ  26132.92683730  .00001304  00000-0  68136-3 0  9994
2 54753  71.0211 229.1562 0006046 209.7249 150.3532 14.16270462 21818
SL-16 DEB
1 54753U 92093LZ  26132.92683731  .00001304  00000-0  68136-3 0  9995
2 54753  71.0211 229.1562 0006046 209.7249 150.3532 14.16270462 21818
SL-16 DEB
1 54753U 92093LZ  26133.35061214  .00001255  00000-0  65665-3 0  9998
2 54753  71.0212 228.2655 0006046 209.2801 150.7984 14.16271419 21875
SL-16 DEB
1 54753U 92093LZ  26133.35061215  .00001255  00000-0  65665-3 0  9999
2 54753  71.0212 228.2655 0006046 209.2801 150.7984 14.16271419 21875
SL-16 DEB
1 54753U 92093LZ  26134.33941824  .00001213  00000-0  63568-3 0  9995
2 54753  71.0212 226.1870 0006047 208.7776 151.3015 14.16274050 22010
SL-16 DEB
1 54753U 92093LZ  26135.61073838  .00001081  00000-0  56879-3 0  9998
2 54753  71.0212 223.5147 0006055 208.1031 151.9766 14.16276568 22199
SL-16 DEB
1 54753U 92093LZ  26138.22399876  .00000999  00000-0  52775-3 0  9999
2 54753  71.0211 218.0214 0006051 206.2488 153.8329 14.16282456 22563
SL-16 DEB
1 54753U 92093LZ  26138.22399877  .00000999  00000-0  52775-3 0  9990
2 54753  71.0211 218.0215 0006051 206.2488 153.8329 14.16282456 22564
SL-16 DEB
1 54753U 92093LZ  26139.21279725  .00000943  00000-0  49923-3 0  9999
2 54753  71.0210 215.9429 0006044 205.4332 154.6495 14.16284441 22702
SL-16 DEB
1 54753U 92093LZ  26139.28342580  .00000930  00000-0  49256-3 0  9991
2 54753  71.0210 215.7944 0006041 205.3984 154.6843 14.16284493 22716
SL-16 DEB
1 54753U 92093LZ  26139.28342581  .00000930  00000-0  49256-3 0  9992
2 54753  71.0210 215.7944 0006041 205.3984 154.6843 14.16284493 22716
SL-16 DEB
1 54753U 92093LZ  26140.20159413  .00000974  00000-0  51504-3 0  9993
2 54753  71.0210 213.8644 0006021 204.5269 155.5568 14.16286913 22844
SL-16 DEB
1 54753U 92093LZ  26140.20159414  .00000974  00000-0  51504-3 0  9994
2 54753  71.0210 213.8644 0006021 204.5270 155.5568 14.16286913 22846
SL-16 DEB
1 54753U 92093LZ  26141.26101741  .00000998  00000-0  52722-3 0  9990
2 54753  71.0209 211.6373 0006013 203.5829 156.5020 14.16289559 22998
SL-16 DEB
1 54753U 92093LZ  26141.26101741  .00000998  00000-0  52722-3 0  9990
2 54753  71.0209 211.6373 0006013 203.5829 156.5020 14.16289559 22998
SL-16 DEB
1 54753U 92093LZ  26142.17918299  .00001039  00000-0  54770-3 0  9997
2 54753  71.0207 209.7073 0006001 202.6910 157.3949 14.16291876 23129
SL-16 DEB
1 54753U 92093LZ  26142.60295116  .00001045  00000-0  55060-3 0  9991
2 54753  71.0206 208.8159 0005969 202.7271 157.3589 14.16292893 23182
SL-16 DEB
1 54753U 92093LZ  26142.60295116  .00001045  00000-0  55060-3 0  9991
2 54753  71.0206 208.8159 0005969 202.7271 157.3589 14.16292893 23182
SL-16 DEB
1 54753U 92093LZ  26143.23860297  .00001101  00000-0  57896-3 0  9991
2 54753  71.0207 207.4800 0005965 202.4042 157.6822 14.16294669 23276
SL-16 DEB
1 54753U 92093LZ  26143.45048661  .00001116  00000-0  58631-3 0  9992
2 54753  71.0205 207.0345 0005985 201.8076 158.2793 14.16295226 23304
SL-16 DEB
1 54753U 92093LZ  26143.59174256  .00001071  00000-0  56366-3 0  9990
2 54753  71.0205 206.7375 0005979 202.1568 157.9298 14.16295268 23320
SL-16 DEB
1 54753U 92093LZ  26144.15676543  .00001138  00000-0  59761-3 0  9995
2 54753  71.0204 205.5495 0005979 201.5340 158.5533 14.16296939 23404
SL-16 DEB
1 54753U 92093LZ  26144.43927672  .00001185  00000-0  62097-3 0  9996
2 54753  71.0204 204.9556 0005975 201.3209 158.7667 14.16297807 23442
SL-16 DEB
1 54753U 92093LZ  26145.14555391  .00001274  00000-0  66580-3 0  9990
2 54753  71.0203 203.4709 0005963 200.5949 159.4935 14.16300048 23543
SL-16 DEB
1 54753U 92093LZ  26145.14555392  .00001274  00000-0  66580-3 0  9991
2 54753  71.0203 203.4709 0005963 200.5949 159.4935 14.16300048 23543
SL-16 DEB
1 54753U 92093LZ  26146.20496770  .00001565  00000-0  81224-3 0  9998
2 54753  71.0201 201.2438 0005948 199.5712 160.5184 14.16304362 23692
SL-16 DEB
1 54753U 92093LZ  26146.55810520  .00001549  00000-0  80422-3 0  9990
2 54753  71.0201 200.5014 0005933 199.1494 160.9407 14.16305181 23749
SL-16 DEB
1 54753U 92093LZ  26147.19375105  .00001805  00000-0  93324-3 0  9996
2 54753  71.0198 199.1650 0005919 198.4094 161.6816 14.16308573 23835
SL-16 DEB
1 54753U 92093LZ  26147.19375106  .00001805  00000-0  93324-3 0  9997
2 54753  71.0198 199.1650 0005919 198.4094 161.6816 14.16308573 23835
SL-16 DEB
1 54753U 92093LZ  26148.18253211  .00001906  00000-0  98413-3 0  9995
2 54753  71.0197 197.0862 0005894 197.4174 162.6748 14.16312228 23978
SL-16 DEB
1 54753U 92093LZ  26148.18253211  .00001906  00000-0  98413-3 0  9995
2 54753  71.0197 197.0862 0005894 197.4174 162.6748 14.16312228 23978
SL-16 DEB
1 54753U 92093LZ  26149.10068292  .00002002  00000-0  10324-2 0  9993
2 54753  71.0195 195.1558 0005868 196.5425 163.5508 14.16316060 24105
SL-16 DEB
1 54753U 92093LZ  26149.52444396  .00002119  00000-0  10912-2 0  9994
2 54753  71.0196 194.2653 0005829 195.8894 164.2047 14.16318294 24164
SL-16 DEB
1 54753U 92093LZ  26149.52444396  .00002119  00000-0  10912-2 0  9994
2 54753  71.0196 194.2653 0005829 195.8894 164.2047 14.16318294 24164
SL-16 DEB
1 54753U 92093LZ  26150.08945728  .00002200  00000-0  11317-2 0  9993
2 54753  71.0197 193.0774 0005813 195.3134 164.7814 14.16321159 24241
SL-16 DEB
1 54753U 92093LZ  26150.08945729  .00002200  00000-0  11317-2 0  9994
2 54753  71.0197 193.0774 0005813 195.3134 164.7814 14.16321159 24241
SL-16 DEB
1 54753U 92093LZ  26151.14885469  .00002277  00000-0  11705-2 0  9991
2 54753  71.0197 190.8502 0005774 194.2848 165.8113 14.16326238 24394
SL-16 DEB
1 54753U 92093LZ  26151.14885469  .00002277  00000-0  11705-2 0  9991
2 54753  71.0197 190.8502 0005774 194.2848 165.8114 14.16326238 24395
SL-16 DEB
1 54753U 92093LZ  26157.78765818  .00002009  00000-0  10352-2 0  9992
2 54753  71.0202 176.8938 0005408 188.1804 171.9232 14.16356252 25330
SL-16 DEB
1 54753U 92093LZ  26157.78765819  .00002009  00000-0  10352-2 0  9993
2 54753  71.0202 176.8938 0005408 188.1804 171.9232 14.16356252 25330
SL-16 DEB
1 54753U 92093LZ  26159.41202610  .00001798  00000-0  92895-3 0  9997
2 54753  71.0211 173.4787 0005324 188.2352 171.8685 14.16362332 25563
SL-16 DEB
1 54753U 92093LZ  26159.41202611  .00001798  00000-0  92895-3 0  9998
2 54753  71.0211 173.4787 0005324 188.2352 171.8685 14.16362332 25563
SL-16 DEB
1 54753U 92093LZ  26159.76514837  .00001927  00000-0  99365-3 0  9995
2 54753  71.0211 172.7361 0005300 187.5944 172.5100 14.16364308 25617
SL-16 DEB
1 54753U 92093LZ  26159.76514837  .00001927  00000-0  99365-3 0  9995
2 54753  71.0211 172.7361 0005300 187.5944 172.5100 14.16364308 25617
SL-16 DEB
1 54753U 92093LZ  26163.29635764  .00001721  00000-0  88982-3 0  9996
2 54753  71.0203 165.3118 0005144 183.3049 176.8041 14.16376102 26114
SL-16 DEB
1 54753U 92093LZ  26164.70883264  .00001687  00000-0  87245-3 0  9995
2 54753  71.0204 162.3425 0005054 180.5081 179.6039 14.16381074 26312
SL-16 DEB
1 54753U 92093LZ  26164.70883265  .00001687  00000-0  87245-3 0  9996
2 54753  71.0204 162.3425 0005054 180.5081 179.6039 14.16381074 26312
SL-16 DEB
1 54753U 92093LZ  26165.06195066  .00001639  00000-0  84843-3 0  9999
2 54753  71.0204 161.6001 0005043 179.8784 180.2341 14.16382205 26369
SL-16 DEB
1 54753U 92093LZ  26165.06195067  .00001639  00000-0  84843-3 0  9990
2 54753  71.0204 161.6001 0005043 179.8784 180.2341 14.16382205 26369
SL-16 DEB
1 54753U 92093LZ  26165.69756247  .00001522  00000-0  78943-3 0  9997
2 54753  71.0203 160.2636 0005018 178.5429 181.5710 14.16384005 26455
SL-16 DEB
1 54753U 92093LZ  26165.69756247  .00001522  00000-0  78943-3 0  9997
2 54753  71.0203 160.2636 0005018 178.5429 181.5710 14.16384006 26456
SL-16 DEB
1 54753U 92093LZ  26166.26255012  .00001391  00000-0  72371-3 0  9998
2 54753  71.0203 159.0756 0005006 177.4319 182.6831 14.16385389 26538
SL-16 DEB
1 54753U 92093LZ  26166.26255012  .00001391  00000-0  72371-3 0  9998
2 54753  71.0203 159.0756 0005006 177.4319 182.6831 14.16385388 26537
SL-16 DEB
1 54753U 92093LZ  26166.68629060  .00001456  00000-0  75660-3 0  9998
2 54753  71.0199 158.1850 0005050 175.9097 184.2069 14.16386537 26595
SL-16 DEB
1 54753U 92093LZ  26167.25127722  .00001476  00000-0  76633-3 0  9993
2 54753  71.0200 156.9969 0005025 174.8593 185.2583 14.16388404 26672
SL-16 DEB
1 54753U 92093LZ  26167.25127723  .00001476  00000-0  76633-3 0  9994
2 54753  71.0200 156.9969 0005025 174.8593 185.2583 14.16388404 26672
SL-16 DEB
1 54753U 92093LZ  26167.67501678  .00001430  00000-0  74314-3 0  9999
2 54753  71.0199 156.1059 0005012 173.8363 186.2823 14.16389484 26735
SL-16 DEB
1 54753U 92093LZ  26168.02813270  .00001449  00000-0  75289-3 0  9995
2 54753  71.0199 155.3634 0005015 172.9434 187.1761 14.16390700 26786
SL-16 DEB
1 54753U 92093LZ  26168.02813270  .00001449  00000-0  75289-3 0  9995
2 54753  71.0199 155.3634 0005015 172.9434 187.1761 14.16390700 26786
SL-16 DEB
1 54753U 92093LZ  26168.94623326  .00001437  00000-0  74703-3 0  9994
2 54753  71.0198 153.4331 0004988 170.9356 189.1859 14.16393342 26917
SL-16 DEB
1 54753U 92093LZ  26169.01685624  .00001443  00000-0  74986-3 0  9992
2 54753  71.0198 153.2846 0004988 170.7906 189.3310 14.16393611 26929
SL-16 DEB
1 54753U 92093LZ  26170.35869255  .00001488  00000-0  77219-3 0  9996
2 54753  71.0198 150.4633 0004950 167.7340 192.3905 14.16397565 27117
SL-16 DEB
1 54753U 92093LZ  26171.34741174  .00001517  00000-0  78679-3 0  9999
2 54753  71.0198 148.3844 0004925 165.5079 194.6187 14.16400418 27258
SL-16 DEB
1 54753U 92093LZ  26173.32484441  .00001630  00000-0  84351-3 0  9990
2 54753  71.0195 144.2261 0004908 160.1906 199.9409 14.16406445 27536
SL-16 DEB
1 54753U 92093LZ  26174.94915608  .00001873  00000-0  96580-3 0  9999
2 54753  71.0200 140.8110 0004885 156.3777 203.7572 14.16413005 27765
SL-16 DEB
1 54753U 92093LZ  26175.30226649  .00001944  00000-0  10015-2 0  9997
2 54753  71.0200 140.0685 0004878 155.5316 204.6039 14.16414537 27811
SL-16 DEB
1 54753U 92093LZ  26175.93786350  .00002109  00000-0  10843-2 0  9999
2 54753  71.0202 138.7321 0004873 154.0961 206.0407 14.16417888 27906
SL-16 DEB
1 54753U 92093LZ  26175.93786350  .00002109  00000-0  10843-2 0  9999
2 54753  71.0202 138.7322 0004873 154.0961 206.0407 14.16417888 27907
SL-16 DEB
1 54753U 92093LZ  26176.92656762  .00002193  00000-0  11265-2 0  9994
2 54753  71.0204 136.6533 0004852 151.8721 208.2665 14.16422310 28048
SL-16 DEB
1 54753U 92093LZ  26176.92656762  .00002193  00000-0  11265-2 0  9994
2 54753  71.0204 136.6533 0004852 151.8722 208.2665 14.16422310 28049
SL-16 DEB
1 54753U 92093LZ  26182.92934787  .00002239  00000-0  11489-2 0  9996
2 54753  71.0202 124.0309 0004789 137.6806 222.4688 14.16449238 28897
SL-16 DEB
1 54753U 92093LZ  26182.92934787  .00002239  00000-0  11489-2 0  9996
2 54753  71.0202 124.0309 0004789 137.6806 222.4688 14.16449238 28897
SL-16 DEB
1 54753U 92093LZ  26185.47166753  .00002566  00000-0  13126-2 0  9992
2 54753  71.0211 118.6860 0004765 132.4006 227.7522 14.16462210 29258
SL-16 DEB
1 54753U 92093LZ  26185.47166754  .00002566  00000-0  13126-2 0  9993
2 54753  71.0211 118.6860 0004765 132.4006 227.7522 14.16462210 29258
SL-16 DEB
1 54753U 92093LZ  26189.49697007  .00001076  00000-0  56433-3 0  9993
2 54753  71.0215 110.2215 0004878 122.4767 237.6829 14.16472923 29827
SL-16 DEB
1 54753U 92093LZ  26189.49697008  .00001076  00000-0  56433-3 0  9994
2 54753  71.0215 110.2215 0004878 122.4767 237.6829 14.16472923 29827
SL-16 DEB
1 54753U 92093LZ  26189.49697008  .00001076  00000-0  56433-3 0  9994
2 54753  71.0215 110.2215 0004878 122.4767 237.6829 14.16472923 29827
SL-16 DEB
1 54753U 92093LZ  26190.13254221  .00001148  00000-0  60066-3 0  9990
2 54753  71.0210 108.8853 0004926 121.5191 238.6414 14.16473259 29912
SL-16 DEB
1 54753U 92093LZ  26191.19182557  .00001038  00000-0  54528-3 0  9993
2 54753  71.0205 106.6570 0004988 119.0454 241.1170 14.16476017 30061
SL-16 DEB
1 54753U 92093LZ  26192.18048921  .00000937  00000-0  49459-3 0  9993
2 54753  71.0204 104.5780 0005043 116.8274 243.3365 14.16477993 30208
SL-16 DEB
1 54753U 92093LZ  26192.18048922  .00000937  00000-0  49459-3 0  9994
2 54753  71.0204 104.5780 0005043 116.8274 243.3365 14.16477993 30208
SL-16 DEB
1 54753U 92093LZ  26192.18048922  .00000937  00000-0  49459-3 0  9994
2 54753  71.0204 104.5780 0005043 116.8274 243.3365 14.16477993 30208
SL-16 DEB
1 54753U 92093LZ  26193.09853311  .00000903  00000-0  47743-3 0  9998
2 54753  71.0203 102.6474 0005102 114.7718 245.3936 14.16479729 30331
SL-16 DEB
1 54753U 92093LZ  26193.09853312  .00000903  00000-0  47743-3 0  9999
2 54753  71.0203 102.6474 0005102 114.7719 245.3936 14.16479729 30332
SL-16 DEB
1 54753U 92093LZ  26193.80471973  .00000923  00000-0  48771-3 0  9991
2 54753  71.0202 101.1623 0005149 113.2087 246.9579 14.16481317 30431
SL-16 DEB
1 54753U 92093LZ  26194.15781311  .00000931  00000-0  49130-3 0  9999
2 54753  71.0204 100.4197 0005219 112.3201 247.8476 14.16481992 30487
SL-16 DEB
1 54753U 92093LZ  26194.15781312  .00000931  00000-0  49130-3 0  9990
2 54753  71.0204 100.4197 0005219 112.3201 247.8476 14.16481993 30488
SL-16 DEB
1 54753U 92093LZ  26194.79338032  .00000927  00000-0  48951-3 0  9992
2 54753  71.0203  99.0832 0005275 111.0543 249.1145 14.16483220 30576
SL-16 DEB
1 54753U 92093LZ  26195.42894711  .00000971  00000-0  51165-3 0  9994
2 54753  71.0205  97.7468 0005321 109.4864 250.6835 14.16484652 30660
SL-16 DEB
1 54753U 92093LZ  26195.78203946  .00000970  00000-0  51121-3 0  9998
2 54753  71.0205  97.0043 0005348 108.8086 251.3618 14.16485337 30714
SL-16 DEB
1 54753U 92093LZ  26195.78203946  .00000970  00000-0  51121-3 0  9998
2 54753  71.0205  97.0043 0005348 108.8086 251.3618 14.16485337 30714
SL-16 DEB
1 54753U 92093LZ  26196.13513178  .00000988  00000-0  51985-3 0  9996
2 54753  71.0204  96.2618 0005397 108.2123 251.9588 14.16486034 30764
SL-16 DEB
1 54753U 92093LZ  26196.13513179  .00000988  00000-0  51985-3 0  9997
2 54753  71.0204  96.2618 0005397 108.2123 251.9588 14.16486034 30764
SL-16 DEB
1 54753U 92093LZ  26196.77069724  .00001009  00000-0  53074-3 0  9995
2 54753  71.0204  94.9253 0005454 107.0292 253.1430 14.16487393 30851
SL-16 DEB
1 54753U 92093LZ  26197.12378897  .00001028  00000-0  54001-3 0  9991
2 54753  71.0204  94.1827 0005484 106.3154 253.8573 14.16488138 30901
SL-16 DEB
1 54753U 92093LZ  26197.12378897  .00001028  00000-0  54001-3 0  9991
2 54753  71.0204  94.1827 0005484 106.3154 253.8573 14.16488138 30901
SL-16 DEB
1 54753U 92093LZ  26197.75935352  .00001060  00000-0  55600-3 0  9997
2 54753  71.0204  92.8462 0005534 105.1190 255.0546 14.16489574 30992
SL-16 DEB
1 54753U 92093LZ  26197.75935352  .00001060  00000-0  55600-3 0  9997
2 54753  71.0204  92.8462 0005534 105.1190 255.0546 14.16489574 30992
SL-16 DEB
1 54753U 92093LZ  26198.67739005  .00001093  00000-0  57246-3 0  9990
2 54753  71.0204  90.9157 0005604 103.4105 256.7644 14.16491614 31128
SL-16 DEB
1 54753U 92093LZ  26198.67739005  .00001093  00000-0  57246-3 0  9990
2 54753  71.0204  90.9157 0005604 103.4105 256.7644 14.16491615 31129
SL-16 DEB
1 54753U 92093LZ  26199.10109861  .00001151  00000-0  60180-3 0  9996
2 54753  71.0204  90.0247 0005632 102.5616 257.6137 14.16492846 31188
SL-16 DEB
1 54753U 92093LZ  26200.08975085  .00001189  00000-0  62068-3 0  9993
2 54753  71.0204  87.9455 0005708 100.7682 259.4084 14.16495258 31328
SL-16 DEB
1 54753U 92093LZ  26200.79592990  .00001220  00000-0  63661-3 0  9997
2 54753  71.0205  86.4606 0005725  99.3515 260.8256 14.16497102 31426
SL-16 DEB
1 54753U 92093LZ  26201.07840129  .00001225  00000-0  63876-3 0  9992
2 54753  71.0205  85.8666 0005738  98.7784 261.3989 14.16497778 31462
SL-16 DEB
1 54753U 92093LZ  26205.38606164  .00001964  00000-0  10094-2 0  9992
2 54753  71.0206  76.8072 0005908  90.9785 269.2015 14.16515392 32076
SL-16 DEB
1 54753U 92093LZ  26206.30408171  .00001893  00000-0  97371-3 0  9998
2 54753  71.0206  74.8765 0005931  89.3379 270.8424 14.16518255 32208
SL-16 DEB
1 54753U 92093LZ  26209.26997374  .00001796  00000-0  92503-3 0  9998
2 54753  71.0205  68.6388 0006012  84.2195 275.9614 14.16529599 32626
SL-16 DEB
1 54753U 92093LZ  26212.65953829  .00001560  00000-0  80638-3 0  9997
2 54753  71.0203  61.5098 0006120  79.1463 281.0349 14.16540600 33108
SL-16 DEB
1 54753U 92093LZ  26212.65953829  .00001560  00000-0  80638-3 0  9997
2 54753  71.0203  61.5098 0006120  79.1463 281.0349 14.16540600 33108
SL-16 DEB
1 54753U 92093LZ  26212.65953829  .00001560  00000-0  80638-3 0  9997
2 54753  71.0203  61.5098 0006120  79.1463 281.0349 14.16540600 33108
SL-16 DEB
1 54753U 92093LZ  26213.01261629  .00001425  00000-0  73864-3 0  9991
2 54753  71.0203  60.7672 0006123  78.5415 281.6396 14.16541099 33156
SL-16 DEB
1 54753U 92093LZ  26213.64815657  .00001555  00000-0  80367-3 0  9996
2 54753  71.0202  59.4305 0006138  77.5668 282.6142 14.16543802 33242
SL-16 DEB
1 54753U 92093LZ  26213.64815657  .00001555  00000-0  80367-3 0  9996
2 54753  71.0202  59.4305 0006138  77.5668 282.6142 14.16543802 33242
SL-16 DEB
1 54753U 92093LZ  26214.00123404  .00001389  00000-0  72063-3 0  9998
2 54753  71.0203  58.6878 0006140  76.9689 283.2120 14.16544031 33291
SL-16 DEB
1 54753U 92093LZ  26214.00123405  .00001389  00000-0  72063-3 0  9999
2 54753  71.0203  58.6878 0006140  76.9689 283.2120 14.16544031 33291
SL-16 DEB
1 54753U 92093LZ  26214.56615789  .00001335  00000-0  69342-3 0  9998
2 54753  71.0202  57.4996 0006149  76.2528 283.9280 14.16545382 33375
SL-16 DEB
1 54753U 92093LZ  26214.98984973  .00001333  00000-0  69219-3 0  9999
2 54753  71.0203  56.6085 0006164  75.4388 284.7419 14.16546771 33431
SL-16 DEB
1 54753U 92093LZ  26215.62538773  .00001320  00000-0  68604-3 0  9997
2 54753  71.0202  55.2716 0006150  74.2857 285.8944 14.16548460 33521
SL-16 DEB
1 54753U 92093LZ  26216.96707652  .00001120  00000-0  58570-3 0  9998
2 54753  71.0201  52.4496 0006198  72.4370 287.7430 14.16551011 33714
SL-16 DEB
1 54753U 92093LZ  26217.60261239  .00001076  00000-0  56365-3 0  9996
2 54753  71.0200  51.1130 0006232  71.9097 288.2705 14.16552379 33802
SL-16 DEB
1 54753U 92093LZ  26218.23814791  .00001029  00000-0  53986-3 0  9997
2 54753  71.0201  49.7763 0006268  70.6926 289.4875 14.16553587 33896
SL-16 DEB
1 54753U 92093LZ  26218.59122293  .00001014  00000-0  53255-3 0  9998
2 54753  71.0200  49.0338 0006276  70.2984 289.8816 14.16554292 33944
SL-16 DEB
1 54753U 92093LZ  26218.87368290  .00000973  00000-0  51205-3 0  9994
2 54753  71.0197  48.4397 0006278  69.8954 290.2845 14.16554628 33985
SL-16 DEB
1 54753U 92093LZ  26219.57983205  .00000998  00000-0  52439-3 0  9998
2 54753  71.0196  46.9543 0006293  68.9000 291.2796 14.16556277 34089
SL-16 DEB
1 54753U 92093LZ  26219.93290645  .00000967  00000-0  50900-3 0  9994
2 54753  71.0197  46.2116 0006302  68.3746 291.8049 14.16556815 34132
SL-16 DEB
1 54753U 92093LZ  26219.93290645  .00000967  00000-0  50900-3 0  9994
2 54753  71.0197  46.2116 0006302  68.3746 291.8049 14.16556815 34132
SL-16 DEB
1 54753U 92093LZ  26220.78028435  .00000999  00000-0  52482-3 0  9997
2 54753  71.0197  44.4293 0006309  67.1454 293.0335 14.16558635 34255
SL-16 DEB
1 54753U 92093LZ  26220.92151360  .00001021  00000-0  53585-3 0  9999
2 54753  71.0198  44.1322 0006314  66.9262 293.2527 14.16559124 34277
SL-16 DEB
1 54753U 92093LZ  26220.92151361  .00001021  00000-0  53585-3 0  9990
2 54753  71.0198  44.1322 0006314  66.9262 293.2527 14.16559124 34277
SL-16 DEB
1 54753U 92093LZ  26221.55704625  .00001021  00000-0  53572-3 0  9993
2 54753  71.0198  42.7955 0006315  66.0804 294.0981 14.16560349 34361
SL-16 DEB
1 54753U 92093LZ  26222.54565124  .00001062  00000-0  55636-3 0  9990
2 54753  71.0199  40.7161 0006319  64.5366 295.6410 14.16562469 34504
SL-16 DEB
1 54753U 92093LZ  26222.89872399  .00001089  00000-0  56978-3 0  9992
2 54753  71.0201  39.9735 0006323  63.9247 296.2526 14.16563309 34555
SL-16 DEB
1 54753U 92093LZ  26222.89872400  .00001089  00000-0  56978-3 0  9995
2 54753  71.0201  39.9735 0006323  63.9247 296.2527 14.16563309 34556
SL-16 DEB
1 54753U 92093LZ  26223.53425488  .00001110  00000-0  58027-3 0  9999
2 54753  71.0201  38.6367 0006326  62.9260 297.2508 14.16564622 34649
SL-16 DEB
1 54753U 92093LZ  26223.88732705  .00001144  00000-0  59743-3 0  9993
2 54753  71.0202  37.8941 0006327  62.2903 297.8862 14.16565540 34691
SL-16 DEB
1 54753U 92093LZ  26223.88732705  .00001144  00000-0  59743-3 0  9993
2 54753  71.0202  37.8941 0006327  62.2903 297.8862 14.16565540 34691
SL-16 DEB
1 54753U 92093LZ  26224.52285683  .00001101  00000-0  57612-3 0  9999
2 54753  71.0201  36.5573 0006320  61.2928 298.8830 14.16566608 34788
SL-16 DEB
1 54753U 92093LZ  26224.52285684  .00001101  00000-0  57612-3 0  9990
2 54753  71.0201  36.5573 0006320  61.2928 298.8830 14.16566608 34788
SL-16 DEB
1 54753U 92093LZ  26225.58207140  .00001147  00000-0  59903-3 0  9993
2 54753  71.0206  34.3297 0006287  59.6069 300.5675 14.16569163 34935
SL-16 DEB
1 54753U 92093LZ  26225.58207141  .00001147  00000-0  59903-3 0  9994
2 54753  71.0206  34.3297 0006287  59.6069 300.5675 14.16569163 34935
SL-16 DEB
1 54753U 92093LZ  26226.57066963  .00001196  00000-0  62333-3 0  9994
2 54753  71.0208  32.2503 0006262  57.7986 302.3744 14.16571756 35078
SL-16 DEB
1 54753U 92093LZ  26226.57066964  .00001196  00000-0  62333-3 0  9995
2 54753  71.0208  32.2503 0006262  57.7986 302.3744 14.16571756 35078
SL-16 DEB
1 54753U 92093LZ  26227.48865238  .00001195  00000-0  62276-3 0  9992
2 54753  71.0209  30.3194 0006240  56.0453 304.1263 14.16573912 35208
SL-16 DEB
1 54753U 92093LZ  26227.55926635  .00001194  00000-0  62265-3 0  9996
2 54753  71.0209  30.1709 0006235  55.9181 304.2534 14.16574085 35213
SL-16 DEB
1 54753U 92093LZ  26227.55926636  .00001194  00000-0  62265-3 0  9997
2 54753  71.0209  30.1709 0006235  55.9181 304.2534 14.16574085 35213
SL-16 DEB
1 54753U 92093LZ  26228.83031627  .00001370  00000-0  71051-3 0  9995
2 54753  71.0211  27.4974 0006187  53.3966 306.7726 14.16578175 35391
SL-16 DEB
1 54753U 92093LZ  26231.08995198  .00001537  00000-0  79424-3 0  9995
2 54753  71.0215  22.7445 0006090  48.7178 311.4469 14.16585324 35719
SL-16 DEB
1 54753U 92093LZ  26231.08995198  .00001537  00000-0  79424-3 0  9995
2 54753  71.0215  22.7445 0006090  48.7178 311.4469 14.16585324 35719
SL-16 DEB
1 54753U 92093LZ  26232.07853898  .00001514  00000-0  78264-3 0  9991
2 54753  71.0218  20.6655 0006055  46.5146 313.6480 14.16588171 35859
SL-16 DEB
1 54753U 92093LZ  26232.50221897  .00001457  00000-0  75396-3 0  9996
2 54753  71.0220  19.7747 0006112  45.4484 314.7138 14.16589076 35914
SL-16 DEB
1 54753U 92093LZ  26232.78467172  .00001448  00000-0  74967-3 0  9997
2 54753  71.0221  19.1807 0006104  44.7849 315.3766 14.16589891 35957
SL-16 DEB
1 54753U 92093LZ  26234.47938500  .00001379  00000-0  71504-3 0  9990
2 54753  71.0223  15.6164 0006059  41.0021 319.1557 14.16594715 36195
SL-16 DEB
1 54753U 92093LZ  26235.82102852  .00001319  00000-0  68481-3 0  9997
2 54753  71.0224  12.7945 0006084  37.9206 322.2345 14.16598558 36388
SL-16 DEB
1 54753U 92093LZ  26236.80960592  .00001270  00000-0  66037-3 0  9990
2 54753  71.0224  10.7152 0006082  35.7060 324.4469 14.16601196 36528
SL-16 DEB
1 54753U 92093LZ  26237.37450624  .00001298  00000-0  67420-3 0  9990
2 54753  71.0225   9.5269 0006051  34.7181 325.4336 14.16603014 36607
SL-16 DEB
1 54753U 92093LZ  26237.37450625  .00001298  00000-0  67420-3 0  9991
2 54753  71.0225   9.5269 0006051  34.7181 325.4336 14.16603014 36607
SL-16 DEB
1 54753U 92093LZ  26238.78675536  .00001419  00000-0  73488-3 0  9993
2 54753  71.0225   6.5567 0006075  31.4911 328.6575 14.16607413 36805
SL-16 DEB
1 54753U 92093LZ  26238.78675536  .00001419  00000-0  73488-3 0  9993
2 54753  71.0225   6.5567 0006075  31.4911 328.6575 14.16607413 36805
SL-16 DEB
1 54753U 92093LZ  26241.39940669  .00001292  00000-0  67090-3 0  9997
2 54753  71.0224   1.0617 0006066  25.7088 334.4336 14.16613417 37173
SL-16 DEB
1 54753U 92093LZ  26241.39940670  .00001292  00000-0  67090-3 0  9999
2 54753  71.0224   1.0617 0006066  25.7088 334.4336 14.16613417 37173
SL-16 DEB
1 54753U 92093LZ  26241.75246706  .00001337  00000-0  69365-3 0  9995
2 54753  71.0226   0.3191 0006076  24.9581 335.1835 14.16614432 37220
SL-16 DEB
1 54753U 92093LZ  26241.75246707  .00001337  00000-0  69365-3 0  9996
2 54753  71.0226   0.3191 0006076  24.9581 335.1835 14.16614432 37220
SL-16 DEB
1 54753U 92093LZ  26242.74103424  .00001259  00000-0  65464-3 0  9993
2 54753  71.0226 358.2399 0006085  22.8496 337.2898 14.16616446 37361
SL-16 DEB
1 54753U 92093LZ  26242.74103424  .00001259  00000-0  65464-3 0  9993
2 54753  71.0226 358.2399 0006085  22.8496 337.2898 14.16616446 37361
SL-16 DEB
1 54753U 92093LZ  26243.72959964  .00001215  00000-0  63264-3 0  9998
2 54753  71.0226 356.1607 0006103  20.6985 339.4385 14.16618655 37505
SL-16 DEB
1 54753U 92093LZ  26243.72959965  .00001215  00000-0  63264-3 0  9999
2 54753  71.0226 356.1607 0006103  20.6985 339.4385 14.16618655 37505
SL-16 DEB
1 54753U 92093LZ  26244.36510544  .00001139  00000-0  59430-3 0  9991
2 54753  71.0236 354.8244 0006175  19.3453 340.7904 14.16619814 37591
SL-16 DEB
1 54753U 92093LZ  26244.36510545  .00001139  00000-0  59430-3 0  9992
2 54753  71.0236 354.8244 0006175  19.3453 340.7904 14.16619814 37591
SL-16 DEB
1 54753U 92093LZ  26244.71816368  .00001149  00000-0  59949-3 0  9999
2 54753  71.0237 354.0820 0006189  18.5453 341.5895 14.16620739 37642
