CZ-6A DEB
1 56678U 22151AHE 23135.71935675  .00001415  00000-0  86484-3 0  9994
2 56678  98.8017 140.6049 0064525 305.7614  53.7566 14.06520958  2890
CZ-6A DEB
1 56678U 22151AHE 23140.77002935  .00001091  00000-0  67255-3 0  9995
2 56678  98.8009 145.5184 0064208 291.0964  68.3348 14.06534594  3609
CZ-6A DEB
1 56678U 22151AHE 23140.77002935  .00001091  00000-0  67255-3 0  9995
2 56678  98.8009 145.5184 0064208 291.0964  68.3348 14.06534594  3609
CZ-6A DEB
1 56678U 22151AHE 23144.25568371  .00001114  00000-0  68610-3 0  9995
2 56678  98.8008 148.9100 0064096 280.8759  78.5201 14.06543404  4091
CZ-6A DEB
1 56678U 22151AHE 23144.25568371  .00001114  00000-0  68610-3 0  9995
2 56678  98.8008 148.9100 0064096 280.8759  78.5201 14.06543404  4091
CZ-6A DEB
1 56678U 22151AHE 23146.24747880  .00001017  00000-0  62847-3 0  9998
2 56678  98.8009 150.8481 0064041 275.1244  84.2618 14.06547798  4379
CZ-6A DEB
1 56678U 22151AHE 23146.24747880  .00001017  00000-0  62847-3 0  9998
2 56678  98.8009 150.8481 0064041 275.1244  84.2618 14.06547798  4379
CZ-6A DEB
1 56678U 22151AHE 23147.74132270  .00001003  00000-0  62040-3 0  9995
2 56678  98.8008 152.3016 0063979 270.7311  88.6528 14.06550948  4586
CZ-6A DEB
1 56678U 22151AHE 23147.74132270  .00001003  00000-0  62040-3 0  9995
2 56678  98.8008 152.3016 0063979 270.7311  88.6528 14.06550948  4586
CZ-6A DEB
1 56678U 22151AHE 23149.23516125  .00001235  00000-0  75798-3 0  9997
2 56678  98.7990 153.7531 0064223 266.3785  93.0038 14.06556069  4790
CZ-6A DEB
1 56678U 22151AHE 23149.23516125  .00001235  00000-0  75798-3 0  9997
2 56678  98.7990 153.7531 0064223 266.3785  93.0038 14.06556069  4790
CZ-6A DEB
1 56678U 22151AHE 23152.29396232  .00001445  00000-0  88185-3 0  9999
2 56678  98.8002 156.7297 0064160 257.2776 102.1216 14.06565893  5220
CZ-6A DEB
1 56678U 22151AHE 23152.29396232  .00001445  00000-0  88185-3 0  9999
2 56678  98.8002 156.7297 0064160 257.2776 102.1216 14.06565893  5220
CZ-6A DEB
1 56678U 22151AHE 23153.71665420  .00001447  00000-0  88320-3 0  9998
2 56678  98.8011 158.1152 0064218 253.1318 106.2801 14.06570435  5422
CZ-6A DEB
1 56678U 22151AHE 23153.71665420  .00001447  00000-0  88320-3 0  9998
2 56678  98.8011 158.1152 0064218 253.1318 106.2801 14.06570435  5422
CZ-6A DEB
1 56678U 22151AHE 23154.71253463  .00001491  00000-0  90882-3 0  9994
2 56678  98.8008 159.0852 0064369 250.0526 109.3702 14.06574357  5565
CZ-6A DEB
1 56678U 22151AHE 23158.26923818  .00001253  00000-0  76803-3 0  9999
2 56678  98.8000 162.5439 0064443 240.0367 119.4394 14.06584983  6063
CZ-6A DEB
1 56678U 22151AHE 23158.26923818  .00001253  00000-0  76803-3 0  9999
2 56678  98.8000 162.5439 0064443 240.0367 119.4394 14.06584983  6063
CZ-6A DEB
1 56678U 22151AHE 23160.26098319  .00001265  00000-0  77477-3 0  9992
2 56678  98.8001 164.4819 0064534 234.2415 125.2742 14.06590801  6346
CZ-6A DEB
1 56678U 22151AHE 23160.26098319  .00001265  00000-0  77477-3 0  9992
2 56678  98.8001 164.4819 0064534 234.2415 125.2742 14.06590801  6346
CZ-6A DEB
1 56678U 22151AHE 23164.74238131  .00001479  00000-0  90114-3 0  9997
2 56678  98.8003 168.8425 0064900 221.3354 138.2893 14.06605111  6976
CZ-6A DEB
1 56678U 22151AHE 23164.74238131  .00001479  00000-0  90114-3 0  9997
2 56678  98.8003 168.8425 0064900 221.3354 138.2893 14.06605111  6976
CZ-6A DEB
1 56678U 22151AHE 23165.24031152  .00001578  00000-0  95940-3 0  9999
2 56678  98.7999 169.3266 0065035 219.9413 139.6962 14.06607337  7040
CZ-6A DEB
1 56678U 22151AHE 23165.73824172  .00001565  00000-0  95134-3 0  9996
2 56678  98.7994 169.8106 0065121 218.5763 141.0743 14.06608761  7116
CZ-6A DEB
1 56678U 22151AHE 23166.73410052  .00001653  00000-0  10038-2 0  9992
2 56678  98.7999 170.7797 0065224 215.7171 143.9626 14.06612360  7250
CZ-6A DEB
1 56678U 22151AHE 23166.73410052  .00001653  00000-0  10038-2 0  9992
2 56678  98.7999 170.7797 0065224 215.7171 143.9626 14.06612360  7250
CZ-6A DEB
1 56678U 22151AHE 23167.72995584  .00001813  00000-0  10978-2 0  9991
2 56678  98.7997 171.7485 0065317 212.8720 146.8379 14.06616859  7393
CZ-6A DEB
1 56678U 22151AHE 23168.72580961  .00001777  00000-0  10765-2 0  9994
2 56678  98.7997 172.7174 0065411 210.0163 149.7249 14.06620194  7536
CZ-6A DEB
1 56678U 22151AHE 23168.72580961  .00001777  00000-0  10765-2 0  9994
2 56678  98.7997 172.7174 0065411 210.0163 149.7249 14.06620194  7536
CZ-6A DEB
1 56678U 22151AHE 23170.71750828  .00001804  00000-0  10925-2 0  9996
2 56678  98.7995 174.6551 0065579 204.3457 155.4610 14.06628122  7817
CZ-6A DEB
1 56678U 22151AHE 23170.71750828  .00001804  00000-0  10925-2 0  9996
2 56678  98.7995 174.6551 0065579 204.3457 155.4610 14.06628122  7817
CZ-6A DEB
1 56678U 22151AHE 23180.24906837  .00001462  00000-0  88852-3 0  9993
2 56678  98.7994 183.9288 0066545 177.3345 182.8191 14.06662001  9156
CZ-6A DEB
1 56678U 22151AHE 23181.74280261  .00001381  00000-0  84105-3 0  9992
2 56678  98.7995 185.3823 0066761 173.1572 187.0523 14.06665886  9367
CZ-6A DEB
1 56678U 22151AHE 23183.73443956  .00001562  00000-0  94717-3 0  9996
2 56678  98.7998 187.3203 0066885 167.7568 192.5245 14.06672898  9649
CZ-6A DEB
1 56678U 22151AHE 23185.72606688  .00001689  00000-0  10219-2 0  9994
2 56678  98.7996 189.2581 0067069 162.2140 198.1398 14.06679927  9920
CZ-6A DEB
1 56678U 22151AHE 23191.27411589  .00001451  00000-0  88102-3 0  9999
2 56678  98.7999 194.6566 0067572 146.7620 213.7820 14.06698303 10706
CZ-6A DEB
1 56678U 22151AHE 23194.26149657  .00001529  00000-0  92694-3 0  9992
2 56678  98.7998 197.5631 0067651 138.5522 222.0807 14.06707897 11122
CZ-6A DEB
1 56678U 22151AHE 23197.74674745  .00001681  00000-0  10162-2 0  9997
2 56678  98.8003 200.9551 0067755 129.0093 231.7135 14.06718998 11612
CZ-6A DEB
1 56678U 22151AHE 23198.74252726  .00001862  00000-0  11227-2 0  9993
2 56678  98.7998 201.9234 0067842 126.2728 234.4734 14.06723225 11753
CZ-6A DEB
1 56678U 22151AHE 23210.26489252  .00001654  00000-0  99872-3 0  9993
2 56678  98.8007 213.1372 0068295  94.5506 266.3468 14.06767939 13375
CZ-6A DEB
1 56678U 22151AHE 23211.75850265  .00001656  00000-0  10001-2 0  9992
2 56678  98.8011 214.5904 0068108  90.4232 270.4741 14.06773039 13581
CZ-6A DEB
1 56678U 22151AHE 23213.25210664  .00001733  00000-0  10451-2 0  9997
2 56678  98.8004 216.0429 0068134  86.3901 274.5057 14.06778594 13797
CZ-6A DEB
1 56678U 22151AHE 23214.74570426  .00001849  00000-0  11137-2 0  9997
2 56678  98.8015 217.4978 0068110  82.2390 278.6505 14.06784212 14006
CZ-6A DEB
1 56678U 22151AHE 23216.45266446  .00002010  00000-0  12079-2 0  9998
2 56678  98.8006 219.1593 0068089  77.5373 283.3403 14.06791254 14241
CZ-6A DEB
1 56678U 22151AHE 23219.72430859  .00002252  00000-0  13502-2 0  9992
2 56678  98.8013 222.3436 0067953  68.5967 292.2434 14.06806173 14700
CZ-6A DEB
1 56678U 22151AHE 23221.28899454  .00002268  00000-0  13596-2 0  9996
2 56678  98.8015 223.8664 0067874  64.3158 296.5000 14.06813317 14927
CZ-6A DEB
1 56678U 22151AHE 23224.27609898  .00001744  00000-0  10511-2 0  9991
2 56678  98.8009 226.7737 0067870  56.0540 304.7056 14.06824783 15341
CZ-6A DEB
1 56678U 22151AHE 23226.26748798  .00001622  00000-0  97929-3 0  9999
2 56678  98.8014 228.7124 0067780  50.5083 310.2053 14.06831508 15623
CZ-6A DEB
1 56678U 22151AHE 23228.25886665  .00001714  00000-0  10335-2 0  9993
2 56678  98.8021 230.6509 0067647  44.9568 315.7051 14.06838503 15908
CZ-6A DEB
1 56678U 22151AHE 23229.75239389  .00001789  00000-0  10776-2 0  9995
2 56678  98.8022 232.1047 0067561  40.8102 319.8099 14.06843903 16118
CZ-6A DEB
1 56678U 22151AHE 23231.24591521  .00001836  00000-0  11050-2 0  9990
2 56678  98.8016 233.5579 0067446  36.7118 323.8644 14.06849222 16323
CZ-6A DEB
1 56678U 22151AHE 23235.79756131  .00001924  00000-0  11567-2 0  9995
2 56678  98.8019 237.9901 0067253  24.0305 336.3978 14.06865865 16967
CZ-6A DEB
1 56678U 22151AHE 23242.26933143  .00001541  00000-0  93148-3 0  9996
2 56678  98.8038 244.2919 0066799   5.9173 354.2770 14.06888320 17874
CZ-6A DEB
1 56678U 22151AHE 23242.83827298  .00001530  00000-0  92493-3 0  9992
2 56678  98.8034 244.8450 0066823   4.3386 355.8348 14.06890258 17953
CZ-6A DEB
1 56678U 22151AHE 23244.26062525  .00001551  00000-0  93751-3 0  9996
2 56678  98.8033 246.2287 0066613   0.4536 359.6682 14.06894887 18155
CZ-6A DEB
1 56678U 22151AHE 23244.26062525  .00001551  00000-0  93751-3 0  9996
2 56678  98.8033 246.2287 0066613   0.4536 359.6682 14.06894887 18155
CZ-6A DEB
1 56678U 22151AHE 23244.82956461  .00001562  00000-0  94412-3 0  9996
2 56678  98.8034 246.7833 0066621 358.7893   1.3104 14.06896672 18235
CZ-6A DEB
1 56678U 22151AHE 23246.82084736  .00001587  00000-0  95860-3 0  9990
2 56678  98.8032 248.7222 0066411 353.2333   6.7933 14.06902948 18517
CZ-6A DEB
1 56678U 22151AHE 23246.82084736  .00001587  00000-0  95860-3 0  9990
2 56678  98.8032 248.7222 0066411 353.2333   6.7933 14.06902948 18517
CZ-6A DEB
1 56678U 22151AHE 23247.74536911  .00001534  00000-0  92774-3 0  9992
2 56678  98.8032 249.6226 0066363 350.6197   9.3728 14.06905317 18644
CZ-6A DEB
1 56678U 22151AHE 23247.74536911  .00001534  00000-0  92774-3 0  9992
2 56678  98.8032 249.6226 0066363 350.6197   9.3728 14.06905317 18644
CZ-6A DEB
1 56678U 22151AHE 23256.27931893  .00002354  00000-0  14094-2 0  9997
2 56678  98.8039 257.9327 0065776 326.4879  33.2137 14.06938887 19841
CZ-6A DEB
1 56678U 22151AHE 23256.27931893  .00002354  00000-0  14094-2 0  9997
2 56678  98.8039 257.9327 0065776 326.4879  33.2137 14.06938887 19841
CZ-6A DEB
1 56678U 22151AHE 23258.27054495  .00002104  00000-0  12625-2 0  9994
2 56678  98.8033 259.8718 0065667 320.8722  38.7708 14.06946110 20129
CZ-6A DEB
1 56678U 22151AHE 23258.27054495  .00002104  00000-0  12625-2 0  9994
2 56678  98.8033 259.8718 0065667 320.8722  38.7708 14.06946110 20129
CZ-6A DEB
1 56678U 22151AHE 23258.76834991  .00001860  00000-0  11188-2 0  9996
2 56678  98.8028 260.3560 0065568 319.5169  40.1132 14.06946969 20192
CZ-6A DEB
1 56678U 22151AHE 23259.76395755  .00001912  00000-0  11495-2 0  9996
2 56678  98.8028 261.3254 0065472 316.6845  42.9188 14.06951468 20333
CZ-6A DEB
1 56678U 22151AHE 23259.76395755  .00001912  00000-0  11495-2 0  9996
2 56678  98.8028 261.3254 0065472 316.6845  42.9188 14.06951468 20333
CZ-6A DEB
1 56678U 22151AHE 23263.74636103  .00002062  00000-0  12378-2 0  9992
2 56678  98.8044 265.2043 0065223 305.2979  54.2101 14.06968608 20892
CZ-6A DEB
1 56678U 22151AHE 23263.74636103  .00002062  00000-0  12378-2 0  9992
2 56678  98.8044 265.2043 0065223 305.2979  54.2101 14.06968608 20892
CZ-6A DEB
1 56678U 22151AHE 23264.24415920  .00002161  00000-0  12956-2 0  9992
2 56678  98.8039 265.6890 0065079 303.8936  55.6054 14.06970927 20963
CZ-6A DEB
1 56678U 22151AHE 23269.22209261  .00002820  00000-0  16827-2 0  9997
2 56678  98.8030 270.5367 0064909 289.5796  69.8373 14.06996043 21669
CZ-6A DEB
1 56678U 22151AHE 23269.22209261  .00002820  00000-0  16827-2 0  9997
2 56678  98.8030 270.5367 0064909 289.5796  69.8373 14.06996043 21669
CZ-6A DEB
1 56678U 22151AHE 23274.27104637  .00002494  00000-0  14902-2 0  9998
2 56678  98.8030 275.4539 0064690 275.1604  84.2184 14.07023702 22374
CZ-6A DEB
1 56678U 22151AHE 23274.27104637  .00002494  00000-0  14902-2 0  9998
2 56678  98.8030 275.4539 0064690 275.1604  84.2184 14.07023702 22374
CZ-6A DEB
1 56678U 22151AHE 23274.76882609  .00002314  00000-0  13845-2 0  9990
2 56678  98.8040 275.9401 0064570 273.7103  85.6684 14.07025555 22449
CZ-6A DEB
1 56678U 22151AHE 23274.76882609  .00002314  00000-0  13845-2 0  9990
2 56678  98.8040 275.9401 0064570 273.7103  85.6684 14.07025555 22449
CZ-6A DEB
1 56678U 22151AHE 23281.23988576  .00002861  00000-0  17046-2 0  9994
2 56678  98.8044 282.2426 0064544 254.9897 104.4122 14.07061545 23350
CZ-6A DEB
1 56678U 22151AHE 23281.23988576  .00002861  00000-0  17046-2 0  9994
2 56678  98.8044 282.2426 0064544 254.9897 104.4122 14.07061545 23350
CZ-6A DEB
1 56678U 22151AHE 23284.22647552  .00003242  00000-0  19273-2 0  9990
2 56678  98.8066 285.1554 0064569 246.4775 112.9601 14.07080391 23778
CZ-6A DEB
1 56678U 22151AHE 23284.22647552  .00003242  00000-0  19273-2 0  9990
2 56678  98.8066 285.1554 0064569 246.4775 112.9601 14.07080391 23778
CZ-6A DEB
1 56678U 22151AHE 23285.22199687  .00003252  00000-0  19329-2 0  9995
2 56678  98.8066 286.1255 0064587 243.6299 115.8230 14.07086875 23916
CZ-6A DEB
1 56678U 22151AHE 23296.24362104  .00001804  00000-0  10829-2 0  9992
2 56678  98.7783 296.7970 0063871 209.6498 150.1045 14.07137181 25465
CZ-6A DEB
1 56678U 22151AHE 23296.24362104  .00001804  00000-0  10829-2 0  9992
2 56678  98.7783 296.7970 0063871 209.6498 150.1045 14.07137181 25465
CZ-6A DEB
1 56678U 22151AHE 23300.22555413  .00002216  00000-0  13240-2 0  9991
2 56678  98.8048 300.7286 0064494 200.6056 159.2511 14.07150362 26026
CZ-6A DEB
1 56678U 22151AHE 23300.22555413  .00002216  00000-0  13240-2 0  9991
2 56678  98.8048 300.7286 0064494 200.6056 159.2511 14.07150362 26026
CZ-6A DEB
1 56678U 22151AHE 23300.72329239  .00002149  00000-0  12846-2 0  9997
2 56678  98.8051 301.2184 0064738 199.2225 160.6500 14.07152083 26098
CZ-6A DEB
1 56678U 22151AHE 23301.22103039  .00002137  00000-0  12775-2 0  9999
2 56678  98.8042 301.7048 0064916 197.8520 162.0368 14.07153936 26166
CZ-6A DEB
1 56678U 22151AHE 23301.71876642  .00002238  00000-0  13360-2 0  9993
2 56678  98.7992 302.1936 0065484 196.4008 163.5043 14.07156429 26231
CZ-6A DEB
1 56678U 22151AHE 23301.71876642  .00002238  00000-0  13360-2 0  9993
2 56678  98.7992 302.1936 0065484 196.4008 163.5043 14.07156429 26231
CZ-6A DEB
1 56678U 22151AHE 23302.28760768  .00002479  00000-0  14770-2 0  9990
2 56678  98.7999 302.7476 0065556 194.7372 165.1888 14.07159972 26318
CZ-6A DEB
1 56678U 22151AHE 23302.28760768  .00002479  00000-0  14770-2 0  9990
2 56678  98.7999 302.7476 0065556 194.7372 165.1888 14.07159972 26318
CZ-6A DEB
1 56678U 22151AHE 23308.75811419  .00001753  00000-0  10509-2 0  9998
2 56678  98.8004 309.0478 0065566 176.4315 183.7335 14.07184723 27229
CZ-6A DEB
1 56678U 22151AHE 23308.75811419  .00001753  00000-0  10509-2 0  9998
2 56678  98.8004 309.0478 0065566 176.4315 183.7335 14.07184723 27229
CZ-6A DEB
1 56678U 22151AHE 23309.25583852  .00002130  00000-0  12713-2 0  9990
2 56678  98.7972 309.5327 0065947 175.1061 185.0767 14.07189281 27292
CZ-6A DEB
1 56678U 22151AHE 23310.25128386  .00002838  00000-0  16854-2 0  9994
2 56678  98.8001 310.5032 0065770 172.2787 187.9410 14.07198551 27430
CZ-6A DEB
1 56678U 22151AHE 23310.25128386  .00002838  00000-0  16854-2 0  9994
2 56678  98.8001 310.5032 0065770 172.2787 187.9410 14.07198551 27430
CZ-6A DEB
1 56678U 22151AHE 23311.24672892  .00003209  00000-0  19021-2 0  9992
2 56678  98.7993 311.4720 0065844 169.4413 190.8156 14.07204079 27577
CZ-6A DEB
1 56678U 22151AHE 23316.72160045  .00002241  00000-0  13353-2 0  9999
2 56678  98.7999 316.8043 0065737 154.0340 206.4152 14.07228872 28343
CZ-6A DEB
1 56678U 22151AHE 23316.72160045  .00002241  00000-0  13353-2 0  9999
2 56678  98.7999 316.8043 0065737 154.0340 206.4152 14.07228872 28343
CZ-6A DEB
1 56678U 22151AHE 23317.29041259  .00002229  00000-0  13277-2 0  9998
2 56678  98.8031 317.3613 0066341 152.5941 207.8752 14.07231527 28423
CZ-6A DEB
1 56678U 22151AHE 23323.26289039  .00001025  00000-0  62398-3 0  9994
2 56678  98.8039 323.1780 0066630 135.8088 224.8430 14.07248652 29260
CZ-6A DEB
1 56678U 22151AHE 23323.26289039  .00001025  00000-0  62398-3 0  9994
2 56678  98.8039 323.1780 0066630 135.8088 224.8430 14.07248652 29260
CZ-6A DEB
1 56678U 22151AHE 23323.76059403  .00001022  00000-0  62179-3 0  9993
2 56678  98.8061 323.6658 0066646 134.5204 226.1437 14.07249530 29333
CZ-6A DEB
1 56678U 22151AHE 23325.25370141  .00001141  00000-0  69148-3 0  9999
2 56678  98.8060 325.1207 0066684 130.3672 230.3345 14.07252994 29540
CZ-6A DEB
1 56678U 22151AHE 23325.25370141  .00001141  00000-0  69148-3 0  9999
2 56678  98.8060 325.1207 0066684 130.3672 230.3345 14.07252994 29540
CZ-6A DEB
1 56678U 22151AHE 23326.24910274  .00001708  00000-0  10226-2 0  9997
2 56678  98.8050 326.0896 0066713 127.6752 233.0493 14.07257554 29680
CZ-6A DEB
1 56678U 22151AHE 23326.24910274  .00001708  00000-0  10226-2 0  9997
2 56678  98.8050 326.0896 0066713 127.6752 233.0493 14.07257554 29680
CZ-6A DEB
1 56678U 22151AHE 23344.23673114  .00001296  00000-0  78057-3 0  9994
2 56678  98.8027 343.6070 0066722  78.0162 282.8477 14.07342011 32217
CZ-6A DEB
1 56678U 22151AHE 23344.23673114  .00001296  00000-0  78057-3 0  9994
2 56678  98.8027 343.6070 0066722  78.0162 282.8477 14.07342011 32217
CZ-6A DEB
1 56678U 22151AHE 23350.77735156  .00001894  00000-0  11287-2 0  9990
2 56678  98.8045 349.9825 0066521  59.8305 300.9433 14.07372393 33139
CZ-6A DEB
1 56678U 22151AHE 23350.77735156  .00001894  00000-0  11287-2 0  9990
2 56678  98.8045 349.9825 0066521  59.8305 300.9433 14.07372393 33139
CZ-6A DEB
1 56678U 22151AHE 24013.21811606  .00003421  00000-0  20152-2 0  9990
2 56678  98.8051  16.7216 0065641 343.2307  16.6692 14.07504385 36996
CZ-6A DEB
1 56678U 22151AHE 24013.21811606  .00003421  00000-0  20152-2 0  9990
2 56678  98.8051  16.7216 0065641 343.2307  16.6692 14.07504385 36996
CZ-6A DEB
1 56678U 22151AHE 24024.23630569  .00003255  00000-0  19170-2 0  9994
2 56678  98.8057  27.4628 0065221 312.1719  47.3922 14.07571257 38546
CZ-6A DEB
1 56678U 22151AHE 24024.23630569  .00003255  00000-0  19170-2 0  9994
2 56678  98.8057  27.4628 0065221 312.1719  47.3922 14.07571257 38546
CZ-6A DEB
1 56678U 22151AHE 24027.22180330  .00003003  00000-0  17701-2 0  9991
2 56678  98.8076  30.3761 0065470 303.8349  55.6600 14.07585313 38969
CZ-6A DEB
1 56678U 22151AHE 24027.22180330  .00003003  00000-0  17701-2 0  9991
2 56678  98.8076  30.3761 0065470 303.8349  55.6600 14.07585313 38969
CZ-6A DEB
1 56678U 22151AHE 24029.78077719  .00002451  00000-0  14495-2 0  9993
2 56678  98.8125  32.8715 0065278 296.7345  62.7153 14.07596955 39329
CZ-6A DEB
1 56678U 22151AHE 24029.78077719  .00002451  00000-0  14495-2 0  9993
2 56678  98.8125  32.8715 0065278 296.7345  62.7153 14.07596955 39329
CZ-6A DEB
1 56678U 22151AHE 24030.77592875  .00002101  00000-0  12463-2 0  9994
2 56678  98.8087  33.8364 0064643 293.5191  65.9195 14.07600325 39469
CZ-6A DEB
1 56678U 22151AHE 24030.77592875  .00002101  00000-0  12463-2 0  9994
2 56678  98.8087  33.8364 0064643 293.5191  65.9195 14.07600325 39469
CZ-6A DEB
1 56678U 22151AHE 24039.23463009  .00002498  00000-0  14765-2 0  9996
2 56678  98.8061  42.0833 0064254 269.4034  89.9772 14.07633174 40658
CZ-6A DEB
1 56678U 22151AHE 24039.23463009  .00002498  00000-0  14765-2 0  9996
2 56678  98.8061  42.0833 0064254 269.4034  89.9772 14.07633174 40658
CZ-6A DEB
1 56678U 22151AHE 24041.22488641  .00003056  00000-0  18001-2 0  9995
2 56678  98.8128  44.0300 0064585 264.1444  95.2361 14.07643563 40935
CZ-6A DEB
1 56678U 22151AHE 24041.22488641  .00003056  00000-0  18001-2 0  9995
2 56678  98.8128  44.0300 0064585 264.1444  95.2361 14.07643563 40935
CZ-6A DEB
1 56678U 22151AHE 24042.22000823  .00002666  00000-0  15735-2 0  9995
2 56678  98.8073  44.9992 0064380 260.9277  98.4604 14.07647480 41074
CZ-6A DEB
1 56678U 22151AHE 24042.22000823  .00002666  00000-0  15735-2 0  9995
2 56678  98.8073  44.9992 0064380 260.9277  98.4604 14.07647480 41074
CZ-6A DEB
1 56678U 22151AHE 24051.24704459  .00001616  00000-0  96294-3 0  9997
2 56678  98.8049  53.8008 0064325 234.8252 124.6881 14.07688930 42341
CZ-6A DEB
1 56678U 22151AHE 24051.24704459  .00001616  00000-0  96294-3 0  9997
2 56678  98.8049  53.8008 0064325 234.8252 124.6881 14.07688930 42341
CZ-6A DEB
1 56678U 22151AHE 24053.23723128  .00001438  00000-0  85977-3 0  9990
2 56678  98.8056  55.7401 0063853 228.1565 131.4143 14.07694261 42627
CZ-6A DEB
1 56678U 22151AHE 24053.23723128  .00001438  00000-0  85977-3 0  9990
2 56678  98.8056  55.7401 0063853 228.1565 131.4143 14.07694261 42627
CZ-6A DEB
1 56678U 22151AHE 24056.72004329  .00002059  00000-0  12194-2 0  9992
2 56678  98.8089  59.1395 0064594 219.1038 140.5453 14.07705573 43110
CZ-6A DEB
1 56678U 22151AHE 24056.72004329  .00002059  00000-0  12194-2 0  9992
2 56678  98.8089  59.1395 0064594 219.1038 140.5453 14.07705573 43110
CZ-6A DEB
1 56678U 22151AHE 24063.75666426  .00001310  00000-0  78451-3 0  9993
2 56678  98.8097  66.0043 0064774 198.9874 160.8879 14.07725650 44103
CZ-6A DEB
1 56678U 22151AHE 24063.75666426  .00001310  00000-0  78451-3 0  9993
2 56678  98.8097  66.0043 0064774 198.9874 160.8879 14.07725650 44103
CZ-6A DEB
1 56678U 22151AHE 24068.23446486  .00001584  00000-0  94320-3 0  9999
2 56678  98.8100  70.3734 0065059 186.4399 173.5941 14.07739704 44739
CZ-6A DEB
1 56678U 22151AHE 24068.23446486  .00001584  00000-0  94320-3 0  9999
2 56678  98.8100  70.3734 0065059 186.4399 173.5941 14.07739704 44739
CZ-6A DEB
1 56678U 22151AHE 24070.72211383  .00001540  00000-0  91700-3 0  9993
2 56678  98.8102  72.8008 0065215 179.3005 180.8267 14.07747011 45082
CZ-6A DEB
1 56678U 22151AHE 24070.72211383  .00001540  00000-0  91700-3 0  9993
2 56678  98.8102  72.8008 0065215 179.3005 180.8267 14.07747011 45082
CZ-6A DEB
1 56678U 22151AHE 24071.71716898  .00001556  00000-0  92647-3 0  9992
2 56678  98.8079  73.7691 0065443 176.4278 183.7372 14.07750425 45224
CZ-6A DEB
1 56678U 22151AHE 24083.72870802  .00002685  00000-0  15782-2 0  9990
2 56678  98.8077  85.4855 0066078 142.9684 217.6073 14.07797640 46910
CZ-6A DEB
1 56678U 22151AHE 24083.72870802  .00002685  00000-0  15782-2 0  9990
2 56678  98.8077  85.4855 0066078 142.9684 217.6073 14.07797640 46910
CZ-6A DEB
1 56678U 22151AHE 24084.72373320  .00003862  00000-0  22556-2 0  9999
2 56678  98.8112  86.4640 0067946 138.6783 221.9555 14.07810674 47052
CZ-6A DEB
1 56678U 22151AHE 24085.71874142  .00004902  00000-0  28558-2 0  9991
2 56678  98.8081  87.4296 0067461 136.1786 224.4764 14.07819344 47191
CZ-6A DEB
1 56678U 22151AHE 24085.71874505  .00005941  00000-0  34543-2 0  9999
2 56678  98.8082  87.4297 0068041 135.4976 225.1687 14.07822913 47199
CZ-6A DEB
1 56678U 22151AHE 24085.71874505  .00005941  00000-0  34543-2 0  9999
2 56678  98.8082  87.4297 0068041 135.4976 225.1687 14.07822913 47199
CZ-6A DEB
1 56678U 22151AHE 24086.71373566  .00003479  00000-0  20356-2 0  9992
2 56678  98.8079  88.4006 0066552 134.5931 226.0696 14.07823712 47334
CZ-6A DEB
1 56678U 22151AHE 24086.71373566  .00003479  00000-0  20356-2 0  9992
2 56678  98.8079  88.4006 0066552 134.5931 226.0696 14.07823712 47334
CZ-6A DEB
1 56678U 22151AHE 24086.71374442  .00003922  00000-0  22896-2 0  9990
2 56678  98.8079  88.4006 0067699 133.3392 227.3447 14.07824821 47335
CZ-6A DEB
1 56678U 22151AHE 24086.71374442  .00003922  00000-0  22896-2 0  9990
2 56678  98.8079  88.4006 0067699 133.3392 227.3447 14.07824821 47335
CZ-6A DEB
1 56678U 22151AHE 24091.26226051  .00003024  00000-0  17716-2 0  9996
2 56678  98.8152  92.8414 0066911 122.0627 238.7063 14.07850882 47977
CZ-6A DEB
1 56678U 22151AHE 24091.26226051  .00003024  00000-0  17716-2 0  9996
2 56678  98.8152  92.8414 0066911 122.0627 238.7063 14.07850882 47977
CZ-6A DEB
1 56678U 22151AHE 24092.25724149  .00001999  00000-0  11797-2 0  9999
2 56678  98.8150  93.8125 0066654 119.3919 241.3926 14.07851583 48116
CZ-6A DEB
1 56678U 22151AHE 24092.25724149  .00001999  00000-0  11797-2 0  9999
2 56678  98.8150  93.8125 0066654 119.3919 241.3926 14.07851583 48116
CZ-6A DEB
1 56678U 22151AHE 24093.25221908  .00001884  00000-0  11133-2 0  9992
2 56678  98.8125  94.7828 0066640 116.6465 244.1550 14.07855382 48259
CZ-6A DEB
1 56678U 22151AHE 24094.24719410  .00001711  00000-0  10129-2 0  9995
2 56678  98.8103  95.7528 0066664 113.9159 246.9012 14.07858598 48399
CZ-6A DEB
1 56678U 22151AHE 24094.24719410  .00001711  00000-0  10129-2 0  9995
2 56678  98.8103  95.7528 0066664 113.9159 246.9012 14.07858598 48399
CZ-6A DEB
1 56678U 22151AHE 24096.23713671  .00001623  00000-0  96214-3 0  9991
2 56678  98.8085  97.6938 0066687 108.4747 252.3685 14.07864847 48673
CZ-6A DEB
1 56678U 22151AHE 24096.73462076  .00001650  00000-0  97757-3 0  9999
2 56678  98.8084  98.1793 0066626 107.1163 253.7317 14.07866457 48742
CZ-6A DEB
1 56678U 22151AHE 24097.72958689  .00001810  00000-0  10697-2 0  9994
2 56678  98.8080  99.1501 0066666 104.3742 256.4839 14.07870130 48889
CZ-6A DEB
1 56678U 22151AHE 24097.72958689  .00001810  00000-0  10697-2 0  9994
2 56678  98.8080  99.1501 0066666 104.3742 256.4839 14.07870130 48889
CZ-6A DEB
1 56678U 22151AHE 24098.72455003  .00001971  00000-0  11630-2 0  9993
2 56678  98.8080 100.1210 0066668 101.6345 259.2317 14.07874049 49022
CZ-6A DEB
1 56678U 22151AHE 24099.71950969  .00002131  00000-0  12551-2 0  9996
2 56678  98.8081 101.0920 0066676  98.8859 261.9867 14.07878426 49165
CZ-6A DEB
1 56678U 22151AHE 24099.71950969  .00002131  00000-0  12551-2 0  9996
2 56678  98.8081 101.0920 0066676  98.8859 261.9867 14.07878426 49165
CZ-6A DEB
1 56678U 22151AHE 24100.71446578  .00002179  00000-0  12827-2 0  9993
2 56678  98.8085 102.0631 0066687  96.1489 264.7283 14.07882776 49303
CZ-6A DEB
1 56678U 22151AHE 24102.27796103  .00001960  00000-0  11561-2 0  9999
2 56678  98.8085 103.5886 0066657  91.7925 269.0881 14.07889040 49521
CZ-6A DEB
1 56678U 22151AHE 24102.27796103  .00001960  00000-0  11561-2 0  9999
2 56678  98.8085 103.5886 0066657  91.7925 269.0881 14.07889040 49521
CZ-6A DEB
1 56678U 22151AHE 24106.25772596  .00003197  00000-0  18691-2 0  9996
2 56678  98.8064 107.4713 0066912  80.9023 279.9710 14.07911794 50089
CZ-6A DEB
1 56678U 22151AHE 24107.25265580  .00003632  00000-0  21195-2 0  9994
2 56678  98.8083 108.4437 0066818  78.1362 282.7291 14.07918949 50225
CZ-6A DEB
1 56678U 22151AHE 24107.25265580  .00003632  00000-0  21195-2 0  9994
2 56678  98.8083 108.4437 0066818  78.1362 282.7291 14.07918949 50225
CZ-6A DEB
1 56678U 22151AHE 24117.27256947  .00004823  00000-0  28016-2 0  9996
2 56678  98.8100 118.2255 0066131  50.5599 310.1397 14.08031450 51639
CZ-6A DEB
1 56678U 22151AHE 24117.27256947  .00004823  00000-0  28016-2 0  9996
2 56678  98.8100 118.2255 0066131  50.5599 310.1397 14.08031450 51639
CZ-6A DEB
1 56678U 22151AHE 24118.26740875  .00005143  00000-0  29841-2 0  9997
2 56678  98.8068 119.1927 0066737  48.0631 312.6201 14.08043213 51775
CZ-6A DEB
1 56678U 22151AHE 24119.26224187  .00004110  00000-0  23909-2 0  9993
2 56678  98.8092 120.1656 0066214  44.9263 315.7238 14.08050130 51915
CZ-6A DEB
1 56678U 22151AHE 24119.26224187  .00004110  00000-0  23909-2 0  9993
2 56678  98.8092 120.1656 0066214  44.9263 315.7238 14.08050130 51915
CZ-6A DEB
1 56678U 22151AHE 24119.75965674  .00002911  00000-0  17009-2 0  9991
2 56678  98.8089 120.6521 0066145  43.5924 317.0445 14.08051896 51981
CZ-6A DEB
1 56678U 22151AHE 24120.25707058  .00002411  00000-0  14127-2 0  9991
2 56678  98.8084 121.1374 0066116  42.2108 318.4125 14.08054190 52055
CZ-6A DEB
1 56678U 22151AHE 24120.75448364  .00002309  00000-0  13539-2 0  9990
2 56678  98.8076 121.6228 0066070  40.8790 319.7307 14.08056834 52120
CZ-6A DEB
1 56678U 22151AHE 24120.75448364  .00002309  00000-0  13539-2 0  9990
2 56678  98.8076 121.6228 0066070  40.8790 319.7307 14.08056834 52120
CZ-6A DEB
1 56678U 22151AHE 24121.25189583  .00002064  00000-0  12134-2 0  9999
2 56678  98.8083 122.1085 0066054  39.4635 321.1319 14.08058588 52194
CZ-6A DEB
1 56678U 22151AHE 24121.74930752  .00002370  00000-0  13891-2 0  9996
2 56678  98.8071 122.5937 0065987  38.1567 322.4247 14.08061417 52262
CZ-6A DEB
1 56678U 22151AHE 24122.24671810  .00002445  00000-0  14322-2 0  9992
2 56678  98.8084 123.0798 0065985  36.7196 323.8468 14.08063679 52337
CZ-6A DEB
1 56678U 22151AHE 24122.24671810  .00002445  00000-0  14322-2 0  9992
2 56678  98.8084 123.0798 0065985  36.7196 323.8468 14.08063679 52337
CZ-6A DEB
1 56678U 22151AHE 24122.74412827  .00002194  00000-0  12881-2 0  9997
2 56678  98.8082 123.5652 0065923  35.3219 325.2292 14.08065113 52406
CZ-6A DEB
1 56678U 22151AHE 24123.24153745  .00002218  00000-0  13015-2 0  9991
2 56678  98.8080 124.0507 0065887  33.9345 326.6013 14.08067309 52474
CZ-6A DEB
1 56678U 22151AHE 24123.24153745  .00002218  00000-0  13015-2 0  9991
2 56678  98.8080 124.0507 0065887  33.9345 326.6013 14.08067309 52474
CZ-6A DEB
1 56678U 22151AHE 24128.71298338  .00002747  00000-0  16059-2 0  9994
2 56678  98.8078 129.3922 0065442  18.6403 341.7142 14.08093426 53248
CZ-6A DEB
1 56678U 22151AHE 24128.71298338  .00002747  00000-0  16059-2 0  9994
2 56678  98.8078 129.3922 0065442  18.6403 341.7142 14.08093426 53248
CZ-6A DEB
1 56678U 22151AHE 24131.27102124  .00003874  00000-0  22539-2 0  9998
2 56678  98.8082 131.8899 0065279  11.5055 348.7589 14.08111648 53606
CZ-6A DEB
1 56678U 22151AHE 24131.27102124  .00003874  00000-0  22539-2 0  9998
2 56678  98.8082 131.8899 0065279  11.5055 348.7589 14.08111648 53606
CZ-6A DEB
1 56678U 22151AHE 24133.26056175  .00007790  00000-0  45015-2 0  9998
2 56678  98.8064 133.8305 0065170   5.8823 354.3097 14.08147473 53881
CZ-6A DEB
1 56678U 22151AHE 24133.26056175  .00007790  00000-0  45015-2 0  9998
2 56678  98.8064 133.8305 0065170   5.8823 354.3097 14.08147473 53881
CZ-6A DEB
1 56678U 22151AHE 24146.26288554  .00002761  00000-0  16109-2 0  9995
2 56678  98.8067 146.5270 0063620 329.3979  30.3485 14.08268415 55716
CZ-6A DEB
1 56678U 22151AHE 24146.26288554  .00002761  00000-0  16109-2 0  9995
2 56678  98.8067 146.5270 0063620 329.3979  30.3485 14.08268415 55716
CZ-6A DEB
1 56678U 22151AHE 24149.24688656  .00001857  00000-0  10919-2 0  9991
2 56678  98.8122 149.4517 0063323 320.7946  38.8645 14.08282775 56136
CZ-6A DEB
1 56678U 22151AHE 24149.24688656  .00001857  00000-0  10919-2 0  9991
2 56678  98.8122 149.4517 0063323 320.7946  38.8645 14.08282775 56136
CZ-6A DEB
1 56678U 22151AHE 24169.28180432  .00002098  00000-0  12295-2 0  9993
2 56678  98.8078 169.0075 0061687 262.2194  97.1969 14.08368220 58958
CZ-6A DEB
1 56678U 22151AHE 24169.28180432  .00002098  00000-0  12295-2 0  9993
2 56678  98.8078 169.0075 0061687 262.2194  97.1969 14.08368220 58958
CZ-6A DEB
1 56678U 22151AHE 24177.73591867  .00001855  00000-0  10887-2 0  9995
2 56678  98.8065 177.2641 0062561 237.7794 121.7301 14.08397984 60146
CZ-6A DEB
1 56678U 22151AHE 24177.73591867  .00001855  00000-0  10887-2 0  9995
2 56678  98.8065 177.2641 0062561 237.7794 121.7301 14.08397984 60146
CZ-6A DEB
1 56678U 22151AHE 24193.71998225  .00002350  00000-0  13694-2 0  9990
2 56678  98.8067 192.8729 0063441 191.0185 168.9599 14.08480622 62395
CZ-6A DEB
1 56678U 22151AHE 24193.71998225  .00002350  00000-0  13694-2 0  9990
2 56678  98.8067 192.8729 0063441 191.0185 168.9599 14.08480622 62395
CZ-6A DEB
1 56678U 22151AHE 24194.71452615  .00002858  00000-0  16599-2 0  9999
2 56678  98.8088 193.8456 0063260 186.6568 173.3768 14.08487898 62536
CZ-6A DEB
1 56678U 22151AHE 24194.71452615  .00002858  00000-0  16599-2 0  9999
2 56678  98.8088 193.8456 0063260 186.6568 173.3768 14.08487898 62536
CZ-6A DEB
1 56678U 22151AHE 24201.74718560  .00003143  00000-0  18192-2 0  9994
2 56678  98.8079 200.7164 0064827 167.6511 192.6266 14.08533131 63526
CZ-6A DEB
1 56678U 22151AHE 24201.74718560  .00003143  00000-0  18192-2 0  9994
2 56678  98.8079 200.7164 0064827 167.6511 192.6266 14.08533131 63526
CZ-6A DEB
1 56678U 22151AHE 24202.74167534  .00003590  00000-0  20745-2 0  9997
2 56678  98.8068 201.6878 0064899 166.5950 193.6962 14.08540936 63660
CZ-6A DEB
1 56678U 22151AHE 24202.74167534  .00003590  00000-0  20745-2 0  9997
2 56678  98.8068 201.6878 0064899 166.5950 193.6962 14.08540936 63660
CZ-6A DEB
1 56678U 22151AHE 24207.71410267  .00003125  00000-0  18075-2 0  9990
2 56678  98.8088 206.5467 0065373 152.5577 207.9070 14.08571626 64365
CZ-6A DEB
1 56678U 22151AHE 24208.28237229  .00002965  00000-0  17160-2 0  9993
2 56678  98.8102 207.1024 0065473 151.0821 209.4002 14.08574656 64442
CZ-6A DEB
1 56678U 22151AHE 24212.75745422  .00003397  00000-0  19610-2 0  9991
2 56678  98.8112 211.4752 0065552 138.5011 222.1162 14.08600981 65078
CZ-6A DEB
1 56678U 22151AHE 24212.75745422  .00003397  00000-0  19610-2 0  9991
2 56678  98.8112 211.4752 0065552 138.5011 222.1162 14.08600981 65078
CZ-6A DEB
1 56678U 22151AHE 24213.75190776  .00002730  00000-0  15808-2 0  9993
2 56678  98.8105 212.4469 0065681 135.7468 224.8980 14.08603327 65214
CZ-6A DEB
1 56678U 22151AHE 24213.75190776  .00002730  00000-0  15808-2 0  9993
2 56678  98.8105 212.4469 0065681 135.7468 224.8980 14.08603327 65214
CZ-6A DEB
1 56678U 22151AHE 24215.74080152  .00003100  00000-0  17912-2 0  9990
2 56678  98.8090 214.3897 0065879 130.2829 230.4126 14.08614634 65491
CZ-6A DEB
1 56678U 22151AHE 24215.74080152  .00003100  00000-0  17912-2 0  9990
2 56678  98.8090 214.3897 0065879 130.2829 230.4126 14.08614634 65491
CZ-6A DEB
1 56678U 22151AHE 24216.73524164  .00003069  00000-0  17733-2 0  9991
2 56678  98.8087 215.3614 0065902 127.5678 233.1502 14.08620100 65632
CZ-6A DEB
1 56678U 22151AHE 24217.72967626  .00003621  00000-0  20871-2 0  9996
2 56678  98.8080 216.3325 0065947 124.8552 235.8843 14.08628168 65779
CZ-6A DEB
1 56678U 22151AHE 24217.72967626  .00003621  00000-0  20871-2 0  9996
2 56678  98.8080 216.3325 0065947 124.8552 235.8843 14.08628168 65779
CZ-6A DEB
1 56678U 22151AHE 24218.72410590  .00003561  00000-0  20527-2 0  9991
2 56678  98.8082 217.3043 0065969 122.1155 238.6440 14.08634638 65912
CZ-6A DEB
1 56678U 22151AHE 24224.26437966  .00006366  00000-0  36453-2 0  9994
2 56678  98.8088 222.7179 0065898 106.8589 253.9821 14.08691575 66691
CZ-6A DEB
1 56678U 22151AHE 24224.26437966  .00006366  00000-0  36453-2 0  9994
2 56678  98.8088 222.7179 0065898 106.8589 253.9821 14.08691575 66691
CZ-6A DEB
1 56678U 22151AHE 24225.25875780  .00006760  00000-0  38660-2 0  9994
2 56678  98.8034 223.6860 0066700 104.0233 256.8364 14.08707097 66835
CZ-6A DEB
1 56678U 22151AHE 24226.25311912  .00007173  00000-0  40998-2 0  9993
2 56678  98.8079 224.6612 0066462 101.4130 259.4515 14.08726694 66978
CZ-6A DEB
1 56678U 22151AHE 24226.25311912  .00007173  00000-0  40998-2 0  9993
2 56678  98.8079 224.6612 0066462 101.4130 259.4515 14.08726694 66978
CZ-6A DEB
1 56678U 22151AHE 24226.75029431  .00008109  00000-0  46309-2 0  9992
2 56678  98.8094 225.1490 0066046 100.0593 260.8037 14.08739932 67044
CZ-6A DEB
1 56678U 22151AHE 24227.74463745  .00005511  00000-0  31556-2 0  9994
2 56678  98.8095 226.1212 0066075  97.3441 263.5245 14.08752932 67181
CZ-6A DEB
1 56678U 22151AHE 24227.74463745  .00005511  00000-0  31556-2 0  9994
2 56678  98.8095 226.1212 0066075  97.3441 263.5245 14.08752932 67181
CZ-6A DEB
1 56678U 22151AHE 24236.26724036  .00004685  00000-0  26823-2 0  9996
2 56678  98.8110 234.4526 0065835  73.9798 286.8610 14.08847742 68388
CZ-6A DEB
1 56678U 22151AHE 24236.26724036  .00004685  00000-0  26823-2 0  9996
2 56678  98.8110 234.4526 0065835  73.9798 286.8610 14.08847742 68388
CZ-6A DEB
1 56678U 22151AHE 24237.75864092  .00004014  00000-0  23012-2 0  9991
2 56678  98.8127 235.9107 0065780  69.7784 291.0444 14.08858538 68595
CZ-6A DEB
1 56678U 22151AHE 24237.75864092  .00004014  00000-0  23012-2 0  9991
2 56678  98.8127 235.9107 0065780  69.7784 291.0444 14.08858538 68595
CZ-6A DEB
1 56678U 22151AHE 24238.25577197  .00003753  00000-0  21530-2 0  9996
2 56678  98.8125 236.3961 0065787  68.4368 292.3796 14.08861666 68665
CZ-6A DEB
1 56678U 22151AHE 24239.25002958  .00003538  00000-0  20308-2 0  9998
2 56678  98.8127 237.3683 0065772  65.7048 295.0973 14.08868487 68809
CZ-6A DEB
1 56678U 22151AHE 24239.74715669  .00003553  00000-0  20397-2 0  9997
2 56678  98.8122 237.8547 0065760  64.3311 296.4632 14.08871789 68876
CZ-6A DEB
1 56678U 22151AHE 24240.24428223  .00003710  00000-0  21284-2 0  9992
2 56678  98.8116 238.3407 0065717  62.9607 297.8251 14.08875718 68940
CZ-6A DEB
1 56678U 22151AHE 24241.73564848  .00005769  00000-0  32945-2 0  9993
2 56678  98.8113 239.7991 0065608  58.8392 301.9189 14.08892576 69156
CZ-6A DEB
1 56678U 22151AHE 24242.72988460  .00005804  00000-0  33138-2 0  9998
2 56678  98.8115 240.7714 0065515  56.1074 304.6304 14.08901515 69296
CZ-6A DEB
1 56678U 22151AHE 24242.72988460  .00005804  00000-0  33138-2 0  9998
2 56678  98.8115 240.7714 0065515  56.1074 304.6304 14.08901515 69296
CZ-6A DEB
1 56678U 22151AHE 24252.24570439  .00007628  00000-0  43384-2 0  9999
2 56678  98.8124 250.0776 0064905  29.7556 330.7280 14.09023120 70632
CZ-6A DEB
1 56678U 22151AHE 24252.24570439  .00007628  00000-0  43384-2 0  9999
2 56678  98.8124 250.0776 0064905  29.7556 330.7280 14.09023120 70632
CZ-6A DEB
1 56678U 22151AHE 24254.23397187  .00007393  00000-0  42046-2 0  9990
2 56678  98.8120 252.0210 0064596  24.1503 336.2673 14.09050150 70911
CZ-6A DEB
1 56678U 22151AHE 24254.73103262  .00007240  00000-0  41178-2 0  9990
2 56678  98.8132 252.5079 0064617  22.8572 337.5451 14.09056702 70981
CZ-6A DEB
1 56678U 22151AHE 24255.72514784  .00006918  00000-0  39347-2 0  9991
2 56678  98.8125 253.4805 0064554  20.0082 340.3598 14.09068940 71124
CZ-6A DEB
1 56678U 22151AHE 24255.72514784  .00006918  00000-0  39347-2 0  9991
2 56678  98.8125 253.4805 0064554  20.0082 340.3598 14.09068940 71124
CZ-6A DEB
1 56678U 22151AHE 24257.71334384  .00009077  00000-0  51510-2 0  9993
2 56678  98.8127 255.4257 0064357  14.3956 345.9028 14.09103414 71402
CZ-6A DEB
1 56678U 22151AHE 24257.71334384  .00009077  00000-0  51510-2 0  9993
2 56678  98.8127 255.4257 0064357  14.3956 345.9028 14.09103414 71402
CZ-6A DEB
1 56678U 22151AHE 24260.26953972  .00004989  00000-0  28428-2 0  9996
2 56678  98.8123 257.9267 0064236   7.2136 352.9943 14.09129286 71761
CZ-6A DEB
1 56678U 22151AHE 24260.26953972  .00004989  00000-0  28428-2 0  9996
2 56678  98.8123 257.9267 0064236   7.2136 352.9943 14.09129286 71761
CZ-6A DEB
1 56678U 22151AHE 24261.26360149  .00015587  00000-0  88126-2 0  9992
2 56678  98.8117 258.8993 0064137   4.5070 355.6664 14.09157092 71909
CZ-6A DEB
1 56678U 22151AHE 24261.26360149  .00015587  00000-0  88126-2 0  9992
2 56678  98.8117 258.8993 0064137   4.5070 355.6664 14.09157092 71909
CZ-6A DEB
1 56678U 22151AHE 24266.23382972  .00003323  00000-0  19012-2 0  9995
2 56678  98.8156 263.7629 0063728 350.7364   9.2626 14.09176527 72602
CZ-6A DEB
1 56678U 22151AHE 24266.23382972  .00003323  00000-0  19012-2 0  9995
2 56678  98.8156 263.7629 0063728 350.7364   9.2626 14.09176527 72602
CZ-6A DEB
1 56678U 22151AHE 24273.75990149  .00005471  00000-0  31117-2 0  9997
2 56678  98.8131 271.1238 0062040 329.6550  30.1034 14.09252149 73660
CZ-6A DEB
1 56678U 22151AHE 24273.75990149  .00005471  00000-0  31117-2 0  9997
2 56678  98.8131 271.1238 0062040 329.6550  30.1034 14.09252149 73660
CZ-6A DEB
1 56678U 22151AHE 24277.23875821  .00008724  00000-0  49404-2 0  9995
2 56678  98.8068 274.5175 0061826 317.6297  42.0107 14.09310336 74153
CZ-6A DEB
1 56678U 22151AHE 24289.23611779  .00004886  00000-0  27711-2 0  9990
2 56678  98.8140 286.2739 0060654 284.5137  74.9310 14.09509490 75841
CZ-6A DEB
1 56678U 22151AHE 24289.23611779  .00004886  00000-0  27711-2 0  9990
2 56678  98.8140 286.2739 0060654 284.5137  74.9310 14.09509490 75841
CZ-6A DEB
1 56678U 22151AHE 24290.22992238  .00004766  00000-0  27021-2 0  9994
2 56678  98.8139 287.2530 0061407 282.3033  77.1267 14.09516292 75986
CZ-6A DEB
1 56678U 22151AHE 24290.22992238  .00004766  00000-0  27021-2 0  9994
2 56678  98.8139 287.2530 0061407 282.3033  77.1267 14.09516292 75986
CZ-6A DEB
1 56678U 22151AHE 24300.23864876  .00004367  00000-0  24743-2 0  9998
2 56678  98.8165 297.0490 0061396 252.6834 106.7614 14.09600023 77393
CZ-6A DEB
1 56678U 22151AHE 24300.23864876  .00004367  00000-0  24743-2 0  9998
2 56678  98.8165 297.0490 0061396 252.6834 106.7614 14.09600023 77393
CZ-6A DEB
1 56678U 22151AHE 24300.73552076  .00004448  00000-0  25191-2 0  9997
2 56678  98.8158 297.5349 0061817 251.2864 108.1590 14.09603397 77463
CZ-6A DEB
1 56678U 22151AHE 24301.23238905  .00006292  00000-0  35512-2 0  9992
2 56678  98.8150 298.0213 0061887 249.8563 109.5942 14.09613453 77535
CZ-6A DEB
1 56678U 22151AHE 24301.72925649  .00006644  00000-0  37481-2 0  9992
2 56678  98.8151 298.5084 0061892 248.4946 110.9618 14.09619439 77607
CZ-6A DEB
1 56678U 22151AHE 24301.72925649  .00006644  00000-0  37481-2 0  9992
2 56678  98.8151 298.5084 0061892 248.4946 110.9618 14.09619439 77607
CZ-6A DEB
1 56678U 22151AHE 24302.72298218  .00007694  00000-0  43346-2 0  9991
2 56678  98.8146 299.4817 0061940 245.6344 113.8353 14.09635343 77745
CZ-6A DEB
1 56678U 22151AHE 24302.72298218  .00007694  00000-0  43346-2 0  9991
2 56678  98.8146 299.4817 0061940 245.6344 113.8353 14.09635343 77745
CZ-6A DEB
1 56678U 22151AHE 24308.25925655  .00008163  00000-0  45890-2 0  9995
2 56678  98.8133 304.9020 0061994 229.7574 129.8164 14.09724605 78520
CZ-6A DEB
1 56678U 22151AHE 24308.25925655  .00008163  00000-0  45890-2 0  9995
2 56678  98.8133 304.9020 0061994 229.7574 129.8164 14.09724605 78520
CZ-6A DEB
1 56678U 22151AHE 24309.25291020  .00008390  00000-0  47144-2 0  9994
2 56678  98.8141 305.8755 0062050 226.8599 132.7374 14.09741497 78662
CZ-6A DEB
1 56678U 22151AHE 24309.74973272  .00006869  00000-0  38645-2 0  9999
2 56678  98.8159 306.3635 0062030 225.4025 134.2074 14.09747163 78739
CZ-6A DEB
1 56678U 22151AHE 24309.74973272  .00006869  00000-0  38645-2 0  9999
2 56678  98.8159 306.3635 0062030 225.4025 134.2074 14.09747163 78739
CZ-6A DEB
1 56678U 22151AHE 24310.24655341  .00006693  00000-0  37660-2 0  9991
2 56678  98.8174 306.8504 0061992 223.9603 135.6628 14.09753875 78802
CZ-6A DEB
1 56678U 22151AHE 24315.71143234  .00006421  00000-0  36083-2 0  9998
2 56678  98.8140 312.2019 0062352 208.3134 151.4643 14.09826133 79570
CZ-6A DEB
1 56678U 22151AHE 24315.71143234  .00006421  00000-0  36083-2 0  9998
2 56678  98.8140 312.2019 0062352 208.3134 151.4643 14.09826133 79570
CZ-6A DEB
1 56678U 22151AHE 24320.25349372  .00003167  00000-0  17914-2 0  9990
2 56678  98.8147 316.6519 0062528 195.2468 164.6820 14.09860493 80212
CZ-6A DEB
1 56678U 22151AHE 24320.25349372  .00003167  00000-0  17914-2 0  9990
2 56678  98.8147 316.6519 0062528 195.2468 164.6820 14.09860493 80212
CZ-6A DEB
1 56678U 22151AHE 24323.73095549  .00002244  00000-0  12759-2 0  9997
2 56678  98.8156 320.0576 0062863 185.5939 174.4537 14.09875747 80707
CZ-6A DEB
1 56678U 22151AHE 24323.73095549  .00002244  00000-0  12759-2 0  9997
2 56678  98.8156 320.0576 0062863 185.5939 174.4537 14.09875747 80707
CZ-6A DEB
1 56678U 22151AHE 24332.74372268  .00004207  00000-0  23676-2 0  9995
2 56678  98.8188 328.8938 0062481 159.8801 200.4853 14.09942729 81974
CZ-6A DEB
1 56678U 22151AHE 24332.74372268  .00004207  00000-0  23676-2 0  9995
2 56678  98.8188 328.8938 0062481 159.8801 200.4853 14.09942729 81974
CZ-6A DEB
1 56678U 22151AHE 24333.73722804  .00004730  00000-0  26572-2 0  9999
2 56678  98.8149 329.8608 0063127 157.2645 203.1343 14.09951671 82119
CZ-6A DEB
1 56678U 22151AHE 24334.73072656  .00004553  00000-0  25582-2 0  9996
2 56678  98.8112 330.8326 0063245 154.4641 205.9676 14.09960258 82259
CZ-6A DEB
1 56678U 22151AHE 24334.73072656  .00004553  00000-0  25582-2 0  9996
2 56678  98.8112 330.8326 0063245 154.4641 205.9676 14.09960258 82259
CZ-6A DEB
1 56678U 22151AHE 24338.27888166  .00004191  00000-0  23553-2 0  9994
2 56678  98.8152 334.3089 0063338 144.5380 216.0026 14.09991612 82756
CZ-6A DEB
1 56678U 22151AHE 24338.27888166  .00004191  00000-0  23553-2 0  9994
2 56678  98.8152 334.3089 0063338 144.5380 216.0026 14.09991612 82756
CZ-6A DEB
1 56678U 22151AHE 24340.26581445  .00003736  00000-0  21014-2 0  9990
2 56678  98.8160 336.2555 0063356 139.0209 221.5747 14.10007210 83030
CZ-6A DEB
1 56678U 22151AHE 24340.26581445  .00003736  00000-0  21014-2 0  9990
2 56678  98.8160 336.2555 0063356 139.0209 221.5747 14.10007210 83030
CZ-6A DEB
1 56678U 22151AHE 24341.75599920  .00003050  00000-0  17201-2 0  9994
2 56678  98.8166 337.7150 0063454 134.6264 226.0107 14.10017232 83242
CZ-6A DEB
1 56678U 22151AHE 24341.75599920  .00003050  00000-0  17201-2 0  9994
2 56678  98.8166 337.7150 0063454 134.6264 226.0107 14.10017232 83242
CZ-6A DEB
1 56678U 22151AHE 24342.25272528  .00003040  00000-0  17139-2 0  9991
2 56678  98.8165 338.2015 0063528 133.2387 227.4111 14.10020572 83319
CZ-6A DEB
1 56678U 22151AHE 24343.74289606  .00003053  00000-0  17212-2 0  9997
2 56678  98.8167 339.6620 0063606 129.0669 231.6185 14.10030089 83526
CZ-6A DEB
1 56678U 22151AHE 24343.74289606  .00003053  00000-0  17212-2 0  9997
2 56678  98.8167 339.6620 0063606 129.0669 231.6185 14.10030089 83526
CZ-6A DEB
1 56678U 22151AHE 24345.72977401  .00003115  00000-0  17548-2 0  9995
2 56678  98.8166 341.6088 0063684 123.5901 237.1370 14.10042726 83809
CZ-6A DEB
1 56678U 22151AHE 24345.72977401  .00003115  00000-0  17548-2 0  9995
2 56678  98.8166 341.6088 0063684 123.5901 237.1370 14.10042726 83809
CZ-6A DEB
1 56678U 22151AHE 24346.72320602  .00002835  00000-0  15993-2 0  9991
2 56678  98.8159 342.5818 0063710 120.8532 239.8927 14.10048346 83948
CZ-6A DEB
1 56678U 22151AHE 24351.26455614  .00002769  00000-0  15615-2 0  9995
2 56678  98.8155 347.0314 0063895 108.1024 252.7120 14.10074573 84585
CZ-6A DEB
1 56678U 22151AHE 24351.26455614  .00002769  00000-0  15615-2 0  9995
2 56678  98.8155 347.0314 0063895 108.1024 252.7120 14.10074573 84585
CZ-6A DEB
1 56678U 22151AHE 24357.22494738  .00002969  00000-0  16715-2 0  9991
2 56678  98.8219 352.8781 0063845  91.6918 269.1567 14.10106429 85428
CZ-6A DEB
1 56678U 22151AHE 24357.22494738  .00002969  00000-0  16715-2 0  9991
2 56678  98.8219 352.8781 0063845  91.6918 269.1567 14.10106429 85428
CZ-6A DEB
1 56678U 22151AHE 24359.70839415  .00003936  00000-0  22074-2 0  9991
2 56678  98.8157 355.3049 0063755  84.7638 276.0804 14.10126153 85771
CZ-6A DEB
1 56678U 22151AHE 24359.70839415  .00003936  00000-0  22074-2 0  9991
2 56678  98.8157 355.3049 0063755  84.7638 276.0804 14.10126153 85771
CZ-6A DEB
1 56678U 22151AHE 24360.27603566  .00004213  00000-0  23604-2 0  9990
2 56678  98.8151 355.8589 0063932  82.7209 278.1223 14.10130989 85857
CZ-6A DEB
1 56678U 22151AHE 24365.73947059  .00005347  00000-0  29865-2 0  9998
2 56678  98.8145   1.2148 0064023  68.0444 292.7515 14.10178010 86622
CZ-6A DEB
1 56678U 22151AHE 24365.73947059  .00005347  00000-0  29865-2 0  9998
2 56678  98.8145   1.2148 0064023  68.0444 292.7515 14.10178010 86622
CZ-6A DEB
1 56678U 22151AHE 24366.23613684  .00004729  00000-0  26442-2 0  9999
2 56678  98.8164   1.7023 0063914  66.5187 294.2685 14.10180019 86699
CZ-6A DEB
1 56678U 22151AHE 24366.73280164  .00005244  00000-0  29291-2 0  9995
2 56678  98.8146   2.1883 0063943  65.3156 295.4655 14.10185924 86761
CZ-6A DEB
1 56678U 22151AHE 25003.71273841  .00004464  00000-0  24955-2 0  9991
2 56678  98.8150   5.1088 0063924  57.0473 303.6823 14.10220919 87185
CZ-6A DEB
1 56678U 22151AHE 25003.71273841  .00004464  00000-0  24955-2 0  9991
2 56678  98.8150   5.1088 0063924  57.0473 303.6823 14.10220919 87185
CZ-6A DEB
1 56678U 22151AHE 25004.70603350  .00003495  00000-0  19589-2 0  9993
2 56678  98.8157   6.0821 0063860  54.2635 306.4453 14.10230592 87329
CZ-6A DEB
1 56678U 22151AHE 25006.26691153  .00004134  00000-0  23120-2 0  9991
2 56678  98.8166   7.6127 0063723  49.9123 310.7611 14.10247589 87548
CZ-6A DEB
1 56678U 22151AHE 25006.26691153  .00004134  00000-0  23120-2 0  9991
2 56678  98.8166   7.6127 0063723  49.9123 310.7611 14.10247589 87548
CZ-6A DEB
1 56678U 22151AHE 25008.25346476  .00002876  00000-0  16157-2 0  9990
2 56678  98.8206   9.5616 0063714  44.3487 316.2762 14.10260343 87821
CZ-6A DEB
1 56678U 22151AHE 25008.25346476  .00002876  00000-0  16157-2 0  9990
2 56678  98.8206   9.5616 0063714  44.3487 316.2762 14.10260343 87821
CZ-6A DEB
1 56678U 22151AHE 25009.24673572  .00002380  00000-0  13414-2 0  9993
2 56678  98.8174  10.5342 0063613  41.5646 319.0336 14.10264622 87964
CZ-6A DEB
1 56678U 22151AHE 25009.74336956  .00002318  00000-0  13067-2 0  9995
2 56678  98.8173  11.0208 0063610  40.1812 320.4036 14.10267124 88039
CZ-6A DEB
1 56678U 22151AHE 25009.74336956  .00002318  00000-0  13067-2 0  9995
2 56678  98.8173  11.0208 0063610  40.1812 320.4036 14.10267124 88039
CZ-6A DEB
1 56678U 22151AHE 25010.24000260  .00002308  00000-0  13014-2 0  9999
2 56678  98.8167  11.5074 0063576  38.7912 321.7797 14.10269633 88106
CZ-6A DEB
1 56678U 22151AHE 25011.23326554  .00002689  00000-0  15123-2 0  9991
2 56678  98.8150  12.4805 0063511  36.0345 324.5083 14.10275701 88247
CZ-6A DEB
1 56678U 22151AHE 25011.23326554  .00002689  00000-0  15123-2 0  9991
2 56678  98.8150  12.4805 0063511  36.0345 324.5083 14.10275701 88247
CZ-6A DEB
1 56678U 22151AHE 25011.72989585  .00002332  00000-0  13147-2 0  9993
2 56678  98.8152  12.9672 0063461  34.6399 325.8881 14.10277245 88316
CZ-6A DEB
1 56678U 22151AHE 25014.70965589  .00002750  00000-0  15455-2 0  9990
2 56678  98.8155  15.8877 0063298  26.2840 334.1519 14.10294137 88730
CZ-6A DEB
1 56678U 22151AHE 25014.70965589  .00002750  00000-0  15455-2 0  9990
2 56678  98.8155  15.8877 0063298  26.2840 334.1519 14.10294137 88730
CZ-6A DEB
1 56678U 22151AHE 25017.26370416  .00002963  00000-0  16627-2 0  9991
2 56678  98.8160  18.3913 0063210  19.1395 341.2130 14.10310518 89095
CZ-6A DEB
1 56678U 22151AHE 25017.26370416  .00002963  00000-0  16627-2 0  9991
2 56678  98.8160  18.3913 0063210  19.1395 341.2130 14.10310518 89095
CZ-6A DEB
1 56678U 22151AHE 25018.25693625  .00003307  00000-0  18530-2 0  9999
2 56678  98.8164  19.3652 0063138  16.3563 343.9626 14.10318290 89235
CZ-6A DEB
1 56678U 22151AHE 25018.75355014  .00003265  00000-0  18294-2 0  9991
2 56678  98.8158  19.8519 0063155  14.9703 345.3319 14.10321760 89303
CZ-6A DEB
1 56678U 22151AHE 25018.75355014  .00003265  00000-0  18294-2 0  9991
2 56678  98.8158  19.8519 0063155  14.9703 345.3319 14.10321760 89303
CZ-6A DEB
1 56678U 22151AHE 25019.81771822  .00003672  00000-0  20545-2 0  9992
2 56678  98.8168  20.8962 0063106  12.0081 348.2577 14.10330795 89454
CZ-6A DEB
1 56678U 22151AHE 25019.81771822  .00003672  00000-0  20545-2 0  9992
2 56678  98.8168  20.8962 0063106  12.0081 348.2577 14.10330795 89454
CZ-6A DEB
1 56678U 22151AHE 25019.81772007  .00003127  00000-0  17530-2 0  9993
2 56678  98.8172  20.8969 0063434  12.0323 348.2346 14.10327844 89454
CZ-6A DEB
1 56678U 22151AHE 25019.81772007  .00003127  00000-0  17530-2 0  9993
2 56678  98.8172  20.8969 0063434  12.0323 348.2346 14.10327844 89454
CZ-6A DEB
1 56678U 22151AHE 25025.70597924  .00004359  00000-0  24315-2 0  9998
2 56678  98.8154  26.6700 0063023 355.7166   4.3458 14.10386631 90283
CZ-6A DEB
1 56678U 22151AHE 25025.70597924  .00004359  00000-0  24315-2 0  9998
2 56678  98.8154  26.6700 0063023 355.7166   4.3458 14.10386631 90283
CZ-6A DEB
1 56678U 22151AHE 25025.70597924  .00004359  00000-0  24315-2 0  9998
2 56678  98.8154  26.6700 0063023 355.7166   4.3458 14.10386631 90283
CZ-6A DEB
1 56678U 22151AHE 25033.79308663  .00004678  00000-0  26055-2 0  9993
2 56678  98.8181  34.6008 0062051 332.3125  27.4747 14.10462047 91429
CZ-6A DEB
1 56678U 22151AHE 25033.79308663  .00004678  00000-0  26055-2 0  9993
2 56678  98.8181  34.6008 0062051 332.3125  27.4747 14.10462047 91429
CZ-6A DEB
1 56678U 22151AHE 25042.73101810  .00003139  00000-0  17559-2 0  9992
2 56678  98.8207  43.3670 0060675 307.7240  51.8441 14.10529615 92680
CZ-6A DEB
1 56678U 22151AHE 25049.25687647  .00004059  00000-0  22613-2 0  9992
2 56678  98.8904  49.8062 0060973 287.9895  71.4637 14.10580041 93604
CZ-6A DEB
1 56678U 22151AHE 25049.25687647  .00004059  00000-0  22613-2 0  9992
2 56678  98.8904  49.8062 0060973 287.9895  71.4637 14.10580041 93604
CZ-6A DEB
1 56678U 22151AHE 25052.23600264  .00003315  00000-0  18502-2 0  9990
2 56678  98.8226  52.6960 0061014 279.6290  79.7992 14.10603671 94021
CZ-6A DEB
1 56678U 22151AHE 25052.23600264  .00003315  00000-0  18502-2 0  9990
2 56678  98.8226  52.6960 0061014 279.6290  79.7992 14.10603671 94021
CZ-6A DEB
1 56678U 22151AHE 25053.22903468  .00003482  00000-0  19420-2 0  9997
2 56678  98.8154  53.6678 0060982 276.5028  82.9202 14.10611837 94164
CZ-6A DEB
1 56678U 22151AHE 25053.72554894  .00003330  00000-0  18580-2 0  9995
2 56678  98.8184  54.1560 0061332 275.2016  84.2158 14.10614482 94238
CZ-6A DEB
1 56678U 22151AHE 25053.72554894  .00003330  00000-0  18580-2 0  9995
2 56678  98.8184  54.1560 0061332 275.2016  84.2158 14.10614482 94238
CZ-6A DEB
1 56678U 22151AHE 25055.71159306  .00004301  00000-0  23912-2 0  9999
2 56678  98.8166  56.1045 0061230 269.5358  89.8797 14.10631866 94516
CZ-6A DEB
1 56678U 22151AHE 25055.71159306  .00004301  00000-0  23912-2 0  9999
2 56678  98.8166  56.1045 0061230 269.5358  89.8797 14.10631866 94516
CZ-6A DEB
1 56678U 22151AHE 25056.70460606  .00004552  00000-0  25291-2 0  9997
2 56678  98.8169  57.0792 0061120 266.6813  92.7364 14.10641484 94655
CZ-6A DEB
1 56678U 22151AHE 25059.25803758  .00004412  00000-0  24509-2 0  9995
2 56678  98.8194  59.5854 0061242 259.2590 100.1682 14.10665198 95010
CZ-6A DEB
1 56678U 22151AHE 25059.25803758  .00004412  00000-0  24509-2 0  9995
2 56678  98.8194  59.5854 0061242 259.2590 100.1682 14.10665198 95010
CZ-6A DEB
1 56678U 22151AHE 25062.73348964  .00002566  00000-0  14356-2 0  9992
2 56678  98.8200  62.9967 0061242 249.2300 110.2302 14.10685753 95503
CZ-6A DEB
1 56678U 22151AHE 25062.73348964  .00002566  00000-0  14356-2 0  9992
2 56678  98.8200  62.9967 0061242 249.2300 110.2302 14.10685753 95503
CZ-6A DEB
1 56678U 22151AHE 25063.72646967  .00002714  00000-0  15164-2 0  9999
2 56678  98.8193  63.9704 0061157 246.3465 113.1279 14.10690561 95642
CZ-6A DEB
1 56678U 22151AHE 25067.27279773  .00002677  00000-0  14963-2 0  9994
2 56678  98.8202  67.4517 0060797 235.8708 123.6687 14.10709557 96147
CZ-6A DEB
1 56678U 22151AHE 25067.27279773  .00002677  00000-0  14963-2 0  9994
2 56678  98.8202  67.4517 0060797 235.8708 123.6687 14.10709557 96147
CZ-6A DEB
1 56678U 22151AHE 25068.26576101  .00003220  00000-0  17939-2 0  9990
2 56678  98.8193  68.4259 0061009 233.1410 126.4158 14.10716155 96289
CZ-6A DEB
1 56678U 22151AHE 25068.26576101  .00003220  00000-0  17939-2 0  9990
2 56678  98.8193  68.4259 0061009 233.1410 126.4158 14.10716155 96289
CZ-6A DEB
1 56678U 22151AHE 25073.23051970  .00003560  00000-0  19792-2 0  9991
2 56678  98.8202  73.3012 0061193 218.7282 140.9494 14.10746278 96982
CZ-6A DEB
1 56678U 22151AHE 25073.23051970  .00003560  00000-0  19792-2 0  9991
2 56678  98.8202  73.3012 0061193 218.7282 140.9494 14.10746278 96982
CZ-6A DEB
1 56678U 22151AHE 25074.15253483  .00003701  00000-0  20568-2 0  9996
2 56678  98.8225  74.2077 0061204 215.9596 143.7449 14.10752880 97111
CZ-6A DEB
1 56678U 22151AHE 25076.77670292  .00003998  00000-0  22183-2 0  9990
2 56678  98.8194  76.7815 0061643 208.5477 151.2313 14.10774922 97481
CZ-6A DEB
1 56678U 22151AHE 25078.19515226  .00004361  00000-0  24163-2 0  9998
2 56678  98.8209  78.1749 0061804 204.6462 155.1752 14.10789454 97688
CZ-6A DEB
1 56678U 22151AHE 25078.19515226  .00004361  00000-0  24163-2 0  9998
2 56678  98.8209  78.1749 0061804 204.6462 155.1752 14.10789454 97688
CZ-6A DEB
1 56678U 22151AHE 25079.18805824  .00004695  00000-0  25987-2 0  9999
2 56678  98.8206  79.1492 0061936 201.6289 158.2264 14.10801055 97821
CZ-6A DEB
1 56678U 22151AHE 25080.18095886  .00003977  00000-0  22051-2 0  9991
2 56678  98.8213  80.1257 0061825 198.9718 160.9149 14.10808770 97960
CZ-6A DEB
1 56678U 22151AHE 25080.18095886  .00003977  00000-0  22051-2 0  9991
2 56678  98.8213  80.1257 0061825 198.9718 160.9149 14.10808770 97960
CZ-6A DEB
1 56678U 22151AHE 25083.72697440  .00004494  00000-0  24859-2 0  9991
2 56678  98.8206  83.6074 0062144 188.7762 171.2328 14.10845197 98462
CZ-6A DEB
1 56678U 22151AHE 25083.72697440  .00004494  00000-0  24859-2 0  9991
2 56678  98.8206  83.6074 0062144 188.7762 171.2328 14.10845197 98462
CZ-6A DEB
1 56678U 22151AHE 25085.71270645  .00004437  00000-0  24535-2 0  9994
2 56678  98.8211  85.5571 0062305 183.2425 176.8351 14.10863001 98748
CZ-6A DEB
1 56678U 22151AHE 25085.71270645  .00004437  00000-0  24535-2 0  9994
2 56678  98.8211  85.5571 0062305 183.2425 176.8351 14.10863001 98748
CZ-6A DEB
1 56678U 22151AHE 25089.18767985  .00002794  00000-0  15532-2 0  9998
2 56678  98.8219  88.9704 0062547 173.3420 186.8596 14.10889121 99232
CZ-6A DEB
1 56678U 22151AHE 25089.18767985  .00002794  00000-0  15532-2 0  9998
2 56678  98.8219  88.9704 0062547 173.3420 186.8596 14.10889121 99232
CZ-6A DEB
1 56678U 22151AHE 25092.73352120  .00002921  00000-0  16218-2 0  9998
2 56678  98.8186  92.4510 0062804 163.4494 196.8747 14.10907904 99731
CZ-6A DEB
1 56678U 22151AHE 25092.73352120  .00002921  00000-0  16218-2 0  9998
2 56678  98.8186  92.4510 0062804 163.4494 196.8747 14.10907904 99731
CZ-6A DEB
1 56678U 22151AHE 25093.22993472  .00003474  00000-0  19240-2 0  9996
2 56678  98.8196  92.9396 0062888 162.0416 198.2997 14.10912051 99800
CZ-6A DEB
1 56678U 22151AHE 25093.72634787  .00003245  00000-0  17986-2 0  9993
2 56678  98.8210  93.4278 0062852 160.6300 199.7280 14.10914048 99875
CZ-6A DEB
1 56678U 22151AHE 25094.71916940  .00003428  00000-0  18986-2 0  9991
2 56678  98.8212  94.4030 0062885 157.8779 202.5127 14.10920816100010
CZ-6A DEB
1 56678U 22151AHE 25094.71916940  .00003428  00000-0  18986-2 0  9991
2 56678  98.8212  94.4030 0062885 157.8779 202.5127 14.10920816100010
CZ-6A DEB
1 56678U 22151AHE 25100.25050075  .00003132  00000-0  17352-2 0  9994
2 56678  98.8214  99.8356 0063295 142.4269 218.1350 14.10960981100795
CZ-6A DEB
1 56678U 22151AHE 25100.25050075  .00003132  00000-0  17352-2 0  9994
2 56678  98.8214  99.8356 0063295 142.4269 218.1350 14.10960981100795
CZ-6A DEB
1 56678U 22151AHE 25105.78169356  .00003282  00000-0  18155-2 0  9998
2 56678  98.8206 105.2680 0063544 127.0659 233.6346 14.10993296101576
CZ-6A DEB
1 56678U 22151AHE 25105.78169356  .00003282  00000-0  18155-2 0  9998
2 56678  98.8206 105.2680 0063544 127.0659 233.6346 14.10993296101576
CZ-6A DEB
1 56678U 22151AHE 25106.20716429  .00003095  00000-0  17137-2 0  9996
2 56678  98.8222 105.6858 0063409 125.7417 234.9674 14.10995885101633
CZ-6A DEB
1 56678U 22151AHE 25110.17818573  .00002309  00000-0  12838-2 0  9990
2 56678  98.8226 109.5879 0063484 114.6365 246.1436 14.11017153102192
CZ-6A DEB
1 56678U 22151AHE 25110.17818573  .00002309  00000-0  12838-2 0  9990
2 56678  98.8226 109.5879 0063484 114.6365 246.1436 14.11017153102192
CZ-6A DEB
1 56678U 22151AHE 25111.24184140  .00002694  00000-0  14936-2 0  9993
2 56678  98.8218 110.6326 0063694 111.8239 248.9723 14.11023695102349
CZ-6A DEB
1 56678U 22151AHE 25112.23458243  .00002750  00000-0  15238-2 0  9990
2 56678  98.8210 111.6074 0063713 109.1011 251.7073 14.11028992102482
CZ-6A DEB
1 56678U 22151AHE 25114.22005050  .00002778  00000-0  15385-2 0  9998
2 56678  98.8200 113.5573 0064239 104.0348 256.7975 14.11040502102765
CZ-6A DEB
1 56678U 22151AHE 25114.22005050  .00002778  00000-0  15385-2 0  9998
2 56678  98.8200 113.5573 0064239 104.0348 256.7975 14.11040502102765
CZ-6A DEB
1 56678U 22151AHE 25121.73627437  .00002738  00000-0  15156-2 0  9993
2 56678  98.8198 120.9403 0063822  83.0913 277.7513 14.11092115103822
CZ-6A DEB
1 56678U 22151AHE 25121.73627437  .00002738  00000-0  15156-2 0  9993
2 56678  98.8198 120.9403 0063822  83.0913 277.7513 14.11092115103822
CZ-6A DEB
1 56678U 22151AHE 25124.85613691  .00002897  00000-0  16015-2 0  9997
2 56678  98.8210 124.0074 0063666  74.2475 286.5706 14.11111422104261
CZ-6A DEB
1 56678U 22151AHE 25131.73388860  .00001826  00000-0  10182-2 0  9999
2 56678  98.8204 130.7647 0063421  55.1883 305.5233 14.11139332105239
CZ-6A DEB
1 56678U 22151AHE 25131.73388860  .00001826  00000-0  10182-2 0  9999
2 56678  98.8204 130.7647 0063421  55.1883 305.5233 14.11139332105239
CZ-6A DEB
1 56678U 22151AHE 25138.75330287  .00001939  00000-0  10793-2 0  9991
2 56678  98.8197 137.6633 0063073  35.6865 324.8498 14.11167183106229
CZ-6A DEB
1 56678U 22151AHE 25138.75330287  .00001939  00000-0  10793-2 0  9991
2 56678  98.8197 137.6633 0063073  35.6865 324.8498 14.11167183106229
CZ-6A DEB
1 56678U 22151AHE 25139.24961980  .00001746  00000-0  97414-3 0  9998
2 56678  98.8207 138.1497 0063070  34.2630 326.2586 14.11168483106292
CZ-6A DEB
1 56678U 22151AHE 25140.24225156  .00001563  00000-0  87468-3 0  9993
2 56678  98.8207 139.1249 0063019  31.4616 329.0300 14.11171336106436
CZ-6A DEB
1 56678U 22151AHE 25140.24225156  .00001563  00000-0  87468-3 0  9993
2 56678  98.8207 139.1249 0063019  31.4616 329.0300 14.11171336106436
CZ-6A DEB
1 56678U 22151AHE 25141.23487991  .00001501  00000-0  84097-3 0  9997
2 56678  98.8168 140.1022 0063056  28.7107 331.7512 14.11174855106577
CZ-6A DEB
1 56678U 22151AHE 25141.73119181  .00001507  00000-0  84425-3 0  9996
2 56678  98.8199 140.5879 0062933  27.4209 333.0260 14.11177489106646
CZ-6A DEB
1 56678U 22151AHE 25141.73119181  .00001507  00000-0  84425-3 0  9996
2 56678  98.8199 140.5879 0062933  27.4209 333.0260 14.11177489106646
CZ-6A DEB
1 56678U 22151AHE 25143.71643879  .00001730  00000-0  96539-3 0  9999
2 56678  98.8182 142.5383 0062817  21.8453 338.5376 14.11184640106926
CZ-6A DEB
1 56678U 22151AHE 25143.71643879  .00001730  00000-0  96539-3 0  9999
2 56678  98.8182 142.5383 0062817  21.8453 338.5376 14.11184640106926
CZ-6A DEB
1 56678U 22151AHE 25144.21274849  .00001674  00000-0  93491-3 0  9993
2 56678  98.8201 143.0264 0062786  20.4566 339.9099 14.11186454106996
CZ-6A DEB
1 56678U 22151AHE 25145.27626801  .00001610  00000-0  90040-3 0  9996
2 56678  98.8215 144.0724 0062734  17.4599 342.8709 14.11189672107142
CZ-6A DEB
1 56678U 22151AHE 25145.27626801  .00001610  00000-0  90040-3 0  9996
2 56678  98.8215 144.0724 0062734  17.4599 342.8709 14.11189672107142
CZ-6A DEB
1 56678U 22151AHE 25150.23932681  .00001604  00000-0  89677-3 0  9991
2 56678  98.8216 148.9484 0062401   3.4716 356.6876 14.11205407107846
CZ-6A DEB
1 56678U 22151AHE 25150.23932681  .00001604  00000-0  89677-3 0  9991
2 56678  98.8216 148.9484 0062401   3.4716 356.6876 14.11205407107846
CZ-6A DEB
1 56678U 22151AHE 25151.23193237  .00001502  00000-0  84132-3 0  9996
2 56678  98.8209 149.9234 0062283   0.6627 359.4616 14.11207854107986
CZ-6A DEB
1 56678U 22151AHE 25152.22453458  .00001779  00000-0  99237-3 0  9998
2 56678  98.8213 150.8994 0062236 357.8629   2.2267 14.11212593108120
CZ-6A DEB
1 56678U 22151AHE 25152.22453458  .00001779  00000-0  99237-3 0  9998
2 56678  98.8213 150.8994 0062236 357.8629   2.2267 14.11212593108120
CZ-6A DEB
1 56678U 22151AHE 25153.28803278  .00001866  00000-0  10395-2 0  9998
2 56678  98.8198 151.9428 0062077 354.8271   5.2252 14.11217163108270
CZ-6A DEB
1 56678U 22151AHE 25153.28803278  .00001866  00000-0  10395-2 0  9998
2 56678  98.8198 151.9428 0062077 354.8271   5.2252 14.11217163108270
CZ-6A DEB
1 56678U 22151AHE 25155.27322094  .00001733  00000-0  96717-3 0  9997
2 56678  98.8202 153.8945 0061923 349.2273  10.7568 14.11224459108558
CZ-6A DEB
1 56678U 22151AHE 25155.27322094  .00001733  00000-0  96717-3 0  9997
2 56678  98.8202 153.8945 0061923 349.2273  10.7568 14.11224459108558
CZ-6A DEB
1 56678U 22151AHE 25158.25098435  .00001345  00000-0  75608-3 0  9992
2 56678  98.8200 156.8205 0061731 340.7105  19.1730 14.11234294108973
CZ-6A DEB
1 56678U 22151AHE 25158.25098435  .00001345  00000-0  75608-3 0  9992
2 56678  98.8200 156.8205 0061731 340.7105  19.1730 14.11234294108973
CZ-6A DEB
1 56678U 22151AHE 25160.30704946  .00001241  00000-0  69965-3 0  9996
2 56678  98.8198 158.8413 0061615 334.7710  25.0455 14.11240340109260
CZ-6A DEB
1 56678U 22151AHE 25164.20646181  .00002046  00000-0  11378-2 0  9993
2 56678  98.8209 162.6742 0060762 323.7794  35.9270 14.11255932109812
CZ-6A DEB
1 56678U 22151AHE 25164.20646181  .00002046  00000-0  11378-2 0  9993
2 56678  98.8209 162.6742 0060762 323.7794  35.9270 14.11255932109812
CZ-6A DEB
1 56678U 22151AHE 25166.26250805  .00001369  00000-0  76933-3 0  9991
2 56678  98.8204 164.6938 0061077 317.8396  41.8087 14.11257529110108
CZ-6A DEB
1 56678U 22151AHE 25167.25507783  .00001254  00000-0  70671-3 0  9997
2 56678  98.8208 165.6702 0060485 314.9367  44.6906 14.11259914110246
CZ-6A DEB
1 56678U 22151AHE 25168.24764386  .00001377  00000-0  77320-3 0  9995
2 56678  98.8206 166.6449 0061066 312.1331  47.4660 14.11264210110388
CZ-6A DEB
1 56678U 22151AHE 25168.74392793  .00001250  00000-0  70430-3 0  9994
2 56678  98.8188 167.1307 0060445 310.6220  48.9703 14.11264812110456
CZ-6A DEB
1 56678U 22151AHE 25169.24020913  .00001323  00000-0  74413-3 0  9998
2 56678  98.8205 167.6202 0061017 309.2879  50.2890 14.11267154110528
CZ-6A DEB
1 56678U 22151AHE 25172.21789767  .00001155  00000-0  65275-3 0  9997
2 56678  98.8234 170.5493 0060732 300.7406  58.7793 14.11274117110948
CZ-6A DEB
1 56678U 22151AHE 25174.20301692  .00001099  00000-0  62191-3 0  9996
2 56678  98.8229 172.5001 0060722 294.9823  64.5049 14.11278428111225
CZ-6A DEB
1 56678U 22151AHE 25174.20301692  .00001099  00000-0  62191-3 0  9996
2 56678  98.8229 172.5001 0060722 294.9823  64.5049 14.11278428111225
CZ-6A DEB
1 56678U 22151AHE 25178.24414029  .00000944  00000-0  53791-3 0  9997
2 56678  98.8222 176.4725 0060842 283.4554  75.9841 14.11286092111795
CZ-6A DEB
1 56678U 22151AHE 25178.24414029  .00000944  00000-0  53791-3 0  9997
2 56678  98.8222 176.4725 0060842 283.4554  75.9841 14.11286092111795
CZ-6A DEB
1 56678U 22151AHE 25179.23669453  .00000857  00000-0  49003-3 0  9994
2 56678  98.8221 177.4477 0061146 280.6673  78.7617 14.11287554111930
CZ-6A DEB
1 56678U 22151AHE 25180.72552353  .00000849  00000-0  48591-3 0  9992
2 56678  98.8214 178.9099 0060772 276.0805  83.3444 14.11290404112140
CZ-6A DEB
1 56678U 22151AHE 25180.72552353  .00000849  00000-0  48591-3 0  9992
2 56678  98.8214 178.9099 0060772 276.0805  83.3444 14.11290404112140
CZ-6A DEB
1 56678U 22151AHE 25182.71062495  .00001071  00000-0  60651-3 0  9995
2 56678  98.8207 180.8592 0060622 270.3770  89.0454 14.11295361112426
CZ-6A DEB
1 56678U 22151AHE 25182.71062495  .00001071  00000-0  60651-3 0  9995
2 56678  98.8207 180.8592 0060622 270.3770  89.0454 14.11295361112426
CZ-6A DEB
1 56678U 22151AHE 25184.76661498  .00001083  00000-0  61298-3 0  9991
2 56678  98.8204 182.8798 0060688 264.3184  95.1065 14.11300600112718
CZ-6A DEB
1 56678U 22151AHE 25184.76661498  .00001083  00000-0  61298-3 0  9991
2 56678  98.8204 182.8798 0060688 264.3184  95.1065 14.11300600112718
CZ-6A DEB
1 56678U 22151AHE 25188.73678912  .00000949  00000-0  54016-3 0  9991
2 56678  98.8209 186.7819 0060723 252.8547 106.5969 14.11309385113276
CZ-6A DEB
1 56678U 22151AHE 25188.73678912  .00000949  00000-0  54016-3 0  9991
2 56678  98.8209 186.7819 0060723 252.8547 106.5969 14.11309385113276
CZ-6A DEB
1 56678U 22151AHE 25189.23306000  .00000963  00000-0  54774-3 0  9990
2 56678  98.8208 187.2692 0060661 251.4641 107.9933 14.11310496113340
CZ-6A DEB
1 56678U 22151AHE 25189.72933033  .00000945  00000-0  53820-3 0  9997
2 56678  98.8206 187.7567 0060657 249.9873 109.4761 14.11311461113415
CZ-6A DEB
1 56678U 22151AHE 25196.74797791  .00000919  00000-0  52354-3 0  9998
2 56678  98.8211 194.6554 0060894 229.6721 129.9122 14.11326114114403
CZ-6A DEB
1 56678U 22151AHE 25196.74797791  .00000919  00000-0  52354-3 0  9998
2 56678  98.8211 194.6554 0060894 229.6721 129.9122 14.11326114114403
CZ-6A DEB
1 56678U 22151AHE 25197.74050946  .00000888  00000-0  50650-3 0  9995
2 56678  98.8210 195.6309 0060944 226.7964 132.8107 14.11327982114549
CZ-6A DEB
1 56678U 22151AHE 25199.72556880  .00000991  00000-0  56249-3 0  9998
2 56678  98.8215 197.5824 0061004 221.1019 138.5548 14.11332504114824
CZ-6A DEB
1 56678U 22151AHE 25199.72556880  .00000991  00000-0  56249-3 0  9998
2 56678  98.8215 197.5824 0061004 221.1019 138.5548 14.11332504114824
CZ-6A DEB
1 56678U 22151AHE 25200.22183306  .00000990  00000-0  56190-3 0  9999
2 56678  98.8216 198.0704 0061024 219.6460 140.0242 14.11333428114894
CZ-6A DEB
1 56678U 22151AHE 25201.21435999  .00001059  00000-0  59943-3 0  9993
2 56678  98.8216 199.0460 0061074 216.7880 142.9093 14.11335855115031
CZ-6A DEB
1 56678U 22151AHE 25201.21435999  .00001059  00000-0  59943-3 0  9993
2 56678  98.8216 199.0460 0061074 216.7880 142.9093 14.11335855115031
CZ-6A DEB
1 56678U 22151AHE 25201.71062306  .00001055  00000-0  59697-3 0  9998
2 56678  98.8217 199.5343 0061089 215.3845 144.3266 14.11336824115102
CZ-6A DEB
1 56678U 22151AHE 25202.27778044  .00001088  00000-0  61484-3 0  9996
2 56678  98.8219 200.0921 0061118 213.7690 145.9582 14.11338187115187
CZ-6A DEB
1 56678U 22151AHE 25202.27778044  .00001088  00000-0  61484-3 0  9996
2 56678  98.8219 200.0921 0061118 213.7690 145.9582 14.11338187115187
CZ-6A DEB
1 56678U 22151AHE 25205.18445250  .00001212  00000-0  68242-3 0  9997
2 56678  98.8224 202.9495 0061277 205.4542 154.3608 14.11346090115590
CZ-6A DEB
1 56678U 22151AHE 25205.18445250  .00001212  00000-0  68242-3 0  9997
2 56678  98.8224 202.9495 0061277 205.4542 154.3608 14.11346090115590
CZ-6A DEB
1 56678U 22151AHE 25207.73664086  .00001184  00000-0  66686-3 0  9998
2 56678  98.8230 205.4587 0061403 198.1647 161.7331 14.11352564115950
CZ-6A DEB
1 56678U 22151AHE 25207.73664086  .00001184  00000-0  66686-3 0  9998
2 56678  98.8230 205.4587 0061403 198.1647 161.7331 14.11352564115950
CZ-6A DEB
1 56678U 22151AHE 25208.23289848  .00001177  00000-0  66328-3 0  9998
2 56678  98.8224 205.9460 0061464 196.7165 163.1981 14.11353809116023
CZ-6A DEB
1 56678U 22151AHE 25209.22541272  .00001182  00000-0  66562-3 0  9996
2 56678  98.8234 206.9224 0061498 193.8594 166.0892 14.11356214116165
CZ-6A DEB
1 56678U 22151AHE 25209.22541272  .00001182  00000-0  66562-3 0  9996
2 56678  98.8234 206.9224 0061498 193.8594 166.0892 14.11356214116165
CZ-6A DEB
1 56678U 22151AHE 25215.18045860  .00001196  00000-0  67267-3 0  9998
2 56678  98.8249 212.7788 0061799 176.9837 183.1719 14.11371968117002
CZ-6A DEB
1 56678U 22151AHE 25215.18045860  .00001196  00000-0  67267-3 0  9998
2 56678  98.8249 212.7788 0061799 176.9837 183.1719 14.11371968117002
CZ-6A DEB
1 56678U 22151AHE 25216.24385243  .00001148  00000-0  64654-3 0  9992
2 56678  98.8257 213.8255 0062020 173.8901 186.3040 14.11374678117157
CZ-6A DEB
1 56678U 22151AHE 25216.24385243  .00001148  00000-0  64654-3 0  9992
2 56678  98.8257 213.8255 0062020 173.8901 186.3040 14.11374678117157
CZ-6A DEB
1 56678U 22151AHE 25218.79598991  .00001152  00000-0  64873-3 0  9998
2 56678  98.8233 216.3307 0062295 166.7004 193.5827 14.11381246117518
CZ-6A DEB
1 56678U 22151AHE 25219.22134507  .00001131  00000-0  63708-3 0  9999
2 56678  98.8234 216.7491 0062301 165.5047 194.7929 14.11382143117578
CZ-6A DEB
1 56678U 22151AHE 25219.22134507  .00001131  00000-0  63708-3 0  9999
2 56678  98.8234 216.7491 0062301 165.5047 194.7929 14.11382143117578
CZ-6A DEB
1 56678U 22151AHE 25219.22134507  .00001131  00000-0  63708-3 0  9999
2 56678  98.8234 216.7491 0062301 165.5047 194.7929 14.11382143117578
CZ-6A DEB
1 56678U 22151AHE 25220.21383993  .00001110  00000-0  62552-3 0  9998
2 56678  98.8236 217.7247 0062399 162.6914 197.6404 14.11384128117719
CZ-6A DEB
1 56678U 22151AHE 25220.22596378  .00002626  00000-0  14504-2 0  9998
2 56678  98.8342 217.7371 0059589 162.4707 259.3858 14.11381680117719
CZ-6A DEB
1 56678U 22151AHE 25225.17628539  .00001199  00000-0  67338-3 0  9990
2 56678  98.8234 222.6025 0063397 148.6525 211.8450 14.11396921118419
CZ-6A DEB
1 56678U 22151AHE 25225.17628539  .00001199  00000-0  67338-3 0  9990
2 56678  98.8234 222.6025 0063397 148.6525 211.8450 14.11396921118419
CZ-6A DEB
1 56678U 22151AHE 25225.19132244  .00001108  00000-0  62451-3 0  9996
2 56678  98.8444 222.6438 0062644 148.2483 288.6238 14.11395802118416
CZ-6A DEB
1 56678U 22151AHE 25236.73151452  .00001070  00000-0  60293-3 0  9990
2 56678  98.8255 233.9684 0063416 116.6239 244.1447 14.11423058120046
CZ-6A DEB
1 56678U 22151AHE 25238.71644048  .00001260  00000-0  70521-3 0  9994
2 56678  98.8250 235.9194 0064667 111.3851 249.4236 14.11427766120325
CZ-6A DEB
1 56678U 22151AHE 25240.70135603  .00001440  00000-0  80338-3 0  9995
2 56678  98.8256 237.8721 0063593 105.6141 255.2061 14.11431909120609
CZ-6A DEB
1 56678U 22151AHE 25246.72691206  .00002560  00000-0  14081-2 0  9994
2 56678  98.8244 243.7951 0064458  88.4097 272.4457 14.11462125121454
CZ-6A DEB
1 56678U 22151AHE 25253.24851659  .00001330  00000-0  74347-3 0  9995
2 56678  98.8215 250.2115 0063099  70.9495 289.8497 14.11490657122374
CZ-6A DEB
1 56678U 22151AHE 25255.72953447  .00001251  00000-0  70043-3 0  9999
2 56678  98.8262 252.6520 0063248  64.2221 296.5459 14.11496995122724
CZ-6A DEB
1 56678U 22151AHE 25256.22573860  .00001239  00000-0  69395-3 0  9996
2 56678  98.8249 253.1387 0063525  63.1191 297.6455 14.11497345122793
CZ-6A DEB
1 56678U 22151AHE 25256.72194086  .00001404  00000-0  78318-3 0  9999
2 56678  98.8266 253.6290 0063572  61.6340 299.1222 14.11498636122862
CZ-6A DEB
1 56678U 22151AHE 25259.27382870  .00001687  00000-0  93617-3 0  9994
2 56678  98.8290 256.1416 0063542  54.6120 306.0965 14.11506079123226
CZ-6A DEB
1 56678U 22151AHE 25259.77002618  .00001355  00000-0  75640-3 0  9996
2 56678  98.8277 256.6293 0063522  53.1505 307.5469 14.11506950123298
CZ-6A DEB
1 56678U 22151AHE 25262.25101161  .00001351  00000-0  75428-3 0  9996
2 56678  98.8281 259.0695 0063426  46.3104 314.3298 14.11513586123646
CZ-6A DEB
1 56678U 22151AHE 25264.73198104  .00001798  00000-0  99596-3 0  9991
2 56678  98.8289 261.5103 0063350  39.3462 321.2287 14.11523393123991
CZ-6A DEB
1 56678U 22151AHE 25265.72436343  .00002064  00000-0  11397-2 0  9990
2 56678  98.8287 262.4866 0063293  36.6020 323.9451 14.11528184124133
CZ-6A DEB
1 56678U 22151AHE 25273.23800733  .00002529  00000-0  13908-2 0  9999
2 56678  98.8307 269.8819 0062903  15.9814 344.3323 14.11564564125197
CZ-6A DEB
1 56678U 22151AHE 25273.23800733  .00002529  00000-0  13908-2 0  9999
2 56678  98.8307 269.8819 0062903  15.9814 344.3324 14.11564564125198
CZ-6A DEB
1 56678U 22151AHE 25277.70354117  .00002635  00000-0  14470-2 0  9998
2 56678  98.8264 274.2731 0062921   3.7914 356.3722 14.11595232125820
CZ-6A DEB
1 56678U 22151AHE 25277.70354118  .00002635  00000-0  14470-2 0  9999
2 56678  98.8264 274.2731 0062921   3.7914 356.3722 14.11595232125820
CZ-6A DEB
1 56678U 22151AHE 25288.26456872  .00002442  00000-0  13426-2 0  9998
2 56678  98.8275 284.6628 0061995 332.7882  27.0046 14.11648609127315
CZ-6A DEB
1 56678U 22151AHE 25288.26456872  .00002442  00000-0  13426-2 0  9998
2 56678  98.8276 284.6629 0061995 332.7882  27.0046 14.11648609127317
CZ-6A DEB
1 56678U 22151AHE 25289.25685987  .00002155  00000-0  11877-2 0  9998
2 56678  98.8346 285.6499 0061682 329.6313  30.1291 14.11652777127451
CZ-6A DEB
1 56678U 22151AHE 25289.25685988  .00002155  00000-0  11877-2 0  9999
2 56678  98.8346 285.6499 0061682 329.6313  30.1291 14.11652777127451
CZ-6A DEB
1 56678U 22151AHE 25292.72986163  .00002922  00000-0  16018-2 0  9998
2 56678  98.8326 289.0677 0060632 321.2585  38.4246 14.11671872127940
CZ-6A DEB
1 56678U 22151AHE 25303.78643580  .00002784  00000-0  15257-2 0  9990
2 56678  98.8302 299.9436 0060774 288.6186  70.8392 14.11733174129507
CZ-6A DEB
1 56678U 22151AHE 25303.78643581  .00002784  00000-0  15257-2 0  9991
2 56678  98.8302 299.9436 0060774 288.6186  70.8392 14.11733174129507
CZ-6A DEB
1 56678U 22151AHE 25307.25925847  .00001918  00000-0  10588-2 0  9995
2 56678  98.8296 303.3615 0060392 279.1766  80.2577 14.11748148129993
CZ-6A DEB
1 56678U 22151AHE 25308.25148925  .00001698  00000-0  93985-3 0  9998
2 56678  98.8300 304.3393 0060884 275.4110  84.0118 14.11749645130135
CZ-6A DEB
1 56678U 22151AHE 25308.25148925  .00001698  00000-0  93985-3 0  9998
2 56678  98.8300 304.3393 0060884 275.4110  84.0118 14.11749645130135
CZ-6A DEB
1 56678U 22151AHE 25308.74760346  .00001593  00000-0  88341-3 0  9993
2 56678  98.8315 304.8248 0060660 274.0523  85.3716 14.11751553130207
CZ-6A DEB
1 56678U 22151AHE 25308.74760347  .00001593  00000-0  88341-3 0  9994
2 56678  98.8315 304.8248 0060660 274.0523  85.3716 14.11751553130207
CZ-6A DEB
1 56678U 22151AHE 25311.72427786  .00002275  00000-0  12510-2 0  9995
2 56678  98.8282 307.7548 0060406 265.4595  93.9675 14.11764359130629
CZ-6A DEB
1 56678U 22151AHE 25311.72427786  .00002275  00000-0  12510-2 0  9995
2 56678  98.8282 307.7548 0060406 265.4595  93.9675 14.11764359130629
CZ-6A DEB
1 56678U 22151AHE 25314.77179917  .00002450  00000-0  13446-2 0  9997
2 56678  98.8306 310.7551 0060355 256.7287 102.7148 14.11778388131057
CZ-6A DEB
1 56678U 22151AHE 25329.22940476  .00001554  00000-0  86125-3 0  9998
2 56678  98.8319 324.9912 0059473 215.7985 143.9193 14.11839911133091
CZ-6A DEB
1 56678U 22151AHE 25329.22940476  .00001554  00000-0  86125-3 0  9998
2 56678  98.8319 324.9912 0059473 215.7985 143.9193 14.11839911133091
CZ-6A DEB
1 56678U 22151AHE 25329.72549252  .00001558  00000-0  86285-3 0  9991
2 56678  98.8317 325.4776 0060158 214.0962 145.6339 14.11839711133169
CZ-6A DEB
1 56678U 22151AHE 25329.72549253  .00001558  00000-0  86285-3 0  9992
2 56678  98.8317 325.4776 0060158 214.0962 145.6339 14.11839711133169
CZ-6A DEB
1 56678U 22151AHE 25331.70983653  .00001539  00000-0  85232-3 0  9999
2 56678  98.8312 327.4295 0060260 208.2801 151.5095 14.11843987133449
CZ-6A DEB
1 56678U 22151AHE 25332.70200529  .00001444  00000-0  80127-3 0  9997
2 56678  98.8311 328.4058 0060256 205.4465 154.3737 14.11846776133584
CZ-6A DEB
1 56678U 22151AHE 25336.24544668  .00001340  00000-0  74492-3 0  9998
2 56678  98.8299 331.8934 0060479 195.6779 164.2522 14.11857563134089
CZ-6A DEB
1 56678U 22151AHE 25336.24544668  .00001340  00000-0  74492-3 0  9998
2 56678  98.8299 331.8934 0060479 195.6779 164.2522 14.11857564134080
CZ-6A DEB
1 56678U 22151AHE 25337.23760696  .00001536  00000-0  85024-3 0  9999
2 56678  98.8300 332.8696 0060549 192.9172 167.0452 14.11860996134226
CZ-6A DEB
1 56678U 22151AHE 25337.23760696  .00001536  00000-0  85024-3 0  9999
2 56678  98.8300 332.8696 0060549 192.9172 167.0452 14.11860996134226
CZ-6A DEB
1 56678U 22151AHE 25340.71014520  .00001956  00000-0  10760-2 0  9994
2 56678  98.8301 336.2880 0060695 183.0272 177.0540 14.11874945134716
CZ-6A DEB
1 56678U 22151AHE 25342.69443774  .00002027  00000-0  11139-2 0  9991
2 56678  98.8300 338.2413 0060826 177.3981 182.7519 14.11882989134994
CZ-6A DEB
1 56678U 22151AHE 25342.69443775  .00002027  00000-0  11139-2 0  9992
2 56678  98.8300 338.2413 0060826 177.3981 182.7519 14.11882990134996
CZ-6A DEB
1 56678U 22151AHE 25343.26137537  .00001896  00000-0  10436-2 0  9994
2 56678  98.8289 338.7978 0060792 175.9081 184.2600 14.11884790135078
CZ-6A DEB
1 56678U 22151AHE 25343.26137538  .00001896  00000-0  10436-2 0  9995
2 56678  98.8289 338.7978 0060792 175.9081 184.2600 14.11884790135078
CZ-6A DEB
1 56678U 22151AHE 25350.20630802  .00001198  00000-0  66778-3 0  9995
2 56678  98.8299 345.6356 0060935 156.3179 204.0819 14.11905946136055
CZ-6A DEB
1 56678U 22151AHE 25354.24566161  .00000876  00000-0  49450-3 0  9999
2 56678  98.8337 349.6185 0061200 144.9805 215.5414 14.11915125136628
CZ-6A DEB
1 56678U 22151AHE 25354.24566162  .00000876  00000-0  49450-3 0  9990
2 56678  98.8337 349.6185 0061200 144.9806 215.5414 14.11915125136629
CZ-6A DEB
1 56678U 22151AHE 25357.22201055  .00001090  00000-0  60915-3 0  9996
2 56678  98.8327 352.5462 0061422 136.6714 223.9311 14.11922651137049
CZ-6A DEB
1 56678U 22151AHE 25361.26131197  .00001312  00000-0  72835-3 0  9995
2 56678  98.8306 356.5193 0061663 125.3678 235.3277 14.11933793137612
CZ-6A DEB
1 56678U 22151AHE 25361.26131197  .00001312  00000-0  72835-3 0  9995
2 56678  98.8306 356.5193 0061663 125.3678 235.3277 14.11933793137612
CZ-6A DEB
1 56678U 22151AHE 25363.74155713  .00001745  00000-0  96000-3 0  9990
2 56678  98.8308 358.9616 0062140 118.3235 242.4224 14.11945494137962
CZ-6A DEB
1 56678U 22151AHE 25363.74155713  .00001745  00000-0  96000-3 0  9990
2 56678  98.8308 358.9616 0062140 118.3235 242.4224 14.11945494137962
CZ-6A DEB
1 56678U 22151AHE 26004.26888551  .00002152  00000-0  11785-2 0  9992
2 56678  98.8338   4.4063 0061837 102.9337 257.8751 14.11972043138740
CZ-6A DEB
1 56678U 22151AHE 26004.26888551  .00002152  00000-0  11785-2 0  9992
2 56678  98.8338   4.4063 0061837 102.9337 257.8751 14.11972043138740
CZ-6A DEB
1 56678U 22151AHE 26007.74112917  .00001584  00000-0  87295-3 0  9992
2 56678  98.8315   7.8232 0062070  93.3546 267.4729 14.11984490139231
CZ-6A DEB
1 56678U 22151AHE 26007.74112918  .00001584  00000-0  87295-3 0  9993
2 56678  98.8315   7.8232 0062070  93.3546 267.4729 14.11984490139231
CZ-6A DEB
1 56678U 22151AHE 26009.72525384  .00001409  00000-0  77899-3 0  9993
2 56678  98.8316   9.7765 0062101  87.8480 272.9801 14.11990594139519
CZ-6A DEB
1 56678U 22151AHE 26011.28420390  .00001506  00000-0  83093-3 0  9999
2 56678  98.8312  11.3124 0062319  83.4323 277.3938 14.11995680139737
CZ-6A DEB
1 56678U 22151AHE 26012.20539926  .00001561  00000-0  86054-3 0  9999
2 56678  98.8310  12.2195 0062348  80.8630 279.9589 14.11998147139862
CZ-6A DEB
1 56678U 22151AHE 26012.27625972  .00001374  00000-0  76020-3 0  9997
2 56678  98.8307  12.2890 0062356  80.6561 280.1655 14.11997866139876
CZ-6A DEB
1 56678U 22151AHE 26012.27625973  .00001374  00000-0  76020-3 0  9998
2 56678  98.8307  12.2890 0062356  80.6561 280.1655 14.11997867139877
CZ-6A DEB
1 56678U 22151AHE 26014.75638954  .00001004  00000-0  56185-3 0  9996
2 56678  98.8328  14.7318 0062479  73.7137 287.0895 14.12002994140222
CZ-6A DEB
1 56678U 22151AHE 26014.75638955  .00001004  00000-0  56185-3 0  9997
2 56678  98.8328  14.7318 0062479  73.7137 287.0895 14.12002994140222
CZ-6A DEB
1 56678U 22151AHE 26016.24446245  .00001042  00000-0  58202-3 0  9996
2 56678  98.8339  16.1977 0062584  69.5376 291.2500 14.12006787140433
CZ-6A DEB
1 56678U 22151AHE 26016.74048539  .00001003  00000-0  56117-3 0  9995
2 56678  98.8344  16.6867 0062641  68.1427 292.6392 14.12007848140509
CZ-6A DEB
1 56678U 22151AHE 26017.73253020  .00001136  00000-0  63215-3 0  9992
2 56678  98.8319  17.6624 0062604  65.4025 295.3653 14.12010867140646
CZ-6A DEB
1 56678U 22151AHE 26024.25159322  .00002552  00000-0  13907-2 0  9992
2 56678  98.8353  24.0865 0062716  47.1477 313.4940 14.12044762141569
CZ-6A DEB
1 56678U 22151AHE 26024.25159322  .00002552  00000-0  13907-2 0  9992
2 56678  98.8353  24.0865 0062716  47.1477 313.4940 14.12044762141569
CZ-6A DEB
1 56678U 22151AHE 26025.24360973  .00002361  00000-0  12882-2 0  9997
2 56678  98.8332  25.0607 0062720  44.3552 316.2620 14.12049073141701
CZ-6A DEB
1 56678U 22151AHE 26025.24360975  .00002361  00000-0  12882-2 0  9999
2 56678  98.8332  25.0607 0062720  44.3552 316.2620 14.12049073141701
CZ-6A DEB
1 56678U 22151AHE 26027.79449289  .00002325  00000-0  12683-2 0  9996
2 56678  98.8336  27.5744 0062814  37.2886 323.2622 14.12061412142060
CZ-6A DEB
1 56678U 22151AHE 26027.79449290  .00002325  00000-0  12683-2 0  9998
2 56678  98.8336  27.5744 0062814  37.2886 323.2622 14.12061412142060
CZ-6A DEB
1 56678U 22151AHE 26029.21164320  .00002187  00000-0  11943-2 0  9999
2 56678  98.8338  28.9711 0062969  33.3963 327.1156 14.12066428142264
CZ-6A DEB
1 56678U 22151AHE 26029.21164320  .00002187  00000-0  11943-2 0  9999
2 56678  98.8338  28.9711 0062969  33.3963 327.1156 14.12066428142264
CZ-6A DEB
1 56678U 22151AHE 26033.25048798  .00001453  00000-0  80139-3 0  9997
2 56678  98.8343  32.9486 0062991  22.2372 338.1510 14.12078679142830
CZ-6A DEB
1 56678U 22151AHE 26033.25048798  .00001453  00000-0  80139-3 0  9997
2 56678  98.8343  32.9486 0062991  22.2372 338.1510 14.12078679142830
CZ-6A DEB
1 56678U 22151AHE 26037.21843748  .00001905  00000-0  10432-2 0  9995
2 56678  98.8344  36.8574 0062999  11.2872 348.9696 14.12093046143394
CZ-6A DEB
1 56678U 22151AHE 26037.21843748  .00001905  00000-0  10432-2 0  9995
2 56678  98.8344  36.8574 0062999  11.2872 348.9696 14.12093046143394
CZ-6A DEB
1 56678U 22151AHE 26056.70349581  .00001105  00000-0  61521-3 0  9994
2 56678  98.8347  56.0568 0061932 316.4942  43.1353 14.12138259146144
CZ-6A DEB
1 56678U 22151AHE 26056.70349581  .00001105  00000-0  61521-3 0  9994
2 56678  98.8347  56.0568 0061932 316.4942  43.1353 14.12138259146144
CZ-6A DEB
1 56678U 22151AHE 26056.70349655  .00001257  00000-0  69617-3 0  9998
2 56678  98.8353  56.0561 0061933 316.6543  42.9766 14.12139075146146
CZ-6A DEB
1 56678U 22151AHE 26056.70349656  .00001257  00000-0  69617-3 0  9999
2 56678  98.8353  56.0561 0061933 316.6543  42.9766 14.12139075146146
CZ-6A DEB
1 56678U 22151AHE 26065.27670787  .00001600  00000-0  87956-3 0  9991
2 56678  98.8340  64.5029 0061624 291.9582  67.5048 14.12168183147352
CZ-6A DEB
1 56678U 22151AHE 26079.23439761  .00001092  00000-0  60762-3 0  9998
2 56678  98.8342  78.2723 0060224 249.4647 110.0055 14.12214820149323
CZ-6A DEB
1 56678U 22151AHE 26079.23439761  .00001092  00000-0  60762-3 0  9998
2 56678  98.8342  78.2723 0060224 249.4647 110.0055 14.12214820149323
CZ-6A DEB
1 56678U 22151AHE 26082.21010574  .00001452  00000-0  79944-3 0  9999
2 56678  98.8375  81.2055 0061982 241.5298 117.9621 14.12224420149746
CZ-6A DEB
1 56678U 22151AHE 26088.23232160  .00001555  00000-0  85419-3 0  9992
2 56678  98.8377  87.1432 0062057 223.6468 135.9787 14.12243352150599
CZ-6A DEB
1 56678U 22151AHE 26088.23232161  .00001555  00000-0  85419-3 0  9993
2 56678  98.8377  87.1432 0062057 223.6468 135.9787 14.12243352150599
CZ-6A DEB
1 56678U 22151AHE 26104.73988841  .00000851  00000-0  47694-3 0  9991
2 56678  98.8362 103.4192 0063772 175.9319 184.2385 14.12290808152925
CZ-6A DEB
1 56678U 22151AHE 26104.73988842  .00000851  00000-0  47694-3 0  9992
2 56678  98.8362 103.4193 0063772 175.9319 184.2385 14.12290808152926
CZ-6A DEB
1 56678U 22151AHE 26105.73174868  .00000775  00000-0  43629-3 0  9997
2 56678  98.8381 104.3994 0063603 172.5244 187.6891 14.12291302153064
CZ-6A DEB
1 56678U 22151AHE 26105.73174869  .00000775  00000-0  43629-3 0  9998
2 56678  98.8381 104.3994 0063603 172.5245 187.6891 14.12291302153065
CZ-6A DEB
1 56678U 22151AHE 26106.72361307  .00000843  00000-0  47277-3 0  9992
2 56678  98.8392 105.3773 0063730 168.2099 192.0582 14.12292816153207
CZ-6A DEB
1 56678U 22151AHE 26106.72361307  .00000843  00000-0  47277-3 0  9992
2 56678  98.8392 105.3773 0063730 168.2099 192.0582 14.12292817153208
CZ-6A DEB
1 56678U 22151AHE 26107.21953145  .00000858  00000-0  48084-3 0  9997
2 56678  98.8380 105.8672 0063734 168.6310 191.6319 14.12293973153276
CZ-6A DEB
1 56678U 22151AHE 26108.21138686  .00000702  00000-0  39738-3 0  9997
2 56678  98.8395 106.8459 0063861 165.8140 194.4844 14.12294444153411
CZ-6A DEB
1 56678U 22151AHE 26111.75371619  .00000710  00000-0  40133-3 0  9995
2 56678  98.8382 110.3393 0064229 155.8479 204.5728 14.12299820153919
CZ-6A DEB
1 56678U 22151AHE 26111.75371620  .00000710  00000-0  40133-3 0  9997
2 56678  98.8382 110.3393 0064229 155.8479 204.5728 14.12299820153919
CZ-6A DEB
1 56678U 22151AHE 26112.74556604  .00000672  00000-0  38121-3 0  9995
2 56678  98.8371 111.3169 0064429 153.0853 207.3685 14.12301172154050
CZ-6A DEB
1 56678U 22151AHE 26112.74556605  .00000672  00000-0  38121-3 0  9996
2 56678  98.8371 111.3169 0064429 153.0853 207.3685 14.12301173154051
CZ-6A DEB
1 56678U 22151AHE 26112.74556605  .00000672  00000-0  38121-3 0  9996
2 56678  98.8371 111.3169 0064429 153.0853 207.3685 14.12301173154051
CZ-6A DEB
1 56678U 22151AHE 26115.72110722  .00000806  00000-0  45225-3 0  9995
2 56678  98.8390 114.2528 0064508 144.6670 215.8802 14.12306492154474
CZ-6A DEB
1 56678U 22151AHE 26115.72110723  .00000806  00000-0  45225-3 0  9996
2 56678  98.8390 114.2528 0064508 144.6670 215.8802 14.12306492154474
CZ-6A DEB
1 56678U 22151AHE 26117.70479442  .00000906  00000-0  50543-3 0  9992
2 56678  98.8386 116.2093 0064674 139.1243 221.4804 14.12310156154755
CZ-6A DEB
1 56678U 22151AHE 26117.70479443  .00000906  00000-0  50543-3 0  9993
2 56678  98.8386 116.2093 0064674 139.1243 221.4805 14.12310156154756
CZ-6A DEB
1 56678U 22151AHE 26138.24982053  .00000554  00000-0  31622-3 0  9997
2 56678  98.8359 136.4721 0072974  83.9150 277.0330 14.12340308157657
CZ-6A DEB
1 56678U 22151AHE 26138.24982054  .00000554  00000-0  31622-3 0  9998
2 56678  98.8359 136.4721 0072974  83.9151 277.0330 14.12340308157658
CZ-6A DEB
1 56678U 22151AHE 26140.72935397  .00000585  00000-0  33441-3 0  9997
2 56678  98.8367 138.9176 0065284  75.1736 285.6656 14.12343225158003
CZ-6A DEB
1 56678U 22151AHE 26141.22525952  .00000702  00000-0  39677-3 0  9993
2 56678  98.8368 139.4030 0065271  73.8620 286.9724 14.12344750158073
CZ-6A DEB
1 56678U 22151AHE 26149.72638291  .00001624  00000-0  88655-3 0  9991
2 56678  98.8374 147.7931 0065260  50.8202 309.8742 14.12374763159276
CZ-6A DEB
1 56678U 22151AHE 26149.72638291  .00001624  00000-0  88655-3 0  9991
2 56678  98.8374 147.7931 0065260  50.8202 309.8742 14.12374763159276
CZ-6A DEB
1 56678U 22151AHE 26159.21899750  .00001952  00000-0  10606-2 0  9999
2 56678  98.8379 157.1501 0064348  24.0890 336.3268 14.12422618160612
CZ-6A DEB
1 56678U 22151AHE 26159.21899751  .00001952  00000-0  10606-2 0  9990
2 56678  98.8379 157.1501 0064348  24.0890 336.3268 14.12422618160612
CZ-6A DEB
1 56678U 22151AHE 26166.23201772  .00001538  00000-0  84064-3 0  9990
2 56678  98.8346 164.0653 0063675   4.3853 355.7864 14.12450019161606
CZ-6A DEB
1 56678U 22151AHE 26166.23201772  .00001538  00000-0  84064-3 0  9990
2 56678  98.8346 164.0653 0063675   4.3853 355.7864 14.12450019161606
CZ-6A DEB
1 56678U 22151AHE 26169.20720123  .00001638  00000-0  89397-3 0  9991
2 56678  98.8338 166.9970 0063600 355.7469   4.3155 14.12460072162021
CZ-6A DEB
1 56678U 22151AHE 26169.20720123  .00001638  00000-0  89397-3 0  9991
2 56678  98.8338 166.9970 0063600 355.7469   4.3155 14.12460072162021
CZ-6A DEB
1 56678U 22151AHE 26174.73248964  .00001416  00000-0  77653-3 0  9999
2 56678  98.8378 172.4611 0062267 340.2184  19.6574 14.12476315162807
CZ-6A DEB
1 56678U 22151AHE 26175.79503970  .00001678  00000-0  91557-3 0  9996
2 56678  98.8364 173.5030 0061856 337.2476  22.5957 14.12479968162953
CZ-6A DEB
1 56678U 22151AHE 26183.72865936  .00001804  00000-0  98285-3 0  9997
2 56678  98.8366 181.3312 0061168 314.3726  45.2444 14.12507356164076
CZ-6A DEB
1 56678U 22151AHE 26183.72865937  .00001804  00000-0  98285-3 0  9998
2 56678  98.8366 181.3312 0061168 314.3726  45.2444 14.12507356164076
CZ-6A DEB
1 56678U 22151AHE 26185.78287793  .00001972  00000-0  10720-2 0  9997
2 56678  98.8364 183.3588 0061033 308.3035  51.2658 14.12514835164364
CZ-6A DEB
1 56678U 22151AHE 26185.78287793  .00001972  00000-0  10720-2 0  9997
2 56678  98.8364 183.3588 0061033 308.3035  51.2658 14.12514835164364
CZ-6A DEB
1 56678U 22151AHE 26189.25378567  .00001114  00000-0  61587-3 0  9999
2 56678  98.8365 186.7801 0060486 298.3794  61.1288 14.12521023164851
CZ-6A DEB
1 56678U 22151AHE 26189.25378568  .00001114  00000-0  61587-3 0  9990
2 56678  98.8365 186.7801 0060486 298.3794  61.1288 14.12521023164851
CZ-6A DEB
1 56678U 22151AHE 26189.25378568  .00001114  00000-0  61587-3 0  9990
2 56678  98.8365 186.7801 0060486 298.3794  61.1288 14.12521023164851
CZ-6A DEB
1 56678U 22151AHE 26195.77055513  .00000785  00000-0  44127-3 0  9990
2 56678  98.8378 193.2134 0060471 279.0779  80.3554 14.12532003165771
CZ-6A DEB
1 56678U 22151AHE 26195.77055513  .00000785  00000-0  44127-3 0  9990
2 56678  98.8378 193.2134 0060471 279.0779  80.3554 14.12532003165771
CZ-6A DEB
1 56678U 22151AHE 26198.24975439  .00000637  00000-0  36250-3 0  9997
2 56678  98.8376 195.6577 0060224 271.8002  87.6273 14.12534758166128
CZ-6A DEB
1 56678U 22151AHE 26198.24975439  .00000637  00000-0  36250-3 0  9997
2 56678  98.8376 195.6577 0060224 271.8002  87.6273 14.12534758166128
CZ-6A DEB
1 56678U 22151AHE 26199.24143297  .00000603  00000-0  34450-3 0  9990
2 56678  98.8379 196.6369 0060266 268.8758  90.5509 14.12535872166269
CZ-6A DEB
1 56678U 22151AHE 26200.72894990  .00000598  00000-0  34177-3 0  9998
2 56678  98.8388 198.1056 0060331 264.5424  94.8864 14.12537675166472
CZ-6A DEB
1 56678U 22151AHE 26200.72894990  .00000598  00000-0  34177-3 0  9998
2 56678  98.8388 198.1056 0060331 264.5424  94.8864 14.12537675166472
CZ-6A DEB
1 56678U 22151AHE 26217.72901235  .00000609  00000-0  34699-3 0  9999
2 56678  98.8387 214.8800 0060831 214.7084 145.0113 14.12565447168878
CZ-6A DEB
1 56678U 22151AHE 26220.27900390  .00000466  00000-0  27071-3 0  9991
2 56678  98.8405 217.3997 0061082 207.2973 152.4985 14.12566168169238
CZ-6A DEB
1 56678U 22151AHE 26220.27900391  .00000466  00000-0  27071-3 0  9992
2 56678  98.8405 217.3997 0061082 207.2973 152.4985 14.12566168169238
CZ-6A DEB
1 56678U 22151AHE 26224.24564624  .00000433  00000-0  25305-3 0  9990
2 56678  98.8395 221.3130 0061138 195.4702 164.4603 14.12571611169790
CZ-6A DEB
1 56678U 22151AHE 26224.24564624  .00000433  00000-0  25305-3 0  9990
2 56678  98.8395 221.3130 0061138 195.4702 164.4603 14.12571611169790
CZ-6A DEB
1 56678U 22151AHE 26226.72479238  .00000461  00000-0  26827-3 0  9992
2 56678  98.8423 223.7612 0061318 188.1849 171.8328 14.12574468170144
CZ-6A DEB
1 56678U 22151AHE 26226.72479239  .00000461  00000-0  26827-3 0  9993
2 56678  98.8423 223.7612 0061318 188.1849 171.8328 14.12574468170144
CZ-6A DEB
1 56678U 22151AHE 26236.21633539  .00000726  00000-0  40853-3 0  9992
2 56678  98.8452 233.1356 0062435 161.0102 199.3418 14.12587287171485
CZ-6A DEB
1 56678U 22151AHE 26236.21633540  .00000726  00000-0  40853-3 0  9994
2 56678  98.8452 233.1356 0062435 161.0102 199.3418 14.12587287171485
CZ-6A DEB
1 56678U 22151AHE 26243.79534417  .00000552  00000-0  31556-3 0  9995
2 56678  98.8420 240.6104 0062912 139.9156 220.6683 14.12594726172554
CZ-6A DEB
1 56678U 22151AHE 26243.79534417  .00000552  00000-0  31556-3 0  9995
2 56678  98.8420 240.6104 0062911 139.9156 220.6683 14.12594726172553
