OBJECT C
1 57492U 75064F   23213.27413657  .00005014  00000-0  25877-2 0  9996
2 57492  81.2827 319.6651 0014721 251.5556 108.4018 14.14889198253579
METEOR 2-1 DEB
1 57492U 75064F   23213.27413657  .00005014  00000-0  25877-2 0  9996
2 57492  81.2827 319.6651 0014721 251.5556 108.4018 14.14889198253579
METEOR 2-1 DEB
1 57492U 75064F   23213.27413657  .00005014  00000-0  25877-2 0  9996
2 57492  81.2827 319.6651 0014721 251.5556 108.4018 14.14889198253579
METEOR 2-1 DEB
1 57492U 23111C   23219.56775161  .00005575  00000-0  28738-2 0  9992
2 57492  81.2946 313.5324 0014610 232.5199 127.4646 14.14963341254460
METEOR 2-1 DEB
1 57492U 23111C   23225.93178370  .00004197  00000-0  21596-2 0  9993
2 57492  81.2817 307.2977 0015449 215.4110 144.6039 14.15020376255365
METEOR 2-1 DEB
1 57492U 23111C   23225.93178370  .00004197  00000-0  21596-2 0  9993
2 57492  81.2817 307.2977 0015449 215.4110 144.6039 14.15020376255365
METEOR 2-1 DEB
1 57492U 23111C   23240.85088822  .00003809  00000-0  19536-2 0  9993
2 57492  81.2799 292.7150 0017939 180.6469 179.4685 14.15150102257479
METEOR 2-1 DEB
1 57492U 23111C   23240.85088822  .00003809  00000-0  19536-2 0  9993
2 57492  81.2799 292.7150 0017939 180.6469 179.4685 14.15150102257479
METEOR 2-1 DEB
1 57492U 23111C   23254.77899091  .00005084  00000-0  26050-2 0  9993
2 57492  81.2763 279.0898 0016317 134.8851 225.3651 14.15260600259440
METEOR 2-1 DEB
1 57492U 23111C   23254.77899091  .00005084  00000-0  26050-2 0  9993
2 57492  81.2763 279.0898 0016317 134.8851 225.3651 14.15260600259440
METEOR 2-1 DEB
1 57492U 23111C   23297.54151927  .00005761  00000-0  29125-2 0  9992
2 57492  81.2802 237.2486 0016722  25.4047 334.7946 14.15977652265491
METEOR 2-1 DEB
1 57492U 23111C   23297.54151927  .00005761  00000-0  29125-2 0  9992
2 57492  81.2802 237.2486 0016722  25.4047 334.7946 14.15977652265491
METEOR 2-1 DEB
1 57492U 23111C   23308.49351006  .00007974  00000-0  40192-2 0  9994
2 57492  81.2948 226.5248 0017868 357.5627   2.5457 14.16148066267044
METEOR 2-1 DEB
1 57492U 23111C   23308.49351006  .00007974  00000-0  40192-2 0  9994
2 57492  81.2948 226.5248 0017868 357.5627   2.5457 14.16148066267044
METEOR 2-1 DEB
1 57492U 23111C   23318.45491769  .00005018  00000-0  25195-2 0  9995
2 57492  81.2870 216.7864 0017981 334.7604  25.2690 14.16324543268454
METEOR 2-1 DEB
1 57492U 23111C   23318.45491769  .00005018  00000-0  25195-2 0  9995
2 57492  81.2870 216.7864 0017981 334.7604  25.2690 14.16324543268454
METEOR 2-1 DEB
1 57492U 23111C   23346.28589337  .00002870  00000-0  14310-2 0  9996
2 57492  81.2638 189.5078 0014796 236.1099 123.8669 14.16630135272390
METEOR 2-1 DEB
1 57492U 23111C   23346.28589337  .00002870  00000-0  14310-2 0  9996
2 57492  81.2638 189.5078 0014796 236.1099 123.8669 14.16630135272390
METEOR 2-1 DEB
1 57492U 23111C   23355.25561580  .00006518  00000-0  32516-2 0  9994
2 57492  81.2789 180.7187 0013887 216.2435 143.7800 14.16724158273662
METEOR 2-1 DEB
1 57492U 23111C   23355.25561580  .00006518  00000-0  32516-2 0  9994
2 57492  81.2789 180.7187 0013887 216.2435 143.7800 14.16724158273662
METEOR 2-1 DEB
1 57492U 23111C   24016.10125643  .00010180  00000-0  50449-2 0  9994
2 57492  81.2867 155.3983 0012542 147.3088 212.8865 14.17090559277324
METEOR 2-1 DEB
1 57492U 23111C   24016.10125643  .00010180  00000-0  50449-2 0  9994
2 57492  81.2867 155.3983 0012542 147.3088 212.8865 14.17090559277324
METEOR 2-1 DEB
1 57492U 23111C   24016.10126204  .00010729  00000-0  53159-2 0  9998
2 57492  81.2829 155.3830 0013823 141.3069 218.9098 14.17090733277328
METEOR 2-1 DEB
1 57492U 23111C   24016.10126204  .00010729  00000-0  53159-2 0  9998
2 57492  81.2829 155.3830 0013823 141.3069 218.9098 14.17090733277328
METEOR 2-1 DEB
1 57492U 23111C   24028.03287968  .00007497  00000-0  36994-2 0  9994
2 57492  81.2789 143.6785 0014403 106.9185 253.3571 14.17302909279011
METEOR 2-1 DEB
1 57492U 23111C   24028.03287968  .00007497  00000-0  36994-2 0  9994
2 57492  81.2789 143.6785 0014403 106.9185 253.3571 14.17302909279011
METEOR 2-1 DEB
1 57492U 23111C   24038.97476271  .00008104  00000-0  39878-2 0  9995
2 57492  81.2825 132.9448 0014545  72.7798 287.4968 14.17448388280568
METEOR 2-1 DEB
1 57492U 23111C   24038.97476271  .00008104  00000-0  39878-2 0  9995
2 57492  81.2825 132.9448 0014545  72.7798 287.4968 14.17448388280568
METEOR 2-1 DEB
1 57492U 23111C   24050.90340236  .00005635  00000-0  27617-2 0  9997
2 57492  81.2864 121.2613 0013589  33.1199 327.0824 14.17648785282252
METEOR 2-1 DEB
1 57492U 23111C   24050.90340236  .00005635  00000-0  27617-2 0  9997
2 57492  81.2864 121.2613 0013589  33.1199 327.0824 14.17648785282252
METEOR 2-1 DEB
1 57492U 23111C   24114.54640885  .00016062  00000-0  77149-2 0  9992
2 57492  81.2788  58.7016 0012534 199.1371 160.9335 14.18727712291263
METEOR 2-1 DEB
1 57492U 23111C   24114.54640885  .00016062  00000-0  77149-2 0  9992
2 57492  81.2788  58.7016 0012534 199.1371 160.9335 14.18727712291274
METEOR 2-1 DEB
1 57492U 23111C   24130.06016533  .00008405  00000-0  40151-2 0  9999
2 57492  81.2784  43.4390 0014944 154.5404 205.6511 14.19016738293461
METEOR 2-1 DEB
1 57492U 23111C   24130.06016533  .00008405  00000-0  40151-2 0  9999
2 57492  81.2784  43.4390 0014944 154.5404 205.6511 14.19016738293472
METEOR 2-1 DEB
1 57492U 75064F   24130.06016533  .00008405  00000-0  40151-2 0  9993
2 57492  81.2784  43.4390 0014944 154.5404 205.6511 14.19016738293461
METEOR 2-1 DEB
1 57492U 75064F   24130.06016533  .00008405  00000-0  40151-2 0  9993
2 57492  81.2784  43.4390 0014944 154.5404 205.6511 14.19016738293461
METEOR 2-1 DEB
1 57492U 75064F   24335.96826640  .00006101  00000-0  27258-2 0  9991
2 57492  81.2756 200.2186 0020376 306.2015  53.7278 14.22464269322719
METEOR 2-1 DEB
1 57492U 75064F   25104.63876932  .00005492  00000-0  23736-2 0  9998
2 57492  81.2742  66.6589 0010956 279.1216  80.8723 14.24258991341878
METEOR 2-1 DEB
1 57492U 75064F   25104.63876932  .00005492  00000-0  23736-2 0  9998
2 57492  81.2742  66.6589 0010956 279.1216  80.8723 14.24258991341878
METEOR 2-1 DEB
1 57492U 75064F   25362.19021615  .00008046  00000-0  32657-2 0  9995
2 57492  81.2719 170.2446 0012100 237.9248 122.0758 14.27519718378570
METEOR 2-1 DEB
1 57492U 75064F   25362.19021615  .00008046  00000-0  32657-2 0  9995
2 57492  81.2719 170.2446 0012100 237.9248 122.0758 14.27519718378570
METEOR 2-1 DEB
1 57492U 75064F   26054.85949741  .00004635  00000-0  18528-2 0  9997
2 57492  81.2540 112.6728 0007131  87.4833 272.7164 14.28281255386803
METEOR 2-1 DEB
1 57492U 75064F   26058.85251252  .00005644  00000-0  22548-2 0  9992
2 57492  81.2625 108.6612 0008730  66.3430 293.8666 14.28327897387376
METEOR 2-1 DEB
1 57492U 75064F   26058.85251253  .00005644  00000-0  22548-2 0  9993
2 57492  81.2625 108.6612 0008730  66.3430 293.8666 14.28327897387376
METEOR 2-1 DEB
1 57492U 75064F   26064.80675362  .00006986  00000-0  27882-2 0  9992
2 57492  81.2671 102.6998 0007298  50.0105 310.1716 14.28402345388221
METEOR 2-1 DEB
1 57492U 75064F   26064.80675363  .00006986  00000-0  27882-2 0  9993
2 57492  81.2671 102.6998 0007298  50.0105 310.1716 14.28402345388221
METEOR 2-1 DEB
1 57492U 75064F   26069.78005251  .00005901  00000-0  23523-2 0  9992
2 57492  81.2784  97.7263 0005160  26.0456 334.0984 14.28462970388933
METEOR 2-1 DEB
1 57492U 75064F   26069.78005252  .00005901  00000-0  23523-2 0  9993
2 57492  81.2784  97.7263 0005160  26.0456 334.0984 14.28462970388933
METEOR 2-1 DEB
1 57492U 75064F   26081.26698962  .00006399  00000-0  25450-2 0  9999
2 57492  81.2749  86.2353 0006693 357.3193   2.7951 14.28576189390571
METEOR 2-1 DEB
1 57492U 75064F   26084.41871874  .00004836  00000-0  19210-2 0  9995
2 57492  81.2720  83.0815 0006419 351.0625   9.0440 14.28613992391023
METEOR 2-1 DEB
1 57492U 75064F   26097.16472879  .00006739  00000-0  26683-2 0  9999
2 57492  81.2744  70.3316 0005368 313.9654  46.1084 14.28811573392847
METEOR 2-1 DEB
1 57492U 75064F   26097.16472879  .00006739  00000-0  26683-2 0  9999
2 57492  81.2744  70.3316 0005368 313.9654  46.1084 14.28811573392847
METEOR 2-1 DEB
1 57492U 75064F   26100.17589507  .00005833  00000-0  23077-2 0  9990
2 57492  81.2737  67.3172 0005313 299.8295  60.2358 14.28846084393272
METEOR 2-1 DEB
1 57492U 75064F   26100.17589507  .00005833  00000-0  23077-2 0  9990
2 57492  81.2737  67.3172 0005313 299.8295  60.2358 14.28846084393272
METEOR 2-1 DEB
1 57492U 75064F   26108.57885095  .00005335  00000-0  21074-2 0  9995
2 57492  81.2764  58.9116 0004912 270.1911  89.8707 14.28913149394472
METEOR 2-1 DEB
1 57492U 75064F   26108.57885096  .00005335  00000-0  21074-2 0  9996
2 57492  81.2764  58.9116 0004912 270.1911  89.8707 14.28913149394472
METEOR 2-1 DEB
1 57492U 75064F   26111.09966139  .00005070  00000-0  20017-2 0  9997
2 57492  81.2754  56.3880 0004222 259.2669 100.8037 14.28937792394833
METEOR 2-1 DEB
1 57492U 75064F   26111.09966139  .00005070  00000-0  20017-2 0  9997
2 57492  81.2754  56.3880 0004222 259.2669 100.8037 14.28937792394833
METEOR 2-1 DEB
1 57492U 75064F   26114.53068972  .00004737  00000-0  18687-2 0  9996
2 57492  81.2748  52.9546 0003865 243.2868 116.7918 14.28971715395325
METEOR 2-1 DEB
1 57492U 75064F   26114.53068973  .00004737  00000-0  18687-2 0  9997
2 57492  81.2748  52.9546 0003865 243.2868 116.7918 14.28971715395325
METEOR 2-1 DEB
1 57492U 75064F   26118.52176448  .00006279  00000-0  24758-2 0  9996
2 57492  81.2755  48.9607 0003770 221.8670 138.2224 14.29024940395895
METEOR 2-1 DEB
1 57492U 75064F   26118.52176449  .00006279  00000-0  24758-2 0  9997
2 57492  81.2755  48.9607 0003770 221.8670 138.2224 14.29024940395895
METEOR 2-1 DEB
1 57492U 75064F   26133.43459072  .00003312  00000-0  12999-2 0  9999
2 57492  81.2758  34.0347 0005521 143.4483 216.7076 14.29179941398029
METEOR 2-1 DEB
1 57492U 75064F   26133.43459072  .00003312  00000-0  12999-2 0  9999
2 57492  81.2758  34.0347 0005521 143.4483 216.7076 14.29179941398029
METEOR 2-1 DEB
1 57492U 75064F   26134.69476050  .00003719  00000-0  14597-2 0  9990
2 57492  81.2776  32.7805 0005313 147.6314 212.5195 14.29193268398205
METEOR 2-1 DEB
1 57492U 75064F   26135.95492175  .00004253  00000-0  16695-2 0  9991
2 57492  81.2800  31.5156 0005789 146.3855 213.7695 14.29204825398381
METEOR 2-1 DEB
1 57492U 75064F   26139.66534274  .00003982  00000-0  15618-2 0  9992
2 57492  81.2715  27.7984 0007117 129.6802 230.5008 14.29237102398913
METEOR 2-1 DEB
1 57492U 75064F   26139.66534275  .00003982  00000-0  15618-2 0  9993
2 57492  81.2715  27.7984 0007117 129.6802 230.5008 14.29237102398913
METEOR 2-1 DEB
1 57492U 75064F   26142.39560171  .00004282  00000-0  16788-2 0  9994
2 57492  81.2757  25.0673 0007909 122.2111 237.9838 14.29260873399303
METEOR 2-1 DEB
1 57492U 75064F   26142.39560172  .00004282  00000-0  16788-2 0  9995
2 57492  81.2757  25.0673 0007909 122.2111 237.9838 14.29260873399303
METEOR 2-1 DEB
1 57492U 75064F   26147.36595288  .00006671  00000-0  26149-2 0  9999
2 57492  81.2776  20.0937 0008923 110.2601 249.9540 14.29312775400013
METEOR 2-1 DEB
1 57492U 75064F   26147.36595289  .00006671  00000-0  26149-2 0  9990
2 57492  81.2776  20.0937 0008923 110.2601 249.9540 14.29312775400013
METEOR 2-1 DEB
1 57492U 75064F   26159.82607220  .00004941  00000-0  19310-2 0  9993
2 57492  81.2796   7.6224 0011204  86.9874 273.2590 14.29430842401799
METEOR 2-1 DEB
1 57492U 75064F   26159.82607220  .00004941  00000-0  19310-2 0  9993
2 57492  81.2796   7.6224 0011204  86.9874 273.2590 14.29430842401799
METEOR 2-1 DEB
1 57492U 75064F   26165.77584288  .00003588  00000-0  14005-2 0  9994
2 57492  81.2788   1.6625 0009643  76.6019 283.6236 14.29459636402649
METEOR 2-1 DEB
1 57492U 75064F   26165.77584289  .00003588  00000-0  14005-2 0  9995
2 57492  81.2788   1.6625 0009643  76.6019 283.6236 14.29459636402649
METEOR 2-1 DEB
1 57492U 75064F   26173.75535659  .00002717  00000-0  10589-2 0  9995
2 57492  81.2767 353.6757 0009362  54.8714 305.3344 14.29489545403780
METEOR 2-1 DEB
1 57492U 75064F   26174.73528187  .00001996  00000-0  77323-3 0  9990
2 57492  81.2563 352.6865 0029866  86.8901 273.5698 14.29487340403922
METEOR 2-1 DEB
1 57492U 75064F   26177.74505175  .00002348  00000-0  91384-3 0  9991
2 57492  81.2786 349.6833 0009862  48.8349 311.3682 14.29501423404359
METEOR 2-1 DEB
1 57492U 75064F   26177.74505175  .00002348  00000-0  91384-3 0  9991
2 57492  81.2786 349.6833 0009862  48.8349 311.3682 14.29501423404359
METEOR 2-1 DEB
1 57492U 75064F   26179.21492618  .00002156  00000-0  83887-3 0  9998
2 57492  81.2782 348.2119 0009903  46.6981 313.5025 14.29507361404566
METEOR 2-1 DEB
1 57492U 75064F   26179.21492619  .00002156  00000-0  83887-3 0  9999
2 57492  81.2782 348.2119 0009903  46.6981 313.5025 14.29507361404566
METEOR 2-1 DEB
1 57492U 75064F   26181.17475279  .00002072  00000-0  80568-3 0  9990
2 57492  81.2773 346.2488 0009809  42.6333 317.5608 14.29514026404843
METEOR 2-1 DEB
1 57492U 75064F   26181.17475279  .00002072  00000-0  80568-3 0  9990
2 57492  81.2773 346.2488 0009809  42.6333 317.5608 14.29514026404843
METEOR 2-1 DEB
1 57492U 75064F   26182.15466097  .00002260  00000-0  87916-3 0  9990
2 57492  81.2776 345.2675 0009668  40.0724 320.1169 14.29519101404988
METEOR 2-1 DEB
1 57492U 75064F   26182.15466098  .00002260  00000-0  87916-3 0  9991
2 57492  81.2776 345.2675 0009668  40.0724 320.1169 14.29519101404988
METEOR 2-1 DEB
1 57492U 75064F   26182.71460888  .00002125  00000-0  82633-3 0  9995
2 57492  81.2779 344.7066 0009718  38.8311 321.3568 14.29520257405062
METEOR 2-1 DEB
1 57492U 75064F   26183.69451451  .00002268  00000-0  88245-3 0  9992
2 57492  81.2776 343.7254 0009554  36.0022 324.1801 14.29524505405201
METEOR 2-1 DEB
1 57492U 75064F   26183.69451452  .00002268  00000-0  88245-3 0  9993
2 57492  81.2776 343.7254 0009554  36.0022 324.1801 14.29524505405201
METEOR 2-1 DEB
1 57492U 75064F   26200.07265921  .00000898  00000-0  34629-3 0  9993
2 57492  81.2784 327.3282 0007606 341.1966  18.8933 14.29559858407543
METEOR 2-1 DEB
1 57492U 75064F   26202.59234948  .00001082  00000-0  41801-3 0  9993
2 57492  81.2773 324.8020 0007771 335.8524  24.2293 14.29562890407906
METEOR 2-1 DEB
1 57492U 75064F   26203.57222541  .00001154  00000-0  44618-3 0  9997
2 57492  81.2776 323.8215 0007753 332.6365  27.4408 14.29565150408043
METEOR 2-1 DEB
1 57492U 75064F   26204.62209065  .00001307  00000-0  50620-3 0  9990
2 57492  81.2776 322.7707 0007711 329.2818  30.7912 14.29568174408198
METEOR 2-1 DEB
1 57492U 75064F   26204.62209065  .00001307  00000-0  50620-3 0  9990
2 57492  81.2776 322.7707 0007711 329.2818  30.7912 14.29568174408198
METEOR 2-1 DEB
1 57492U 75064F   26208.05163495  .00001478  00000-0  57276-3 0  9990
2 57492  81.2781 319.3368 0007406 318.8823  41.1800 14.29578034408682
METEOR 2-1 DEB
1 57492U 75064F   26214.98064925  .00001177  00000-0  45483-3 0  9990
2 57492  81.2770 312.3975 0007214 295.8907  64.1531 14.29594673409674
METEOR 2-1 DEB
1 57492U 75064F   26226.45887472  .00000663  00000-0  25397-3 0  9996
2 57492  81.2760 300.9031 0007744 254.8570 105.1755 14.29612074411312
METEOR 2-1 DEB
1 57492U 75064F   26226.45887473  .00000663  00000-0  25397-3 0  9997
2 57492  81.2760 300.9031 0007744 254.8570 105.1755 14.29612074411312
METEOR 2-1 DEB
1 57492U 75064F   26234.85748935  .00000974  00000-0  37546-3 0  9993
2 57492  81.2750 292.4919 0008137 228.6446 131.4036 14.29628025412519
