METEOR 1-17 DEB
1 57545U 74025L   23221.35651432  .00002519  00000-0  14409-2 0  9990
2 57545  81.2153 233.8268 0019095  53.3785 306.9138 14.09196760  6262
METEOR 1-17 DEB
1 57545U 74025L   23226.32659174  .00002739  00000-0  15666-2 0  9993
2 57545  81.2162 228.9816 0018973  40.3709 319.8865 14.09224575  6965
METEOR 1-17 DEB
1 57545U 74025L   23227.74659467  .00002946  00000-0  16850-2 0  9991
2 57545  81.2133 227.5933 0018486  37.9919 322.2551 14.09233137  7169
METEOR 1-17 DEB
1 57545U 74025L   23229.30858897  .00003245  00000-0  18562-2 0  9998
2 57545  81.2158 226.0727 0018777  33.7898 326.4465 14.09243467  7385
METEOR 1-17 DEB
1 57545U 74025L   23231.29656364  .00003450  00000-0  19732-2 0  9992
2 57545  81.2175 224.1355 0018846  29.4340 330.7888 14.09257777  7668
METEOR 1-17 DEB
1 57545U 74025L   23233.28451877  .00003415  00000-0  19530-2 0  9992
2 57545  81.2178 222.1974 0018744  24.2166 335.9881 14.09271303  7944
METEOR 1-17 DEB
1 57545U 74025L   23235.27245509  .00003447  00000-0  19710-2 0  9991
2 57545  81.2191 220.2605 0018745  19.1486 341.0384 14.09284819  8222
METEOR 1-17 DEB
1 57545U 74025L   23236.26641556  .00003367  00000-0  19249-2 0  9991
2 57545  81.2170 219.2888 0018516  17.1951 342.9842 14.09291278  8362
METEOR 1-17 DEB
1 57545U 74025L   23237.26037157  .00003466  00000-0  19811-2 0  9993
2 57545  81.2172 218.3199 0018488  14.8261 345.3447 14.09298397  8508
METEOR 1-17 DEB
1 57545U 74025L   23237.26037157  .00003466  00000-0  19811-2 0  9993
2 57545  81.2172 218.3199 0018488  14.8261 345.3447 14.09298397  8508
METEOR 1-17 DEB
1 57545U 74025L   23241.66211683  .00003492  00000-0  19952-2 0  9995
2 57545  81.2159 214.0265 0018121   4.9928 355.1419 14.09329870  9122
METEOR 1-17 DEB
1 57545U 74025L   23242.65604530  .00003396  00000-0  19399-2 0  9990
2 57545  81.2165 213.0580 0018120   2.5505 357.5754 14.09337192  9261
METEOR 1-17 DEB
1 57545U 74025L   23243.22400188  .00003559  00000-0  20329-2 0  9993
2 57545  81.2166 212.5043 0018083   1.2016 358.9195 14.09341805  9340
METEOR 1-17 DEB
1 57545U 74025L   23243.22400188  .00003559  00000-0  20329-2 0  9993
2 57545  81.2166 212.5043 0018083   1.2016 358.9195 14.09341805  9340
METEOR 1-17 DEB
1 57545U 74025L   23244.21792216  .00003851  00000-0  22004-2 0  9996
2 57545  81.2170 211.5354 0018037 358.9231   1.1897 14.09349785  9485
METEOR 1-17 DEB
1 57545U 74025L   23244.64388623  .00004114  00000-0  23509-2 0  9990
2 57545  81.2170 211.1200 0017994 357.9651   2.1443 14.09353660  9549
METEOR 1-17 DEB
1 57545U 74025L   23244.64388623  .00004114  00000-0  23509-2 0  9990
2 57545  81.2170 211.1200 0017994 357.9651   2.1443 14.09353660  9549
METEOR 1-17 DEB
1 57545U 74025L   23248.19354159  .00003763  00000-0  21483-2 0  9999
2 57545  81.2187 207.6609 0017832 349.4393  10.6400 14.09383742 10048
METEOR 1-17 DEB
1 57545U 74025L   23248.19354159  .00003763  00000-0  21483-2 0  9999
2 57545  81.2187 207.6609 0017832 349.4393  10.6400 14.09383742 10048
METEOR 1-17 DEB
1 57545U 74025L   23250.60726438  .00004515  00000-0  25782-2 0  9993
2 57545  81.2163 205.3049 0017477 343.7696  16.2912 14.09405322 10389
METEOR 1-17 DEB
1 57545U 74025L   23250.60726438  .00004515  00000-0  25782-2 0  9993
2 57545  81.2163 205.3049 0017477 343.7696  16.2912 14.09405322 10389
METEOR 1-17 DEB
1 57545U 74025L   23252.16906714  .00004445  00000-0  25378-2 0  9996
2 57545  81.2156 203.7816 0017294 340.2033  19.8464 14.09418237 10604
METEOR 1-17 DEB
1 57545U 74025L   23252.16906714  .00004445  00000-0  25378-2 0  9996
2 57545  81.2156 203.7816 0017294 340.2033  19.8464 14.09418237 10604
METEOR 1-17 DEB
1 57545U 74025L   23256.14448859  .00007291  00000-0  41620-2 0  9999
2 57545  81.2152 199.9033 0016720 330.8821  29.1416 14.09463886 11163
METEOR 1-17 DEB
1 57545U 74025L   23256.14448859  .00007291  00000-0  41620-2 0  9999
2 57545  81.2152 199.9033 0016720 330.8821  29.1416 14.09463886 11163
METEOR 1-17 DEB
1 57545U 74025L   23257.13832306  .00006404  00000-0  36545-2 0  9998
2 57545  81.2154 198.9337 0016560 328.5903  31.4277 14.09474619 11301
METEOR 1-17 DEB
1 57545U 74025L   23258.13214914  .00005997  00000-0  34217-2 0  9998
2 57545  81.2163 197.9646 0016575 326.3835  33.6282 14.09486465 11446
METEOR 1-17 DEB
1 57545U 74025L   23258.55807224  .00004896  00000-0  27922-2 0  9998
2 57545  81.2170 197.5509 0016525 325.2733  34.7357 14.09489382 11501
METEOR 1-17 DEB
1 57545U 74025L   23259.12596770  .00005261  00000-0  30005-2 0  9996
2 57545  81.2168 196.9970 0016407 323.8611  36.1450 14.09496007 11581
METEOR 1-17 DEB
1 57545U 74025L   23259.12596770  .00005261  00000-0  30005-2 0  9996
2 57545  81.2168 196.9970 0016407 323.8611  36.1450 14.09496007 11581
METEOR 1-17 DEB
1 57545U 74025L   23263.10116263  .00007221  00000-0  41161-2 0  9997
2 57545  81.2179 193.1209 0015929 314.4012  45.5853 14.09547747 12148
METEOR 1-17 DEB
1 57545U 74025L   23263.10116263  .00007221  00000-0  41161-2 0  9997
2 57545  81.2179 193.1209 0015929 314.4012  45.5853 14.09547747 12148
METEOR 1-17 DEB
1 57545U 74025L   23265.08870333  .00005804  00000-0  33065-2 0  9990
2 57545  81.2169 191.1821 0015455 309.3346  50.6454 14.09571480 12428
METEOR 1-17 DEB
1 57545U 74025L   23265.08870333  .00005804  00000-0  33065-2 0  9990
2 57545  81.2169 191.1821 0015455 309.3346  50.6454 14.09571480 12428
METEOR 1-17 DEB
1 57545U 74025L   23268.06994698  .00007771  00000-0  44254-2 0  9999
2 57545  81.2172 188.2744 0014779 302.3032  57.6707 14.09613485 12842
METEOR 1-17 DEB
1 57545U 74025L   23268.06994698  .00007771  00000-0  44254-2 0  9999
2 57545  81.2172 188.2744 0014779 302.3032  57.6707 14.09613485 12842
METEOR 1-17 DEB
1 57545U 74025L   23276.44533525  .00006417  00000-0  36470-2 0  9995
2 57545  81.2150 180.1006 0012341 279.8247  80.1530 14.09731982 14029
METEOR 1-17 DEB
1 57545U 74025L   23276.44533525  .00006417  00000-0  36470-2 0  9995
2 57545  81.2150 180.1006 0012341 279.8247  80.1530 14.09731982 14029
METEOR 1-17 DEB
1 57545U 74025L   23280.41984522  .00007538  00000-0  42801-2 0  9994
2 57545  81.2155 176.2223 0010993 267.4411  92.5501 14.09795910 14585
METEOR 1-17 DEB
1 57545U 74025L   23280.41984522  .00007538  00000-0  42801-2 0  9994
2 57545  81.2155 176.2223 0010993 267.4411  92.5501 14.09795910 14585
METEOR 1-17 DEB
1 57545U 74025L   23280.41984528  .00007292  00000-0  41404-2 0  9995
2 57545  81.2155 176.2223 0010990 267.4335  92.5578 14.09795473 14585
METEOR 1-17 DEB
1 57545U 74025L   23280.41984528  .00007292  00000-0  41404-2 0  9995
2 57545  81.2155 176.2223 0010990 267.4335  92.5578 14.09795473 14585
METEOR 1-17 DEB
1 57545U 74025L   23286.38128083  .00006637  00000-0  37624-2 0  9994
2 57545  81.2168 170.4055 0010091 245.0500 114.9623 14.09885384 15421
METEOR 1-17 DEB
1 57545U 74025L   23286.38128083  .00006637  00000-0  37624-2 0  9994
2 57545  81.2168 170.4055 0010091 245.0500 114.9623 14.09885384 15421
METEOR 1-17 DEB
1 57545U 74025L   23286.94901769  .00008935  00000-0  50646-2 0  9998
2 57545  81.2168 169.8497 0009631 244.0843 115.9336 14.09897841 15502
METEOR 1-17 DEB
1 57545U 74025L   23286.94901769  .00008935  00000-0  50646-2 0  9998
2 57545  81.2168 169.8497 0009631 244.0843 115.9336 14.09897841 15502
METEOR 1-17 DEB
1 57545U 74025L   23287.94254571  .00007267  00000-0  41180-2 0  9991
2 57545  81.2140 168.8802 0009367 239.8313 120.1930 14.09913123 15646
METEOR 1-17 DEB
1 57545U 74025L   23288.36834026  .00006893  00000-0  39054-2 0  9998
2 57545  81.2161 168.4647 0009155 237.5444 122.4842 14.09919565 15707
METEOR 1-17 DEB
1 57545U 74025L   23288.36834026  .00006893  00000-0  39054-2 0  9998
2 57545  81.2161 168.4647 0009155 237.5444 122.4842 14.09919565 15707
METEOR 1-17 DEB
1 57545U 74025L   23288.36834044  .00006141  00000-0  34792-2 0  9998
2 57545  81.2166 168.4648 0009146 237.3999 122.6289 14.09918343 15706
METEOR 1-17 DEB
1 57545U 74025L   23290.92308001  .00005709  00000-0  32323-2 0  9999
2 57545  81.2159 165.9710 0008672 226.6880 133.3568 14.09946445 16066
METEOR 1-17 DEB
1 57545U 74025L   23290.92308001  .00005709  00000-0  32323-2 0  9999
2 57545  81.2159 165.9710 0008672 226.6880 133.3568 14.09946445 16066
METEOR 1-17 DEB
1 57545U 74025L   23291.91657638  .00006652  00000-0  37661-2 0  9990
2 57545  81.2158 165.0011 0008501 222.2340 137.8176 14.09958692 16201
METEOR 1-17 DEB
1 57545U 74025L   23292.91006351  .00007373  00000-0  41735-2 0  9999
2 57545  81.2144 164.0307 0008339 217.5430 142.5159 14.09972388 16346
METEOR 1-17 DEB
1 57545U 74025L   23292.91006351  .00007373  00000-0  41735-2 0  9999
2 57545  81.2144 164.0307 0008339 217.5430 142.5159 14.09972388 16346
METEOR 1-17 DEB
1 57545U 74025L   23294.89701099  .00005541  00000-0  31344-2 0  9999
2 57545  81.2153 162.0910 0008145 208.5998 151.4727 14.09994984 16625
METEOR 1-17 DEB
1 57545U 74025L   23294.89701099  .00005541  00000-0  31344-2 0  9999
2 57545  81.2153 162.0910 0008145 208.5998 151.4727 14.09994984 16625
METEOR 1-17 DEB
1 57545U 74025L   23295.89047176  .00005796  00000-0  32784-2 0  9990
2 57545  81.2141 161.1196 0008172 204.8739 155.2039 14.10007674 16766
METEOR 1-17 DEB
1 57545U 74025L   23298.87081438  .00004604  00000-0  26017-2 0  9999
2 57545  81.2129 158.2076 0008216 193.6862 166.4087 14.10034476 17181
METEOR 1-17 DEB
1 57545U 74025L   23298.87081438  .00004604  00000-0  26017-2 0  9999
2 57545  81.2129 158.2076 0008216 193.6862 166.4087 14.10034476 17181
METEOR 1-17 DEB
1 57545U 74025L   23299.86424873  .00005416  00000-0  30606-2 0  9994
2 57545  81.2108 157.2365 0008271 188.8787 171.2239 14.10045079 17321
METEOR 1-17 DEB
1 57545U 74025L   23300.85767518  .00005823  00000-0  32901-2 0  9994
2 57545  81.2182 156.2701 0008106 183.1209 176.9912 14.10057469 17461
METEOR 1-17 DEB
1 57545U 74025L   23301.85109340  .00006218  00000-0  35133-2 0  9997
2 57545  81.2182 155.3004 0008160 177.4645 182.6569 14.10069589 17601
METEOR 1-17 DEB
1 57545U 74025L   23302.84450282  .00006555  00000-0  37028-2 0  9990
2 57545  81.2168 154.3300 0008265 172.3751 187.7547 14.10082015 17747
METEOR 1-17 DEB
1 57545U 74025L   23302.84450282  .00006555  00000-0  37028-2 0  9990
2 57545  81.2168 154.3300 0008265 172.3751 187.7547 14.10082015 17747
METEOR 1-17 DEB
1 57545U 74025L   23303.83790402  .00006177  00000-0  34882-2 0  9996
2 57545  81.2165 153.3599 0008311 169.0378 191.0975 14.10093342 17886
METEOR 1-17 DEB
1 57545U 74025L   23304.83129835  .00005281  00000-0  29810-2 0  9993
2 57545  81.2176 152.3905 0008452 164.2685 195.8750 14.10102207 18023
METEOR 1-17 DEB
1 57545U 74025L   23305.82468630  .00004670  00000-0  26349-2 0  9997
2 57545  81.2163 151.4197 0008680 159.7707 200.3810 14.10110026 18161
METEOR 1-17 DEB
1 57545U 74025L   23305.82468630  .00004670  00000-0  26349-2 0  9997
2 57545  81.2163 151.4197 0008680 159.7707 200.3810 14.10110026 18161
METEOR 1-17 DEB
1 57545U 74025L   23308.80481120  .00005051  00000-0  28493-2 0  9993
2 57545  81.2188 148.5115 0008829 148.9571 211.2123 14.10138490 18588
METEOR 1-17 DEB
1 57545U 74025L   23308.80481120  .00005051  00000-0  28493-2 0  9993
2 57545  81.2188 148.5115 0008829 148.9571 211.2123 14.10138490 18588
METEOR 1-17 DEB
1 57545U 74025L   23309.79816924  .00006107  00000-0  34448-2 0  9996
2 57545  81.2188 147.5415 0009377 142.0487 218.1346 14.10152670 18725
METEOR 1-17 DEB
1 57545U 74025L   23309.79816924  .00006107  00000-0  34448-2 0  9996
2 57545  81.2188 147.5415 0009377 142.0487 218.1346 14.10152670 18725
METEOR 1-17 DEB
1 57545U 74025L   23310.79151127  .00009749  00000-0  54977-2 0  9999
2 57545  81.2164 146.5696 0009248 141.7061 218.4768 14.10178369 18869
METEOR 1-17 DEB
1 57545U 74025L   23310.79151127  .00009749  00000-0  54977-2 0  9999
2 57545  81.2164 146.5696 0009248 141.7061 218.4768 14.10178369 18869
METEOR 1-17 DEB
1 57545U 74025L   23311.78484166  .00006660  00000-0  37545-2 0  9992
2 57545  81.2124 145.5993 0008263 146.0621 214.1080 14.10191332 19002
METEOR 1-17 DEB
1 57545U 74025L   23311.78484166  .00006660  00000-0  37545-2 0  9992
2 57545  81.2124 145.5993 0008263 146.0621 214.1080 14.10191332 19002
METEOR 1-17 DEB
1 57545U 74025L   23313.77147826  .00005354  00000-0  30154-2 0  9990
2 57545  81.2200 143.6649 0010307 125.5199 234.6935 14.10214180 19281
METEOR 1-17 DEB
1 57545U 74025L   23313.77147826  .00005354  00000-0  30154-2 0  9990
2 57545  81.2200 143.6649 0010307 125.5199 234.6935 14.10214180 19281
METEOR 1-17 DEB
1 57545U 74025L   23314.26813310  .00005181  00000-0  29184-2 0  9992
2 57545  81.2147 143.1776 0008855 131.0804 229.1133 14.10219077 19354
METEOR 1-17 DEB
1 57545U 74025L   23314.26813310  .00005181  00000-0  29184-2 0  9992
2 57545  81.2147 143.1776 0008855 131.0804 229.1133 14.10219077 19354
METEOR 1-17 DEB
1 57545U 74025L   23317.24803598  .00004486  00000-0  25254-2 0  9991
2 57545  81.2186 140.2730 0007789 117.2076 242.9889 14.10240986 19777
METEOR 1-17 DEB
1 57545U 74025L   23317.24803598  .00004486  00000-0  25254-2 0  9991
2 57545  81.2186 140.2730 0007789 117.2076 242.9889 14.10240986 19777
METEOR 1-17 DEB
1 57545U 74025L   23318.24132518  .00003551  00000-0  19970-2 0  9999
2 57545  81.2149 139.2938 0009169 121.5047 238.7021 14.10246634 19917
METEOR 1-17 DEB
1 57545U 74025L   23319.23461069  .00003390  00000-0  19061-2 0  9997
2 57545  81.2161 138.3255 0008813 117.1892 243.0178 14.10253551 20052
METEOR 1-17 DEB
1 57545U 74025L   23319.23461069  .00003390  00000-0  19061-2 0  9997
2 57545  81.2161 138.3255 0008813 117.1892 243.0178 14.10253551 20052
METEOR 1-17 DEB
1 57545U 74025L   23322.21444235  .00002529  00000-0  14200-2 0  9998
2 57545  81.2137 135.4106 0009311 112.1980 248.0180 14.10268980 20471
METEOR 1-17 DEB
1 57545U 74025L   23322.21444235  .00002529  00000-0  14200-2 0  9998
2 57545  81.2137 135.4106 0009311 112.1980 248.0180 14.10268980 20471
METEOR 1-17 DEB
1 57545U 74025L   23324.20098011  .00002665  00000-0  14963-2 0  9993
2 57545  81.2144 133.4705 0009002 106.4903 253.7257 14.10278466 20759
METEOR 1-17 DEB
1 57545U 74025L   23324.20098011  .00002665  00000-0  14963-2 0  9993
2 57545  81.2144 133.4705 0009002 106.4903 253.7257 14.10278466 20759
METEOR 1-17 DEB
1 57545U 74025L   23326.18750188  .00004082  00000-0  22946-2 0  9997
2 57545  81.2136 131.5290 0008949 101.8312 258.3863 14.10293789 21031
METEOR 1-17 DEB
1 57545U 74025L   23326.18750188  .00004082  00000-0  22946-2 0  9997
2 57545  81.2136 131.5290 0008949 101.8312 258.3863 14.10293789 21031
METEOR 1-17 DEB
1 57545U 74025L   23327.18075348  .00004599  00000-0  25860-2 0  9997
2 57545  81.2136 130.5590 0008776  99.2280 260.9884 14.10302755 21176
METEOR 1-17 DEB
1 57545U 74025L   23329.16724307  .00005406  00000-0  30393-2 0  9998
2 57545  81.2219 128.6128 0009188  83.7593 276.4624 14.10322491 21450
METEOR 1-17 DEB
1 57545U 74025L   23330.16047337  .00005687  00000-0  31966-2 0  9999
2 57545  81.2190 127.6434 0009314  82.6495 277.5734 14.10333569 21594
METEOR 1-17 DEB
1 57545U 74025L   23331.15369595  .00004640  00000-0  26067-2 0  9996
2 57545  81.2208 126.6728 0009315  78.8326 281.3892 14.10342577 21733
METEOR 1-17 DEB
1 57545U 74025L   23331.15369595  .00004640  00000-0  26067-2 0  9996
2 57545  81.2208 126.6728 0009315  78.8326 281.3892 14.10342577 21733
METEOR 1-17 DEB
1 57545U 74025L   23336.11969357  .00011680  00000-0  65581-2 0  9995
2 57545  81.2192 121.8239 0009264  66.4396 293.7748 14.10413187 22433
METEOR 1-17 DEB
1 57545U 74025L   23336.11969357  .00011680  00000-0  65581-2 0  9995
2 57545  81.2192 121.8239 0009264  66.4396 293.7748 14.10413187 22433
METEOR 1-17 DEB
1 57545U 74025L   23340.80164847  .00002383  00000-0  13304-2 0  9993
2 57545  81.2681 117.1722 0025281 210.1199 149.8520 14.10430402 23098
METEOR 1-17 DEB
1 57545U 74025L   23340.80164847  .00002383  00000-0  13304-2 0  9993
2 57545  81.2681 117.1722 0025281 210.1199 149.8520 14.10430402 23098
METEOR 1-17 DEB
1 57545U 74025L   24140.74797428  .00012015  00000-0  64903-2 0  9996
2 57545  81.2143 315.7608 0012706 274.3013  85.6707 14.12481180 46343
METEOR 1-17 DEB
1 57545U 74025L   24147.68966191  .00006120  00000-0  32978-2 0  9998
2 57545  81.2123 308.9482 0012498 251.1667 108.8150 14.12605841  1692
METEOR 1-17 DEB
1 57545U 74025L   24147.68966191  .00006120  00000-0  32978-2 0  9998
2 57545  81.2123 308.9482 0012498 251.1667 108.8150 14.12605841 47322
METEOR 1-17 DEB
1 57545U 74025L   24155.12667774  .00006463  00000-0  34772-2 0  9995
2 57545  81.2122 301.6548 0013420 231.6908 128.3058 14.12688672  2745
METEOR 1-17 DEB
1 57545U 74025L   24155.69328918  .00007130  00000-0  38358-2 0  9997
2 57545  81.2129 301.0982 0013450 230.5448 129.4535 14.12697120  2827
METEOR 1-17 DEB
1 57545U 74025L   24155.69328918  .00007130  00000-0  38358-2 0  9997
2 57545  81.2129 301.0982 0013450 230.5448 129.4535 14.12697120 48456
METEOR 1-17 DEB
1 57545U 74025L   24160.08440505  .00010141  00000-0  54482-2 0  9995
2 57545  81.2132 296.7893 0013844 218.1824 141.8369 14.12772349  3448
METEOR 1-17 DEB
1 57545U 74025L   24160.08440505  .00010141  00000-0  54482-2 0  9995
2 57545  81.2132 296.7893 0013844 218.1824 141.8369 14.12772349 49077
METEOR 1-17 DEB
1 57545U 74025L   24162.63397641  .00008051  00000-0  43217-2 0  9991
2 57545  81.2135 294.2872 0014025 210.6966 149.3388 14.12813431  3809
METEOR 1-17 DEB
1 57545U 74025L   24162.63397641  .00008051  00000-0  43217-2 0  9991
2 57545  81.2135 294.2872 0014025 210.6966 149.3388 14.12813431 49438
METEOR 1-17 DEB
1 57545U 74025L   24165.60838506  .00005878  00000-0  31517-2 0  9995
2 57545  81.2129 291.3685 0014217 201.8093 158.2476 14.12855012  4223
METEOR 1-17 DEB
1 57545U 74025L   24166.59983668  .00006169  00000-0  33074-2 0  9998
2 57545  81.2128 290.3944 0014461 199.9333 160.1276 14.12867698  4362
METEOR 1-17 DEB
1 57545U 74025L   24167.59127936  .00006929  00000-0  37140-2 0  9999
2 57545  81.2113 289.4200 0014685 198.0952 161.9699 14.12881453  4504
METEOR 1-17 DEB
1 57545U 74025L   24168.58271262  .00006755  00000-0  36199-2 0  9991
2 57545  81.2118 288.4471 0014770 195.3334 164.7393 14.12894500  4641
METEOR 1-17 DEB
1 57545U 74025L   24170.06984631  .00005943  00000-0  31830-2 0  9993
2 57545  81.2135 286.9895 0014583 189.7422 170.3470 14.12912155 50489
METEOR 1-17 DEB
1 57545U 74025L   24170.56555318  .00005650  00000-0  30257-2 0  9991
2 57545  81.2127 286.5015 0014816 188.1098 171.9837 14.12917378  4925
METEOR 1-17 DEB
1 57545U 74025L   24174.03544948  .00005382  00000-0  28799-2 0  9994
2 57545  81.2146 283.0975 0014717 179.6679 180.4505 14.12955671  5413
METEOR 1-17 DEB
1 57545U 74025L   24174.03544948  .00005382  00000-0  28799-2 0  9994
2 57545  81.2146 283.0975 0014717 179.6679 180.4505 14.12955671 51043
METEOR 1-17 DEB
1 57545U 74025L   24177.00957053  .00005472  00000-0  29262-2 0  9995
2 57545  81.2132 280.1777 0015392 174.1900 185.9454 14.12988137  5835
METEOR 1-17 DEB
1 57545U 74025L   24177.00957053  .00005472  00000-0  29262-2 0  9995
2 57545  81.2132 280.1777 0015392 174.1900 185.9454 14.12988137 51465
METEOR 1-17 DEB
1 57545U 74025L   24178.00092992  .00007048  00000-0  37691-2 0  9994
2 57545  81.2133 279.2060 0015033 171.0675 189.0768 14.13003092 51605
METEOR 1-17 DEB
1 57545U 74025L   24182.53270962  .00008255  00000-0  44086-2 0  9999
2 57545  81.2122 274.7566 0015158 159.9681 200.2090 14.13080169  6619
METEOR 1-17 DEB
1 57545U 74025L   24182.53270962  .00008255  00000-0  44086-2 0  9999
2 57545  81.2122 274.7566 0015158 159.9681 200.2090 14.13080169 52249
METEOR 1-17 DEB
1 57545U 74025L   24185.50656006  .00006185  00000-0  32995-2 0  9992
2 57545  81.2121 271.8355 0015296 153.1879 207.0087 14.13120731  7038
METEOR 1-17 DEB
1 57545U 74025L   24185.50656006  .00006185  00000-0  32995-2 0  9992
2 57545  81.2121 271.8355 0015296 153.1879 207.0087 14.13120731 52667
METEOR 1-17 DEB
1 57545U 74025L   24186.49782469  .00005921  00000-0  31581-2 0  9991
2 57545  81.2146 270.8632 0015292 150.8967 209.3061 14.13133868  7177
METEOR 1-17 DEB
1 57545U 74025L   24187.48907981  .00006598  00000-0  35184-2 0  9993
2 57545  81.2176 269.8926 0015301 148.0284 212.1820 14.13148580 52943
METEOR 1-17 DEB
1 57545U 74025L   24190.46279050  .00005464  00000-0  29111-2 0  9998
2 57545  81.2122 266.9688 0014696 144.9655 215.2487 14.13184985  7739
METEOR 1-17 DEB
1 57545U 74025L   24190.46279050  .00005464  00000-0  29111-2 0  9998
2 57545  81.2122 266.9688 0014696 144.9655 215.2487 14.13184985 53369
METEOR 1-17 DEB
1 57545U 74025L   24191.45401024  .00005220  00000-0  27804-2 0  9993
2 57545  81.2117 265.9952 0014672 142.7667 217.4525 14.13196770  7876
METEOR 1-17 DEB
1 57545U 74025L   24192.44522187  .00005216  00000-0  27778-2 0  9992
2 57545  81.2117 265.0218 0014551 141.1228 219.0994 14.13208366  8014
METEOR 1-17 DEB
1 57545U 74025L   24192.44522187  .00005216  00000-0  27778-2 0  9992
2 57545  81.2117 265.0218 0014551 141.1228 219.0994 14.13208366 53643
METEOR 1-17 DEB
1 57545U 74025L   24194.92321493  .00006210  00000-0  33056-2 0  9995
2 57545  81.2119 262.5908 0015531 130.0230 230.2308 14.13238766  8362
METEOR 1-17 DEB
1 57545U 74025L   24194.92321493  .00006210  00000-0  33056-2 0  9995
2 57545  81.2119 262.5908 0015531 130.0230 230.2308 14.13238766 53991
METEOR 1-17 DEB
1 57545U 74025L   24195.91439638  .00007493  00000-0  39883-2 0  9994
2 57545  81.2135 261.6191 0015078 127.4841 232.7705 14.13254179  8508
METEOR 1-17 DEB
1 57545U 74025L   24195.91439638  .00007493  00000-0  39883-2 0  9994
2 57545  81.2135 261.6191 0015078 127.4841 232.7705 14.13254179 54138
METEOR 1-17 DEB
1 57545U 74025L   24197.89673220  .00006595  00000-0  35087-2 0  9994
2 57545  81.2121 259.6715 0015041 122.2446 238.0187 14.13278979  8783
METEOR 1-17 DEB
1 57545U 74025L   24197.89673220  .00006595  00000-0  35087-2 0  9994
2 57545  81.2121 259.6715 0015041 122.2446 238.0187 14.13278979 54414
METEOR 1-17 DEB
1 57545U 74025L   24198.88788291  .00007849  00000-0  41748-2 0  9993
2 57545  81.2124 258.6977 0015008 120.1659 240.1002 14.13296885  8923
METEOR 1-17 DEB
1 57545U 74025L   24198.88788291  .00007849  00000-0  41748-2 0  9993
2 57545  81.2124 258.6977 0015008 120.1659 240.1002 14.13296885 54553
METEOR 1-17 DEB
1 57545U 74025L   24200.87014890  .00009422  00000-0  50083-2 0  9994
2 57545  81.2126 256.7512 0014773 115.6000 244.6701 14.13333478  9203
METEOR 1-17 DEB
1 57545U 74025L   24200.87014890  .00009422  00000-0  50083-2 0  9994
2 57545  81.2126 256.7512 0014773 115.6000 244.6701 14.13333478 54832
METEOR 1-17 DEB
1 57545U 74025L   24201.86126373  .00007622  00000-0  40506-2 0  9993
2 57545  81.2125 255.7792 0014627 113.2182 247.0532 14.13347392  9348
METEOR 1-17 DEB
1 57545U 74025L   24201.86126373  .00007622  00000-0  40506-2 0  9993
2 57545  81.2125 255.7792 0014627 113.2182 247.0532 14.13347392 54977
METEOR 1-17 DEB
1 57545U 74025L   24208.37404573  .00006170  00000-0  32724-2 0  9997
2 57545  81.2105 249.3806 0014487  96.9203 263.3618 14.13438159 10267
METEOR 1-17 DEB
1 57545U 74025L   24208.37404573  .00006170  00000-0  32724-2 0  9997
2 57545  81.2105 249.3806 0014487  96.9203 263.3618 14.13438159 55895
METEOR 1-17 DEB
1 57545U 74025L   24214.81568146  .00007326  00000-0  38816-2 0  9992
2 57545  81.2134 243.0537 0013164  81.8820 278.3845 14.13514595 11178
METEOR 1-17 DEB
1 57545U 74025L   24214.81568146  .00007326  00000-0  38816-2 0  9992
2 57545  81.2134 243.0537 0013164  81.8820 278.3845 14.13514595 56807
METEOR 1-17 DEB
1 57545U 74025L   24217.78863220  .00008412  00000-0  44537-2 0  9996
2 57545  81.2106 240.1323 0014067  72.0339 288.2365 14.13551817 11599
METEOR 1-17 DEB
1 57545U 74025L   24217.78863220  .00008412  00000-0  44537-2 0  9996
2 57545  81.2106 240.1323 0014067  72.0339 288.2365 14.13551817 57229
METEOR 1-17 DEB
1 57545U 74025L   24219.77054454  .00006344  00000-0  33561-2 0  9995
2 57545  81.2056 238.1816 0014484  67.0113 293.2586 14.13580159 11877
METEOR 1-17 DEB
1 57545U 74025L   24219.77054454  .00006344  00000-0  33561-2 0  9995
2 57545  81.2056 238.1816 0014484  67.0113 293.2586 14.13580159 57507
METEOR 1-17 DEB
1 57545U 74025L   24220.76148164  .00006665  00000-0  35260-2 0  9992
2 57545  81.2094 237.2120 0013362  63.8982 296.3564 14.13593620 12013
METEOR 1-17 DEB
1 57545U 74025L   24220.76148164  .00006665  00000-0  35260-2 0  9992
2 57545  81.2094 237.2120 0013362  63.8982 296.3564 14.13593620 57641
METEOR 1-17 DEB
1 57545U 74025L   24225.29131577  .00014755  00000-0  77888-2 0  9996
2 57545  81.2130 232.7593 0012982  52.1364 308.0981 14.13706466 12658
METEOR 1-17 DEB
1 57545U 74025L   24225.29131577  .00014755  00000-0  77888-2 0  9996
2 57545  81.2130 232.7593 0012982  52.1364 308.0981 14.13706466 58287
METEOR 1-17 DEB
1 57545U 74025L   24236.68459676  .00010356  00000-0  54340-2 0  9995
2 57545  81.2165 221.5583 0012794  25.1603 335.0190 14.14041772 14262
METEOR 1-17 DEB
1 57545U 74025L   24236.68459676  .00010356  00000-0  54340-2 0  9995
2 57545  81.2165 221.5583 0012794  25.1603 335.0190 14.14041772 59890
METEOR 1-17 DEB
1 57545U 74025L   24237.67521576  .00010541  00000-0  55295-2 0  9990
2 57545  81.2135 220.5764 0013052  23.2991 336.8770 14.14058433 14407
METEOR 1-17 DEB
1 57545U 74025L   24238.66582227  .00009718  00000-0  50958-2 0  9995
2 57545  81.2168 219.6025 0013239  21.2905 338.8816 14.14076009 14549
METEOR 1-17 DEB
1 57545U 74025L   24238.66582227  .00009718  00000-0  50958-2 0  9995
2 57545  81.2168 219.6025 0013239  21.2905 338.8816 14.14076009 60179
METEOR 1-17 DEB
1 57545U 74025L   24240.64699753  .00010130  00000-0  53091-2 0  9990
2 57545  81.2114 217.6625 0012576  16.7791 343.3795 14.14110051 14823
METEOR 1-17 DEB
1 57545U 74025L   24240.64699753  .00010130  00000-0  53091-2 0  9990
2 57545  81.2114 217.6625 0012576  16.7791 343.3795 14.14110051 60453
METEOR 1-17 DEB
1 57545U 74025L   24241.63755301  .00017246  00000-0  90305-2 0  9996
2 57545  81.2143 216.6926 0011034   5.1127 355.0157 14.14140318 60597
METEOR 1-17 DEB
1 57545U 74025L   24243.19412690  .00010974  00000-0  57450-2 0  9995
2 57545  81.2126 215.1580 0011740   5.5474 354.5827 14.14171274 15189
METEOR 1-17 DEB
1 57545U 74025L   24243.19412690  .00010974  00000-0  57450-2 0  9995
2 57545  81.2126 215.1580 0011740   5.5474 354.5827 14.14171274 60819
METEOR 1-17 DEB
1 57545U 74025L   24244.18464797  .00032483  00000-0  16952-1 0  9990
2 57545  81.2123 214.1840 0011564   4.1037 356.0228 14.14221851 15323
METEOR 1-17 DEB
1 57545U 74025L   24244.18464797  .00032483  00000-0  16952-1 0  9990
2 57545  81.2123 214.1840 0011564   4.1037 356.0228 14.14221851 60952
METEOR 1-17 DEB
1 57545U 74025L   24245.17515053  .00015557  00000-0  81333-2 0  9991
2 57545  81.2123 213.2100 0011484   1.5040 358.6166 14.14230667 15467
METEOR 1-17 DEB
1 57545U 74025L   24245.17515053  .00015557  00000-0  81333-2 0  9991
2 57545  81.2123 213.2100 0011484   1.5040 358.6166 14.14230667 61097
METEOR 1-17 DEB
1 57545U 74025L   24253.59354677  .00017720  00000-0  92155-2 0  9997
2 57545  81.2122 204.9303 0010523 340.3103  19.7662 14.14506128 16651
METEOR 1-17 DEB
1 57545U 74025L   24253.59354677  .00017720  00000-0  92155-2 0  9997
2 57545  81.2122 204.9303 0010523 340.3103  19.7662 14.14506128 62281
METEOR 1-17 DEB
1 57545U 74025L   24254.58384113  .00017421  00000-0  90551-2 0  9991
2 57545  81.2078 203.9475 0010418 347.3636  12.7275 14.14536870 16796
METEOR 1-17 DEB
1 57545U 74025L   24254.58384113  .00017421  00000-0  90551-2 0  9991
2 57545  81.2078 203.9475 0010418 347.3636  12.7275 14.14536870 62427
METEOR 1-17 DEB
1 57545U 74025L   24255.57410727  .00013992  00000-0  72718-2 0  9996
2 57545  81.2078 202.9728 0010209 343.6727  16.4116 14.14563224 16938
METEOR 1-17 DEB
1 57545U 74025L   24255.57410727  .00013992  00000-0  72718-2 0  9996
2 57545  81.2078 202.9728 0010209 343.6727  16.4116 14.14563224 62568
METEOR 1-17 DEB
1 57545U 74025L   24258.54475490  .00018616  00000-0  96509-2 0  9996
2 57545  81.2117 200.0592 0009623 322.2738  37.7760 14.14674757 17355
METEOR 1-17 DEB
1 57545U 74025L   24258.54475490  .00018616  00000-0  96509-2 0  9996
2 57545  81.2117 200.0592 0009623 322.2738  37.7760 14.14674757 62984
METEOR 1-17 DEB
1 57545U 74025L   24266.04147079  .00007496  00000-0  38794-2 0  9995
2 57545  81.2120 192.6818 0007585 305.3905  54.6559 14.14807453 18412
METEOR 1-17 DEB
1 57545U 74025L   24266.04147079  .00007496  00000-0  38794-2 0  9995
2 57545  81.2120 192.6818 0007585 305.3905  54.6559 14.14807453 64042
METEOR 1-17 DEB
1 57545U 74025L   24266.53651529  .00006684  00000-0  34583-2 0  9999
2 57545  81.2138 192.1941 0008675 296.6113  63.4171 14.14809837 18480
METEOR 1-17 DEB
1 57545U 74025L   24266.53651529  .00006684  00000-0  34583-2 0  9999
2 57545  81.2138 192.1941 0008675 296.6113  63.4171 14.14809837 64111
METEOR 1-17 DEB
1 57545U 74025L   24267.52659940  .00009634  00000-0  49843-2 0  9997
2 57545  81.2154 191.2199 0008756 294.3033  65.7225 14.14824083 18620
METEOR 1-17 DEB
1 57545U 74025L   24267.52659940  .00009634  00000-0  49843-2 0  9997
2 57545  81.2154 191.2199 0008756 294.3033  65.7225 14.14824083 64250
METEOR 1-17 DEB
1 57545U 74025L   24270.49678393  .00009502  00000-0  49116-2 0  9997
2 57545  81.2115 188.2963 0008390 284.1292  75.8948 14.14872618 19048
METEOR 1-17 DEB
1 57545U 74025L   24270.49678393  .00009502  00000-0  49116-2 0  9997
2 57545  81.2115 188.2963 0008390 284.1292  75.8948 14.14872618 64677
METEOR 1-17 DEB
1 57545U 74025L   24271.48681875  .00008329  00000-0  43039-2 0  9990
2 57545  81.2140 187.3194 0008517 278.5457  81.4751 14.14889104 19181
METEOR 1-17 DEB
1 57545U 74025L   24272.47684377  .00007917  00000-0  40897-2 0  9991
2 57545  81.2139 186.3451 0008424 275.7218  84.2994 14.14905310 19329
METEOR 1-17 DEB
1 57545U 74025L   24272.47684377  .00007917  00000-0  40897-2 0  9991
2 57545  81.2139 186.3451 0008424 275.7218  84.2994 14.14905310 64958
METEOR 1-17 DEB
1 57545U 74025L   24273.46685509  .00009873  00000-0  50981-2 0  9997
2 57545  81.2156 185.3721 0008613 272.7451  87.2737 14.14926191 19466
METEOR 1-17 DEB
1 57545U 74025L   24273.46685509  .00009873  00000-0  50981-2 0  9997
2 57545  81.2156 185.3721 0008613 272.7451  87.2737 14.14926191 65096
METEOR 1-17 DEB
1 57545U 74025L   24279.47731293  .00012635  00000-0  65062-2 0  9992
2 57545  81.2109 179.4572 0008041 247.0010 113.0316 14.15069286 20314
METEOR 1-17 DEB
1 57545U 74025L   24279.47731293  .00012635  00000-0  65062-2 0  9992
2 57545  81.2109 179.4572 0008041 247.0010 113.0316 14.15069286 65942
METEOR 1-17 DEB
1 57545U 74025L   24297.36416867  .00004959  00000-0  25386-2 0  9992
2 57545  81.2148 161.8466 0008661 194.8702 165.2218 14.15353113 22844
METEOR 1-17 DEB
1 57545U 74025L   24297.36416867  .00004959  00000-0  25386-2 0  9992
2 57545  81.2148 161.8466 0008661 194.8702 165.2218 14.15353113 68473
METEOR 1-17 DEB
1 57545U 74025L   24304.85739506  .00009982  00000-0  51010-2 0  9997
2 57545  81.2073 154.4432 0009672 149.5981 210.5755 14.15475871 23905
METEOR 1-17 DEB
1 57545U 74025L   24304.85739506  .00009982  00000-0  51010-2 0  9997
2 57545  81.2073 154.4432 0009672 149.5981 210.5755 14.15475871 69534
METEOR 1-17 DEB
1 57545U 74025L   24306.34181345  .00011165  00000-0  57021-2 0  9999
2 57545  81.2141 152.9997 0009329 153.7971 206.3677 14.15507288 24113
METEOR 1-17 DEB
1 57545U 74025L   24306.34181345  .00011165  00000-0  57021-2 0  9999
2 57545  81.2141 152.9997 0009329 153.7971 206.3677 14.15507288 69741
METEOR 1-17 DEB
1 57545U 74025L   24308.32096977  .00012335  00000-0  62931-2 0  9991
2 57545  81.2209 151.0510 0009637 145.7608 214.4189 14.15559495 24394
METEOR 1-17 DEB
1 57545U 74025L   24308.32096977  .00012335  00000-0  62931-2 0  9991
2 57545  81.2209 151.0510 0009637 145.7608 214.4189 14.15559495 70025
METEOR 1-17 DEB
1 57545U 74025L   24309.31050290  .00013612  00000-0  69394-2 0  9998
2 57545  81.2129 150.0744 0009127 156.0740 204.0859 14.15595707 24530
METEOR 1-17 DEB
1 57545U 74025L   24309.31050290  .00013612  00000-0  69394-2 0  9998
2 57545  81.2129 150.0744 0009127 156.0740 204.0859 14.15595707 70160
METEOR 1-17 DEB
1 57545U 74025L   24309.87595171  .00012269  00000-0  62535-2 0  9998
2 57545  81.2160 149.5182 0009195 149.7552 210.4154 14.15611710 24610
METEOR 1-17 DEB
1 57545U 74025L   24312.27903498  .00010568  00000-0  53807-2 0  9993
2 57545  81.2173 147.1506 0009350 141.8518 218.3319 14.15670655 24956
METEOR 1-17 DEB
1 57545U 74025L   24312.27903498  .00010568  00000-0  53807-2 0  9993
2 57545  81.2173 147.1506 0009350 141.8518 218.3319 14.15670655 70586
METEOR 1-17 DEB
1 57545U 74025L   24313.26850905  .00011763  00000-0  59860-2 0  9990
2 57545  81.2127 146.1726 0009355 140.1815 220.0047 14.15696031 25095
METEOR 1-17 DEB
1 57545U 74025L   24313.26850905  .00011763  00000-0  59860-2 0  9990
2 57545  81.2127 146.1726 0009355 140.1815 220.0047 14.15696031 70725
METEOR 1-17 DEB
1 57545U 74025L   24314.82335631  .00026563  00000-0  13482-1 0  9990
2 57545  81.2109 144.6392 0009174 136.5892 223.6006 14.15760225 25316
METEOR 1-17 DEB
1 57545U 74025L   24314.82335631  .00026563  00000-0  13482-1 0  9990
2 57545  81.2109 144.6392 0009174 136.5892 223.6006 14.15760225 70945
METEOR 1-17 DEB
1 57545U 74025L   24315.81278006  .00012430  00000-0  63165-2 0  9994
2 57545  81.2115 143.6642 0009186 132.7114 227.4835 14.15772133 25456
METEOR 1-17 DEB
1 57545U 74025L   24315.81278006  .00012430  00000-0  63165-2 0  9994
2 57545  81.2115 143.6642 0009186 132.7114 227.4835 14.15772133 71086
METEOR 1-17 DEB
1 57545U 74025L   24317.22621286  .00008264  00000-0  41975-2 0  9998
2 57545  81.2109 142.2706 0009279 128.5568 231.6439 14.15799508 25658
METEOR 1-17 DEB
1 57545U 74025L   24317.22621286  .00008264  00000-0  41975-2 0  9998
2 57545  81.2109 142.2706 0009279 128.5568 231.6439 14.15799508 71288
METEOR 1-17 DEB
1 57545U 74025L   24317.79157739  .00008808  00000-0  44729-2 0  9991
2 57545  81.2121 141.7150 0009202 129.5488 230.6500 14.15811412 25733
METEOR 1-17 DEB
1 57545U 74025L   24318.78096014  .00007850  00000-0  39854-2 0  9998
2 57545  81.2115 140.7391 0009277 126.6686 233.5342 14.15825248 25875
METEOR 1-17 DEB
1 57545U 74025L   24318.78096014  .00007850  00000-0  39854-2 0  9998
2 57545  81.2115 140.7391 0009277 126.6686 233.5342 14.15825248 71506
METEOR 1-17 DEB
1 57545U 74025L   24326.20101837  .00007500  00000-0  38003-2 0  9991
2 57545  81.2140 133.4243 0008876 103.9805 256.2357 14.15928819 26926
METEOR 1-17 DEB
1 57545U 74025L   24326.76633212  .00008128  00000-0  41182-2 0  9998
2 57545  81.2184 132.8721 0007733  97.2046 263.0007 14.15938224 27000
METEOR 1-17 DEB
1 57545U 74025L   24326.76633212  .00008128  00000-0  41182-2 0  9998
2 57545  81.2184 132.8721 0007733  97.2046 263.0007 14.15938224 72639
METEOR 1-17 DEB
1 57545U 74025L   24327.75561855  .00009505  00000-0  48137-2 0  9998
2 57545  81.2166 131.8950 0008057  97.9646 262.2442 14.15961938 27143
METEOR 1-17 DEB
1 57545U 74025L   24327.75561855  .00009505  00000-0  48137-2 0  9998
2 57545  81.2166 131.8950 0008057  97.9646 262.2442 14.15961938 72772
METEOR 1-17 DEB
1 57545U 74025L   24339.13103850  .00013465  00000-0  67768-2 0  9991
2 57545  81.2165 120.6711 0007101  56.1778 304.0072 14.16290960 28758
METEOR 1-17 DEB
1 57545U 74025L   24339.13103850  .00013465  00000-0  67768-2 0  9991
2 57545  81.2165 120.6711 0007101  56.1778 304.0072 14.16290960 74388
METEOR 1-17 DEB
1 57545U 74025L   24340.12007094  .00013818  00000-0  69495-2 0  9996
2 57545  81.2144 119.6975 0006537  53.4208 306.7567 14.16328128 28896
METEOR 1-17 DEB
1 57545U 74025L   24340.12007094  .00013818  00000-0  69495-2 0  9996
2 57545  81.2144 119.6975 0006537  53.4208 306.7567 14.16328128 74527
METEOR 1-17 DEB
1 57545U 74025L   24344.64112749  .00012789  00000-0  64183-2 0  9996
2 57545  81.2159 115.2454 0005883  31.4998 328.6527 14.16448710 29532
METEOR 1-17 DEB
1 57545U 74025L   24344.64112749  .00012789  00000-0  64183-2 0  9996
2 57545  81.2159 115.2454 0005883  31.4998 328.6527 14.16448710 75162
METEOR 1-17 DEB
1 57545U 74025L   24350.08005378  .00011415  00000-0  57157-2 0  9998
2 57545  81.2075 109.8597 0006744  23.0882 337.0594 14.16568553 30305
METEOR 1-17 DEB
1 57545U 74025L   24350.08005378  .00011415  00000-0  57157-2 0  9998
2 57545  81.2075 109.8597 0006744  23.0882 337.0594 14.16568553 75933
METEOR 1-17 DEB
1 57545U 74025L   24354.03533283  .00010719  00000-0  53579-2 0  9998
2 57545  81.2143 105.9575 0006530 348.9520  11.1510 14.16664774 30866
METEOR 1-17 DEB
1 57545U 74025L   24354.03533283  .00010719  00000-0  53579-2 0  9998
2 57545  81.2143 105.9575 0006530 348.9520  11.1510 14.16664774 76495
METEOR 1-17 DEB
1 57545U 74025L   24354.60035328  .00009737  00000-0  48660-2 0  9991
2 57545  81.2123 105.4007 0006824 347.7842  12.3166 14.16676820 30943
METEOR 1-17 DEB
1 57545U 74025L   24354.60035328  .00009737  00000-0  48660-2 0  9991
2 57545  81.2123 105.4007 0006824 347.7842  12.3166 14.16676820 76572
METEOR 1-17 DEB
1 57545U 74025L   24361.59201796  .00014779  00000-0  73571-2 0  9992
2 57545  81.2118  98.4948 0007735 321.0727  38.9889 14.16864351 31935
METEOR 1-17 DEB
1 57545U 74025L   24361.59201807  .00015069  00000-0  75012-2 0  9990
2 57545  81.2118  98.4948 0007730 321.1068  38.9550 14.16864483 31930
METEOR 1-17 DEB
1 57545U 74025L   24361.59201807  .00015069  00000-0  75012-2 0  9990
2 57545  81.2118  98.4948 0007730 321.1068  38.9550 14.16864483 77569
METEOR 1-17 DEB
1 57545U 74025L   24365.54645981  .00019060  00000-0  94615-2 0  9999
2 57545  81.2154  94.5923 0008805 308.6268  51.4118 14.16989959 32494
METEOR 1-17 DEB
1 57545U 74025L   24366.53501371  .00016988  00000-0  84296-2 0  9993
2 57545  81.2136  93.6143 0009054 305.1858  54.8468 14.17019507 32637
METEOR 1-17 DEB
1 57545U 74025L   24366.53501371  .00016988  00000-0  84296-2 0  9993
2 57545  81.2136  93.6143 0009054 305.1858  54.8468 14.17019507 78266
METEOR 1-17 DEB
1 57545U 74025L   24366.95867252  .00018145  00000-0  90002-2 0  9991
2 57545  81.2127  93.1948 0009095 303.6105  56.4201 14.17034651 32694
METEOR 1-17 DEB
1 57545U 74025L   25001.94718322  .00077475  00000-0  38047-1 0  9991
2 57545  81.2136  92.2179 0009403 301.7319  58.2938 14.17148396 78463
METEOR 1-17 DEB
1 57545U 74025L   25011.90175780  .00007266  00000-0  35853-2 0  9997
2 57545  81.2147  82.3799 0011348 274.1572  85.8305 14.17324337 34241
METEOR 1-17 DEB
1 57545U 74025L   25011.90175780  .00007266  00000-0  35853-2 0  9997
2 57545  81.2147  82.3799 0011348 274.1572  85.8305 14.17324337 79868
METEOR 1-17 DEB
1 57545U 74025L   25020.44332714  .00012287  00000-0  60451-2 0  9999
2 57545  81.2112  73.9254 0011436 251.3248 108.6686 14.17479447 35453
METEOR 1-17 DEB
1 57545U 74025L   25020.44332714  .00012287  00000-0  60451-2 0  9999
2 57545  81.2112  73.9254 0011436 251.3248 108.6686 14.17479447 81072
METEOR 1-17 DEB
1 57545U 74025L   25021.43154900  .00011240  00000-0  55278-2 0  9997
2 57545  81.2268  72.9655 0012004 260.9396  99.0420 14.17499259 35598
METEOR 1-17 DEB
1 57545U 74025L   25021.43154900  .00011240  00000-0  55278-2 0  9997
2 57545  81.2268  72.9655 0012004 260.9396  99.0420 14.17499259 81218
METEOR 1-17 DEB
1 57545U 74025L   25021.85506408  .00010596  00000-0  52107-2 0  9998
2 57545  81.2198  72.5369 0011646 254.8215 105.1672 14.17507589 35652
METEOR 1-17 DEB
1 57545U 74025L   25021.85506408  .00010596  00000-0  52107-2 0  9998
2 57545  81.2198  72.5369 0011646 254.8215 105.1672 14.17507589 81271
METEOR 1-17 DEB
1 57545U 74025L   25022.84325924  .00010237  00000-0  50321-2 0  9998
2 57545  81.2164  71.5591 0011869 249.0671 110.9234 14.17527627 35798
METEOR 1-17 DEB
1 57545U 74025L   25026.37241722  .00008365  00000-0  41063-2 0  9995
2 57545  81.2119  68.0670 0012214 236.3077 123.6934 14.17596152 36294
METEOR 1-17 DEB
1 57545U 74025L   25026.37241722  .00008365  00000-0  41063-2 0  9995
2 57545  81.2119  68.0670 0012214 236.3077 123.6934 14.17596152 81913
METEOR 1-17 DEB
1 57545U 74025L   25033.78310594  .00010570  00000-0  51746-2 0  9992
2 57545  81.2122  60.7349 0012276 217.2423 142.7902 14.17742491 37344
METEOR 1-17 DEB
1 57545U 74025L   25033.78310594  .00010570  00000-0  51746-2 0  9992
2 57545  81.2122  60.7349 0012276 217.2423 142.7902 14.17742491 82962
METEOR 1-17 DEB
1 57545U 74025L   25037.31173630  .00008792  00000-0  42990-2 0  9997
2 57545  81.2125  57.2440 0012283 207.3911 152.6618 14.17808064 37848
METEOR 1-17 DEB
1 57545U 74025L   25037.31173630  .00008792  00000-0  42990-2 0  9997
2 57545  81.2125  57.2440 0012283 207.3911 152.6618 14.17808064 83467
METEOR 1-17 DEB
1 57545U 74025L   25043.73344718  .00007951  00000-0  38792-2 0  9998
2 57545  81.2098  50.8826 0012222 186.2425 173.8599 14.17919262 38759
METEOR 1-17 DEB
1 57545U 74025L   25043.73344718  .00007951  00000-0  38792-2 0  9998
2 57545  81.2098  50.8826 0012222 186.2425 173.8599 14.17919262 84378
METEOR 1-17 DEB
1 57545U 74025L   25047.26164667  .00010565  00000-0  51480-2 0  9997
2 57545  81.2109  47.3910 0012593 175.7593 184.3691 14.17986476 39254
METEOR 1-17 DEB
1 57545U 74025L   25047.26164667  .00010565  00000-0  51480-2 0  9997
2 57545  81.2109  47.3910 0012593 175.7593 184.3691 14.17986476 84872
METEOR 1-17 DEB
1 57545U 74025L   25049.23735896  .00012240  00000-0  59587-2 0  9992
2 57545  81.2178  45.4378 0012782 170.0542 190.0889 14.18032647 85155
METEOR 1-17 DEB
1 57545U 74025L   25053.68247907  .00010214  00000-0  49633-2 0  9997
2 57545  81.2107  41.0395 0013121 161.1946 198.9717 14.18131778 40169
METEOR 1-17 DEB
1 57545U 74025L   25053.68247907  .00010214  00000-0  49633-2 0  9997
2 57545  81.2107  41.0395 0013121 161.1946 198.9717 14.18131778 85786
METEOR 1-17 DEB
1 57545U 74025L   25055.65799590  .00012764  00000-0  61955-2 0  9999
2 57545  81.2069  39.0811 0013416 148.9514 211.2457 14.18178630 40446
METEOR 1-17 DEB
1 57545U 74025L   25055.65799590  .00012764  00000-0  61955-2 0  9999
2 57545  81.2069  39.0811 0013416 148.9514 211.2457 14.18178630 86064
METEOR 1-17 DEB
1 57545U 74025L   25057.21012609  .00013952  00000-0  67660-2 0  9991
2 57545  81.2131  37.5442 0013531 148.7691 211.4291 14.18222819 40662
METEOR 1-17 DEB
1 57545U 74025L   25057.21012609  .00013952  00000-0  67660-2 0  9991
2 57545  81.2131  37.5442 0013531 148.7691 211.4291 14.18222819 86280
METEOR 1-17 DEB
1 57545U 74025L   25063.62985959  .00008346  00000-0  40369-2 0  9998
2 57545  81.2142  31.1869 0014075 130.9930 229.2465 14.18363795 41570
METEOR 1-17 DEB
1 57545U 74025L   25063.62985959  .00008346  00000-0  40369-2 0  9998
2 57545  81.2142  31.1869 0014075 130.9930 229.2465 14.18363795 87198
METEOR 1-17 DEB
1 57545U 74025L   25068.14453004  .00011205  00000-0  54115-2 0  9993
2 57545  81.2200  26.7222 0014894 116.5949 243.6754 14.18440749 42215
METEOR 1-17 DEB
1 57545U 74025L   25068.14453004  .00011205  00000-0  54115-2 0  9993
2 57545  81.2200  26.7222 0014894 116.5949 243.6754 14.18440749 87832
METEOR 1-17 DEB
1 57545U 74025L   25069.13207979  .00009177  00000-0  44309-2 0  9990
2 57545  81.2193  25.7351 0014494 115.9402 244.3268 14.18457315 42351
METEOR 1-17 DEB
1 57545U 74025L   25069.13207979  .00009177  00000-0  44309-2 0  9990
2 57545  81.2193  25.7351 0014494 115.9402 244.3268 14.18457315 87978
METEOR 1-17 DEB
1 57545U 74025L   25070.61338217  .00008957  00000-0  43227-2 0  9998
2 57545  81.2152  24.2701 0014618 112.2057 248.0671 14.18483057 42567
METEOR 1-17 DEB
1 57545U 74025L   25070.61338217  .00008957  00000-0  43227-2 0  9998
2 57545  81.2152  24.2701 0014618 112.2057 248.0671 14.18483057 88185
METEOR 1-17 DEB
1 57545U 74025L   25072.58840492  .00012413  00000-0  59841-2 0  9990
2 57545  81.2140  22.3170 0015102 105.5821 254.7022 14.18528652 42842
METEOR 1-17 DEB
1 57545U 74025L   25072.58840492  .00012413  00000-0  59841-2 0  9990
2 57545  81.2140  22.3170 0015102 105.5821 254.7022 14.18528652 88460
METEOR 1-17 DEB
1 57545U 74025L   25073.57588822  .00012655  00000-0  60978-2 0  9997
2 57545  81.2140  21.3384 0015165 103.1311 257.1558 14.18554932 42981
METEOR 1-17 DEB
1 57545U 74025L   25073.57588822  .00012655  00000-0  60978-2 0  9997
2 57545  81.2140  21.3384 0015165 103.1311 257.1558 14.18554932 88600
METEOR 1-17 DEB
1 57545U 74025L   25081.05190740  .00014618  00000-0  70118-2 0  9995
2 57545  81.2134  13.9308 0016059  84.2900 276.0106 14.18778855 44043
METEOR 1-17 DEB
1 57545U 74025L   25081.05190740  .00014618  00000-0  70118-2 0  9995
2 57545  81.2134  13.9308 0016059  84.2900 276.0106 14.18778855 89660
METEOR 1-17 DEB
1 57545U 74025L   25085.49458314  .00013340  00000-0  63813-2 0  9996
2 57545  81.2142   9.5282 0016283  73.1315 287.1645 14.18924733 44678
METEOR 1-17 DEB
1 57545U 74025L   25086.48178723  .00013268  00000-0  63438-2 0  9991
2 57545  81.2171   8.5511 0016047  70.9493 289.3419 14.18954149 44817
METEOR 1-17 DEB
1 57545U 74025L   25086.48178723  .00013268  00000-0  63438-2 0  9991
2 57545  81.2171   8.5511 0016047  70.9493 289.3419 14.18954149 90436
METEOR 1-17 DEB
1 57545U 74025L   25089.02024707  .00008707  00000-0  41587-2 0  9999
2 57545  81.2179   6.0359 0017385  65.8698 294.4294 14.19005104 45171
METEOR 1-17 DEB
1 57545U 74025L   25089.02024707  .00008707  00000-0  41587-2 0  9999
2 57545  81.2179   6.0359 0017385  65.8698 294.4294 14.19005104 90799
METEOR 1-17 DEB
1 57545U 74025L   25092.47523969  .00009448  00000-0  45071-2 0  9991
2 57545  81.2190   2.6131 0017868  57.9854 302.3055 14.19063563 45667
METEOR 1-17 DEB
1 57545U 74025L   25092.47523969  .00009448  00000-0  45071-2 0  9991
2 57545  81.2190   2.6131 0017868  57.9854 302.3055 14.19063563 91286
METEOR 1-17 DEB
1 57545U 74025L   25093.46235175  .00010980  00000-0  52357-2 0  9998
2 57545  81.2170   1.6337 0017823  55.4326 304.8529 14.19084873 45806
METEOR 1-17 DEB
1 57545U 74025L   25094.44945087  .00011044  00000-0  52642-2 0  9996
2 57545  81.2153   0.6541 0018091  53.5911 306.6930 14.19105179 45944
METEOR 1-17 DEB
1 57545U 74025L   25094.44945087  .00011044  00000-0  52642-2 0  9996
2 57545  81.2153   0.6541 0018091  53.5911 306.6930 14.19105179 91563
METEOR 1-17 DEB
1 57545U 74025L   25096.42359777  .00011393  00000-0  54255-2 0  9990
2 57545  81.2160 358.6969 0018288  49.5980 310.6788 14.19153133 46222
METEOR 1-17 DEB
1 57545U 74025L   25096.42359777  .00011393  00000-0  54255-2 0  9990
2 57545  81.2160 358.6969 0018288  49.5980 310.6788 14.19153133 91840
METEOR 1-17 DEB
1 57545U 74025L   25097.97467457  .00008012  00000-0  38134-2 0  9998
2 57545  81.2160 357.1589 0018555  46.3915 313.8796 14.19178219 46444
METEOR 1-17 DEB
1 57545U 74025L   25097.97467457  .00008012  00000-0  38134-2 0  9998
2 57545  81.2160 357.1589 0018555  46.3915 313.8796 14.19178219 92063
METEOR 1-17 DEB
1 57545U 74025L   25098.96170775  .00009239  00000-0  43958-2 0  9994
2 57545  81.2172 356.1808 0018678  44.6795 315.5882 14.19197338 46586
METEOR 1-17 DEB
1 57545U 74025L   25099.94872731  .00009777  00000-0  46497-2 0  9992
2 57545  81.2177 355.2026 0018753  42.5639 317.6987 14.19217423 46724
METEOR 1-17 DEB
1 57545U 74025L   25099.94872731  .00009777  00000-0  46497-2 0  9992
2 57545  81.2177 355.2026 0018753  42.5639 317.6987 14.19217423 92343
METEOR 1-17 DEB
1 57545U 74025L   25102.41621825  .00008937  00000-0  42466-2 0  9994
2 57545  81.2168 352.7567 0018823  37.1967 323.0509 14.19262036 47078
METEOR 1-17 DEB
1 57545U 74025L   25102.41621825  .00008937  00000-0  42466-2 0  9994
2 57545  81.2168 352.7567 0018823  37.1967 323.0509 14.19262036 92696
METEOR 1-17 DEB
1 57545U 74025L   25104.39015394  .00007966  00000-0  37830-2 0  9991
2 57545  81.2160 350.7994 0018659  32.3092 327.9222 14.19296754 47355
METEOR 1-17 DEB
1 57545U 74025L   25104.39015394  .00007966  00000-0  37830-2 0  9991
2 57545  81.2160 350.7994 0018659  32.3092 327.9222 14.19296754 92973
METEOR 1-17 DEB
1 57545U 74025L   25105.94107487  .00008052  00000-0  38219-2 0  9997
2 57545  81.2159 349.2616 0018632  29.1711 331.0501 14.19319762 47575
METEOR 1-17 DEB
1 57545U 74025L   25105.94107487  .00008052  00000-0  38219-2 0  9997
2 57545  81.2159 349.2616 0018632  29.1711 331.0501 14.19319762 93194
METEOR 1-17 DEB
1 57545U 74025L   25115.88042176  .00007778  00000-0  36813-2 0  9996
2 57545  81.2149 339.4026 0018036   4.6376 355.4964 14.19475060 48986
METEOR 1-17 DEB
1 57545U 74025L   25115.88042176  .00007778  00000-0  36813-2 0  9996
2 57545  81.2149 339.4026 0018036   4.6376 355.4964 14.19475060 94606
METEOR 1-17 DEB
1 57545U 74025L   25118.34746321  .00008075  00000-0  38192-2 0  9996
2 57545  81.2154 336.9570 0017665   1.9404 358.1837 14.19518687 49339
METEOR 1-17 DEB
1 57545U 74025L   25118.34746321  .00008075  00000-0  38192-2 0  9996
2 57545  81.2154 336.9570 0017665   1.9404 358.1837 14.19518687 94957
METEOR 1-17 DEB
1 57545U 74025L   25127.29876616  .00005403  00000-0  25493-2 0  9993
2 57545  81.2183 328.0816 0016376 334.3782  25.6581 14.19639080 50601
METEOR 1-17 DEB
1 57545U 74025L   25127.29876616  .00005403  00000-0  25493-2 0  9993
2 57545  81.2183 328.0816 0016376 334.3782  25.6581 14.19639080 96229
METEOR 1-17 DEB
1 57545U 74025L   25132.23226984  .00005393  00000-0  25424-2 0  9992
2 57545  81.2153 323.1819 0015506 321.8078  38.1998 14.19691887 51302
METEOR 1-17 DEB
1 57545U 74025L   25132.23226984  .00005393  00000-0  25424-2 0  9992
2 57545  81.2153 323.1819 0015506 321.8078  38.1998 14.19691887 96929
METEOR 1-17 DEB
1 57545U 74025L   25133.78276440  .00004523  00000-0  21309-2 0  9997
2 57545  81.2154 321.6415 0015445 317.5860  42.4121 14.19705291 51526
METEOR 1-17 DEB
1 57545U 74025L   25133.78276440  .00004523  00000-0  21309-2 0  9997
2 57545  81.2154 321.6415 0015445 317.5860  42.4121 14.19705291 97144
METEOR 1-17 DEB
1 57545U 74025L   25141.18261096  .00004587  00000-0  21581-2 0  9993
2 57545  81.2178 314.3004 0014788 292.1719  67.7888 14.19780933 52577
METEOR 1-17 DEB
1 57545U 74025L   25141.18261096  .00004587  00000-0  21581-2 0  9993
2 57545  81.2178 314.3004 0014788 292.1719  67.7888 14.19780933 98195
METEOR 1-17 DEB
1 57545U 74025L   25143.71962131  .00004278  00000-0  20117-2 0  9993
2 57545  81.2151 311.7805 0014717 285.3390  74.6160 14.19801502 52935
METEOR 1-17 DEB
1 57545U 74025L   25143.71962131  .00004278  00000-0  20117-2 0  9993
2 57545  81.2151 311.7805 0014717 285.3390  74.6160 14.19801502 98553
METEOR 1-17 DEB
1 57545U 74025L   25147.17271397  .00004050  00000-0  19034-2 0  9998
2 57545  81.2144 308.3523 0014908 273.6318  86.3153 14.19829370 53428
METEOR 1-17 DEB
1 57545U 74025L   25147.17271397  .00004050  00000-0  19034-2 0  9998
2 57545  81.2144 308.3523 0014908 273.6318  86.3153 14.19829370 99046
METEOR 1-17 DEB
1 57545U 74025L   25150.13245139  .00005480  00000-0  25752-2 0  9995
2 57545  81.2167 305.4156 0015253 264.2396  95.7041 14.19858590 53841
METEOR 1-17 DEB
1 57545U 74025L   25150.13245139  .00005480  00000-0  25752-2 0  9995
2 57545  81.2167 305.4156 0015253 264.2396  95.7041 14.19858590 99469
METEOR 1-17 DEB
1 57545U 74025L   25150.69620536  .00004758  00000-0  22355-2 0  9997
2 57545  81.2160 304.8556 0015073 262.8713  97.0750 14.19862291 53922
METEOR 1-17 DEB
1 57545U 74025L   25152.66931355  .00016164  00000-0  75882-2 0  9997
2 57545  81.2158 302.8972 0015138 256.7667 103.1821 14.19914495 54205
METEOR 1-17 DEB
1 57545U 74025L   25152.66931355  .00016164  00000-0  75882-2 0  9997
2 57545  81.2158 302.8972 0015138 256.7667 103.1821 14.19914495 99822
METEOR 1-17 DEB
1 57545U 74025L   25156.12218638  .00005042  00000-0  23657-2 0  9990
2 57545  81.2148 299.4693 0015404 245.9430 114.0135 14.19928668 54698
METEOR 1-17 DEB
1 57545U 74025L   25156.12218638  .00005042  00000-0  23657-2 0  9990
2 57545  81.2148 299.4693 0015404 245.9430 114.0135 14.19928668100319
METEOR 1-17 DEB
1 57545U 74025L   25158.09521962  .00003686  00000-0  17280-2 0  9992
2 57545  81.2148 297.5109 0015353 240.3527 119.6121 14.19941687 54971
METEOR 1-17 DEB
1 57545U 74025L   25158.09521962  .00003686  00000-0  17280-2 0  9992
2 57545  81.2148 297.5109 0015353 240.3527 119.6121 14.19941687100591
METEOR 1-17 DEB
1 57545U 74025L   25161.61843993  .00003378  00000-0  15821-2 0  9992
2 57545  81.2147 294.0118 0015745 229.0583 130.9231 14.19968093 55477
METEOR 1-17 DEB
1 57545U 74025L   25161.61843993  .00003378  00000-0  15821-2 0  9992
2 57545  81.2147 294.0118 0015745 229.0583 130.9231 14.19968093101097
METEOR 1-17 DEB
1 57545U 74025L   25163.09817335  .00003461  00000-0  16210-2 0  9993
2 57545  81.2155 292.5429 0015885 224.7402 135.2494 14.19979324 55682
METEOR 1-17 DEB
1 57545U 74025L   25163.09817335  .00003461  00000-0  16210-2 0  9993
2 57545  81.2155 292.5429 0015885 224.7402 135.2494 14.19979324101303
METEOR 1-17 DEB
1 57545U 74025L   25172.04673683  .00003397  00000-0  15881-2 0  9995
2 57545  81.2151 283.6589 0017116 199.8995 160.1516 14.20056102 56959
METEOR 1-17 DEB
1 57545U 74025L   25172.04673683  .00003397  00000-0  15881-2 0  9995
2 57545  81.2151 283.6589 0017116 199.8995 160.1516 14.20056102102579
METEOR 1-17 DEB
1 57545U 74025L   25175.00601600  .00003031  00000-0  14158-2 0  9995
2 57545  81.2159 280.7214 0017440 192.2716 167.8038 14.20074248 57379
METEOR 1-17 DEB
1 57545U 74025L   25175.00601600  .00003031  00000-0  14158-2 0  9995
2 57545  81.2159 280.7214 0017440 192.2716 167.8038 14.20074248102998
METEOR 1-17 DEB
1 57545U 74025L   25175.99243460  .00003090  00000-0  14435-2 0  9992
2 57545  81.2163 279.7426 0017568 189.8682 170.2152 14.20079803 57515
METEOR 1-17 DEB
1 57545U 74025L   25183.95408425  .00003505  00000-0  16365-2 0  9996
2 57545  81.2204 271.8351 0016976 166.9548 193.2071 14.20132856 58648
METEOR 1-17 DEB
1 57545U 74025L   25183.95408425  .00003505  00000-0  16365-2 0  9996
2 57545  81.2204 271.8351 0016976 166.9548 193.2071 14.20132856104268
METEOR 1-17 DEB
1 57545U 74025L   25184.94046043  .00003404  00000-0  15885-2 0  9994
2 57545  81.2177 270.8560 0017448 164.9338 195.2361 14.20139593 58782
METEOR 1-17 DEB
1 57545U 74025L   25189.94272273  .00002908  00000-0  13553-2 0  9993
2 57545  81.2160 265.8903 0017796 152.3053 207.9075 14.20174657 59492
METEOR 1-17 DEB
1 57545U 74025L   25189.94272273  .00002908  00000-0  13553-2 0  9993
2 57545  81.2160 265.8903 0017796 152.3053 207.9075 14.20174657105113
METEOR 1-17 DEB
1 57545U 74025L   25192.90175610  .00002756  00000-0  12837-2 0  9995
2 57545  81.2104 262.9550 0017692 142.5826 217.6586 14.20192070 59911
METEOR 1-17 DEB
1 57545U 74025L   25192.90175610  .00002756  00000-0  12837-2 0  9995
2 57545  81.2104 262.9550 0017692 142.5826 217.6586 14.20192070105531
METEOR 1-17 DEB
1 57545U 74025L   25195.43803910  .00003044  00000-0  14180-2 0  9991
2 57545  81.2148 260.4330 0017544 134.9358 225.3245 14.20208869 60272
METEOR 1-17 DEB
1 57545U 74025L   25195.43803910  .00003044  00000-0  14180-2 0  9991
2 57545  81.2148 260.4330 0017544 134.9358 225.3245 14.20208869105890
METEOR 1-17 DEB
1 57545U 74025L   25198.89015101  .00003259  00000-0  15179-2 0  9998
2 57545  81.2140 257.0052 0017595 125.4411 234.8412 14.20232704 60768
METEOR 1-17 DEB
1 57545U 74025L   25198.89015101  .00003259  00000-0  15179-2 0  9998
2 57545  81.2140 257.0052 0017595 125.4411 234.8412 14.20232704106387
METEOR 1-17 DEB
1 57545U 74025L   25199.87645777  .00003414  00000-0  15900-2 0  9990
2 57545  81.2135 256.0253 0017596 122.8082 237.4792 14.20239979 60907
METEOR 1-17 DEB
1 57545U 74025L   25200.44005943  .00003025  00000-0  14084-2 0  9991
2 57545  81.2135 255.4659 0017537 121.4180 238.8714 14.20242919 60984
METEOR 1-17 DEB
1 57545U 74025L   25200.44005943  .00003025  00000-0  14084-2 0  9991
2 57545  81.2135 255.4659 0017537 121.4180 238.8714 14.20242919106604
METEOR 1-17 DEB
1 57545U 74025L   25203.39894367  .00003569  00000-0  16619-2 0  9993
2 57545  81.2134 252.5272 0017556 113.4799 246.8225 14.20264256 61402
METEOR 1-17 DEB
1 57545U 74025L   25203.39894367  .00003569  00000-0  16619-2 0  9993
2 57545  81.2134 252.5272 0017556 113.4799 246.8225 14.20264256107021
METEOR 1-17 DEB
1 57545U 74025L   25204.38522741  .00004349  00000-0  20259-2 0  9999
2 57545  81.2129 251.5467 0017598 110.8746 249.4317 14.20274068 61548
METEOR 1-17 DEB
1 57545U 74025L   25204.38522741  .00004349  00000-0  20259-2 0  9999
2 57545  81.2129 251.5467 0017598 110.8746 249.4317 14.20274068107167
METEOR 1-17 DEB
1 57545U 74025L   25208.40075177  .00003770  00000-0  17545-2 0  9993
2 57545  81.2121 247.5586 0017536 100.0419 260.2737 14.20306010 62111
METEOR 1-17 DEB
1 57545U 74025L   25208.40075177  .00003770  00000-0  17545-2 0  9993
2 57545  81.2121 247.5586 0017536 100.0419 260.2737 14.20306010107739
METEOR 1-17 DEB
1 57545U 74025L   25210.37325768  .00003918  00000-0  18228-2 0  9999
2 57545  81.2128 245.6001 0017405  94.6852 265.6313 14.20320861 62392
METEOR 1-17 DEB
1 57545U 74025L   25210.37325768  .00003918  00000-0  18228-2 0  9999
2 57545  81.2128 245.6001 0017405  94.6852 265.6313 14.20320861108012
METEOR 1-17 DEB
1 57545U 74025L   25214.81132056  .00003673  00000-0  17075-2 0  9995
2 57545  81.2121 241.1902 0017296  82.8178 277.4964 14.20354158 63024
METEOR 1-17 DEB
1 57545U 74025L   25214.81132056  .00003673  00000-0  17075-2 0  9995
2 57545  81.2121 241.1902 0017296  82.8178 277.4964 14.20354158108642
METEOR 1-17 DEB
1 57545U 74025L   25216.78375915  .00003542  00000-0  16460-2 0  9998
2 57545  81.2117 239.2301 0017240  77.4509 282.8594 14.20367669 63308
METEOR 1-17 DEB
1 57545U 74025L   25216.78375915  .00003542  00000-0  16460-2 0  9998
2 57545  81.2117 239.2301 0017240  77.4509 282.8594 14.20367669108926
METEOR 1-17 DEB
1 57545U 74025L   25217.34730887  .00003428  00000-0  15931-2 0  9999
2 57545  81.2116 238.6707 0017072  76.0687 284.2387 14.20371302 63388
METEOR 1-17 DEB
1 57545U 74025L   25225.72992514  .00003507  00000-0  16280-2 0  9993
2 57545  81.2132 230.3421 0016853  52.9219 307.3495 14.20435118 64573
METEOR 1-17 DEB
1 57545U 74025L   25225.72992514  .00003507  00000-0  16280-2 0  9993
2 57545  81.2132 230.3421 0016853  52.9219 307.3495 14.20435118110193
METEOR 1-17 DEB
1 57545U 74025L   25228.26576391  .00003632  00000-0  16857-2 0  9995
2 57545  81.2138 227.8223 0016758  46.0098 314.2457 14.20454995 64932
METEOR 1-17 DEB
1 57545U 74025L   25228.26576391  .00003632  00000-0  16857-2 0  9995
2 57545  81.2138 227.8223 0016758  46.0098 314.2457 14.20454995110552
METEOR 1-17 DEB
1 57545U 74025L   25229.25191487  .00003638  00000-0  16883-2 0  9999
2 57545  81.2143 226.8425 0016713  43.4020 316.8469 14.20461836 65077
METEOR 1-17 DEB
1 57545U 74025L   25232.70340501  .00004047  00000-0  18778-2 0  9996
2 57545  81.2139 223.4139 0016570  34.0761 326.1476 14.20487109 65563
METEOR 1-17 DEB
1 57545U 74025L   25241.64881398  .00006417  00000-0  29754-2 0  9992
2 57545  81.2123 214.5220 0016217  10.9000 349.2525 14.20567146 66837
METEOR 1-17 DEB
1 57545U 74025L   25243.62094295  .00008135  00000-0  37708-2 0  9991
2 57545  81.2135 212.5643 0015890   4.0342 356.0959 14.20597384 67112
METEOR 1-17 DEB
1 57545U 74025L   25245.17044386  .00011253  00000-0  52129-2 0  9998
2 57545  81.2130 211.0243 0015682 359.9382   0.1790 14.20628416 67337
METEOR 1-17 DEB
1 57545U 74025L   25246.15647484  .00011322  00000-0  52431-2 0  9998
2 57545  81.2136 210.0450 0015607 357.0223   3.0858 14.20644259 67477
METEOR 1-17 DEB
1 57545U 74025L   25248.62150286  .00006859  00000-0  31745-2 0  9995
2 57545  81.2151 207.5962 0015423 349.9402  10.1463 14.20675894 67827
METEOR 1-17 DEB
1 57545U 74025L   25250.59348594  .00005455  00000-0  25229-2 0  9996
2 57545  81.2145 205.6359 0015264 344.5540  15.5169 14.20698606 68106
METEOR 1-17 DEB
1 57545U 74025L   25251.57946630  .00004707  00000-0  21761-2 0  9996
2 57545  81.2154 204.6563 0015203 341.3882  18.6736 14.20707576 68245
METEOR 1-17 DEB
1 57545U 74025L   25253.12885455  .00004355  00000-0  20124-2 0  9997
2 57545  81.2156 203.1165 0015048 337.3539  22.6972 14.20719319 68469
METEOR 1-17 DEB
1 57545U 74025L   25258.55162380  .00004190  00000-0  19350-2 0  9990
2 57545  81.2157 197.7284 0014675 321.2986  38.7138 14.20756023 69234
METEOR 1-17 DEB
1 57545U 74025L   25274.46667370  .00009066  00000-0  41750-2 0  9993
2 57545  81.2174 181.9151 0014158 271.3808  88.5747 14.20953079 71495
METEOR 1-17 DEB
1 57545U 74025L   25274.46667371  .00009066  00000-0  41750-2 0  9994
2 57545  81.2174 181.9151 0014158 271.3808  88.5747 14.20953079 71495
METEOR 1-17 DEB
1 57545U 74025L   25279.95891299  .00004309  00000-0  19805-2 0  9992
2 57545  81.2166 176.4525 0012641 255.1957 104.7819 14.21013774 72278
METEOR 1-17 DEB
1 57545U 74025L   25280.45179648  .00003996  00000-0  18365-2 0  9997
2 57545  81.2177 175.9630 0012462 253.4211 106.5598 14.21016477 72341
METEOR 1-17 DEB
1 57545U 74025L   25284.39481932  .00003877  00000-0  17805-2 0  9992
2 57545  81.2163 172.0434 0012039 240.0771 119.9210 14.21045479 72904
METEOR 1-17 DEB
1 57545U 74025L   25284.39481932  .00003877  00000-0  17805-2 0  9992
2 57545  81.2163 172.0434 0012039 240.0771 119.9210 14.21045479 72904
METEOR 1-17 DEB
1 57545U 74025L   25284.39481937  .00003182  00000-0  14607-2 0  9993
2 57545  81.2163 172.0434 0012036 240.0769 119.9213 14.21044133 72907
METEOR 1-17 DEB
1 57545U 74025L   25290.37961171  .00003874  00000-0  17778-2 0  9991
2 57545  81.2170 166.0939 0011263 218.1590 141.8790 14.21089882 73755
METEOR 1-17 DEB
1 57545U 74025L   25290.37961172  .00003874  00000-0  17778-2 0  9992
2 57545  81.2171 166.0939 0011263 218.1590 141.8790 14.21089882 73756
METEOR 1-17 DEB
1 57545U 74025L   25298.33554448  .00003713  00000-0  17017-2 0  9998
2 57545  81.2160 158.1839 0011298 190.1953 169.8997 14.21157291 74889
METEOR 1-17 DEB
1 57545U 74025L   25298.33554449  .00003713  00000-0  17017-2 0  9999
2 57545  81.2161 158.1839 0011298 190.1953 169.8997 14.21157291 74880
METEOR 1-17 DEB
1 57545U 74025L   25301.29253174  .00003589  00000-0  16440-2 0  9990
2 57545  81.2169 155.2449 0011416 179.7572 180.3612 14.21176948 75305
METEOR 1-17 DEB
1 57545U 74025L   25302.84141617  .00003830  00000-0  17542-2 0  9993
2 57545  81.2173 153.7041 0011265 170.5711 189.5679 14.21188058 75520
METEOR 1-17 DEB
1 57545U 74025L   25308.26239641  .00003100  00000-0  14180-2 0  9995
2 57545  81.2151 148.3129 0011543 151.6923 208.4883 14.21227211 76295
METEOR 1-17 DEB
1 57545U 74025L   25308.26239642  .00003100  00000-0  14180-2 0  9996
2 57545  81.2151 148.3129 0011543 151.6923 208.4883 14.21227211 76295
METEOR 1-17 DEB
1 57545U 74025L   25309.24801264  .00003092  00000-0  14142-2 0  9998
2 57545  81.2155 147.3336 0011543 151.4670 208.7141 14.21232889 76438
METEOR 1-17 DEB
1 57545U 74025L   25312.76803830  .00004491  00000-0  20551-2 0  9995
2 57545  81.2154 143.8329 0011809 136.8709 223.3395 14.21262929 76932
METEOR 1-17 DEB
1 57545U 74025L   25312.76803831  .00004491  00000-0  20551-2 0  9996
2 57545  81.2154 143.8329 0011809 136.8709 223.3395 14.21262929 76932
METEOR 1-17 DEB
1 57545U 74025L   25320.72296698  .00004432  00000-0  20248-2 0  9996
2 57545  81.2164 135.9221 0011630 111.6007 248.6410 14.21347860 78062
METEOR 1-17 DEB
1 57545U 74025L   25320.72296698  .00004432  00000-0  20248-2 0  9996
2 57545  81.2164 135.9221 0011630 111.6007 248.6410 14.21347860 78062
METEOR 1-17 DEB
1 57545U 74025L   25326.21375106  .00003297  00000-0  15037-2 0  9996
2 57545  81.2144 130.4572 0012037  98.8290 261.4250 14.21379639 78841
METEOR 1-17 DEB
1 57545U 74025L   25326.21375107  .00003297  00000-0  15037-2 0  9997
2 57545  81.2144 130.4572 0012037  98.8290 261.4250 14.21379639 78841
METEOR 1-17 DEB
1 57545U 74025L   25326.21375200  .00003424  00000-0  15619-2 0  9999
2 57545  81.2133 130.4560 0012473  99.2851 260.9737 14.21380070 78843
METEOR 1-17 DEB
1 57545U 74025L   25326.21375201  .00003424  00000-0  15619-2 0  9990
2 57545  81.2134 130.4560 0012473  99.2851 260.9737 14.21380070 78844
METEOR 1-17 DEB
1 57545U 74025L   25335.15363250  .00003067  00000-0  13969-2 0  9993
2 57545  81.2147 121.5667 0013088  67.6686 292.5877 14.21428200 80112
METEOR 1-17 DEB
1 57545U 74025L   25342.12223382  .00003832  00000-0  17452-2 0  9990
2 57545  81.2170 114.6382 0011681  47.5033 312.7129 14.21486035 81100
METEOR 1-17 DEB
1 57545U 74025L   25342.61495337  .00004577  00000-0  20854-2 0  9992
2 57545  81.2167 114.1446 0011411  48.4299 311.7854 14.21490898 81170
METEOR 1-17 DEB
1 57545U 74025L   25342.61495337  .00004577  00000-0  20854-2 0  9992
2 57545  81.2167 114.1446 0011411  48.4299 311.7854 14.21490898 81170
METEOR 1-17 DEB
1 57545U 74025L   25343.10767047  .00003535  00000-0  16096-2 0  9993
2 57545  81.2185 113.6540 0011281  46.7177 313.4939 14.21492129 81240
METEOR 1-17 DEB
1 57545U 74025L   25343.10767048  .00003535  00000-0  16096-2 0  9994
2 57545  81.2185 113.6540 0011281  46.7177 313.4939 14.21492129 81240
METEOR 1-17 DEB
1 57545U 74025L   25347.04935073  .00004152  00000-0  18901-2 0  9999
2 57545  81.2178 109.7288 0010624  37.1361 323.0549 14.21529388 81800
METEOR 1-17 DEB
1 57545U 74025L   25350.28693483  .00006919  00000-0  31468-2 0  9991
2 57545  81.2484 106.5387 0009007   9.6515 350.4834 14.21630653 82263
METEOR 1-17 DEB
1 57545U 74025L   25350.28693483  .00006919  00000-0  31468-2 0  9991
2 57545  81.2484 106.5387 0009007   9.6515 350.4834 14.21630653 82263
METEOR 1-17 DEB
1 57545U 74025L   26083.05320180  .00005883  00000-0  25891-2 0  9993
2 57545  81.2114   8.5606 0005127 141.8597 218.2945 14.23350665 96168
METEOR 1-17 DEB
1 57545U 74025L   26161.04324035  .00004232  00000-0  18551-2 0  9994
2 57545  81.2120 291.2129 0012028 293.0442  66.9468 14.23490658    62
METEOR 1-17 DEB
1 57545U 74025L   26161.04324035  .00004232  00000-0  18551-2 0  9994
2 57545  81.2120 291.2129 0012028 293.0442  66.9468 14.23490658    62
METEOR 1-17 DEB
1 57545U 74025L   26161.04324035  .00004232  00000-0  18551-2 0  9994
2 57545  81.2120 291.2129 0012028 293.0442  66.9468 14.23490658    62
METEOR 1-17 DEB
1 57545U 74025L   26173.55438161  .00002906  00000-0  12706-2 0  9991
2 57545  81.2109 278.7138 0012330 253.5352 106.4472 14.23572439  1846
METEOR 1-17 DEB
1 57545U 74025L   26173.55438161  .00002906  00000-0  12706-2 0  9991
2 57545  81.2109 278.7138 0012330 253.5352 106.4472 14.23572439  1846
METEOR 1-17 DEB
1 57545U 74025L   26178.96630307  .00003353  00000-0  14655-2 0  9999
2 57545  81.2102 273.3049 0012653 236.0205 123.9771 14.23607032  2612
METEOR 1-17 DEB
1 57545U 74025L   26178.96630307  .00003353  00000-0  14655-2 0  9999
2 57545  81.2102 273.3049 0012653 236.0205 123.9771 14.23607032  2612
METEOR 1-17 DEB
1 57545U 74025L   26178.96630307  .00003353  00000-0  14655-2 0  9999
2 57545  81.2102 273.3049 0012653 236.0205 123.9771 14.23607031  2611
METEOR 1-17 DEB
1 57545U 74025L   26188.94640035  .00001955  00000-0  85126-3 0  9995
2 57545  81.2097 263.3356 0013677 207.8478 152.1970 14.23665306  4031
METEOR 1-17 DEB
1 57545U 74025L   26188.94640035  .00001955  00000-0  85126-3 0  9995
2 57545  81.2097 263.3356 0013677 207.8478 152.1970 14.23665306  4031
METEOR 1-17 DEB
1 57545U 74025L   26189.93033202  .00001809  00000-0  78709-3 0  9994
2 57545  81.2103 262.3544 0013888 205.4083 154.6414 14.23668710  4174
METEOR 1-17 DEB
1 57545U 74025L   26197.87198459  .00001490  00000-0  64713-3 0  9998
2 57545  81.2090 254.4184 0013347 180.6071 179.5093 14.23696461  5301
METEOR 1-17 DEB
1 57545U 74025L   26197.87198460  .00001490  00000-0  64713-3 0  9990
2 57545  81.2090 254.4184 0013347 180.6071 179.5093 14.23696461  5301
METEOR 1-17 DEB
1 57545U 74025L   26198.85589913  .00001589  00000-0  69025-3 0  9996
2 57545  81.2045 253.4256 0013192 172.8793 187.2576 14.23700072  5443
METEOR 1-17 DEB
1 57545U 74025L   26198.85589914  .00001589  00000-0  69025-3 0  9997
2 57545  81.2045 253.4256 0013192 172.8793 187.2576 14.23700072  5443
METEOR 1-17 DEB
1 57545U 74025L   26203.84568411  .00002579  00000-0  11236-2 0  9992
2 57545  81.2210 248.4411 0012314 159.9479 200.2186 14.23725632  6157
METEOR 1-17 DEB
1 57545U 74025L   26206.37567328  .00003228  00000-0  14066-2 0  9995
2 57545  81.2126 245.9207 0013880 158.8862 201.2893 14.23741706  6517
METEOR 1-17 DEB
1 57545U 74025L   26207.42982872  .00003525  00000-0  15365-2 0  9990
2 57545  81.2098 244.8668 0014089 155.4288 204.7564 14.23749453  6667
METEOR 1-17 DEB
1 57545U 74025L   26209.81922825  .00003235  00000-0  14090-2 0  9999
2 57545  81.2086 242.4796 0014178 148.7007 211.5018 14.23764157  7000
METEOR 1-17 DEB
1 57545U 74025L   26211.78694875  .00003460  00000-0  15069-2 0  9996
2 57545  81.2080 240.5097 0014469 143.2874 216.9299 14.23778099  7282
METEOR 1-17 DEB
1 57545U 74025L   26211.78694875  .00003460  00000-0  15069-2 0  9996
2 57545  81.2080 240.5097 0014469 143.2874 216.9299 14.23778099  7282
METEOR 1-17 DEB
1 57545U 74025L   26216.77644139  .00002999  00000-0  13047-2 0  9998
2 57545  81.2082 235.5276 0014161 131.1352 229.1051 14.23809639  7998
METEOR 1-17 DEB
1 57545U 74025L   26226.33351735  .00002386  00000-0  10359-2 0  9991
2 57545  81.2084 225.9710 0014849 103.9170 256.3661 14.23855110  9350
METEOR 1-17 DEB
1 57545U 74025L   26226.33351735  .00002386  00000-0  10359-2 0  9991
2 57545  81.2084 225.9710 0014849 103.9170 256.3661 14.23855110  9350
METEOR 1-17 DEB
1 57545U 74025L   26228.30111113  .00002804  00000-0  12183-2 0  9996
2 57545  81.2009 223.9921 0014996  98.0723 262.2158 14.23866135  9637
METEOR 1-17 DEB
1 57545U 74025L   26228.30111113  .00002804  00000-0  12183-2 0  9996
2 57545  81.2009 223.9921 0014996  98.0723 262.2158 14.23866135  9637
METEOR 1-17 DEB
1 57545U 74025L   26235.67942154  .00004076  00000-0  17712-2 0  9997
2 57545  81.2086 216.6280 0015048  79.2294 281.0577 14.23923233 10686
METEOR 1-17 DEB
1 57545U 74025L   26239.26306198  .00004807  00000-0  20881-2 0  9991
2 57545  81.2127 213.0522 0015257  69.1789 291.1021 14.23953841 11192
METEOR 1-17 DEB
1 57545U 74025L   26239.26306198  .00004807  00000-0  20881-2 0  9991
2 57545  81.2127 213.0522 0015257  69.1789 291.1021 14.23953840 11191
METEOR 1-17 DEB
1 57545U 74025L   26241.23052007  .00004935  00000-0  21434-2 0  9995
2 57545  81.2121 211.0843 0015299  64.4235 295.8523 14.23968542 11473
METEOR 1-17 DEB
1 57545U 74025L   26241.23052008  .00004935  00000-0  21434-2 0  9996
2 57545  81.2121 211.0844 0015299  64.4235 295.8523 14.23968542 11474
METEOR 1-17 DEB
1 57545U 74025L   26243.19795647  .00003860  00000-0  16748-2 0  9994
2 57545  81.2131 209.1183 0015367  59.2905 300.9785 14.23982158 11759
METEOR 1-17 DEB
1 57545U 74025L   26243.19795647  .00003860  00000-0  16748-2 0  9994
2 57545  81.2131 209.1183 0015367  59.2905 300.9785 14.23982158 11759
