METEOR 1-17 DEB
1 57543U 74025J   23220.74532725  .00003858  00000-0  22158-2 0  9990
2 57543  81.2178 234.5028 0015913  49.2051 311.0497 14.09077045  9941
METEOR 1-17 DEB
1 57543U 74025J   23223.72763491  .00003218  00000-0  18468-2 0  9996
2 57543  81.2174 231.6017 0014942  41.5909 318.6395 14.09096108 10371
METEOR 1-17 DEB
1 57543U 74025J   23223.72763491  .00003218  00000-0  18468-2 0  9996
2 57543  81.2174 231.6017 0014942  41.5909 318.6395 14.09096108 10360
METEOR 1-17 DEB
1 57543U 74025J   23241.19458352  .00003798  00000-0  21761-2 0  9997
2 57543  81.2132 214.5672 0014197  13.5279 346.6269 14.09222197 12836
METEOR 1-17 DEB
1 57543U 74025J   23241.19458352  .00003798  00000-0  21761-2 0  9997
2 57543  81.2132 214.5672 0014197  13.5279 346.6269 14.09222197 12825
METEOR 1-17 DEB
1 57543U 74025J   23245.59662279  .00004160  00000-0  23837-2 0  9990
2 57543  81.2120 210.2702 0014140   8.7460 351.3954 14.09236820 13457
METEOR 1-17 DEB
1 57543U 74025J   23245.59662279  .00004160  00000-0  23837-2 0  9990
2 57543  81.2120 210.2702 0014140   8.7460 351.3954 14.09236820 13446
METEOR 1-17 DEB
1 57543U 74025J   23253.12242730  .00004535  00000-0  25967-2 0  9996
2 57543  81.2138 202.9272 0013065 329.1196  30.9204 14.09294377 14514
METEOR 1-17 DEB
1 57543U 74025J   23253.12242730  .00004535  00000-0  25967-2 0  9996
2 57543  81.2138 202.9272 0013065 329.1196  30.9204 14.09294377 14503
METEOR 1-17 DEB
1 57543U 74025J   23255.11034027  .00004366  00000-0  24991-2 0  9993
2 57543  81.2125 200.9867 0012645 324.1860  35.8461 14.09304484 14794
METEOR 1-17 DEB
1 57543U 74025J   23255.11034027  .00004366  00000-0  24991-2 0  9993
2 57543  81.2125 200.9867 0012645 324.1860  35.8461 14.09304484 14783
METEOR 1-17 DEB
1 57543U 74025J   23256.60125997  .00004426  00000-0  25333-2 0  9993
2 57543  81.2147 199.5333 0012713 318.5796  41.4409 14.09316818 15004
METEOR 1-17 DEB
1 57543U 74025J   23256.60125997  .00004426  00000-0  25333-2 0  9993
2 57543  81.2147 199.5333 0012713 318.5796  41.4409 14.09316818 14991
METEOR 1-17 DEB
1 57543U 74025J   23262.06786717  .00004391  00000-0  25114-2 0  9991
2 57543  81.2155 194.2027 0012041 304.2671  55.7358 14.09357682 15772
METEOR 1-17 DEB
1 57543U 74025J   23262.06786717  .00004391  00000-0  25114-2 0  9991
2 57543  81.2155 194.2027 0012041 304.2671  55.7358 14.09357682 15761
METEOR 1-17 DEB
1 57543U 74025J   23290.39251945  .00002197  00000-0  12501-2 0  9996
2 57543  81.2175 166.5794 0004335 210.4448 149.6471 14.09536127 19769
METEOR 1-17 DEB
1 57543U 74025J   23298.34278782  .00001153  00000-0  65236-3 0  9992
2 57543  81.2254 158.8092 0010510 188.9733 171.1252 14.09551235 20889
METEOR 1-17 DEB
1 57543U 74025J   23298.34278782  .00001153  00000-0  65236-3 0  9992
2 57543  81.2254 158.8092 0010510 188.9733 171.1252 14.09551235 20878
METEOR 1-17 DEB
1 57543U 74025J   23299.90444650  .00001279  00000-0  72427-3 0  9993
2 57543  81.2215 157.2931 0008355 176.9547 183.1676 14.09555096 21103
METEOR 1-17 DEB
1 57543U 74025J   23299.90444650  .00001279  00000-0  72427-3 0  9993
2 57543  81.2215 157.2931 0008355 176.9547 183.1676 14.09555096 21091
METEOR 1-17 DEB
1 57543U 74025J   23301.32411944  .00001377  00000-0  78017-3 0  9993
2 57543  81.2151 155.9096 0010033 174.5245 185.6037 14.09559168 21308
METEOR 1-17 DEB
1 57543U 74025J   23301.32411944  .00001377  00000-0  78017-3 0  9993
2 57543  81.2151 155.9096 0010033 174.5245 185.6037 14.09559168 21296
METEOR 1-17 DEB
1 57543U 74025J   23305.86705479  .00001251  00000-0  70766-3 0  9999
2 57543  81.2134 151.4843 0010783 166.5906 193.5553 14.09571210 21939
METEOR 1-17 DEB
1 57543U 74025J   23307.28671488  .00001365  00000-0  77316-3 0  9993
2 57543  81.2150 150.0982 0010682 161.1401 199.0167 14.09576182 22144
METEOR 1-17 DEB
1 57543U 74025J   23307.28671488  .00001365  00000-0  77316-3 0  9993
2 57543  81.2150 150.0982 0010682 161.1401 199.0167 14.09576182 22133
METEOR 1-17 DEB
1 57543U 74025J   23308.28047500  .00001425  00000-0  80743-3 0  9991
2 57543  81.2150 149.1287 0010717 157.8001 202.3635 14.09579176 22287
METEOR 1-17 DEB
1 57543U 74025J   23309.27423191  .00001709  00000-0  96949-3 0  9995
2 57543  81.2149 148.1590 0010729 154.5801 205.5899 14.09583703 22420
METEOR 1-17 DEB
1 57543U 74025J   23309.27423191  .00001709  00000-0  96949-3 0  9995
2 57543  81.2149 148.1590 0010729 154.5801 205.5899 14.09583703 22419
METEOR 1-17 DEB
1 57543U 74025J   23310.83584144  .00002247  00000-0  12767-2 0  9998
2 57543  81.2149 146.6353 0010739 149.7981 210.3811 14.09592656 22645
METEOR 1-17 DEB
1 57543U 74025J   23310.83584144  .00002247  00000-0  12767-2 0  9998
2 57543  81.2149 146.6353 0010739 149.7981 210.3811 14.09592656 22634
METEOR 1-17 DEB
1 57543U 74025J   23312.82333683  .00001947  00000-0  11048-2 0  9996
2 57543  81.2145 144.6962 0010804 143.9156 216.2745 14.09598716 22923
METEOR 1-17 DEB
1 57543U 74025J   23312.82333683  .00001947  00000-0  11048-2 0  9996
2 57543  81.2145 144.6962 0010804 143.9156 216.2745 14.09598716 22912
METEOR 1-17 DEB
1 57543U 74025J   23313.81707994  .00001794  00000-0  10176-2 0  9997
2 57543  81.2142 143.7266 0010843 140.9523 219.2432 14.09601988 23063
METEOR 1-17 DEB
1 57543U 74025J   23315.23670841  .00001634  00000-0  92593-3 0  9992
2 57543  81.2139 142.3413 0010877 136.6620 223.5408 14.09606858 23269
METEOR 1-17 DEB
1 57543U 74025J   23315.23670841  .00001634  00000-0  92593-3 0  9992
2 57543  81.2139 142.3413 0010877 136.6620 223.5408 14.09606858 23258
METEOR 1-17 DEB
1 57543U 74025J   23316.23044593  .00001424  00000-0  80607-3 0  9992
2 57543  81.2139 141.3716 0010882 133.8557 226.3515 14.09609283 23409
METEOR 1-17 DEB
1 57543U 74025J   23317.22418113  .00001412  00000-0  79927-3 0  9995
2 57543  81.2140 140.4020 0010884 131.0576 229.1537 14.09612471 23545
METEOR 1-17 DEB
1 57543U 74025J   23317.22418113  .00001412  00000-0  79927-3 0  9995
2 57543  81.2140 140.4020 0010884 131.0576 229.1537 14.09612471 23534
METEOR 1-17 DEB
1 57543U 74025J   23317.86301024  .00001331  00000-0  75312-3 0  9991
2 57543  81.2147 139.7790 0010820 129.3936 230.8195 14.09613874 23634
METEOR 1-17 DEB
1 57543U 74025J   23318.21791513  .00001270  00000-0  71833-3 0  9993
2 57543  81.2146 139.4325 0010815 128.2059 232.0087 14.09614515 23684
METEOR 1-17 DEB
1 57543U 74025J   23320.20537738  .00001195  00000-0  67521-3 0  9997
2 57543  81.2143 137.4931 0010804 122.4882 237.7334 14.09619438 23967
METEOR 1-17 DEB
1 57543U 74025J   23320.20537738  .00001195  00000-0  67521-3 0  9997
2 57543  81.2143 137.4931 0010804 122.4882 237.7334 14.09619438 23956
METEOR 1-17 DEB
1 57543U 74025J   23322.19283368  .00001081  00000-0  61020-3 0  9996
2 57543  81.2144 135.5537 0010728 116.3341 243.8933 14.09623582 24246
METEOR 1-17 DEB
1 57543U 74025J   23322.19283368  .00001081  00000-0  61020-3 0  9996
2 57543  81.2144 135.5537 0010728 116.3341 243.8933 14.09623582 24235
METEOR 1-17 DEB
1 57543U 74025J   23322.83165739  .00000984  00000-0  55466-3 0  9996
2 57543  81.2151 134.9311 0010585 113.6780 246.5503 14.09624628 24330
METEOR 1-17 DEB
1 57543U 74025J   23325.81282541  .00001296  00000-0  73259-3 0  9995
2 57543  81.2149 132.0223 0010378 105.0288 255.2032 14.09633000 24750
METEOR 1-17 DEB
1 57543U 74025J   23325.81282541  .00001296  00000-0  73259-3 0  9995
2 57543  81.2149 132.0223 0010378 105.0288 255.2032 14.09633000 24749
METEOR 1-17 DEB
1 57543U 74025J   23326.16772450  .00001479  00000-0  83727-3 0  9991
2 57543  81.2146 131.6758 0010451 104.5941 255.6389 14.09635037 24804
METEOR 1-17 DEB
1 57543U 74025J   23330.78138580  .00002207  00000-0  12522-2 0  9998
2 57543  81.2138 127.1721 0010052  91.7620 268.4702 14.09654620 25455
METEOR 1-17 DEB
1 57543U 74025J   23330.78138580  .00002207  00000-0  12522-2 0  9998
2 57543  81.2138 127.1721 0010052  91.7620 268.4702 14.09654620 25444
METEOR 1-17 DEB
1 57543U 74025J   23332.76878838  .00002236  00000-0  12687-2 0  9999
2 57543  81.2141 125.2330 0009850  85.1351 275.0943 14.09663346 25733
METEOR 1-17 DEB
1 57543U 74025J   23332.76878838  .00002236  00000-0  12687-2 0  9999
2 57543  81.2141 125.2330 0009850  85.1351 275.0943 14.09663346 25722
METEOR 1-17 DEB
1 57543U 74025J   23336.74355330  .00002321  00000-0  13170-2 0  9991
2 57543  81.2144 121.3540 0009624  73.0473 287.1751 14.09681906 26291
METEOR 1-17 DEB
1 57543U 74025J   23336.74355330  .00002321  00000-0  13170-2 0  9991
2 57543  81.2144 121.3540 0009624  73.0473 287.1751 14.09681906 26280
METEOR 1-17 DEB
1 57543U 74025J   23340.71827164  .00001298  00000-0  73331-3 0  9990
2 57543  81.2109 117.4666 0009798  68.1112 292.1099 14.09693589 26857
METEOR 1-17 DEB
1 57543U 74025J   23340.71827164  .00001298  00000-0  73331-3 0  9990
2 57543  81.2109 117.4666 0009798  68.1112 292.1099 14.09693589 26846
METEOR 1-17 DEB
1 57543U 74025J   23342.70562164  .00001047  00000-0  59020-3 0  9998
2 57543  81.2111 115.5268 0009589  61.6610 298.5526 14.09697307 27135
METEOR 1-17 DEB
1 57543U 74025J   23342.70562164  .00001047  00000-0  59020-3 0  9998
2 57543  81.2111 115.5268 0009589  61.6610 298.5526 14.09697307 27124
METEOR 1-17 DEB
1 57543U 74025J   23353.63593298  .00001561  00000-0  88273-3 0  9997
2 57543  81.2127 104.8570 0009016  24.7821 335.3780 14.09725121 28676
METEOR 1-17 DEB
1 57543U 74025J   23353.63593298  .00001561  00000-0  88273-3 0  9997
2 57543  81.2127 104.8570 0009016  24.7821 335.3780 14.09725121 28665
METEOR 1-17 DEB
1 57543U 74025J   23359.59774876  .00002339  00000-0  13251-2 0  9998
2 57543  81.2130  99.0379 0008746   3.8335 356.2901 14.09764061 29516
METEOR 1-17 DEB
1 57543U 74025J   23359.59774876  .00002339  00000-0  13251-2 0  9998
2 57543  81.2130  99.0379 0008746   3.8335 356.2901 14.09764061 29505
METEOR 1-17 DEB
1 57543U 74025J   23360.02358516  .00002431  00000-0  13777-2 0  9993
2 57543  81.2108  98.6226 0007736   5.0854 355.0394 14.09767172 29570
METEOR 1-17 DEB
1 57543U 74025J   23362.01081379  .00002901  00000-0  16445-2 0  9991
2 57543  81.2146  96.6894 0008673 352.7954   7.3090 14.09784563 29859
METEOR 1-17 DEB
1 57543U 74025J   23362.01081379  .00002901  00000-0  16445-2 0  9991
2 57543  81.2146  96.6894 0008673 352.7954   7.3090 14.09784563 29848
METEOR 1-17 DEB
1 57543U 74025J   23363.99802252  .00002730  00000-0  15471-2 0  9998
2 57543  81.2156  94.7511 0008834 345.5434  14.5482 14.09799083 30138
METEOR 1-17 DEB
1 57543U 74025J   23363.99802252  .00002730  00000-0  15471-2 0  9998
2 57543  81.2156  94.7511 0008834 345.5434  14.5482 14.09799083 30127
METEOR 1-17 DEB
1 57543U 74025J   23365.55939122  .00002375  00000-0  13444-2 0  9992
2 57543  81.2161  93.2278 0009085 339.6380  20.4427 14.09806978 30352
METEOR 1-17 DEB
1 57543U 74025J   23365.55939122  .00002375  00000-0  13444-2 0  9992
2 57543  81.2161  93.2278 0009085 339.6380  20.4427 14.09806978 30341
METEOR 1-17 DEB
1 57543U 74025J   24006.52089150  .00002243  00000-0  12685-2 0  9999
2 57543  81.2155  87.4051 0009079 321.0103  39.0412 14.09838949 31196
METEOR 1-17 DEB
1 57543U 74025J   24006.52089150  .00002243  00000-0  12685-2 0  9999
2 57543  81.2155  87.4051 0009079 321.0103  39.0412 14.09838949 31185
METEOR 1-17 DEB
1 57543U 74025J   24008.93383721  .00002863  00000-0  16208-2 0  9990
2 57543  81.2130  85.0462 0008347 312.7173  47.3294 14.09855845 31532
METEOR 1-17 DEB
1 57543U 74025J   24008.93383721  .00002863  00000-0  16208-2 0  9990
2 57543  81.2130  85.0462 0008347 312.7173  47.3294 14.09855845 31521
METEOR 1-17 DEB
1 57543U 74025J   24012.48222581  .00004290  00000-0  24297-2 0  9994
2 57543  81.2197  81.5918 0010444 304.0613  55.9566 14.09889337 32021
METEOR 1-17 DEB
1 57543U 74025J   24012.90801959  .00004799  00000-0  27192-2 0  9994
2 57543  81.2029  81.1618 0007667 285.9453  74.0873 14.09896211 32099
METEOR 1-17 DEB
1 57543U 74025J   24012.90801959  .00004799  00000-0  27192-2 0  9994
2 57543  81.2029  81.1618 0007667 285.9453  74.0873 14.09896211 32088
METEOR 1-17 DEB
1 57543U 74025J   24014.46927654  .00005918  00000-0  33529-2 0  9993
2 57543  81.2118  79.6444 0008954 292.8496  67.1729 14.09917337 32312
METEOR 1-17 DEB
1 57543U 74025J   24014.46927654  .00005918  00000-0  33529-2 0  9993
2 57543  81.2118  79.6444 0008954 292.8496  67.1729 14.09917337 32301
METEOR 1-17 DEB
1 57543U 74025J   24028.80344488  .00004870  00000-0  27494-2 0  9994
2 57543  81.2149  65.6380 0009044 254.5936 105.4235 14.10086016 34330
METEOR 1-17 DEB
1 57543U 74025J   24028.80344488  .00004870  00000-0  27494-2 0  9994
2 57543  81.2149  65.6380 0009044 254.5936 105.4235 14.10086016 34329
METEOR 1-17 DEB
1 57543U 74025J   24033.77035949  .00004575  00000-0  25804-2 0  9990
2 57543  81.2132  60.7907 0009588 238.2150 121.8087 14.10133661 35037
METEOR 1-17 DEB
1 57543U 74025J   24033.77035949  .00004575  00000-0  25804-2 0  9990
2 57543  81.2132  60.7907 0009588 238.2150 121.8087 14.10133661 35026
METEOR 1-17 DEB
1 57543U 74025J   24036.32471250  .00005818  00000-0  32808-2 0  9996
2 57543  81.2118  58.2947 0009487 230.0794 129.9544 14.10159545 35394
METEOR 1-17 DEB
1 57543U 74025J   24036.32471250  .00005818  00000-0  32808-2 0  9996
2 57543  81.2118  58.2947 0009487 230.0794 129.9544 14.10159545 35383
METEOR 1-17 DEB
1 57543U 74025J   24039.37567856  .00007048  00000-0  39726-2 0  9995
2 57543  81.2126  55.3152 0009706 220.6469 139.3978 14.10197367 35825
METEOR 1-17 DEB
1 57543U 74025J   24039.37567856  .00007048  00000-0  39726-2 0  9995
2 57543  81.2126  55.3152 0009706 220.6469 139.3978 14.10197367 35814
METEOR 1-17 DEB
1 57543U 74025J   24048.31515868  .00007861  00000-0  44200-2 0  9991
2 57543  81.2156  46.5822 0009657 191.7590 168.3357 14.10337402 37081
METEOR 1-17 DEB
1 57543U 74025J   24048.31515868  .00007861  00000-0  44200-2 0  9991
2 57543  81.2156  46.5822 0009657 191.7590 168.3357 14.10337402 37070
METEOR 1-17 DEB
1 57543U 74025J   24054.27431566  .00005613  00000-0  31498-2 0  9993
2 57543  81.2165  40.7608 0009465 172.7152 187.4158 14.10420283 37923
METEOR 1-17 DEB
1 57543U 74025J   24054.27431566  .00005613  00000-0  31498-2 0  9993
2 57543  81.2165  40.7608 0009465 172.7152 187.4158 14.10420283 37912
METEOR 1-17 DEB
1 57543U 74025J   24055.26747888  .00006374  00000-0  35771-2 0  9993
2 57543  81.2156  39.7796 0008889 166.0701 194.0717 14.10433266 38060
METEOR 1-17 DEB
1 57543U 74025J   24055.26747888  .00006374  00000-0  35771-2 0  9993
2 57543  81.2156  39.7796 0008889 166.0701 194.0717 14.10433266 38059
METEOR 1-17 DEB
1 57543U 74025J   24060.23314733  .00005479  00000-0  30704-2 0  9991
2 57543  81.2176  34.9396 0010228 154.5306 205.6371 14.10496091 38765
METEOR 1-17 DEB
1 57543U 74025J   24060.23314733  .00005479  00000-0  30704-2 0  9991
2 57543  81.2176  34.9396 0010228 154.5306 205.6371 14.10496091 38754
METEOR 1-17 DEB
1 57543U 74025J   24063.21245452  .00006380  00000-0  35730-2 0  9999
2 57543  81.2170  32.0251 0011506 144.8154 215.3779 14.10528558 39182
METEOR 1-17 DEB
1 57543U 74025J   24063.21245452  .00006380  00000-0  35730-2 0  9999
2 57543  81.2170  32.0251 0011506 144.8154 215.3779 14.10528558 39171
METEOR 1-17 DEB
1 57543U 74025J   24071.58243732  .00006096  00000-0  34082-2 0  9990
2 57543  81.2253  23.8691 0006587 117.3289 242.8553 14.10642624 40365
METEOR 1-17 DEB
1 57543U 74025J   24071.58243732  .00006096  00000-0  34082-2 0  9990
2 57543  81.2253  23.8691 0006587 117.3289 242.8553 14.10642624 40354
METEOR 1-17 DEB
1 57543U 74025J   24076.26370135  .00005322  00000-0  29715-2 0  9996
2 57543  81.2161  19.2625 0010372 102.9479 257.2851 14.10691417 41015
METEOR 1-17 DEB
1 57543U 74025J   24076.54740693  .00005378  00000-0  30022-2 0  9991
2 57543  81.2164  18.9855 0010233 103.4291 256.8021 14.10694520 41060
METEOR 1-17 DEB
1 57543U 74025J   24081.51215980  .00008738  00000-0  48737-2 0  9995
2 57543  81.2172  14.1319 0010933  91.0543 269.1881 14.10764919 41769
METEOR 1-17 DEB
1 57543U 74025J   24081.51215980  .00008738  00000-0  48737-2 0  9995
2 57543  81.2172  14.1319 0010933  91.0543 269.1881 14.10764919 41758
METEOR 1-17 DEB
1 57543U 74025J   24082.50507331  .00009345  00000-0  52101-2 0  9994
2 57543  81.2152  13.1610 0011098  89.6673 270.5770 14.10786299 41904
METEOR 1-17 DEB
1 57543U 74025J   24082.50507331  .00009345  00000-0  52101-2 0  9994
2 57543  81.2152  13.1610 0011098  89.6673 270.5770 14.10786299 41892
METEOR 1-17 DEB
1 57543U 74025J   24094.06430454  .00005538  00000-0  30736-2 0  9999
2 57543  81.2138   1.8530 0012248  66.1950 294.0504 14.11002145 43538
METEOR 1-17 DEB
1 57543U 74025J   24094.06430454  .00005538  00000-0  30736-2 0  9999
2 57543  81.2138   1.8530 0012248  66.1950 294.0504 14.11002145 43527
METEOR 1-17 DEB
1 57543U 74025J   24098.03528572  .00004948  00000-0  27441-2 0  9992
2 57543  81.2179 357.9803 0011880  58.5653 301.6678 14.11035930 44094
METEOR 1-17 DEB
1 57543U 74025J   24099.02801575  .00004605  00000-0  25531-2 0  9997
2 57543  81.2191 357.0103 0012028  53.6963 306.5317 14.11044260 44233
METEOR 1-17 DEB
1 57543U 74025J   24100.02073932  .00004706  00000-0  26087-2 0  9997
2 57543  81.2132 356.0185 0013143  52.3576 307.8786 14.11053279 44371
METEOR 1-17 DEB
1 57543U 74025J   24100.02073932  .00004706  00000-0  26087-2 0  9997
2 57543  81.2132 356.0185 0013143  52.3576 307.8786 14.11053279 44360
METEOR 1-17 DEB
1 57543U 74025J   24101.01345465  .00004902  00000-0  27167-2 0  9998
2 57543  81.2124 355.0484 0012968  51.1617 309.0710 14.11062861 44514
METEOR 1-17 DEB
1 57543U 74025J   24106.40235932  .00006966  00000-0  38586-2 0  9992
2 57543  81.2156 349.7842 0012608  34.9149 325.2847 14.11123382 45278
METEOR 1-17 DEB
1 57543U 74025J   24106.40235932  .00006966  00000-0  38586-2 0  9992
2 57543  81.2156 349.7842 0012608  34.9149 325.2847 14.11123382 45267
METEOR 1-17 DEB
1 57543U 74025J   24113.91779305  .00011146  00000-0  61550-2 0  9996
2 57543  81.2119 342.4377 0010974  13.1676 346.9780 14.11306734 46336
METEOR 1-17 DEB
1 57543U 74025J   24113.91779305  .00011146  00000-0  61550-2 0  9996
2 57543  81.2119 342.4377 0010974  13.1676 346.9780 14.11306734 46325
METEOR 1-17 DEB
1 57543U 74025J   24114.34316535  .00010574  00000-0  58372-2 0  9998
2 57543  81.2125 342.0154 0011401  11.9525 348.1915 14.11319316 46397
METEOR 1-17 DEB
1 57543U 74025J   24117.32068475  .00009358  00000-0  51601-2 0  9992
2 57543  81.2136 339.1027 0011443   2.4796 357.6430 14.11384448 46818
METEOR 1-17 DEB
1 57543U 74025J   24117.32068475  .00009358  00000-0  51601-2 0  9992
2 57543  81.2136 339.1027 0011443   2.4796 357.6430 14.11384448 46807
METEOR 1-17 DEB
1 57543U 74025J   24118.31316255  .00010692  00000-0  58929-2 0  9997
2 57543  81.2143 338.1309 0011430 359.6778   0.4384 14.11406734 46950
METEOR 1-17 DEB
1 57543U 74025J   24118.31316255  .00010692  00000-0  58929-2 0  9997
2 57543  81.2143 338.1309 0011430 359.6778   0.4384 14.11406734 46949
METEOR 1-17 DEB
1 57543U 74025J   24121.85764120  .00005222  00000-0  28747-2 0  9996
2 57543  81.2138 334.6592 0011063 350.8425   9.2543 14.11448754 47451
METEOR 1-17 DEB
1 57543U 74025J   24121.85764120  .00005222  00000-0  28747-2 0  9996
2 57543  81.2138 334.6592 0011063 350.8425   9.2543 14.11448754 47440
METEOR 1-17 DEB
1 57543U 74025J   24123.91339907  .00005139  00000-0  28278-2 0  9992
2 57543  81.2123 332.6448 0010743 345.2635  14.8222 14.11468454 47745
METEOR 1-17 DEB
1 57543U 74025J   24123.91339907  .00005139  00000-0  28278-2 0  9992
2 57543  81.2123 332.6448 0010743 345.2635  14.8222 14.11468454 47734
METEOR 1-17 DEB
1 57543U 74025J   24125.89823837  .00005100  00000-0  28052-2 0  9999
2 57543  81.2133 330.7042 0010655 339.2636  20.8102 14.11489387 48025
METEOR 1-17 DEB
1 57543U 74025J   24125.89823837  .00005100  00000-0  28052-2 0  9999
2 57543  81.2133 330.7042 0010655 339.2636  20.8102 14.11489387 48014
METEOR 1-17 DEB
1 57543U 74025J   24128.87544423  .00005839  00000-0  32108-2 0  9997
2 57543  81.2120 327.7873 0010428 331.1145  28.9448 14.11521584 48436
METEOR 1-17 DEB
1 57543U 74025J   24130.86020682  .00008919  00000-0  49033-2 0  9992
2 57543  81.2119 325.8431 0010326 325.3640  34.6858 14.11551220 48726
METEOR 1-17 DEB
1 57543U 74025J   24130.86020682  .00008919  00000-0  49033-2 0  9992
2 57543  81.2119 325.8431 0010326 325.3640  34.6858 14.11551220 48715
METEOR 1-17 DEB
1 57543U 74025J   24130.86020760  .00011977  00000-0  65839-2 0  9999
2 57543  81.2111 325.8415 0010021 325.4400  34.6119 14.11555841 48720
METEOR 1-17 DEB
1 57543U 74025J   24130.86020762  .00011978  00000-0  65841-2 0  9995
2 57543  81.2112 325.8415 0010038 325.4464  34.6054 14.11555841 48727
METEOR 1-17 DEB
1 57543U 74025J   24130.86020762  .00011978  00000-0  65841-2 0  9995
2 57543  81.2112 325.8415 0010038 325.4464  34.6054 14.11555841 48716
METEOR 1-17 DEB
1 57543U 74025J   24151.12889923  .00005665  00000-0  30872-2 0  9991
2 57543  81.2105 305.9725 0010111 261.4907  98.5119 14.12007589 51586
METEOR 1-17 DEB
1 57543U 74025J   24151.12889923  .00005665  00000-0  30872-2 0  9991
2 57543  81.2105 305.9725 0010111 261.4907  98.5119 14.12007589 51575
METEOR 1-17 DEB
1 57543U 74025J   24159.70278367  .00009509  00000-0  51738-2 0  9992
2 57543  81.2134 297.5648 0010046 236.9541 123.0666 14.12112139 52799
METEOR 1-17 DEB
1 57543U 74025J   24159.70278367  .00009509  00000-0  51738-2 0  9992
2 57543  81.2134 297.5648 0010046 236.9541 123.0666 14.12112139 52788
METEOR 1-17 DEB
1 57543U 74025J   24160.62389690  .00008756  00000-0  47620-2 0  9995
2 57543  81.2120 296.6707 0011355 229.1742 130.8446 14.12127397 52920
METEOR 1-17 DEB
1 57543U 74025J   24161.61585767  .00007989  00000-0  43433-2 0  9993
2 57543  81.2117 295.6977 0011424 225.8611 134.1623 14.12142649 53066
METEOR 1-17 DEB
1 57543U 74025J   24161.61585767  .00007989  00000-0  43433-2 0  9993
2 57543  81.2117 295.6977 0011424 225.8611 134.1623 14.12142649 53055
METEOR 1-17 DEB
1 57543U 74025J   24167.07147757  .00005311  00000-0  28822-2 0  9994
2 57543  81.2091 290.3493 0013132 215.9486 144.0804 14.12207840 53831
METEOR 1-17 DEB
1 57543U 74025J   24169.05529361  .00005550  00000-0  30111-2 0  9998
2 57543  81.2107 288.4034 0012512 206.5376 153.5157 14.12225803 54110
METEOR 1-17 DEB
1 57543U 74025J   24171.03907808  .00004270  00000-0  23151-2 0  9999
2 57543  81.2120 286.4587 0012777 201.5766 158.4870 14.12241749 54390
METEOR 1-17 DEB
1 57543U 74025J   24171.03907808  .00004270  00000-0  23151-2 0  9999
2 57543  81.2120 286.4587 0012777 201.5766 158.4870 14.12241749 54389
METEOR 1-17 DEB
1 57543U 74025J   24177.98214714  .00005261  00000-0  28502-2 0  9992
2 57543  81.2106 279.6482 0013574 184.8993 175.2049 14.12299403 55366
METEOR 1-17 DEB
1 57543U 74025J   24179.54075192  .00005332  00000-0  28875-2 0  9993
2 57543  81.2136 278.1229 0014340 182.9058 177.2033 14.12316485 55584
METEOR 1-17 DEB
1 57543U 74025J   24180.53258228  .00007256  00000-0  39294-2 0  9991
2 57543  81.2134 277.1502 0014522 181.5645 178.5484 14.12330383 55738
METEOR 1-17 DEB
1 57543U 74025J   24181.52440321  .00007138  00000-0  38648-2 0  9999
2 57543  81.2130 276.1775 0014637 179.2250 180.8947 14.12343014 55867
METEOR 1-17 DEB
1 57543U 74025J   24184.49981307  .00004929  00000-0  26654-2 0  9991
2 57543  81.2118 273.2578 0015009 171.9362 188.2054 14.12375512 56285
METEOR 1-17 DEB
1 57543U 74025J   24185.49160221  .00004425  00000-0  23919-2 0  9998
2 57543  81.2118 272.2850 0015098 169.6939 190.4546 14.12384429 56434
METEOR 1-17 DEB
1 57543U 74025J   24186.48338467  .00004201  00000-0  22703-2 0  9999
2 57543  81.2106 271.3113 0015198 167.8241 192.3302 14.12393408 56573
METEOR 1-17 DEB
1 57543U 74025J   24186.48338467  .00004201  00000-0  22703-2 0  9999
2 57543  81.2106 271.3113 0015198 167.8241 192.3302 14.12393408 56562
METEOR 1-17 DEB
1 57543U 74025J   24187.47516082  .00004215  00000-0  22773-2 0  9992
2 57543  81.2107 270.3359 0015572 167.9599 192.1948 14.12402329 56711
METEOR 1-17 DEB
1 57543U 74025J   24188.46693076  .00004022  00000-0  21724-2 0  9992
2 57543  81.2092 269.3654 0015290 165.0037 195.1592 14.12411309 56854
METEOR 1-17 DEB
1 57543U 74025J   24188.46693076  .00004022  00000-0  21724-2 0  9992
2 57543  81.2092 269.3654 0015290 165.0037 195.1592 14.12411309 56843
METEOR 1-17 DEB
1 57543U 74025J   24190.45045271  .00003580  00000-0  19323-2 0  9992
2 57543  81.2095 267.4170 0015749 164.2925 195.8739 14.12427004 57136
METEOR 1-17 DEB
1 57543U 74025J   24190.45045271  .00003580  00000-0  19323-2 0  9992
2 57543  81.2095 267.4170 0015749 164.2925 195.8739 14.12427004 57125
METEOR 1-17 DEB
1 57543U 74025J   24197.88847117  .00004201  00000-0  22659-2 0  9992
2 57543  81.2142 260.1274 0015813 143.6873 216.5375 14.12486103 58187
METEOR 1-17 DEB
1 57543U 74025J   24197.88847117  .00004201  00000-0  22659-2 0  9992
2 57543  81.2142 260.1274 0015813 143.6873 216.5375 14.12486103 58176
METEOR 1-17 DEB
1 57543U 74025J   24201.85526587  .00005041  00000-0  27181-2 0  9998
2 57543  81.2098 256.2320 0015477 133.0894 227.1576 14.12530051 58742
METEOR 1-17 DEB
1 57543U 74025J   24201.85526587  .00005041  00000-0  27181-2 0  9998
2 57543  81.2098 256.2320 0015477 133.0894 227.1576 14.12530051 58731
METEOR 1-17 DEB
1 57543U 74025J   24202.84694648  .00005473  00000-0  29510-2 0  9999
2 57543  81.2090 255.2589 0015515 130.4558 229.7970 14.12540886 58889
METEOR 1-17 DEB
1 57543U 74025J   24205.39694339  .00005657  00000-0  30491-2 0  9993
2 57543  81.2096 252.7600 0015064 130.7318 229.5165 14.12565875 59247
METEOR 1-17 DEB
1 57543U 74025J   24205.39694339  .00005657  00000-0  30491-2 0  9993
2 57543  81.2096 252.7600 0015064 130.7318 229.5165 14.12565875 59236
METEOR 1-17 DEB
1 57543U 74025J   24208.37189929  .00003747  00000-0  20171-2 0  9990
2 57543  81.2112 249.8409 0015046 123.9481 236.3124 14.12586165 59667
METEOR 1-17 DEB
1 57543U 74025J   24208.37189929  .00003747  00000-0  20171-2 0  9990
2 57543  81.2112 249.8409 0015046 123.9481 236.3124 14.12586165 59656
METEOR 1-17 DEB
1 57543U 74025J   24211.34681080  .00003652  00000-0  19651-2 0  9992
2 57543  81.2114 246.9216 0014873 117.6179 242.6505 14.12606623 60087
METEOR 1-17 DEB
1 57543U 74025J   24211.34681080  .00003652  00000-0  19651-2 0  9992
2 57543  81.2114 246.9216 0014873 117.6179 242.6505 14.12606623 60076
METEOR 1-17 DEB
1 57543U 74025J   24212.33843888  .00003653  00000-0  19657-2 0  9995
2 57543  81.2090 245.9455 0014358 117.8948 242.3680 14.12612403 60228
METEOR 1-17 DEB
1 57543U 74025J   24213.33006348  .00004608  00000-0  24806-2 0  9991
2 57543  81.2094 244.9730 0014229 115.8495 244.4146 14.12620227 60367
METEOR 1-17 DEB
1 57543U 74025J   24213.33006348  .00004608  00000-0  24806-2 0  9991
2 57543  81.2094 244.9730 0014229 115.8495 244.4146 14.12620227 60356
METEOR 1-17 DEB
1 57543U 74025J   24214.81749048  .00003951  00000-0  21256-2 0  9992
2 57543  81.2106 243.5153 0014298 111.8999 248.3695 14.12628912 60570
METEOR 1-17 DEB
1 57543U 74025J   24214.81749048  .00003951  00000-0  21256-2 0  9992
2 57543  81.2106 243.5153 0014298 111.8999 248.3695 14.12628912 60569
METEOR 1-17 DEB
1 57543U 74025J   24219.77551379  .00003266  00000-0  17551-2 0  9992
2 57543  81.2076 238.6490 0013851 102.3630 257.9093 14.12659401 61279
METEOR 1-17 DEB
1 57543U 74025J   24219.77551379  .00003266  00000-0  17551-2 0  9992
2 57543  81.2076 238.6490 0013851 102.3630 257.9093 14.12659401 61268
METEOR 1-17 DEB
1 57543U 74025J   24220.76710903  .00003045  00000-0  16357-2 0  9991
2 57543  81.2102 237.6817 0013761  93.5349 266.7397 14.12663507 61412
METEOR 1-17 DEB
1 57543U 74025J   24220.76710903  .00003045  00000-0  16357-2 0  9991
2 57543  81.2102 237.6817 0013761  93.5349 266.7397 14.12663507 61401
METEOR 1-17 DEB
1 57543U 74025J   24222.75027675  .00005185  00000-0  27885-2 0  9994
2 57543  81.2080 235.7277 0013997  91.5766 268.7009 14.12682464 61693
METEOR 1-17 DEB
1 57543U 74025J   24222.75027675  .00005185  00000-0  27885-2 0  9994
2 57543  81.2080 235.7277 0013997  91.5766 268.7009 14.12682464 61682
METEOR 1-17 DEB
1 57543U 74025J   24246.61686164  .00004877  00000-0  26126-2 0  9993
2 57543  81.2107 212.3190 0013350  32.3871 327.8118 14.12900003 65066
METEOR 1-17 DEB
1 57543U 74025J   24246.61686164  .00004877  00000-0  26126-2 0  9993
2 57543  81.2107 212.3190 0013350  32.3871 327.8118 14.12900003 65055
METEOR 1-17 DEB
1 57543U 74025J   24247.60828522  .00004931  00000-0  26409-2 0  9994
2 57543  81.2130 211.3445 0013780  30.5398 329.6574 14.12906610 65207
METEOR 1-17 DEB
1 57543U 74025J   24248.59970062  .00006077  00000-0  32549-2 0  9995
2 57543  81.2131 210.3716 0013775  28.4854 331.7068 14.12917734 65341
METEOR 1-17 DEB
1 57543U 74025J   24248.59970062  .00006077  00000-0  32549-2 0  9995
2 57543  81.2131 210.3716 0013775  28.4854 331.7068 14.12917734 65330
METEOR 1-17 DEB
1 57543U 74025J   24255.61019728  .00005887  00000-0  31486-2 0  9996
2 57543  81.2132 203.4914 0013907  15.4962 344.6634 14.12996795 66334
METEOR 1-17 DEB
1 57543U 74025J   24255.61019728  .00005887  00000-0  31486-2 0  9996
2 57543  81.2132 203.4914 0013907  15.4962 344.6634 14.12996795 66323
METEOR 1-17 DEB
1 57543U 74025J   24256.60154352  .00012374  00000-0  66156-2 0  9990
2 57543  81.2151 202.5202 0014209  13.6980 346.4575 14.13025029 66474
METEOR 1-17 DEB
1 57543U 74025J   24256.60154352  .00012374  00000-0  66156-2 0  9990
2 57543  81.2151 202.5202 0014209  13.6980 346.4575 14.13025029 66463
METEOR 1-17 DEB
1 57543U 74025J   24257.16802257  .00008752  00000-0  46799-2 0  9992
2 57543  81.2109 201.9629 0013777  11.0716 349.0757 14.13024914 66542
METEOR 1-17 DEB
1 57543U 74025J   24258.15934790  .00009396  00000-0  50230-2 0  9990
2 57543  81.2040 200.9850 0013017   8.3311 351.8075 14.13044512 66694
METEOR 1-17 DEB
1 57543U 74025J   24259.15066859  .00005888  00000-0  31459-2 0  9997
2 57543  81.2105 200.0145 0013519   8.4908 351.6490 14.13053185 66835
METEOR 1-17 DEB
1 57543U 74025J   24259.15066859  .00005888  00000-0  31459-2 0  9997
2 57543  81.2105 200.0145 0013519   8.4908 351.6490 14.13053185 66824
METEOR 1-17 DEB
1 57543U 74025J   24260.56682600  .00005338  00000-0  28510-2 0  9996
2 57543  81.2130 198.6266 0013701   5.0354 355.0954 14.13067799 67032
METEOR 1-17 DEB
1 57543U 74025J   24260.56682600  .00005338  00000-0  28510-2 0  9996
2 57543  81.2130 198.6266 0013701   5.0354 355.0954 14.13067799 67021
METEOR 1-17 DEB
1 57543U 74025J   24261.55812356  .00017807  00000-0  95035-2 0  9999
2 57543  81.2122 197.6527 0013546   2.7649 357.3596 14.13099939 67173
METEOR 1-17 DEB
1 57543U 74025J   24261.55812356  .00017807  00000-0  95035-2 0  9999
2 57543  81.2122 197.6527 0013546   2.7649 357.3596 14.13099939 67162
METEOR 1-17 DEB
1 57543U 74025J   24262.12457776  .00006537  00000-0  34908-2 0  9994
2 57543  81.2130 197.0975 0013589   1.1694 358.9508 14.13089039 67252
METEOR 1-17 DEB
1 57543U 74025J   24262.12457776  .00006537  00000-0  34908-2 0  9994
2 57543  81.2130 197.0975 0013589   1.1694 358.9508 14.13089039 67241
METEOR 1-17 DEB
1 57543U 74025J   24264.10714521  .00005153  00000-0  27498-2 0  9997
2 57543  81.2133 195.1517 0013499 356.4678   3.6396 14.13107441 67532
METEOR 1-17 DEB
1 57543U 74025J   24264.10714521  .00005153  00000-0  27498-2 0  9997
2 57543  81.2133 195.1517 0013499 356.4678   3.6396 14.13107441 67521
METEOR 1-17 DEB
1 57543U 74025J   24265.52325086  .00003906  00000-0  20829-2 0  9993
2 57543  81.2126 193.7612 0013342 353.4140   6.6855 14.13116999 67735
METEOR 1-17 DEB
1 57543U 74025J   24265.52325086  .00003906  00000-0  20829-2 0  9993
2 57543  81.2126 193.7612 0013342 353.4140   6.6855 14.13116999 67724
METEOR 1-17 DEB
1 57543U 74025J   24266.08968962  .00004092  00000-0  21818-2 0  9997
2 57543  81.2129 193.2056 0013383 351.6446   8.4501 14.13122138 67818
METEOR 1-17 DEB
1 57543U 74025J   24267.08095355  .00004025  00000-0  21459-2 0  9992
2 57543  81.2123 192.2320 0013227 349.5179  10.5716 14.13129798 67957
METEOR 1-17 DEB
1 57543U 74025J   24267.08095355  .00004025  00000-0  21459-2 0  9992
2 57543  81.2123 192.2320 0013227 349.5179  10.5716 14.13129798 67946
METEOR 1-17 DEB
1 57543U 74025J   24268.49703364  .00004986  00000-0  26589-2 0  9999
2 57543  81.2124 190.8422 0013120 346.4732  13.6087 14.13144442 68148
METEOR 1-17 DEB
1 57543U 74025J   24271.04592712  .00007105  00000-0  37878-2 0  9996
2 57543  81.2121 188.3407 0012712 340.3467  19.7214 14.13183410 68512
METEOR 1-17 DEB
1 57543U 74025J   24271.04592712  .00007105  00000-0  37878-2 0  9996
2 57543  81.2121 188.3407 0012712 340.3467  19.7214 14.13183410 68501
METEOR 1-17 DEB
1 57543U 74025J   24273.09915117  .00007478  00000-0  39845-2 0  9990
2 57543  81.2127 186.3245 0012427 336.4534  23.6068 14.13216096 68800
METEOR 1-17 DEB
1 57543U 74025J   24273.09915117  .00007478  00000-0  39845-2 0  9990
2 57543  81.2127 186.3245 0012427 336.4534  23.6068 14.13216096 68798
METEOR 1-17 DEB
1 57543U 74025J   24274.09034350  .00008947  00000-0  47663-2 0  9991
2 57543  81.2126 185.3514 0012186 333.9160  26.1397 14.13236879 68945
METEOR 1-17 DEB
1 57543U 74025J   24274.09034350  .00008947  00000-0  47663-2 0  9991
2 57543  81.2126 185.3514 0012186 333.9160  26.1397 14.13236879 68934
METEOR 1-17 DEB
1 57543U 74025J   24276.49746215  .00014359  00000-0  76394-2 0  9994
2 57543  81.2126 182.9865 0011742 329.2284  30.8199 14.13296634 69284
METEOR 1-17 DEB
1 57543U 74025J   24276.49746215  .00014359  00000-0  76394-2 0  9994
2 57543  81.2126 182.9865 0011742 329.2284  30.8199 14.13296634 69273
METEOR 1-17 DEB
1 57543U 74025J   24279.04605524  .00017290  00000-0  91840-2 0  9995
2 57543  81.2148 180.4867 0011671 322.1108  37.9242 14.13370846 69635
METEOR 1-17 DEB
1 57543U 74025J   24279.47080876  .00014413  00000-0  76565-2 0  9990
2 57543  81.2156 180.0697 0011527 322.7972  37.2400 14.13379247 69707
METEOR 1-17 DEB
1 57543U 74025J   24279.47080876  .00014413  00000-0  76565-2 0  9990
2 57543  81.2156 180.0697 0011527 322.7972  37.2400 14.13379247 69695
METEOR 1-17 DEB
1 57543U 74025J   24280.46188144  .00012980  00000-0  68927-2 0  9998
2 57543  81.2131 179.0943 0011067 319.0334  41.0006 14.13408862 69848
METEOR 1-17 DEB
1 57543U 74025J   24282.44395022  .00085703  00000-0  44951-1 0  9996
2 57543  81.2130 177.1470 0011317 311.3307  48.6891 14.13570461 70127
METEOR 1-17 DEB
1 57543U 74025J   24282.44395022  .00085703  00000-0  44951-1 0  9996
2 57543  81.2130 177.1470 0011317 311.3307  48.6891 14.13570461 70116
METEOR 1-17 DEB
1 57543U 74025J   24283.01024525  .00014869  00000-0  78809-2 0  9992
2 57543  81.2110 176.5924 0011254 309.6311  50.3868 14.13501428 70207
METEOR 1-17 DEB
1 57543U 74025J   24283.01024525  .00014869  00000-0  78809-2 0  9992
2 57543  81.2110 176.5924 0011254 309.6311  50.3868 14.13501428 70195
METEOR 1-17 DEB
1 57543U 74025J   24285.98313950  .00020288  00000-0  10725-1 0  9997
2 57543  81.2137 173.6716 0010858 301.7164  58.2949 14.13614134 70612
METEOR 1-17 DEB
1 57543U 74025J   24286.97405278  .00011395  00000-0  60261-2 0  9992
2 57543  81.2135 172.6993 0010970 298.3592  61.6474 14.13635496 70768
METEOR 1-17 DEB
1 57543U 74025J   24287.96495767  .00007605  00000-0  40208-2 0  9992
2 57543  81.2126 171.7243 0010844 295.2308  64.7740 14.13646214 70903
METEOR 1-17 DEB
1 57543U 74025J   24287.96495767  .00007605  00000-0  40208-2 0  9992
2 57543  81.2126 171.7243 0010844 295.2308  64.7740 14.13646214 70891
METEOR 1-17 DEB
1 57543U 74025J   24289.02663087  .00007877  00000-0  41637-2 0  9991
2 57543  81.2121 170.6812 0010712 291.7958  68.2075 14.13661373 71054
METEOR 1-17 DEB
1 57543U 74025J   24289.02663087  .00007877  00000-0  41637-2 0  9991
2 57543  81.2121 170.6812 0010712 291.7958  68.2075 14.13661373 71043
METEOR 1-17 DEB
1 57543U 74025J   24289.94673928  .00008461  00000-0  44715-2 0  9997
2 57543  81.2123 169.7767 0010599 289.3817  70.6209 14.13675019 71186
METEOR 1-17 DEB
1 57543U 74025J   24290.37140242  .00008012  00000-0  42338-2 0  9995
2 57543  81.2125 169.3597 0010635 287.6253  72.3758 14.13679955 71249
METEOR 1-17 DEB
1 57543U 74025J   24290.37140242  .00008012  00000-0  42338-2 0  9995
2 57543  81.2125 169.3597 0010635 287.6253  72.3758 14.13679955 71238
METEOR 1-17 DEB
1 57543U 74025J   24297.37805411  .00007019  00000-0  37016-2 0  9991
2 57543  81.2105 162.4741 0009886 265.1890  94.8154 14.13784645 72238
METEOR 1-17 DEB
1 57543U 74025J   24297.37805411  .00007019  00000-0  37016-2 0  9991
2 57543  81.2105 162.4741 0009886 265.1890  94.8154 14.13784645 72227
METEOR 1-17 DEB
1 57543U 74025J   24300.35040240  .00008087  00000-0  42611-2 0  9998
2 57543  81.2106 159.5524 0009748 256.1092 103.8997 14.13839319 72657
METEOR 1-17 DEB
1 57543U 74025J   24300.35040240  .00008087  00000-0  42611-2 0  9998
2 57543  81.2106 159.5524 0009748 256.1092 103.8997 14.13839319 72646
METEOR 1-17 DEB
1 57543U 74025J   24303.88870681  .00014899  00000-0  78320-2 0  9993
2 57543  81.2093 156.0716 0009765 245.8937 114.1215 14.13948393 73156
METEOR 1-17 DEB
1 57543U 74025J   24303.88870681  .00014899  00000-0  78320-2 0  9993
2 57543  81.2093 156.0716 0009765 245.8937 114.1215 14.13948393 73145
METEOR 1-17 DEB
1 57543U 74025J   24308.84183856  .00016071  00000-0  84198-2 0  9999
2 57543  81.2056 151.1970 0009482 228.5014 131.5346 14.14124957 73851
METEOR 1-17 DEB
1 57543U 74025J   24308.84183856  .00016071  00000-0  84198-2 0  9999
2 57543  81.2056 151.1970 0009482 228.5014 131.5346 14.14124957 73840
METEOR 1-17 DEB
1 57543U 74025J   24317.82666838  .00010617  00000-0  55339-2 0  9998
2 57543  81.2045 142.3553 0009439 205.2718 154.7995 14.14418956 75127
METEOR 1-17 DEB
1 57543U 74025J   24317.82666838  .00010617  00000-0  55339-2 0  9998
2 57543  81.2045 142.3553 0009439 205.2718 154.7995 14.14418956 75116
METEOR 1-17 DEB
1 57543U 74025J   24322.21241463  .00006467  00000-0  33654-2 0  9994
2 57543  81.2093 138.0502 0009289 194.7996 165.2907 14.14498532 75745
METEOR 1-17 DEB
1 57543U 74025J   24323.20271273  .00006682  00000-0  34761-2 0  9995
2 57543  81.2100 137.0772 0009300 193.4230 166.6697 14.14513668 75887
METEOR 1-17 DEB
1 57543U 74025J   24323.20271273  .00006682  00000-0  34761-2 0  9995
2 57543  81.2100 137.0772 0009300 193.4230 166.6697 14.14513668 75876
METEOR 1-17 DEB
1 57543U 74025J   24334.73141587  .00017388  00000-0  89886-2 0  9992
2 57543  81.2068 125.7172 0009639 158.3688 201.7894 14.14834979 77513
METEOR 1-17 DEB
1 57543U 74025J   24334.73141587  .00017388  00000-0  89886-2 0  9992
2 57543  81.2068 125.7172 0009639 158.3688 201.7894 14.14834979 77502
METEOR 1-17 DEB
1 57543U 74025J   24335.15573437  .00017350  00000-0  89680-2 0  9993
2 57543  81.2174 125.2961 0006770 144.9915 215.1705 14.14852772 77576
METEOR 1-17 DEB
1 57543U 74025J   24335.15573437  .00017350  00000-0  89680-2 0  9993
2 57543  81.2174 125.2961 0006770 144.9915 215.1705 14.14852772 77565
METEOR 1-17 DEB
1 57543U 74025J   24335.72146280  .00017171  00000-0  88686-2 0  9994
2 57543  81.1977 124.7375 0010370 159.3410 200.8185 14.14878580 77657
METEOR 1-17 DEB
1 57543U 74025J   24335.72146280  .00017171  00000-0  88686-2 0  9994
2 57543  81.1977 124.7375 0010370 159.3410 200.8185 14.14878580 77646
METEOR 1-17 DEB
1 57543U 74025J   24337.13577896  .00016353  00000-0  84399-2 0  9990
2 57543  81.2098 123.3480 0008270 152.1716 207.9901 14.14930663 77857
METEOR 1-17 DEB
1 57543U 74025J   24337.13577896  .00016353  00000-0  84399-2 0  9990
2 57543  81.2098 123.3480 0008270 152.1716 207.9901 14.14930663 77846
METEOR 1-17 DEB
1 57543U 74025J   24340.10567833  .00016081  00000-0  82847-2 0  9995
2 57543  81.2115 120.4237 0007726 144.0059 216.1637 14.15031009 78272
METEOR 1-17 DEB
1 57543U 74025J   24340.10567833  .00016081  00000-0  82847-2 0  9995
2 57543  81.2115 120.4237 0007726 144.0059 216.1637 14.15031009 78261
METEOR 1-17 DEB
1 57543U 74025J   24341.37842890  .00013978  00000-0  71972-2 0  9993
2 57543  81.2085 119.1675 0008047 142.3537 217.8201 14.15069347 78459
METEOR 1-17 DEB
1 57543U 74025J   24341.37842890  .00013978  00000-0  71972-2 0  9993
2 57543  81.2085 119.1675 0008047 142.3537 217.8201 14.15069347 78448
METEOR 1-17 DEB
1 57543U 74025J   24342.36832318  .00014163  00000-0  72883-2 0  9996
2 57543  81.2082 118.1910 0007984 139.3965 220.7805 14.15098928 78592
METEOR 1-17 DEB
1 57543U 74025J   24342.36832318  .00014163  00000-0  72883-2 0  9996
2 57543  81.2082 118.1910 0007984 139.3965 220.7805 14.15098928 78581
METEOR 1-17 DEB
1 57543U 74025J   24351.63000884  .00012405  00000-0  63569-2 0  9999
2 57543  81.2087 109.0627 0007256 113.9187 246.2747 14.15331337 79905
METEOR 1-17 DEB
1 57543U 74025J   24351.63000884  .00012405  00000-0  63569-2 0  9999
2 57543  81.2087 109.0627 0007256 113.9187 246.2747 14.15331337 79893
METEOR 1-17 DEB
1 57543U 74025J   24356.01290911  .00010909  00000-0  55811-2 0  9996
2 57543  81.2064 104.7394 0006414 102.4632 257.7260 14.15427811 80526
METEOR 1-17 DEB
1 57543U 74025J   24356.01290911  .00010909  00000-0  55811-2 0  9996
2 57543  81.2064 104.7394 0006414 102.4632 257.7260 14.15427811 80515
METEOR 1-17 DEB
1 57543U 74025J   24357.28530903  .00012326  00000-0  63020-2 0  9990
2 57543  81.2049 103.4809 0006612  97.7885 262.4040 14.15458651 80707
METEOR 1-17 DEB
1 57543U 74025J   24357.28530903  .00012326  00000-0  63020-2 0  9990
2 57543  81.2049 103.4809 0006612  97.7885 262.4040 14.15458651 80695
METEOR 1-17 DEB
1 57543U 74025J   24359.26453933  .00014528  00000-0  74192-2 0  9995
2 57543  81.2057 101.5300 0006453  91.5601 268.6312 14.15512502 80988
METEOR 1-17 DEB
1 57543U 74025J   24359.26453933  .00014528  00000-0  74192-2 0  9995
2 57543  81.2057 101.5300 0006453  91.5601 268.6312 14.15512502 80977
METEOR 1-17 DEB
1 57543U 74025J   24360.60754465  .00014865  00000-0  75856-2 0  9991
2 57543  81.2064 100.2070 0006452  87.1534 273.0378 14.15550228 81172
METEOR 1-17 DEB
1 57543U 74025J   24360.60754465  .00014865  00000-0  75856-2 0  9991
2 57543  81.2064 100.2070 0006452  87.1534 273.0378 14.15550228 81161
METEOR 1-17 DEB
1 57543U 74025J   24362.58664320  .00013775  00000-0  70228-2 0  9997
2 57543  81.2071  98.2554 0006345  81.1713 279.0179 14.15604673 81457
METEOR 1-17 DEB
1 57543U 74025J   24362.58664320  .00013775  00000-0  70228-2 0  9997
2 57543  81.2071  98.2554 0006345  81.1713 279.0179 14.15604673 81446
METEOR 1-17 DEB
1 57543U 74025J   25002.94744930  .00015602  00000-0  79202-2 0  9997
2 57543  81.2055  91.9799 0005508  56.6179 303.5521 14.15829813 82352
METEOR 1-17 DEB
1 57543U 74025J   25002.94744930  .00015602  00000-0  79202-2 0  9997
2 57543  81.2055  91.9799 0005508  56.6179 303.5521 14.15829813 82341
METEOR 1-17 DEB
1 57543U 74025J   25004.21948817  .00010837  00000-0  54995-2 0  9996
2 57543  81.2015  90.7126 0006029  60.5515 299.6260 14.15859393 82537
METEOR 1-17 DEB
1 57543U 74025J   25004.21948817  .00010837  00000-0  54995-2 0  9996
2 57543  81.2015  90.7126 0006029  60.5515 299.6260 14.15859393 82526
METEOR 1-17 DEB
1 57543U 74025J   25007.18747469  .00009685  00000-0  49089-2 0  9992
2 57543  81.2011  87.7825 0005901  53.1882 306.9832 14.15928269 82949
METEOR 1-17 DEB
1 57543U 74025J   25007.54079952  .00009093  00000-0  46083-2 0  9991
2 57543  81.2098  87.4535 0005873  37.9088 322.2498 14.15933199 83000
METEOR 1-17 DEB
1 57543U 74025J   25007.54079952  .00009093  00000-0  46083-2 0  9991
2 57543  81.2098  87.4535 0005873  37.9088 322.2498 14.15933199 82997
METEOR 1-17 DEB
1 57543U 74025J   25011.49792525  .00007129  00000-0  36088-2 0  9990
2 57543  81.2079  83.5417 0005664  34.9622 325.1923 14.15989289 83550
METEOR 1-17 DEB
1 57543U 74025J   25011.49792641  .00006064  00000-0  30693-2 0  9992
2 57543  81.2121  83.5523 0005845  23.6094 336.5347 14.15987837 83569
METEOR 1-17 DEB
1 57543U 74025J   25011.49792641  .00006064  00000-0  30693-2 0  9992
2 57543  81.2121  83.5523 0005845  23.6094 336.5347 14.15987837 83558
METEOR 1-17 DEB
1 57543U 74025J   25012.48718326  .00005644  00000-0  28558-2 0  9990
2 57543  81.2046  82.5609 0005555  30.4839 329.6657 14.15998675 83705
METEOR 1-17 DEB
1 57543U 74025J   25015.45490984  .00005921  00000-0  29941-2 0  9992
2 57543  81.2094  79.6437 0005597  12.9930 347.1387 14.16034759 84124
METEOR 1-17 DEB
1 57543U 74025J   25015.45490984  .00005921  00000-0  29941-2 0  9992
2 57543  81.2094  79.6437 0005597  12.9930 347.1387 14.16034759 84113
METEOR 1-17 DEB
1 57543U 74025J   25015.45490984  .00005921  00000-0  29941-2 0  9992
2 57543  81.2094  79.6437 0005597  12.9930 347.1387 14.16034759 84113
METEOR 1-17 DEB
1 57543U 74025J   25031.42252586  .00007115  00000-0  35826-2 0  9997
2 57543  81.2035  63.8661 0004994 329.1349  30.9531 14.16277286 86382
METEOR 1-17 DEB
1 57543U 74025J   25031.42252586  .00007115  00000-0  35826-2 0  9997
2 57543  81.2035  63.8661 0004994 329.1349  30.9531 14.16277286 86371
METEOR 1-17 DEB
1 57543U 74025J   25032.41158115  .00008183  00000-0  41193-2 0  9990
2 57543  81.2030  62.8876 0005026 326.5708  33.5148 14.16292721 86521
METEOR 1-17 DEB
1 57543U 74025J   25034.38965568  .00007931  00000-0  39897-2 0  9994
2 57543  81.2042  60.9325 0004656 323.2119  36.8735 14.16326776 86807
METEOR 1-17 DEB
1 57543U 74025J   25034.38965568  .00007931  00000-0  39897-2 0  9994
2 57543  81.2042  60.9325 0004656 323.2119  36.8735 14.16326776 86795
METEOR 1-17 DEB
1 57543U 74025J   25036.36768555  .00007264  00000-0  36521-2 0  9991
2 57543  81.2068  58.9803 0005215 320.0276  40.0513 14.16357436 87083
METEOR 1-17 DEB
1 57543U 74025J   25036.36768555  .00007264  00000-0  36521-2 0  9991
2 57543  81.2068  58.9803 0005215 320.0276  40.0513 14.16357436 87072
METEOR 1-17 DEB
1 57543U 74025J   25041.45386204  .00009350  00000-0  46953-2 0  9992
2 57543  81.1940  53.9534 0003951 306.2444  53.8365 14.16430068 87805
METEOR 1-17 DEB
1 57543U 74025J   25041.45386204  .00009350  00000-0  46953-2 0  9992
2 57543  81.1940  53.9534 0003951 306.2444  53.8365 14.16430068 87793
METEOR 1-17 DEB
1 57543U 74025J   25046.32786228  .00009197  00000-0  46119-2 0  9996
2 57543  81.2035  49.1340 0004151 279.1389  80.9316 14.16505175 88497
METEOR 1-17 DEB
1 57543U 74025J   25046.32786228  .00009197  00000-0  46119-2 0  9996
2 57543  81.2035  49.1340 0004151 279.1389  80.9316 14.16505175 88486
METEOR 1-17 DEB
1 57543U 74025J   25051.27218318  .00010132  00000-0  50704-2 0  9992
2 57543  81.1890  44.1954 0003912 301.8663  58.2130 14.16612904 89192
METEOR 1-17 DEB
1 57543U 74025J   25051.27218318  .00010132  00000-0  50704-2 0  9992
2 57543  81.1890  44.1954 0003912 301.8663  58.2130 14.16612904 89181
METEOR 1-17 DEB
1 57543U 74025J   25053.24980110  .00010269  00000-0  51341-2 0  9996
2 57543  81.2013  42.2755 0004549 282.5724  77.4941 14.16658123 89475
METEOR 1-17 DEB
1 57543U 74025J   25053.24980110  .00010269  00000-0  51341-2 0  9996
2 57543  81.2013  42.2755 0004549 282.5724  77.4941 14.16658123 89464
METEOR 1-17 DEB
1 57543U 74025J   25053.67356519  .00009744  00000-0  48713-2 0  9998
2 57543  81.1999  41.8699 0003881 240.5090 119.5698 14.16666093 89536
METEOR 1-17 DEB
1 57543U 74025J   25053.67356519  .00009744  00000-0  48713-2 0  9998
2 57543  81.1999  41.8699 0003881 240.5090 119.5698 14.16666093 89525
METEOR 1-17 DEB
1 57543U 74025J   25055.65110520  .00012954  00000-0  64688-2 0  9994
2 57543  81.1968  39.9151 0003614 232.0707 128.0141 14.16720058 89819
METEOR 1-17 DEB
1 57543U 74025J   25055.65110520  .00012954  00000-0  64688-2 0  9994
2 57543  81.1968  39.9151 0003614 232.0707 128.0141 14.16720058 89808
METEOR 1-17 DEB
1 57543U 74025J   25057.27544971  .00015186  00000-0  75743-2 0  9999
2 57543  81.2016  38.3063 0004018 226.0832 134.0011 14.16773145 90045
METEOR 1-17 DEB
1 57543U 74025J   25057.27544971  .00015186  00000-0  75743-2 0  9999
2 57543  81.2016  38.3063 0004018 226.0832 134.0011 14.16773145 90034
METEOR 1-17 DEB
1 57543U 74025J   25060.24150876  .00012627  00000-0  62891-2 0  9994
2 57543  81.2070  35.3737 0003103 214.9353 145.1618 14.16858385 90460
METEOR 1-17 DEB
1 57543U 74025J   25060.24150876  .00012627  00000-0  62891-2 0  9994
2 57543  81.2070  35.3737 0003103 214.9353 145.1618 14.16858385 90459
METEOR 1-17 DEB
1 57543U 74025J   25061.23015536  .00010384  00000-0  51703-2 0  9995
2 57543  81.2058  34.4000 0004033 212.4851 147.6075 14.16879439 90601
METEOR 1-17 DEB
1 57543U 74025J   25061.23015536  .00010384  00000-0  51703-2 0  9995
2 57543  81.2058  34.4000 0004033 212.4851 147.6075 14.16879439 90599
METEOR 1-17 DEB
1 57543U 74025J   25063.63110435  .00008938  00000-0  44470-2 0  9990
2 57543  81.2040  32.0218 0003967 196.0551 164.0498 14.16922059 90942
METEOR 1-17 DEB
1 57543U 74025J   25063.63110435  .00008938  00000-0  44470-2 0  9990
2 57543  81.2040  32.0218 0003967 196.0551 164.0498 14.16922059 90931
METEOR 1-17 DEB
1 57543U 74025J   25064.19602026  .00011112  00000-0  55268-2 0  9999
2 57543  81.2033  31.4661 0004601 197.2709 162.8309 14.16936196 91027
METEOR 1-17 DEB
1 57543U 74025J   25065.18461667  .00009375  00000-0  46615-2 0  9997
2 57543  81.2050  30.4891 0004413 195.5757 164.5282 14.16953903 91164
METEOR 1-17 DEB
1 57543U 74025J   25065.18461667  .00009375  00000-0  46615-2 0  9997
2 57543  81.2050  30.4891 0004413 195.5757 164.5282 14.16953903 91153
METEOR 1-17 DEB
1 57543U 74025J   25072.17500923  .00017333  00000-0  85880-2 0  9993
2 57543  81.2042  23.5730 0005270 168.8005 191.3288 14.17110816 92154
METEOR 1-17 DEB
1 57543U 74025J   25072.17500923  .00017333  00000-0  85880-2 0  9993
2 57543  81.2042  23.5730 0005270 168.8005 191.3288 14.17110816 92143
METEOR 1-17 DEB
1 57543U 74025J   25074.15193117  .00015179  00000-0  75142-2 0  9992
2 57543  81.2095  21.6223 0004754 162.1552 197.9790 14.17170310 92423
METEOR 1-17 DEB
1 57543U 74025J   25074.57554412  .00014759  00000-0  73042-2 0  9997
2 57543  81.2048  21.1983 0005522 161.5976 198.5399 14.17182638 92491
METEOR 1-17 DEB
1 57543U 74025J   25075.56396228  .00013632  00000-0  67435-2 0  9994
2 57543  81.2098  20.2261 0005514 158.6342 201.5064 14.17213133 92635
METEOR 1-17 DEB
1 57543U 74025J   25075.56396228  .00013632  00000-0  67435-2 0  9994
2 57543  81.2098  20.2261 0005514 158.6342 201.5064 14.17213133 92624
METEOR 1-17 DEB
1 57543U 74025J   25077.54072536  .00017780  00000-0  87794-2 0  9995
2 57543  81.2067  18.2686 0005777 153.4587 206.6884 14.17287599 92907
METEOR 1-17 DEB
1 57543U 74025J   25089.46971308  .00009846  00000-0  48268-2 0  9991
2 57543  81.2077   6.4605 0007644 116.7392 243.4566 14.17693073 94602
METEOR 1-17 DEB
1 57543U 74025J   25089.46971308  .00009846  00000-0  48268-2 0  9991
2 57543  81.2077   6.4605 0007644 116.7392 243.4566 14.17693073 94590
METEOR 1-17 DEB
1 57543U 74025J   25095.46848337  .00012898  00000-0  63063-2 0  9994
2 57543  81.2064   0.5242 0008276 105.6851 254.5237 14.17823387 95443
METEOR 1-17 DEB
1 57543U 74025J   25100.40820322  .00010145  00000-0  49511-2 0  9994
2 57543  81.2013 355.6366 0007862 110.9419 249.2598 14.17928506 96156
METEOR 1-17 DEB
1 57543U 74025J   25100.40820420  .00010150  00000-0  49535-2 0  9995
2 57543  81.2030 355.6349 0007906 108.7161 251.4873 14.17928590 96158
METEOR 1-17 DEB
1 57543U 74025J   25100.40820420  .00010150  00000-0  49535-2 0  9995
2 57543  81.2030 355.6349 0007906 108.7161 251.4873 14.17928590 96147
METEOR 1-17 DEB
1 57543U 74025J   25100.40820600  .00010381  00000-0  50661-2 0  9993
2 57543  81.2051 355.6331 0008028 104.9223 255.2842 14.17929008 96158
METEOR 1-17 DEB
1 57543U 74025J   25100.40820600  .00010381  00000-0  50661-2 0  9993
2 57543  81.2051 355.6331 0008028 104.9223 255.2842 14.17929008 96147
METEOR 1-17 DEB
1 57543U 74025J   25110.35722111  .00008216  00000-0  39959-2 0  9997
2 57543  81.2035 345.7753 0008653  77.8506 282.3638 14.18105948 97564
METEOR 1-17 DEB
1 57543U 74025J   25110.35722111  .00008216  00000-0  39959-2 0  9997
2 57543  81.2035 345.7753 0008653  77.8506 282.3638 14.18105948 97553
METEOR 1-17 DEB
1 57543U 74025J   25116.91868946  .00008796  00000-0  42689-2 0  9999
2 57543  81.2081 339.2761 0009270  58.6860 301.5222 14.18218459 98496
METEOR 1-17 DEB
1 57543U 74025J   25116.91868946  .00008796  00000-0  42689-2 0  9999
2 57543  81.2081 339.2761 0009270  58.6860 301.5222 14.18218459 98485
METEOR 1-17 DEB
1 57543U 74025J   25118.32968667  .00008589  00000-0  41662-2 0  9997
2 57543  81.2076 337.8773 0009261  54.7420 305.4621 14.18244378 98682
METEOR 1-17 DEB
1 57543U 74025J   25118.89407857  .00007627  00000-0  36988-2 0  9995
2 57543  81.2060 337.3164 0009079  55.1213 305.0815 14.18252128 98779
METEOR 1-17 DEB
1 57543U 74025J   25121.29270830  .00007083  00000-0  34330-2 0  9997
2 57543  81.2034 334.9376 0008801  52.7314 307.4662 14.18287572 99100
METEOR 1-17 DEB
1 57543U 74025J   25121.29270830  .00007083  00000-0  34330-2 0  9997
2 57543  81.2034 334.9376 0008801  52.7314 307.4662 14.18287572 99111
METEOR 1-17 DEB
1 57543U 74025J   25122.28036235  .00008714  00000-0  42225-2 0  9990
2 57543  81.2042 333.9585 0008871  50.6131 309.5828 14.18305075 99253
METEOR 1-17 DEB
1 57543U 74025J   25122.28036239  .00008635  00000-0  41838-2 0  9995
2 57543  81.2042 333.9585 0008873  50.6160 309.5799 14.18304923 99255
METEOR 1-17 DEB
1 57543U 74025J   25122.28036239  .00008635  00000-0  41838-2 0  9995
2 57543  81.2042 333.9585 0008873  50.6160 309.5799 14.18304923 99244
METEOR 1-17 DEB
1 57543U 74025J   25128.84095394  .00005541  00000-0  26795-2 0  9998
2 57543  81.2022 327.4533 0008370  35.4654 324.7076 14.18388169100170
METEOR 1-17 DEB
1 57543U 74025J   25129.26420581  .00005829  00000-0  28189-2 0  9993
2 57543  81.2032 327.0350 0008368  34.6507 325.5212 14.18393193100241
METEOR 1-17 DEB
1 57543U 74025J   25129.26420581  .00005829  00000-0  28189-2 0  9993
2 57543  81.2032 327.0350 0008368  34.6507 325.5212 14.18393193100230
METEOR 1-17 DEB
1 57543U 74025J   25135.82445126  .00004807  00000-0  23215-2 0  9994
2 57543  81.2030 320.5273 0007715  20.2016 339.9463 14.18456650101170
METEOR 1-17 DEB
1 57543U 74025J   25150.14312163  .00005745  00000-0  27683-2 0  9995
2 57543  81.2035 306.3281 0005989 330.9143  29.1698 14.18592162103202
METEOR 1-17 DEB
1 57543U 74025J   25150.14312163  .00005745  00000-0  27683-2 0  9995
2 57543  81.2035 306.3281 0005989 330.9143  29.1698 14.18592162103190
METEOR 1-17 DEB
1 57543U 74025J   25153.74021395  .00007198  00000-0  34670-2 0  9996
2 57543  81.2010 302.7544 0005247 316.6909  43.3853 14.18631495103715
METEOR 1-17 DEB
1 57543U 74025J   25153.74021395  .00007198  00000-0  34670-2 0  9996
2 57543  81.2010 302.7544 0005247 316.6909  43.3853 14.18631495103704
METEOR 1-17 DEB
1 57543U 74025J   25158.11301449  .00003776  00000-0  18153-2 0  9999
2 57543  81.2009 298.4174 0005483 295.7447  64.3162 14.18668640104336
METEOR 1-17 DEB
1 57543U 74025J   25158.11301449  .00003776  00000-0  18153-2 0  9999
2 57543  81.2009 298.4174 0005483 295.7447  64.3162 14.18668640104325
METEOR 1-17 DEB
1 57543U 74025J   25159.10041031  .00003586  00000-0  17238-2 0  9999
2 57543  81.2005 297.4359 0005162 295.4734  64.5907 14.18673480104478
METEOR 1-17 DEB
1 57543U 74025J   25159.10041031  .00003586  00000-0  17238-2 0  9999
2 57543  81.2005 297.4359 0005162 295.4734  64.5907 14.18673480104467
METEOR 1-17 DEB
1 57543U 74025J   25162.62677894  .00003110  00000-0  14937-2 0  9998
2 57543  81.2013 293.9397 0006002 274.1813  85.8676 14.18694568104970
METEOR 1-17 DEB
1 57543U 74025J   25162.62677901  .00003498  00000-0  16802-2 0  9999
2 57543  81.2013 293.9397 0006002 274.2210  85.8280 14.18695384104970
METEOR 1-17 DEB
1 57543U 74025J   25162.62677904  .00002878  00000-0  13815-2 0  9994
2 57543  81.2013 293.9397 0006020 274.1047  85.9441 14.18693929104970
METEOR 1-17 DEB
1 57543U 74025J   25162.62677904  .00002878  00000-0  13815-2 0  9994
2 57543  81.2013 293.9397 0006020 274.1047  85.9441 14.18693929104969
METEOR 1-17 DEB
1 57543U 74025J   25162.62677924  .00003815  00000-0  18331-2 0  9996
2 57543  81.2013 293.9397 0006001 274.2628  85.7861 14.18695921104973
METEOR 1-17 DEB
1 57543U 74025J   25162.62677936  .00003944  00000-0  18951-2 0  9990
2 57543  81.2012 293.9397 0005999 274.3092  85.7398 14.18696113104972
METEOR 1-17 DEB
1 57543U 74025J   25162.62677936  .00003944  00000-0  18951-2 0  9990
2 57543  81.2012 293.9397 0005999 274.3092  85.7398 14.18696113104961
METEOR 1-17 DEB
1 57543U 74025J   25166.64676451  .00003230  00000-0  15504-2 0  9996
2 57543  81.2017 289.9523 0006624 258.2234 101.8198 14.18726906105544
METEOR 1-17 DEB
1 57543U 74025J   25166.64676451  .00003230  00000-0  15504-2 0  9996
2 57543  81.2017 289.9523 0006624 258.2234 101.8198 14.18726906105533
METEOR 1-17 DEB
1 57543U 74025J   25167.63411553  .00003070  00000-0  14730-2 0  9998
2 57543  81.2016 288.9730 0006832 254.7469 105.2952 14.18733839105688
METEOR 1-17 DEB
1 57543U 74025J   25170.03195243  .00003079  00000-0  14768-2 0  9991
2 57543  81.2012 286.5944 0007389 246.4459 113.5941 14.18748048106016
METEOR 1-17 DEB
1 57543U 74025J   25170.59614660  .00002830  00000-0  13570-2 0  9995
2 57543  81.2013 286.0346 0007467 244.6218 115.4185 14.18750366106105
METEOR 1-17 DEB
1 57543U 74025J   25171.01929131  .00002813  00000-0  13486-2 0  9992
2 57543  81.2013 285.6149 0007576 243.1578 116.8823 14.18752536106166
METEOR 1-17 DEB
1 57543U 74025J   25171.01929131  .00002813  00000-0  13486-2 0  9992
2 57543  81.2013 285.6149 0007576 243.1578 116.8823 14.18752536106155
METEOR 1-17 DEB
1 57543U 74025J   25179.97572943  .00002010  00000-0  96120-3 0  9996
2 57543  81.2009 276.7264 0009603 217.9297 142.1203 14.18790282107435
METEOR 1-17 DEB
1 57543U 74025J   25179.97572943  .00002010  00000-0  96120-3 0  9996
2 57543  81.2009 276.7264 0009603 217.9297 142.1203 14.18790282107424
METEOR 1-17 DEB
1 57543U 74025J   25184.55964169  .00002384  00000-0  11404-2 0  9996
2 57543  81.2010 272.1780 0010749 207.4175 152.6435 14.18810387108086
METEOR 1-17 DEB
1 57543U 74025J   25184.55964169  .00002384  00000-0  11404-2 0  9996
2 57543  81.2010 272.1780 0010749 207.4175 152.6435 14.18810387108075
METEOR 1-17 DEB
1 57543U 74025J   25187.52151583  .00002283  00000-0  10915-2 0  9998
2 57543  81.2010 269.2389 0011508 201.3647 158.7050 14.18825050108509
METEOR 1-17 DEB
1 57543U 74025J   25187.52151583  .00002283  00000-0  10915-2 0  9998
2 57543  81.2010 269.2389 0011508 201.3647 158.7050 14.18825050108497
METEOR 1-17 DEB
1 57543U 74025J   25190.48336143  .00001851  00000-0  88362-3 0  9996
2 57543  81.2017 266.2997 0012076 195.1953 164.8862 14.18837718108928
METEOR 1-17 DEB
1 57543U 74025J   25190.48336143  .00001851  00000-0  88362-3 0  9996
2 57543  81.2017 266.2997 0012076 195.1953 164.8862 14.18837718108917
METEOR 1-17 DEB
1 57543U 74025J   25191.54115823  .00001685  00000-0  80365-3 0  9994
2 57543  81.2010 265.2499 0012349 193.0050 167.0809 14.18841087109061
METEOR 1-17 DEB
1 57543U 74025J   25192.45791371  .00001683  00000-0  80276-3 0  9992
2 57543  81.2014 264.3407 0012511 191.0145 169.0759 14.18844053109206
METEOR 1-17 DEB
1 57543U 74025J   25201.48429107  .00002051  00000-0  97876-3 0  9995
2 57543  81.2021 255.3831 0013772 173.2247 186.9117 14.18883022110487
METEOR 1-17 DEB
1 57543U 74025J   25201.48429107  .00002051  00000-0  97876-3 0  9995
2 57543  81.2021 255.3831 0013772 173.2247 186.9117 14.18883022110476
METEOR 1-17 DEB
1 57543U 74025J   25204.37549770  .00002825  00000-0  13496-2 0  9999
2 57543  81.2024 252.5146 0014047 167.4377 192.7152 14.18899407110896
METEOR 1-17 DEB
1 57543U 74025J   25204.37549770  .00002825  00000-0  13496-2 0  9999
2 57543  81.2024 252.5146 0014047 167.4377 192.7152 14.18899407110885
METEOR 1-17 DEB
1 57543U 74025J   25208.81801563  .00002592  00000-0  12371-2 0  9995
2 57543  81.2019 248.1059 0014336 158.6445 201.5332 14.18924746111528
METEOR 1-17 DEB
1 57543U 74025J   25208.81801563  .00002592  00000-0  12371-2 0  9995
2 57543  81.2019 248.1059 0014336 158.6445 201.5332 14.18924746111517
METEOR 1-17 DEB
1 57543U 74025J   25210.36935324  .00002722  00000-0  12993-2 0  9996
2 57543  81.2025 246.5668 0014484 155.8730 204.3127 14.18933306111742
METEOR 1-17 DEB
1 57543U 74025J   25210.36935324  .00002722  00000-0  12993-2 0  9996
2 57543  81.2025 246.5668 0014484 155.8730 204.3127 14.18933306111731
METEOR 1-17 DEB
1 57543U 74025J   25210.79244402  .00002676  00000-0  12771-2 0  9995
2 57543  81.2022 246.1467 0014551 154.8340 205.3548 14.18935383111805
METEOR 1-17 DEB
1 57543U 74025J   25223.27329862  .00003308  00000-0  15781-2 0  9993
2 57543  81.2018 233.7616 0015030 126.4266 233.8298 14.19005810113571
METEOR 1-17 DEB
1 57543U 74025J   25223.27329862  .00003308  00000-0  15781-2 0  9993
2 57543  81.2018 233.7616 0015030 126.4266 233.8298 14.19005810113560
METEOR 1-17 DEB
1 57543U 74025J   25232.22814208  .00002904  00000-0  13830-2 0  9995
2 57543  81.2006 224.8698 0016044 106.2483 254.0459 14.19047851114848
METEOR 1-17 DEB
1 57543U 74025J   25232.22814208  .00002904  00000-0  13830-2 0  9995
2 57543  81.2006 224.8698 0016044 106.2483 254.0459 14.19047851114837
METEOR 1-17 DEB
1 57543U 74025J   25240.26614588  .00003960  00000-0  18872-2 0  9991
2 57543  81.2045 216.9031 0015176  80.4180 279.8709 14.19082732115982
METEOR 1-17 DEB
1 57543U 74025J   25246.61171034  .00005121  00000-0  24391-2 0  9994
2 57543  81.1998 210.5921 0015059  64.4875 295.7856 14.19141502116880
METEOR 1-17 DEB
1 57543U 74025J   25251.19446965  .00003250  00000-0  15449-2 0  9996
2 57543  81.2038 206.0478 0016941  56.9580 303.3221 14.19174077117531
METEOR 1-17 DEB
1 57543U 74025J   25253.16854538  .00002796  00000-0  13281-2 0  9990
2 57543  81.2040 204.0885 0016977  51.8975 308.3728 14.19186083117813
METEOR 1-17 DEB
1 57543U 74025J   25254.15557715  .00002412  00000-0  11449-2 0  9996
2 57543  81.2026 203.1089 0016741  50.0628 310.2016 14.19190720117958
METEOR 1-17 DEB
1 57543U 74025J   25256.55264220  .00002440  00000-0  11576-2 0  9990
2 57543  81.2026 200.7296 0016880  43.8914 316.3599 14.19202558118297
METEOR 1-17 DEB
1 57543U 74025J   25258.17417206  .00004229  00000-0  20100-2 0  9994
2 57543  81.2026 199.1187 0017014  39.4187 320.8223 14.19217326118529
METEOR 1-17 DEB
1 57543U 74025J   25260.14819716  .00003081  00000-0  14627-2 0  9998
2 57543  81.2027 197.1598 0017021  34.8638 325.3649 14.19224333118801
METEOR 1-17 DEB
1 57543U 74025J   25271.07540065  .00005880  00000-0  27909-2 0  9996
2 57543  81.2028 186.3132 0016148   6.2729 353.8646 14.19334940120351
METEOR 1-17 DEB
1 57543U 74025J   25299.90473684  .00003375  00000-0  15925-2 0  9992
2 57543  81.1991 157.6756 0013300 288.4130  71.5600 14.19604856124443
METEOR 1-17 DEB
1 57543U 74025J   25299.90473685  .00003375  00000-0  15925-2 0  9993
2 57543  81.1991 157.6756 0013300 288.4130  71.5600 14.19604856124443
METEOR 1-17 DEB
1 57543U 74025J   25360.01033716  .00002968  00000-0  13833-2 0  9994
2 57543  81.1985  97.9101 0012130 128.7555 231.4707 14.20222033132970
METEOR 1-17 DEB
1 57543U 74025J   25360.01033717  .00002968  00000-0  13833-2 0  9995
2 57543  81.1985  97.9101 0012130 128.7555 231.4707 14.20222033132970
METEOR 1-17 DEB
1 57543U 74025J   26002.54851373  .00003864  00000-0  18009-2 0  9999
2 57543  81.1978  90.4150 0012169 105.5380 254.7141 14.20267511134045
METEOR 1-17 DEB
1 57543U 74025J   26002.54851373  .00003864  00000-0  18009-2 0  9999
2 57543  81.1978  90.4150 0012169 105.5380 254.7141 14.20267511134045
METEOR 1-17 DEB
1 57543U 74025J   26013.46782199  .00001921  00000-0  89194-3 0  9997
2 57543  81.1972  79.5545 0011065  75.4716 284.7687 14.20328903135599
METEOR 1-17 DEB
1 57543U 74025J   26013.46782199  .00001921  00000-0  89194-3 0  9997
2 57543  81.1972  79.5545 0011065  75.4716 284.7687 14.20328903135599
METEOR 1-17 DEB
1 57543U 74025J   26013.89049566  .00001571  00000-0  72805-3 0  9990
2 57543  81.2001  79.1361 0011425  74.7144 285.5294 14.20329787135653
METEOR 1-17 DEB
1 57543U 74025J   26021.42803469  .00007103  00000-0  33068-2 0  9992
2 57543  81.2061  71.6400 0010217  42.2764 317.9198 14.20400577136725
METEOR 1-17 DEB
1 57543U 74025J   26021.42803470  .00007103  00000-0  33068-2 0  9994
2 57543  81.2061  71.6400 0010217  42.2764 317.9198 14.20400577136725
METEOR 1-17 DEB
1 57543U 74025J   26022.41420820  .00006879  00000-0  32003-2 0  9995
2 57543  81.1972  70.6502 0011220  51.1255 309.0920 14.20427740136867
METEOR 1-17 DEB
1 57543U 74025J   26022.41420820  .00006879  00000-0  32003-2 0  9995
2 57543  81.1972  70.6502 0011220  51.1255 309.0920 14.20427740136867
METEOR 1-17 DEB
1 57543U 74025J   26023.82301433  .00005316  00000-0  24714-2 0  9994
2 57543  81.1976  69.2477 0011277  47.8278 312.3855 14.20444884137060
METEOR 1-17 DEB
1 57543U 74025J   26024.38653309  .00006125  00000-0  28481-2 0  9992
2 57543  81.1981  68.6870 0011247  46.1306 314.0798 14.20452346137143
METEOR 1-17 DEB
1 57543U 74025J   26024.38653310  .00006125  00000-0  28481-2 0  9994
2 57543  81.1981  68.6870 0011247  46.1306 314.0798 14.20452346137143
METEOR 1-17 DEB
1 57543U 74025J   26025.86575693  .00006422  00000-0  29850-2 0  9996
2 57543  81.1983  67.2144 0011242  42.1558 318.0481 14.20470376137353
METEOR 1-17 DEB
1 57543U 74025J   26034.38851980  .00004889  00000-0  22677-2 0  9994
2 57543  81.1963  58.7279 0010860  19.1501 341.0081 14.20569046138561
METEOR 1-17 DEB
1 57543U 74025J   26034.38851981  .00004889  00000-0  22677-2 0  9995
2 57543  81.1963  58.7279 0010860  19.1501 341.0081 14.20569046138561
METEOR 1-17 DEB
1 57543U 74025J   26034.81112195  .00005023  00000-0  23297-2 0  9990
2 57543  81.1967  58.3073 0010830  18.1709 341.9852 14.20573721138626
METEOR 1-17 DEB
1 57543U 74025J   26035.37458784  .00005313  00000-0  24640-2 0  9994
2 57543  81.1968  57.7467 0010871  15.7941 344.3572 14.20582258138703
METEOR 1-17 DEB
1 57543U 74025J   26035.37458784  .00005313  00000-0  24640-2 0  9994
2 57543  81.1968  57.7467 0010871  15.7941 344.3572 14.20582258138703
METEOR 1-17 DEB
1 57543U 74025J   26036.36064671  .00006928  00000-0  32130-2 0  9998
2 57543  81.1987  56.7661 0011129  13.0329 347.1133 14.20598160138845
METEOR 1-17 DEB
1 57543U 74025J   26036.36064671  .00006928  00000-0  32130-2 0  9998
2 57543  81.1987  56.7661 0011129  13.0329 347.1133 14.20598160138845
METEOR 1-17 DEB
1 57543U 74025J   26043.33327429  .00005676  00000-0  26276-2 0  9999
2 57543  81.1984  49.8228 0011859 351.9997   8.0988 14.20671410139830
METEOR 1-17 DEB
1 57543U 74025J   26043.33327430  .00005676  00000-0  26276-2 0  9991
2 57543  81.1984  49.8228 0011859 351.9997   8.0988 14.20671410139830
METEOR 1-17 DEB
1 57543U 74025J   26053.68594223  .00006144  00000-0  28393-2 0  9999
2 57543  81.2017  39.5157 0010771 328.2749  31.7777 14.20774559141301
METEOR 1-17 DEB
1 57543U 74025J   26053.68594224  .00006144  00000-0  28393-2 0  9990
2 57543  81.2017  39.5157 0010771 328.2749  31.7777 14.20774559141301
METEOR 1-17 DEB
1 57543U 74025J   26054.24933023  .00006254  00000-0  28900-2 0  9993
2 57543  81.2005  38.9533 0010714 326.6399  33.4101 14.20781539141383
METEOR 1-17 DEB
1 57543U 74025J   26054.24933024  .00006254  00000-0  28900-2 0  9994
2 57543  81.2005  38.9533 0010714 326.6399  33.4101 14.20781539141383
METEOR 1-17 DEB
1 57543U 74025J   26056.64370140  .00005121  00000-0  23645-2 0  9997
2 57543  81.2004  36.5695 0010575 320.5555  39.4850 14.20807301141728
METEOR 1-17 DEB
1 57543U 74025J   26056.64370141  .00005121  00000-0  23645-2 0  9998
2 57543  81.2004  36.5695 0010575 320.5555  39.4850 14.20807301141728
METEOR 1-17 DEB
1 57543U 74025J   26069.17811450  .00007073  00000-0  32570-2 0  9998
2 57543  81.2011  24.0872 0008810 288.9656  71.0565 14.20979741143504
METEOR 1-17 DEB
1 57543U 74025J   26069.17811450  .00007073  00000-0  32570-2 0  9998
2 57543  81.2011  24.0872 0008810 288.9656  71.0565 14.20979741143504
METEOR 1-17 DEB
1 57543U 74025J   26070.16390342  .00006138  00000-0  28256-2 0  9998
2 57543  81.2018  23.1061 0008651 286.8234  73.1993 14.20987955143642
METEOR 1-17 DEB
1 57543U 74025J   26070.16390342  .00006138  00000-0  28256-2 0  9998
2 57543  81.2018  23.1061 0008651 286.8234  73.1993 14.20987955143642
METEOR 1-17 DEB
1 57543U 74025J   26081.07757048  .00005864  00000-0  26948-2 0  9991
2 57543  81.2003  12.2299 0006609 253.6921 106.3529 14.21086084145194
METEOR 1-17 DEB
1 57543U 74025J   26086.49891739  .00004140  00000-0  18996-2 0  9998
2 57543  81.2035   6.8343 0007900 238.3257 121.7150 14.21135361145964
METEOR 1-17 DEB
1 57543U 74025J   26086.49891739  .00004140  00000-0  18996-2 0  9998
2 57543  81.2035   6.8343 0007900 238.3257 121.7150 14.21135361145964
METEOR 1-17 DEB
1 57543U 74025J   26086.49892112  .00004807  00000-0  22060-2 0  9991
2 57543  81.2026   6.8331 0007161 235.8778 124.1720 14.21135663145965
METEOR 1-17 DEB
1 57543U 74025J   26086.49892112  .00004807  00000-0  22060-2 0  9991
2 57543  81.2026   6.8331 0007161 235.8778 124.1720 14.21135663145965
METEOR 1-17 DEB
1 57543U 74025J   26086.49892113  .00004807  00000-0  22060-2 0  9992
2 57543  81.2026   6.8331 0007160 235.8732 124.1766 14.21135661145962
METEOR 1-17 DEB
1 57543U 74025J   26117.33409613  .00003358  00000-0  15331-2 0  9992
2 57543  81.2007 336.1061 0008082 112.8802 247.3229 14.21349869150343
METEOR 1-17 DEB
1 57543U 74025J   26117.33409614  .00003358  00000-0  15331-2 0  9993
2 57543  81.2007 336.1061 0008082 112.8802 247.3229 14.21349869150343
METEOR 1-17 DEB
1 57543U 74025J   26124.86625613  .00003089  00000-0  14087-2 0  9996
2 57543  81.1993 328.5979 0008731  96.2995 263.9176 14.21400686151417
METEOR 1-17 DEB
1 57543U 74025J   26124.86625614  .00003089  00000-0  14087-2 0  9997
2 57543  81.1993 328.5979 0008731  96.2995 263.9176 14.21400687151418
METEOR 1-17 DEB
1 57543U 74025J   26126.27410236  .00003196  00000-0  14574-2 0  9996
2 57543  81.2005 327.1977 0008642  93.1951 267.0215 14.21413438151614
METEOR 1-17 DEB
1 57543U 74025J   26126.27410237  .00003196  00000-0  14574-2 0  9997
2 57543  81.2005 327.1977 0008642  93.1951 267.0215 14.21413438151614
METEOR 1-17 DEB
1 57543U 74025J   26129.86406373  .00002653  00000-0  12080-2 0  9998
2 57543  81.1992 323.6189 0008333  86.2047 274.0083 14.21436909152126
METEOR 1-17 DEB
1 57543U 74025J   26129.86406373  .00002653  00000-0  12080-2 0  9998
2 57543  81.1992 323.6189 0008333  86.2047 274.0083 14.21436909152126
METEOR 1-17 DEB
1 57543U 74025J   26130.84953532  .00002832  00000-0  12900-2 0  9992
2 57543  81.1988 322.6330 0008364  80.7256 279.4866 14.21443285152261
METEOR 1-17 DEB
1 57543U 74025J   26130.84953533  .00002832  00000-0  12900-2 0  9993
2 57543  81.1988 322.6330 0008364  80.7256 279.4866 14.21443285152261
METEOR 1-17 DEB
1 57543U 74025J   26131.20148818  .00002772  00000-0  12623-2 0  9991
2 57543  81.1990 322.2822 0008388  79.6926 280.5196 14.21445328152318
METEOR 1-17 DEB
1 57543U 74025J   26131.20148819  .00002772  00000-0  12623-2 0  9992
2 57543  81.1990 322.2822 0008388  79.6926 280.5196 14.21445328152318
METEOR 1-17 DEB
1 57543U 74025J   26149.78387729  .00004998  00000-0  22750-2 0  9993
2 57543  81.1981 303.7533 0007448  33.2282 326.9361 14.21571091154956
METEOR 1-17 DEB
1 57543U 74025J   26151.12117012  .00005279  00000-0  24026-2 0  9991
2 57543  81.1981 302.4190 0007408  26.6383 333.5174 14.21586619155145
METEOR 1-17 DEB
1 57543U 74025J   26151.12117012  .00005279  00000-0  24026-2 0  9991
2 57543  81.1981 302.4189 0007408  26.6383 333.5174 14.21586619155143
METEOR 1-17 DEB
1 57543U 74025J   26152.73998237  .00004630  00000-0  21058-2 0  9997
2 57543  81.1993 300.8055 0007518  21.5397 338.6095 14.21601341155374
METEOR 1-17 DEB
1 57543U 74025J   26168.64576877  .00003212  00000-0  14562-2 0  9993
2 57543  81.1996 284.9410 0006633 331.7270  28.3546 14.21721889157632
METEOR 1-17 DEB
1 57543U 74025J   26168.64576878  .00003212  00000-0  14562-2 0  9994
2 57543  81.1996 284.9410 0006633 331.7270  28.3546 14.21721889157632
METEOR 1-17 DEB
1 57543U 74025J   26172.02384034  .00002801  00000-0  12689-2 0  9993
2 57543  81.1993 281.5696 0007016 324.3290  35.7417 14.21738148158113
METEOR 1-17 DEB
1 57543U 74025J   26172.02384034  .00002801  00000-0  12689-2 0  9993
2 57543  81.1993 281.5696 0007016 324.3290  35.7417 14.21738148158113
METEOR 1-17 DEB
1 57543U 74025J   26176.59824112  .00004017  00000-0  18210-2 0  9992
2 57543  81.1992 277.0066 0006783 309.3799  50.6777 14.21766719158761
METEOR 1-17 DEB
1 57543U 74025J   26176.59824113  .00004017  00000-0  18210-2 0  9993
2 57543  81.1992 277.0066 0006783 309.3799  50.6777 14.21766719158761
METEOR 1-17 DEB
1 57543U 74025J   26184.55042043  .00003928  00000-0  17786-2 0  9999
2 57543  81.1986 269.0752 0006636 282.5555  77.4880 14.21821479159898
METEOR 1-17 DEB
1 57543U 74025J   26184.55042043  .00003928  00000-0  17786-2 0  9999
2 57543  81.1986 269.0752 0006636 282.5555  77.4880 14.21821479159898
METEOR 1-17 DEB
1 57543U 74025J   26186.94304523  .00003884  00000-0  17583-2 0  9994
2 57543  81.1923 266.6754 0005478 264.8279  95.2273 14.21841233160237
METEOR 1-17 DEB
1 57543U 74025J   26189.47637968  .00002028  00000-0  91505-3 0  9993
2 57543  81.1977 264.1601 0006714 265.0446  94.9964 14.21856100160594
METEOR 1-17 DEB
1 57543U 74025J   26189.47637968  .00002028  00000-0  91505-3 0  9993
2 57543  81.1977 264.1601 0006714 265.0446  94.9964 14.21856100160594
METEOR 1-17 DEB
1 57543U 74025J   26189.47637968  .00002028  00000-0  91505-3 0  9993
2 57543  81.1977 264.1601 0006714 265.0446  94.9964 14.21856100160594
METEOR 1-17 DEB
1 57543U 74025J   26192.92449890  .00002089  00000-0  94258-3 0  9997
2 57543  81.1975 260.7194 0006654 253.3478 106.6969 14.21872468161085
METEOR 1-17 DEB
1 57543U 74025J   26192.92449891  .00002089  00000-0  94258-3 0  9998
2 57543  81.1975 260.7194 0006654 253.3478 106.6969 14.21872468161085
METEOR 1-17 DEB
1 57543U 74025J   26195.87999765  .00001975  00000-0  89060-3 0  9993
2 57543  81.1975 257.7687 0007378 240.9697 119.0742 14.21885377161504
METEOR 1-17 DEB
1 57543U 74025J   26195.87999766  .00001975  00000-0  89060-3 0  9994
2 57543  81.1975 257.7687 0007378 240.9697 119.0742 14.21885377161504
METEOR 1-17 DEB
1 57543U 74025J   26197.49847804  .00001951  00000-0  87946-3 0  9994
2 57543  81.1968 256.1568 0007031 238.3149 121.7343 14.21891672161733
METEOR 1-17 DEB
1 57543U 74025J   26197.49847805  .00001951  00000-0  87946-3 0  9995
2 57543  81.1968 256.1568 0007031 238.3149 121.7344 14.21891672161734
METEOR 1-17 DEB
1 57543U 74025J   26200.87614861  .00001885  00000-0  84930-3 0  9992
2 57543  81.1951 252.7841 0007236 227.0279 133.0292 14.21904921162212
METEOR 1-17 DEB
1 57543U 74025J   26202.84644127  .00003136  00000-0  14162-2 0  9999
2 57543  81.1964 250.8211 0007192 221.5920 138.4711 14.21917174162498
METEOR 1-17 DEB
1 57543U 74025J   26203.83158080  .00003166  00000-0  14298-2 0  9990
2 57543  81.1959 249.8382 0007326 218.0951 141.9709 14.21922651162631
METEOR 1-17 DEB
1 57543U 74025J   26204.39451601  .00003199  00000-0  14444-2 0  9996
2 57543  81.1969 249.2753 0007302 216.9617 143.1058 14.21926181162710
METEOR 1-17 DEB
1 57543U 74025J   26204.39451601  .00003199  00000-0  14444-2 0  9996
2 57543  81.1969 249.2753 0007302 216.9617 143.1058 14.21926181162710
METEOR 1-17 DEB
1 57543U 74025J   26206.43514169  .00003568  00000-0  16111-2 0  9995
2 57543  81.1965 247.2395 0007466 210.5653 149.5090 14.21941359163000
METEOR 1-17 DEB
1 57543U 74025J   26212.34580857  .00003176  00000-0  14328-2 0  9992
2 57543  81.1954 241.3409 0007868 193.1706 166.9267 14.21980178163843
METEOR 1-17 DEB
1 57543U 74025J   26213.40126754  .00003253  00000-0  14675-2 0  9993
2 57543  81.1951 240.2867 0007824 189.4889 170.6142 14.21987358163995
METEOR 1-17 DEB
1 57543U 74025J   26214.38635851  .00002951  00000-0  13305-2 0  9997
2 57543  81.1951 239.3031 0007873 186.4187 173.6890 14.21992588164130
METEOR 1-17 DEB
1 57543U 74025J   26215.37144408  .00003058  00000-0  13788-2 0  9994
2 57543  81.1952 238.3195 0007977 183.0682 177.0448 14.21999572164271
METEOR 1-17 DEB
1 57543U 74025J   26220.36717713  .00002079  00000-0  93502-3 0  9999
2 57543  81.1957 233.3351 0008275 169.9766 190.1578 14.22025113164983
METEOR 1-17 DEB
1 57543U 74025J   26220.36717713  .00002079  00000-0  93502-3 0  9999
2 57543  81.1957 233.3351 0008275 169.9766 190.1578 14.22025113164983
METEOR 1-17 DEB
1 57543U 74025J   26222.33730240  .00002264  00000-0  10187-2 0  9991
2 57543  81.1955 231.3738 0008671 168.0614 192.0770 14.22034698165265
METEOR 1-17 DEB
1 57543U 74025J   26222.33730240  .00002264  00000-0  10187-2 0  9991
2 57543  81.1955 231.3738 0008671 168.0614 192.0770 14.22034698165265
METEOR 1-17 DEB
1 57543U 74025J   26223.74452845  .00002164  00000-0  97299-3 0  9998
2 57543  81.1935 229.9541 0008490 155.6289 204.5292 14.22041309165464
METEOR 1-17 DEB
1 57543U 74025J   26223.74452845  .00002164  00000-0  97299-3 0  9998
2 57543  81.1935 229.9541 0008490 155.6289 204.5292 14.22041309165464
METEOR 1-17 DEB
1 57543U 74025J   26226.27751406  .00002395  00000-0  10774-2 0  9992
2 57543  81.1974 227.4392 0008807 152.9838 207.1799 14.22054159165824
METEOR 1-17 DEB
1 57543U 74025J   26226.27751407  .00002395  00000-0  10774-2 0  9993
2 57543  81.1974 227.4392 0008807 152.9838 207.1799 14.22054159165824
METEOR 1-17 DEB
1 57543U 74025J   26229.72515664  .00003010  00000-0  13549-2 0  9997
2 57543  81.1962 223.9943 0008847 143.4982 216.6800 14.22072931166314
METEOR 1-17 DEB
1 57543U 74025J   26232.68023484  .00003955  00000-0  17812-2 0  9995
2 57543  81.1963 221.0440 0008968 135.7368 224.4528 14.22095793166733
METEOR 1-17 DEB
1 57543U 74025J   26237.25348348  .00004179  00000-0  18807-2 0  9996
2 57543  81.1970 216.4808 0010653 118.9107 241.3140 14.22130969167380
METEOR 1-17 DEB
1 57543U 74025J   26237.25348349  .00004179  00000-0  18807-2 0  9997
2 57543  81.1970 216.4808 0010653 118.9107 241.3140 14.22130969167380
METEOR 1-17 DEB
1 57543U 74025J   26238.66061507  .00004456  00000-0  20053-2 0  9995
2 57543  81.1973 215.0772 0009793 118.2191 241.9976 14.22140826167585
METEOR 1-17 DEB
1 57543U 74025J   26238.66061508  .00004456  00000-0  20053-2 0  9996
2 57543  81.1973 215.0772 0009793 118.2191 241.9976 14.22140826167585
METEOR 1-17 DEB
1 57543U 74025J   26239.64560014  .00004514  00000-0  20311-2 0  9993
2 57543  81.1970 214.0941 0009788 115.6293 244.5897 14.22148498167727
METEOR 1-17 DEB
1 57543U 74025J   26239.64560014  .00004514  00000-0  20311-2 0  9993
2 57543  81.1970 214.0941 0009788 115.6293 244.5897 14.22148498167727
METEOR 1-17 DEB
1 57543U 74025J   26239.64560014  .00004514  00000-0  20311-2 0  9993
2 57543  81.1970 214.0941 0009788 115.6293 244.5897 14.22148498167727
METEOR 1-17 DEB
1 57543U 74025J   26244.21868269  .00003398  00000-0  15267-2 0  9998
2 57543  81.1996 209.5312 0010615 102.6571 257.5794 14.22179414168376
METEOR 1-17 DEB
1 57543U 74025J   26244.21868269  .00003398  00000-0  15267-2 0  9998
2 57543  81.1996 209.5312 0010615 102.6571 257.5794 14.22179414168376
