TBA - TO BE ASSIGNED
1 57579U 22151AHW 23220.72429679  .00002099  00000-0  10338-2 0  9996
2 57579  98.7789 227.5984 0028365  99.2044 261.2342 14.18417109 15172
CZ-6A DEB
1 57579U 22151AHW 23222.27619094  .00001856  00000-0  91663-3 0  9991
2 57579  98.7787 229.1340 0028390  94.9913 265.4504 14.18422104 15390
CZ-6A DEB
1 57579U 22151AHW 23225.73265767  .00001883  00000-0  92920-3 0  9996
2 57579  98.7787 232.5548 0028397  85.7481 274.6938 14.18435562 15882
CZ-6A DEB
1 57579U 22151AHW 23229.75340318  .00001985  00000-0  97829-3 0  9994
2 57579  98.7797 236.5345 0028305  74.8468 285.5835 14.18451508 16454
CZ-6A DEB
1 57579U 22151AHW 23229.75340318  .00001985  00000-0  97829-3 0  9994
2 57579  98.7797 236.5345 0028305  74.8468 285.5835 14.18451508 16454
CZ-6A DEB
1 57579U 22151AHW 23238.85280948  .00001901  00000-0  93723-3 0  9994
2 57579  98.7801 245.5406 0027944  50.0446 310.3178 14.18486993 17744
CZ-6A DEB
1 57579U 22151AHW 23238.85280948  .00001901  00000-0  93723-3 0  9994
2 57579  98.7801 245.5406 0027944  50.0446 310.3178 14.18486993 17744
CZ-6A DEB
1 57579U 22151AHW 23240.26354957  .00001815  00000-0  89583-3 0  9997
2 57579  98.7802 246.9370 0027870  46.1736 314.1737 14.18491776 17946
CZ-6A DEB
1 57579U 22151AHW 23240.75730727  .00001773  00000-0  87562-3 0  9992
2 57579  98.7802 247.4257 0027836  44.8892 315.4528 14.18493418 18012
CZ-6A DEB
1 57579U 22151AHW 23242.73233120  .00001783  00000-0  88010-3 0  9997
2 57579  98.7803 249.3808 0027714  39.3875 320.9309 14.18500936 18293
CZ-6A DEB
1 57579U 22151AHW 23242.73233120  .00001783  00000-0  88010-3 0  9997
2 57579  98.7803 249.3808 0027714  39.3875 320.9309 14.18500936 18293
CZ-6A DEB
1 57579U 22151AHW 23244.28412891  .00001886  00000-0  92963-3 0  9999
2 57579  98.7803 250.9169 0027627  35.1187 325.1803 14.18507098 18511
CZ-6A DEB
1 57579U 22151AHW 23244.28412891  .00001886  00000-0  92963-3 0  9999
2 57579  98.7803 250.9169 0027627  35.1187 325.1803 14.18507098 18511
CZ-6A DEB
1 57579U 22151AHW 23245.27163300  .00001963  00000-0  96704-3 0  9990
2 57579  98.7803 251.8944 0027559  32.3781 327.9078 14.18511127 18652
CZ-6A DEB
1 57579U 22151AHW 23245.76538108  .00002502  00000-0  12264-2 0  9994
2 57579  98.7803 252.3832 0027523  31.0033 329.2760 14.18516720 18726
CZ-6A DEB
1 57579U 22151AHW 23245.76538108  .00002502  00000-0  12264-2 0  9994
2 57579  98.7803 252.3832 0027523  31.0033 329.2760 14.18516720 18726
CZ-6A DEB
1 57579U 22151AHW 23247.74038054  .00001845  00000-0  90974-3 0  9993
2 57579  98.7804 254.3383 0027381  25.4829 334.7689 14.18519991 19008
CZ-6A DEB
1 57579U 22151AHW 23247.74038054  .00001845  00000-0  90974-3 0  9993
2 57579  98.7804 254.3383 0027381  25.4829 334.7689 14.18519991 19008
CZ-6A DEB
1 57579U 22151AHW 23250.27964667  .00001995  00000-0  98199-3 0  9996
2 57579  98.7806 256.8519 0027208  18.3452 341.8699 14.18530470 19363
CZ-6A DEB
1 57579U 22151AHW 23250.27964667  .00001995  00000-0  98199-3 0  9996
2 57579  98.7806 256.8519 0027208  18.3452 341.8699 14.18530470 19363
CZ-6A DEB
1 57579U 22151AHW 23251.76087827  .00001861  00000-0  91767-3 0  9991
2 57579  98.7806 258.3182 0027100  14.1824 346.0106 14.18535070 19578
CZ-6A DEB
1 57579U 22151AHW 23251.76087827  .00001861  00000-0  91767-3 0  9991
2 57579  98.7806 258.3182 0027100  14.1824 346.0106 14.18535070 19578
CZ-6A DEB
1 57579U 22151AHW 23252.46622403  .00001942  00000-0  95641-3 0  9999
2 57579  98.7806 259.0165 0027042  12.1700 348.0123 14.18538209 19672
CZ-6A DEB
1 57579U 22151AHW 23253.73584306  .00002049  00000-0  10080-2 0  9991
2 57579  98.7808 260.2735 0026955   8.5080 351.6547 14.18543577 19857
CZ-6A DEB
1 57579U 22151AHW 23254.30011657  .00002120  00000-0  10420-2 0  9997
2 57579  98.7808 260.8320 0026904   6.8996 353.2544 14.18546191 19933
CZ-6A DEB
1 57579U 22151AHW 23256.76879945  .00002528  00000-0  12380-2 0  9990
2 57579  98.7806 263.2759 0026724 359.8845   0.2320 14.18559242 20280
CZ-6A DEB
1 57579U 22151AHW 23256.76879945  .00002528  00000-0  12380-2 0  9990
2 57579  98.7806 263.2759 0026724 359.8845   0.2320 14.18559242 20280
CZ-6A DEB
1 57579U 22151AHW 23261.28290935  .00002453  00000-0  12020-2 0  9997
2 57579  98.7801 267.7447 0026328 346.8366  13.2120 14.18580254 20922
CZ-6A DEB
1 57579U 22151AHW 23268.75923307  .00003224  00000-0  15715-2 0  9993
2 57579  98.7811 275.1472 0025850 324.8801  35.0670 14.18624219 21982
CZ-6A DEB
1 57579U 22151AHW 23268.75923307  .00003224  00000-0  15715-2 0  9993
2 57579  98.7811 275.1472 0025850 324.8801  35.0670 14.18624219 21982
CZ-6A DEB
1 57579U 22151AHW 23275.24792588  .00003110  00000-0  15160-2 0  9998
2 57579  98.7806 281.5712 0025500 305.2224  54.6564 14.18664557 22909
CZ-6A DEB
1 57579U 22151AHW 23275.24792588  .00003110  00000-0  15160-2 0  9998
2 57579  98.7806 281.5712 0025500 305.2224  54.6564 14.18664557 22909
CZ-6A DEB
1 57579U 22151AHW 23279.26799997  .00003799  00000-0  18458-2 0  9991
2 57579  98.7809 285.5513 0025409 293.1472  66.7027 14.18694302 23475
CZ-6A DEB
1 57579U 22151AHW 23279.26799997  .00003799  00000-0  18458-2 0  9991
2 57579  98.7809 285.5513 0025409 293.1472  66.7027 14.18694302 23475
CZ-6A DEB
1 57579U 22151AHW 23279.76168722  .00003914  00000-0  19006-2 0  9991
2 57579  98.7811 286.0406 0025422 291.7978  68.0493 14.18698469 23543
CZ-6A DEB
1 57579U 22151AHW 23280.25537359  .00003653  00000-0  17755-2 0  9992
2 57579  98.7813 286.5295 0025420 290.3536  69.4909 14.18701368 23617
CZ-6A DEB
1 57579U 22151AHW 23280.74905871  .00003757  00000-0  18254-2 0  9994
2 57579  98.7813 287.0183 0025402 288.8538  70.9883 14.18705178 23681
CZ-6A DEB
1 57579U 22151AHW 23280.74905871  .00003757  00000-0  18254-2 0  9994
2 57579  98.7813 287.0183 0025402 288.8538  70.9883 14.18705178 23681
CZ-6A DEB
1 57579U 22151AHW 23282.30063178  .00003922  00000-0  19040-2 0  9991
2 57579  98.7811 288.5548 0025373 284.1774  75.6583 14.18717487 23908
CZ-6A DEB
1 57579U 22151AHW 23282.30063178  .00003922  00000-0  19040-2 0  9991
2 57579  98.7811 288.5548 0025373 284.1774  75.6583 14.18717487 23908
CZ-6A DEB
1 57579U 22151AHW 23284.76901580  .00003711  00000-0  18022-2 0  9996
2 57579  98.7808 290.9995 0025312 276.7199  83.1096 14.18736930 24254
CZ-6A DEB
1 57579U 22151AHW 23284.76901580  .00003711  00000-0  18022-2 0  9996
2 57579  98.7808 290.9995 0025312 276.7199  83.1096 14.18736930 24254
CZ-6A DEB
1 57579U 22151AHW 23289.28255084  .00003044  00000-0  14810-2 0  9999
2 57579  98.7799 295.4686 0025355 263.0816  96.7476 14.18769606 24890
CZ-6A DEB
1 57579U 22151AHW 23289.28255084  .00003044  00000-0  14810-2 0  9999
2 57579  98.7799 295.4686 0025355 263.0816  96.7476 14.18769606 24890
CZ-6A DEB
1 57579U 22151AHW 23290.76353552  .00002907  00000-0  14154-2 0  9991
2 57579  98.7800 296.9349 0025399 258.6230 101.2092 14.18777467 25108
CZ-6A DEB
1 57579U 22151AHW 23290.76353552  .00002907  00000-0  14154-2 0  9991
2 57579  98.7800 296.9349 0025399 258.6230 101.2092 14.18777467 25108
CZ-6A DEB
1 57579U 22151AHW 23292.73816952  .00003571  00000-0  17330-2 0  9995
2 57579  98.7805 298.8900 0025431 252.7095 107.1298 14.18789387 25385
CZ-6A DEB
1 57579U 22151AHW 23292.73816952  .00003571  00000-0  17330-2 0  9995
2 57579  98.7805 298.8900 0025431 252.7095 107.1298 14.18789387 25385
CZ-6A DEB
1 57579U 22151AHW 23294.28965614  .00003166  00000-0  15390-2 0  9991
2 57579  98.7804 300.4265 0025410 248.0191 111.8284 14.18798298 25603
CZ-6A DEB
1 57579U 22151AHW 23294.28965614  .00003166  00000-0  15390-2 0  9991
2 57579  98.7804 300.4265 0025410 248.0191 111.8284 14.18798298 25603
CZ-6A DEB
1 57579U 22151AHW 23295.27696072  .00002312  00000-0  11297-2 0  9994
2 57579  98.7803 301.4040 0025420 245.0417 114.8118 14.18802389 25744
CZ-6A DEB
1 57579U 22151AHW 23295.27696072  .00002312  00000-0  11297-2 0  9994
2 57579  98.7803 301.4040 0025420 245.0417 114.8118 14.18802389 25744
CZ-6A DEB
1 57579U 22151AHW 23300.28396014  .00002644  00000-0  12877-2 0  9998
2 57579  98.7804 306.3633 0025630 230.1489 129.7431 14.18826275 26456
CZ-6A DEB
1 57579U 22151AHW 23300.28396014  .00002644  00000-0  12877-2 0  9998
2 57579  98.7804 306.3633 0025630 230.1489 129.7431 14.18826275 26456
CZ-6A DEB
1 57579U 22151AHW 23300.77760339  .00002365  00000-0  11541-2 0  9994
2 57579  98.7805 306.8521 0025683 228.9061 130.9897 14.18828088 26529
CZ-6A DEB
1 57579U 22151AHW 23301.76488794  .00002604  00000-0  12684-2 0  9991
2 57579  98.7800 307.8294 0025714 225.9819 133.9238 14.18833672 26667
CZ-6A DEB
1 57579U 22151AHW 23301.76488794  .00002604  00000-0  12684-2 0  9991
2 57579  98.7800 307.8294 0025714 225.9819 133.9238 14.18833672 26667
CZ-6A DEB
1 57579U 22151AHW 23304.30360100  .00002660  00000-0  12951-2 0  9993
2 57579  98.7796 310.3428 0025810 218.4012 141.5327 14.18848064 27024
CZ-6A DEB
1 57579U 22151AHW 23304.30360100  .00002660  00000-0  12951-2 0  9993
2 57579  98.7796 310.3428 0025810 218.4012 141.5327 14.18848064 27024
CZ-6A DEB
1 57579U 22151AHW 23305.29087164  .00002526  00000-0  12305-2 0  9992
2 57579  98.7797 311.3203 0025864 215.5705 144.3747 14.18853237 27163
CZ-6A DEB
1 57579U 22151AHW 23306.27813855  .00002421  00000-0  11802-2 0  9990
2 57579  98.7800 312.2978 0025911 212.7575 147.1995 14.18858433 27309
CZ-6A DEB
1 57579U 22151AHW 23306.27813855  .00002421  00000-0  11802-2 0  9990
2 57579  98.7800 312.2978 0025911 212.7575 147.1995 14.18858433 27309
CZ-6A DEB
1 57579U 22151AHW 23311.28492176  .00004666  00000-0  22527-2 0  9995
2 57579  98.7797 317.2552 0026118 198.1778 161.8466 14.18899534 28011
CZ-6A DEB
1 57579U 22151AHW 23311.28492176  .00004666  00000-0  22527-2 0  9995
2 57579  98.7797 317.2552 0026118 198.1778 161.8466 14.18899534 28011
CZ-6A DEB
1 57579U 22151AHW 23313.75299906  .00002958  00000-0  14356-2 0  9998
2 57579  98.7816 319.7022 0026291 190.6439 169.4184 14.18915837 28369
CZ-6A DEB
1 57579U 22151AHW 23313.75299906  .00002958  00000-0  14356-2 0  9998
2 57579  98.7816 319.7022 0026291 190.6439 169.4184 14.18915837 28369
CZ-6A DEB
1 57579U 22151AHW 23316.78517664  .00002507  00000-0  12196-2 0  9998
2 57579  98.7792 322.7031 0026401 182.0482 178.0589 14.18931573 28799
CZ-6A DEB
1 57579U 22151AHW 23316.78517664  .00002507  00000-0  12196-2 0  9998
2 57579  98.7792 322.7031 0026401 182.0482 178.0589 14.18931573 28799
CZ-6A DEB
1 57579U 22151AHW 23321.29813372  .00001745  00000-0  85516-3 0  9995
2 57579  98.7792 327.1709 0026569 169.1865 190.9887 14.18948660 29437
CZ-6A DEB
1 57579U 22151AHW 23321.29813372  .00001745  00000-0  85516-3 0  9995
2 57579  98.7792 327.1709 0026569 169.1865 190.9887 14.18948660 29437
CZ-6A DEB
1 57579U 22151AHW 23322.28533620  .00001572  00000-0  77205-3 0  9994
2 57579  98.7781 328.1478 0026642 166.3916 193.7984 14.18951667 29572
CZ-6A DEB
1 57579U 22151AHW 23324.25973479  .00001545  00000-0  75925-3 0  9990
2 57579  98.7785 330.1032 0026647 161.0434 199.1740 14.18957659 29855
CZ-6A DEB
1 57579U 22151AHW 23324.25973479  .00001545  00000-0  75925-3 0  9990
2 57579  98.7785 330.1032 0026647 161.0434 199.1740 14.18957659 29855
CZ-6A DEB
1 57579U 22151AHW 23329.47772431  .00003530  00000-0  17060-2 0  9995
2 57579  98.7780 335.2706 0026869 146.2971 213.9920 14.18989311 30599
CZ-6A DEB
1 57579U 22151AHW 23329.47772431  .00003530  00000-0  17060-2 0  9995
2 57579  98.7780 335.2706 0026869 146.2971 213.9920 14.18989311 30599
CZ-6A DEB
1 57579U 22151AHW 23353.23923378  .00002638  00000-0  12774-2 0  9999
2 57579  98.7776 358.7976 0027416  80.3321 280.0950 14.19110323 33961
CZ-6A DEB
1 57579U 22151AHW 23353.23923378  .00002638  00000-0  12774-2 0  9999
2 57579  98.7776 358.7976 0027416  80.3321 280.0950 14.19110323 33961
CZ-6A DEB
1 57579U 22151AHW 23364.23794477  .00002327  00000-0  11282-2 0  9995
2 57579  98.7757   9.6826 0027291  50.2029 310.1544 14.19173657 35525
CZ-6A DEB
1 57579U 22151AHW 23364.23794477  .00002327  00000-0  11282-2 0  9995
2 57579  98.7757   9.6826 0027291  50.2029 310.1544 14.19173657 35525
CZ-6A DEB
1 57579U 22151AHW 24019.26012035  .00003343  00000-0  16083-2 0  9992
2 57579  98.7839  29.5393 0026460 351.3632   8.7085 14.19283306 38366
CZ-6A DEB
1 57579U 22151AHW 24019.26012035  .00003343  00000-0  16083-2 0  9992
2 57579  98.7839  29.5393 0026460 351.3632   8.7085 14.19283306 38366
CZ-6A DEB
1 57579U 22151AHW 24039.28059758  .00003329  00000-0  15987-2 0  9995
2 57579  98.7801  49.3701 0025135 293.6970  66.1568 14.19397874 41206
CZ-6A DEB
1 57579U 22151AHW 24039.28059758  .00003329  00000-0  15987-2 0  9995
2 57579  98.7801  49.3701 0025135 293.6970  66.1568 14.19397874 41206
CZ-6A DEB
1 57579U 22151AHW 24046.25917675  .00003673  00000-0  17600-2 0  9997
2 57579  98.7814  56.2822 0025104 273.3326  86.4978 14.19450063 42196
CZ-6A DEB
1 57579U 22151AHW 24046.25917675  .00003673  00000-0  17600-2 0  9997
2 57579  98.7814  56.2822 0025104 273.3326  86.4978 14.19450063 42196
CZ-6A DEB
1 57579U 22151AHW 24049.29019653  .00003601  00000-0  17253-2 0  9998
2 57579  98.7794  59.2840 0025140 263.6453  96.1859 14.19473076 42622
CZ-6A DEB
1 57579U 22151AHW 24049.78361420  .00003326  00000-0  15951-2 0  9991
2 57579  98.7795  59.7733 0025144 262.1374  97.6948 14.19476064 42691
CZ-6A DEB
1 57579U 22151AHW 24050.77044691  .00003014  00000-0  14471-2 0  9990
2 57579  98.7787  60.7505 0025179 259.0930 100.7413 14.19481815 42831
CZ-6A DEB
1 57579U 22151AHW 24050.77044691  .00003014  00000-0  14471-2 0  9990
2 57579  98.7787  60.7505 0025179 259.0930 100.7413 14.19481815 42831
CZ-6A DEB
1 57579U 22151AHW 24051.26386189  .00002606  00000-0  12541-2 0  9998
2 57579  98.7786  61.2395 0025177 257.5994 102.2364 14.19483846 42900
CZ-6A DEB
1 57579U 22151AHW 24052.74410161  .00002410  00000-0  11615-2 0  9994
2 57579  98.7782  62.7063 0025183 253.1236 106.7178 14.19491333 43118
CZ-6A DEB
1 57579U 22151AHW 24052.74410161  .00002410  00000-0  11615-2 0  9994
2 57579  98.7782  62.7063 0025183 253.1236 106.7178 14.19491333 43118
CZ-6A DEB
1 57579U 22151AHW 24055.28163923  .00002436  00000-0  11735-2 0  9998
2 57579  98.7785  65.2221 0025204 245.5636 114.2911 14.19504008 43470
CZ-6A DEB
1 57579U 22151AHW 24055.28163923  .00002436  00000-0  11735-2 0  9998
2 57579  98.7785  65.2221 0025204 245.5636 114.2911 14.19504008 43470
CZ-6A DEB
1 57579U 22151AHW 24071.28172471  .00002137  00000-0  10299-2 0  9996
2 57579  98.7785  81.0826 0025952 197.9781 162.0480 14.19582818 45747
CZ-6A DEB
1 57579U 22151AHW 24071.28172471  .00002137  00000-0  10299-2 0  9996
2 57579  98.7785  81.0826 0025952 197.9781 162.0480 14.19582818 45747
CZ-6A DEB
1 57579U 22151AHW 24081.29016402  .00003190  00000-0  15254-2 0  9995
2 57579  98.7794  91.0097 0027024 168.4901 191.6899 14.19631151 47162
CZ-6A DEB
1 57579U 22151AHW 24081.29016402  .00003190  00000-0  15254-2 0  9995
2 57579  98.7794  91.0097 0027024 168.4901 191.6899 14.19631151 47162
CZ-6A DEB
1 57579U 22151AHW 24082.48833154  .00003383  00000-0  16158-2 0  9996
2 57579  98.7786  92.1944 0026824 165.7999 194.3937 14.19639796 47335
CZ-6A DEB
1 57579U 22151AHW 24083.75697056  .00004341  00000-0  20668-2 0  9992
2 57579  98.7769  93.4490 0026879 161.6495 198.5657 14.19652003 47513
CZ-6A DEB
1 57579U 22151AHW 24083.75697056  .00004341  00000-0  20668-2 0  9992
2 57579  98.7769  93.4490 0026879 161.6495 198.5657 14.19652003 47513
CZ-6A DEB
1 57579U 22151AHW 24085.30750829  .00005939  00000-0  28185-2 0  9999
2 57579  98.7780  94.9885 0026866 158.0809 202.1523 14.19673141 47739
CZ-6A DEB
1 57579U 22151AHW 24085.30750829  .00005939  00000-0  28185-2 0  9999
2 57579  98.7780  94.9885 0026866 158.0809 202.1523 14.19673141 47739
CZ-6A DEB
1 57579U 22151AHW 24088.76092985  .00003124  00000-0  14924-2 0  9994
2 57579  98.7833  98.4181 0027164 148.4136 211.8677 14.19695616 48227
CZ-6A DEB
1 57579U 22151AHW 24089.74761211  .00003960  00000-0  18853-2 0  9991
2 57579  98.7787  99.3922 0027226 145.5728 214.7218 14.19704560 48369
CZ-6A DEB
1 57579U 22151AHW 24089.74761211  .00003960  00000-0  18853-2 0  9991
2 57579  98.7787  99.3922 0027226 145.5728 214.7218 14.19704560 48369
CZ-6A DEB
1 57579U 22151AHW 24092.28477473  .00002659  00000-0  12727-2 0  9996
2 57579  98.7787 101.9085 0027381 138.4119 221.9146 14.19716473 48722
CZ-6A DEB
1 57579U 22151AHW 24092.28477473  .00002659  00000-0  12727-2 0  9996
2 57579  98.7787 101.9085 0027381 138.4119 221.9146 14.19716473 48722
CZ-6A DEB
1 57579U 22151AHW 24093.27144220  .00002454  00000-0  11762-2 0  9998
2 57579  98.7778 102.8868 0027435 135.6900 224.6478 14.19721432 48862
CZ-6A DEB
1 57579U 22151AHW 24093.76477539  .00002315  00000-0  11108-2 0  9994
2 57579  98.7764 103.3764 0027446 134.5550 225.7873 14.19723181 48931
CZ-6A DEB
1 57579U 22151AHW 24093.76477539  .00002315  00000-0  11108-2 0  9994
2 57579  98.7764 103.3764 0027446 134.5550 225.7873 14.19723181 48931
CZ-6A DEB
1 57579U 22151AHW 24094.25810749  .00002214  00000-0  10628-2 0  9997
2 57579  98.7772 103.8650 0027523 133.2547 227.0933 14.19725125 49008
CZ-6A DEB
1 57579U 22151AHW 24094.75143883  .00002228  00000-0  10693-2 0  9997
2 57579  98.7772 104.3542 0027529 131.8968 228.4562 14.19727167 49079
CZ-6A DEB
1 57579U 22151AHW 24098.27521362  .00001837  00000-0  88503-3 0  9991
2 57579  98.7784 107.8494 0027678 122.1594 238.2272 14.19740751 49575
CZ-6A DEB
1 57579U 22151AHW 24098.27521362  .00001837  00000-0  88503-3 0  9991
2 57579  98.7784 107.8494 0027678 122.1594 238.2272 14.19740751 49575
CZ-6A DEB
1 57579U 22151AHW 24099.75518823  .00002118  00000-0  10171-2 0  9991
2 57579  98.7789 109.3175 0027724 118.0985 242.2999 14.19747225 49780
CZ-6A DEB
1 57579U 22151AHW 24099.75518823  .00002118  00000-0  10171-2 0  9991
2 57579  98.7789 109.3175 0027724 118.0985 242.2999 14.19747225 49780
CZ-6A DEB
1 57579U 22151AHW 24101.30563002  .00002173  00000-0  10431-2 0  9995
2 57579  98.7779 110.8543 0027784 113.9654 246.4436 14.19753855 50003
CZ-6A DEB
1 57579U 22151AHW 24101.30563002  .00002173  00000-0  10431-2 0  9995
2 57579  98.7779 110.8543 0027784 113.9654 246.4436 14.19753855 50003
CZ-6A DEB
1 57579U 22151AHW 24102.29227084  .00002024  00000-0  97294-3 0  9999
2 57579  98.7780 111.8329 0027809 111.3108 249.1041 14.19757687 50146
CZ-6A DEB
1 57579U 22151AHW 24107.29588891  .00004343  00000-0  20620-2 0  9994
2 57579  98.7780 116.7954 0027862  97.8390 262.5951 14.19791818 50855
CZ-6A DEB
1 57579U 22151AHW 24107.29588891  .00004343  00000-0  20620-2 0  9994
2 57579  98.7780 116.7954 0027862  97.8390 262.5951 14.19791818 50855
CZ-6A DEB
1 57579U 22151AHW 24116.24553615  .00005545  00000-0  26210-2 0  9991
2 57579  98.7795 125.6774 0027590  74.3638 286.0580 14.19903505 52122
CZ-6A DEB
1 57579U 22151AHW 24116.24553615  .00005545  00000-0  26210-2 0  9991
2 57579  98.7795 125.6774 0027590  74.3638 286.0580 14.19903505 52122
CZ-6A DEB
1 57579U 22151AHW 24117.30253451  .00005176  00000-0  24472-2 0  9992
2 57579  98.7755 126.7187 0027680  70.9823 289.4349 14.19915325 52275
CZ-6A DEB
1 57579U 22151AHW 24117.30253451  .00005176  00000-0  24472-2 0  9992
2 57579  98.7755 126.7187 0027680  70.9823 289.4349 14.19915325 52275
CZ-6A DEB
1 57579U 22151AHW 24119.76883079  .00003234  00000-0  15366-2 0  9994
2 57579  98.7761 129.1652 0027481  64.3154 296.0856 14.19937583 52625
CZ-6A DEB
1 57579U 22151AHW 24119.76883079  .00003234  00000-0  15366-2 0  9994
2 57579  98.7761 129.1652 0027481  64.3154 296.0856 14.19937583 52625
CZ-6A DEB
1 57579U 22151AHW 24122.30556383  .00003077  00000-0  14627-2 0  9997
2 57579  98.7751 131.6808 0027435  57.4684 302.9137 14.19951993 52984
CZ-6A DEB
1 57579U 22151AHW 24122.30556383  .00003077  00000-0  14627-2 0  9997
2 57579  98.7751 131.6808 0027435  57.4684 302.9137 14.19951993 52984
CZ-6A DEB
1 57579U 22151AHW 24123.29206478  .00002532  00000-0  12073-2 0  9991
2 57579  98.7751 132.6595 0027272  54.5740 305.7978 14.19955705 53124
CZ-6A DEB
1 57579U 22151AHW 24124.77180937  .00002383  00000-0  11376-2 0  9995
2 57579  98.7755 134.1273 0027186  50.6211 309.7368 14.19963056 53330
CZ-6A DEB
1 57579U 22151AHW 24124.77180937  .00002383  00000-0  11376-2 0  9995
2 57579  98.7755 134.1273 0027186  50.6211 309.7368 14.19963056 53330
CZ-6A DEB
1 57579U 22151AHW 24135.76382379  .00004615  00000-0  21792-2 0  9993
2 57579  98.7749 145.0298 0026243  19.9749 340.2449 14.20072917 54899
CZ-6A DEB
1 57579U 22151AHW 24139.28669201  .00006208  00000-0  29214-2 0  9993
2 57579  98.7741 148.5242 0025910  10.1456 350.0238 14.20114667 55396
CZ-6A DEB
1 57579U 22151AHW 24139.28669201  .00006208  00000-0  29214-2 0  9993
2 57579  98.7741 148.5242 0025910  10.1456 350.0238 14.20114667 55396
CZ-6A DEB
1 57579U 22151AHW 24139.77988447  .00005821  00000-0  27405-2 0  9993
2 57579  98.7745 149.0141 0025841   8.6353 351.5263 14.20120604 55465
CZ-6A DEB
1 57579U 22151AHW 24139.77988447  .00005821  00000-0  27405-2 0  9993
2 57579  98.7745 149.0141 0025841   8.6353 351.5263 14.20120604 55465
CZ-6A DEB
1 57579U 22151AHW 24145.76851740  .00003589  00000-0  16969-2 0  9996
2 57579  98.7736 154.9530 0024941 351.2529   8.8210 14.20174660 56314
CZ-6A DEB
1 57579U 22151AHW 24145.76851740  .00003589  00000-0  16969-2 0  9996
2 57579  98.7736 154.9530 0024941 351.2529   8.8210 14.20174660 56314
CZ-6A DEB
1 57579U 22151AHW 24150.27749109  .00001968  00000-0  93937-3 0  9993
2 57579  98.7765 159.4307 0024940 338.0001  22.0103 14.20196843 56951
CZ-6A DEB
1 57579U 22151AHW 24155.77271679  .00002772  00000-0  13143-2 0  9999
2 57579  98.7734 164.8796 0024352 321.4003  38.5432 14.20223538 57730
CZ-6A DEB
1 57579U 22151AHW 24155.77271679  .00002772  00000-0  13143-2 0  9999
2 57579  98.7734 164.8796 0024352 321.4003  38.5432 14.20223538 57730
CZ-6A DEB
1 57579U 22151AHW 24156.75902787  .00003211  00000-0  15189-2 0  9990
2 57579  98.7745 165.8592 0024373 318.6139  41.3191 14.20230410 57874
CZ-6A DEB
1 57579U 22151AHW 24158.30893700  .00003244  00000-0  15341-2 0  9993
2 57579  98.7741 167.3966 0024201 314.1518  45.7668 14.20239886 58092
CZ-6A DEB
1 57579U 22151AHW 24158.30893700  .00003244  00000-0  15341-2 0  9993
2 57579  98.7741 167.3966 0024201 314.1518  45.7668 14.20239886 58092
CZ-6A DEB
1 57579U 22151AHW 24161.26782280  .00003505  00000-0  16551-2 0  9996
2 57579  98.7737 170.3329 0024128 304.7306  55.1598 14.20260215 58516
CZ-6A DEB
1 57579U 22151AHW 24161.26782280  .00003505  00000-0  16551-2 0  9996
2 57579  98.7737 170.3329 0024128 304.7306  55.1598 14.20260215 58516
CZ-6A DEB
1 57579U 22151AHW 24171.27142218  .00001854  00000-0  88475-3 0  9999
2 57579  98.7716 180.2544 0023729 273.0576  86.7885 14.20309131 59932
CZ-6A DEB
1 57579U 22151AHW 24171.27142218  .00001854  00000-0  88475-3 0  9999
2 57579  98.7716 180.2544 0023729 273.0576  86.7885 14.20309131 59932
CZ-6A DEB
1 57579U 22151AHW 24179.30226965  .00002647  00000-0  12533-2 0  9995
2 57579  98.7737 188.2266 0024020 249.1374 110.7230 14.20344775 61072
CZ-6A DEB
1 57579U 22151AHW 24179.30226965  .00002647  00000-0  12533-2 0  9995
2 57579  98.7737 188.2266 0024020 249.1374 110.7230 14.20344775 61072
CZ-6A DEB
1 57579U 22151AHW 24182.26094578  .00003246  00000-0  15314-2 0  9993
2 57579  98.7736 191.1618 0024142 240.0691 119.8087 14.20364497 61491
CZ-6A DEB
1 57579U 22151AHW 24182.26094578  .00003246  00000-0  15314-2 0  9993
2 57579  98.7736 191.1618 0024142 240.0691 119.8087 14.20364497 61491
CZ-6A DEB
1 57579U 22151AHW 24182.75405465  .00003148  00000-0  14858-2 0  9991
2 57579  98.7736 191.6511 0024195 238.6382 121.2427 14.20367399 61563
CZ-6A DEB
1 57579U 22151AHW 24184.30381973  .00002673  00000-0  12645-2 0  9995
2 57579  98.7738 193.1897 0024200 233.6908 126.2033 14.20375374 61789
CZ-6A DEB
1 57579U 22151AHW 24184.30381973  .00002673  00000-0  12645-2 0  9995
2 57579  98.7738 193.1897 0024200 233.6908 126.2033 14.20375374 61789
CZ-6A DEB
1 57579U 22151AHW 24186.76933642  .00002114  00000-0  10041-2 0  9991
2 57579  98.7734 195.6363 0024379 226.2427 133.6732 14.20387245 62139
CZ-6A DEB
1 57579U 22151AHW 24186.76933642  .00002114  00000-0  10041-2 0  9991
2 57579  98.7734 195.6363 0024379 226.2427 133.6732 14.20387245 62139
CZ-6A DEB
1 57579U 22151AHW 24188.74173543  .00001942  00000-0  92398-3 0  9991
2 57579  98.7734 197.5938 0024505 220.2812 139.6549 14.20396365 62417
CZ-6A DEB
1 57579U 22151AHW 24188.74173543  .00001942  00000-0  92398-3 0  9991
2 57579  98.7734 197.5938 0024505 220.2812 139.6549 14.20396365 62417
CZ-6A DEB
1 57579U 22151AHW 24189.30527566  .00002011  00000-0  95593-3 0  9990
2 57579  98.7733 198.1529 0024545 218.6040 141.3382 14.20399304 62496
CZ-6A DEB
1 57579U 22151AHW 24190.78456384  .00002044  00000-0  97138-3 0  9996
2 57579  98.7732 199.6208 0024645 214.2042 145.7548 14.20406567 62706
CZ-6A DEB
1 57579U 22151AHW 24190.78456384  .00002044  00000-0  97138-3 0  9996
2 57579  98.7732 199.6208 0024645 214.2042 145.7548 14.20406567 62706
CZ-6A DEB
1 57579U 22151AHW 24196.27900256  .00002814  00000-0  13282-2 0  9990
2 57579  98.7741 205.0732 0025137 197.9145 162.1148 14.20434498 63487
CZ-6A DEB
1 57579U 22151AHW 24196.27900256  .00002814  00000-0  13282-2 0  9990
2 57579  98.7741 205.0732 0025137 197.9145 162.1148 14.20434498 63487
CZ-6A DEB
1 57579U 22151AHW 24201.77331429  .00003411  00000-0  16041-2 0  9992
2 57579  98.7735 210.5255 0025729 182.0210 178.0866 14.20473074 64269
CZ-6A DEB
1 57579U 22151AHW 24201.77331429  .00003411  00000-0  16041-2 0  9992
2 57579  98.7735 210.5255 0025729 182.0210 178.0866 14.20473074 64269
CZ-6A DEB
1 57579U 22151AHW 24202.26638525  .00003523  00000-0  16560-2 0  9994
2 57579  98.7736 211.0150 0025770 180.5720 179.5431 14.20477451 64330
CZ-6A DEB
1 57579U 22151AHW 24202.75945525  .00003968  00000-0  18624-2 0  9995
2 57579  98.7738 211.5048 0025757 179.2324 180.8896 14.20482444 64409
CZ-6A DEB
1 57579U 22151AHW 24202.75945525  .00003968  00000-0  18624-2 0  9995
2 57579  98.7738 211.5048 0025757 179.2324 180.8896 14.20482444 64409
CZ-6A DEB
1 57579U 22151AHW 24207.76052713  .00002884  00000-0  13585-2 0  9996
2 57579  98.7748 216.4696 0026211 165.0611 195.1346 14.20514234 65112
CZ-6A DEB
1 57579U 22151AHW 24207.76052713  .00002884  00000-0  13585-2 0  9996
2 57579  98.7748 216.4696 0026211 165.0611 195.1346 14.20514234 65112
CZ-6A DEB
1 57579U 22151AHW 24212.97280662  .00003637  00000-0  17061-2 0  9991
2 57579  98.7749 221.6430 0026619 150.5351 209.7332 14.20543841 65853
CZ-6A DEB
1 57579U 22151AHW 24212.97280662  .00003637  00000-0  17061-2 0  9991
2 57579  98.7749 221.6430 0026619 150.5351 209.7332 14.20543841 65853
CZ-6A DEB
1 57579U 22151AHW 24216.28324962  .00003276  00000-0  15382-2 0  9994
2 57579  98.7738 224.9282 0026865 141.4698 218.8403 14.20563010 66321
CZ-6A DEB
1 57579U 22151AHW 24216.28324962  .00003276  00000-0  15382-2 0  9994
2 57579  98.7738 224.9282 0026865 141.4698 218.8403 14.20563010 66321
CZ-6A DEB
1 57579U 22151AHW 24222.76309907  .00004753  00000-0  22198-2 0  9990
2 57579  98.7743 231.3601 0027236 123.8312 236.5463 14.20616428 67241
CZ-6A DEB
1 57579U 22151AHW 24222.76309907  .00004753  00000-0  22198-2 0  9990
2 57579  98.7743 231.3601 0027236 123.8312 236.5463 14.20616428 67241
CZ-6A DEB
1 57579U 22151AHW 24225.29860673  .00007107  00000-0  33054-2 0  9992
2 57579  98.7761 233.8802 0027262 117.1029 243.2933 14.20653453 67607
CZ-6A DEB
1 57579U 22151AHW 24225.29860673  .00007107  00000-0  33054-2 0  9992
2 57579  98.7761 233.8802 0027262 117.1029 243.2933 14.20653453 67607
CZ-6A DEB
1 57579U 22151AHW 24226.28461159  .00007467  00000-0  34705-2 0  9991
2 57579  98.7772 234.8596 0027262 114.4114 245.9912 14.20674430 67744
CZ-6A DEB
1 57579U 22151AHW 24226.28461159  .00007467  00000-0  34705-2 0  9991
2 57579  98.7772 234.8596 0027262 114.4114 245.9912 14.20674430 67744
CZ-6A DEB
1 57579U 22151AHW 24228.74957324  .00005559  00000-0  25874-2 0  9995
2 57579  98.7753 237.3066 0027258 107.8740 252.5413 14.20714729 68094
CZ-6A DEB
1 57579U 22151AHW 24228.74957324  .00005559  00000-0  25874-2 0  9995
2 57579  98.7753 237.3066 0027258 107.8740 252.5413 14.20714729 68094
CZ-6A DEB
1 57579U 22151AHW 24236.28500130  .00004652  00000-0  21653-2 0  9996
2 57579  98.7750 244.7898 0027271  87.6359 272.7939 14.20797783 69169
CZ-6A DEB
1 57579U 22151AHW 24236.28500130  .00004652  00000-0  21653-2 0  9996
2 57579  98.7750 244.7898 0027271  87.6359 272.7939 14.20797783 69169
CZ-6A DEB
1 57579U 22151AHW 24237.76387090  .00004178  00000-0  19464-2 0  9998
2 57579  98.7744 246.2577 0027375  83.6765 276.7528 14.20808744 69376
CZ-6A DEB
1 57579U 22151AHW 24237.76387090  .00004178  00000-0  19464-2 0  9998
2 57579  98.7744 246.2577 0027375  83.6765 276.7528 14.20808744 69376
CZ-6A DEB
1 57579U 22151AHW 24238.74977684  .00004113  00000-0  19164-2 0  9997
2 57579  98.7771 247.2390 0027358  81.0672 279.3600 14.20816647 69517
CZ-6A DEB
1 57579U 22151AHW 24242.76375788  .00005654  00000-0  26243-2 0  9998
2 57579  98.7771 251.2254 0027135  70.1225 290.2872 14.20856044 70089
CZ-6A DEB
1 57579U 22151AHW 24242.76375788  .00005654  00000-0  26243-2 0  9998
2 57579  98.7771 251.2254 0027135  70.1225 290.2872 14.20856044 70089
CZ-6A DEB
1 57579U 22151AHW 24246.28468946  .00005808  00000-0  26931-2 0  9993
2 57579  98.7752 254.7227 0026995  60.6292 299.7576 14.20897821 70585
CZ-6A DEB
1 57579U 22151AHW 24246.28468946  .00005808  00000-0  26931-2 0  9993
2 57579  98.7752 254.7227 0026995  60.6292 299.7576 14.20897821 70585
CZ-6A DEB
1 57579U 22151AHW 24247.76344932  .00007733  00000-0  35767-2 0  9991
2 57579  98.7749 256.1913 0026823  56.6091 303.7647 14.20918498 70793
CZ-6A DEB
1 57579U 22151AHW 24247.76344932  .00007733  00000-0  35767-2 0  9991
2 57579  98.7749 256.1913 0026823  56.6091 303.7647 14.20918498 70793
CZ-6A DEB
1 57579U 22151AHW 24251.28421449  .00007830  00000-0  36182-2 0  9992
2 57579  98.7741 259.6867 0026551  46.9658 313.3737 14.20970616 71293
CZ-6A DEB
1 57579U 22151AHW 24251.28421449  .00007830  00000-0  36182-2 0  9992
2 57579  98.7741 259.6867 0026551  46.9658 313.3737 14.20970616 71293
CZ-6A DEB
1 57579U 22151AHW 24252.27000435  .00008212  00000-0  37923-2 0  9999
2 57579  98.7795 260.6693 0026503  44.1681 316.1606 14.20986193 71433
CZ-6A DEB
1 57579U 22151AHW 24256.28346994  .00006319  00000-0  29208-2 0  9990
2 57579  98.7790 264.6575 0026178  32.9285 327.3516 14.21043211 72008
CZ-6A DEB
1 57579U 22151AHW 24256.28346994  .00006319  00000-0  29208-2 0  9990
2 57579  98.7790 264.6575 0026178  32.9285 327.3516 14.21043211 72008
CZ-6A DEB
1 57579U 22151AHW 24257.26920572  .00011217  00000-0  51629-2 0  9994
2 57579  98.7769 265.6355 0026055  30.2054 330.0619 14.21067214 72149
CZ-6A DEB
1 57579U 22151AHW 24257.26920572  .00011217  00000-0  51629-2 0  9994
2 57579  98.7769 265.6355 0026055  30.2054 330.0619 14.21067214 72149
CZ-6A DEB
1 57579U 22151AHW 24264.30992804  .00004242  00000-0  19649-2 0  9990
2 57579  98.7760 272.6322 0025468  10.3249 349.8446 14.21138309 73145
CZ-6A DEB
1 57579U 22151AHW 24264.30992804  .00004242  00000-0  19649-2 0  9990
2 57579  98.7760 272.6322 0025468  10.3249 349.8446 14.21138309 73145
CZ-6A DEB
1 57579U 22151AHW 24266.77410901  .00003322  00000-0  15429-2 0  9996
2 57579  98.7766 275.0805 0025243   2.6793 357.4515 14.21154316 73499
CZ-6A DEB
1 57579U 22151AHW 24266.77410901  .00003322  00000-0  15429-2 0  9996
2 57579  98.7766 275.0805 0025243   2.6793 357.4515 14.21154316 73499
CZ-6A DEB
1 57579U 22151AHW 24267.75977470  .00005373  00000-0  24820-2 0  9997
2 57579  98.7767 276.0594 0025161   0.1784 359.9398 14.21164066 73633
CZ-6A DEB
1 57579U 22151AHW 24267.75977470  .00005373  00000-0  24820-2 0  9997
2 57579  98.7767 276.0594 0025161   0.1784 359.9398 14.21164066 73633
CZ-6A DEB
1 57579U 22151AHW 24270.29431288  .00005800  00000-0  26764-2 0  9996
2 57579  98.7770 278.5783 0024995 352.9834   7.0989 14.21187975 73992
CZ-6A DEB
1 57579U 22151AHW 24270.78713409  .00005106  00000-0  23584-2 0  9994
2 57579  98.7781 279.0688 0024862 351.8437   8.2333 14.21191873 74061
CZ-6A DEB
1 57579U 22151AHW 24270.78713409  .00005106  00000-0  23584-2 0  9994
2 57579  98.7781 279.0688 0024862 351.8437   8.2333 14.21191873 74061
CZ-6A DEB
1 57579U 22151AHW 24280.29108905  .00009314  00000-0  42721-2 0  9999
2 57579  98.7805 288.5202 0024064 323.0263  36.9255 14.21337835 75418
CZ-6A DEB
1 57579U 22151AHW 24280.78385807  .00008686  00000-0  39849-2 0  9999
2 57579  98.7749 289.0045 0024074 321.9423  38.0053 14.21345573 75486
CZ-6A DEB
1 57579U 22151AHW 24281.76938415  .00010251  00000-0  46962-2 0  9992
2 57579  98.7751 289.9839 0024053 318.8345  41.1017 14.21367536 75628
CZ-6A DEB
1 57579U 22151AHW 24282.75489223  .00019755  00000-0  90127-2 0  9990
2 57579  98.7723 290.9627 0024104 315.8193  44.1059 14.21407471 75766
CZ-6A DEB
1 57579U 22151AHW 24282.75489223  .00019755  00000-0  90127-2 0  9990
2 57579  98.7723 290.9627 0024104 315.8193  44.1059 14.21407471 75766
CZ-6A DEB
1 57579U 22151AHW 24285.28900701  .00059479  00000-0  26886-1 0  9997
2 57579  98.7768 293.4819 0023948 307.9571  51.9442 14.21517407 76127
CZ-6A DEB
1 57579U 22151AHW 24286.27448135  .00007866  00000-0  36039-2 0  9990
2 57579  98.7754 294.4613 0023907 305.1056  54.7879 14.21455660 76260
CZ-6A DEB
1 57579U 22151AHW 24286.27448135  .00007866  00000-0  36039-2 0  9990
2 57579  98.7754 294.4613 0023907 305.1056  54.7879 14.21455660 76260
CZ-6A DEB
1 57579U 22151AHW 24290.28666359  .00004558  00000-0  20962-2 0  9999
2 57579  98.7742 298.4498 0023835 292.9699  66.8964 14.21489332 76833
CZ-6A DEB
1 57579U 22151AHW 24290.28666359  .00004558  00000-0  20962-2 0  9999
2 57579  98.7742 298.4498 0023835 292.9699  66.8964 14.21489332 76833
CZ-6A DEB
1 57579U 22151AHW 24292.75023639  .00007840  00000-0  35878-2 0  9990
2 57579  98.7749 300.8993 0023965 285.3448  74.5081 14.21515348 77182
CZ-6A DEB
1 57579U 22151AHW 24292.75023639  .00007840  00000-0  35878-2 0  9990
2 57579  98.7749 300.8993 0023965 285.3448  74.5081 14.21515348 77182
CZ-6A DEB
1 57579U 22151AHW 24300.28149676  .00004742  00000-0  21763-2 0  9994
2 57579  98.7762 308.3864 0024199 262.9637  96.8788 14.21581659 78256
CZ-6A DEB
1 57579U 22151AHW 24300.28149676  .00004742  00000-0  21763-2 0  9994
2 57579  98.7762 308.3864 0024199 262.9637  96.8788 14.21581659 78256
CZ-6A DEB
1 57579U 22151AHW 24300.98533135  .00006193  00000-0  28349-2 0  9997
2 57579  98.7768 309.0874 0024070 260.9927  98.8526 14.21593378 78353
CZ-6A DEB
1 57579U 22151AHW 24301.75954344  .00007742  00000-0  35370-2 0  9995
2 57579  98.7732 309.8543 0023921 258.4686 101.3805 14.21607480 78465
CZ-6A DEB
1 57579U 22151AHW 24301.75954344  .00007742  00000-0  35370-2 0  9995
2 57579  98.7732 309.8543 0023921 258.4686 101.3805 14.21607480 78465
CZ-6A DEB
1 57579U 22151AHW 24305.27860030  .00007830  00000-0  35730-2 0  9992
2 57579  98.7719 313.3544 0024008 247.8221 112.0408 14.21665975 78961
CZ-6A DEB
1 57579U 22151AHW 24305.77125619  .00007589  00000-0  34632-2 0  9995
2 57579  98.7720 313.8450 0023943 246.2270 113.6396 14.21674159 79034
CZ-6A DEB
1 57579U 22151AHW 24305.77125619  .00007589  00000-0  34632-2 0  9995
2 57579  98.7720 313.8450 0023943 246.2270 113.6396 14.21674159 79034
CZ-6A DEB
1 57579U 22151AHW 24306.47504498  .00008106  00000-0  36963-2 0  9994
2 57579  98.7753 314.5454 0023859 243.8068 116.0656 14.21687922 79135
CZ-6A DEB
1 57579U 22151AHW 24307.74184920  .00008714  00000-0  39700-2 0  9996
2 57579  98.7744 315.8045 0023883 239.8483 120.0328 14.21711830 79315
CZ-6A DEB
1 57579U 22151AHW 24307.74184920  .00008714  00000-0  39700-2 0  9996
2 57579  98.7744 315.8045 0023883 239.8483 120.0328 14.21711830 79315
CZ-6A DEB
1 57579U 22151AHW 24308.30486517  .00010006  00000-0  45537-2 0  9998
2 57579  98.7750 316.3644 0023919 238.1382 121.7467 14.21725687 79398
CZ-6A DEB
1 57579U 22151AHW 24308.30486517  .00010006  00000-0  45537-2 0  9998
2 57579  98.7750 316.3644 0023919 238.1382 121.7467 14.21725687 79398
CZ-6A DEB
1 57579U 22151AHW 24311.26063722  .00007748  00000-0  35284-2 0  9993
2 57579  98.7751 319.3030 0024039 229.3315 130.5773 14.21775332 79810
CZ-6A DEB
1 57579U 22151AHW 24311.26063722  .00007748  00000-0  35284-2 0  9993
2 57579  98.7751 319.3030 0024039 229.3315 130.5773 14.21775332 79810
CZ-6A DEB
1 57579U 22151AHW 24313.30147240  .00007431  00000-0  33828-2 0  9999
2 57579  98.7749 321.3322 0024139 223.1771 136.7514 14.21806332 80103
CZ-6A DEB
1 57579U 22151AHW 24313.30147240  .00007431  00000-0  33828-2 0  9999
2 57579  98.7749 321.3322 0024139 223.1771 136.7514 14.21806332 80103
CZ-6A DEB
1 57579U 22151AHW 24315.76448921  .00007008  00000-0  31890-2 0  9998
2 57579  98.7743 323.7814 0024220 215.8241 144.1313 14.21843902 80452
CZ-6A DEB
1 57579U 22151AHW 24315.76448921  .00007008  00000-0  31890-2 0  9998
2 57579  98.7743 323.7814 0024220 215.8241 144.1313 14.21843902 80452
CZ-6A DEB
1 57579U 22151AHW 24317.73486033  .00004799  00000-0  21898-2 0  9994
2 57579  98.7735 325.7410 0024431 210.3557 149.6206 14.21865109 80736
CZ-6A DEB
1 57579U 22151AHW 24317.73486033  .00004799  00000-0  21898-2 0  9994
2 57579  98.7735 325.7410 0024431 210.3557 149.6206 14.21865109 80736
CZ-6A DEB
1 57579U 22151AHW 24323.78659782  .00002509  00000-0  11540-2 0  9999
2 57579  98.7741 331.7598 0024583 191.8722 168.1878 14.21902917 81597
CZ-6A DEB
1 57579U 22151AHW 24323.78659782  .00002509  00000-0  11540-2 0  9999
2 57579  98.7741 331.7598 0024583 191.8722 168.1878 14.21902917 81597
CZ-6A DEB
1 57579U 22151AHW 24324.27917352  .00002750  00000-0  12628-2 0  9990
2 57579  98.7741 332.2496 0024644 190.7296 169.3359 14.21906076 81667
CZ-6A DEB
1 57579U 22151AHW 24324.27917352  .00002750  00000-0  12628-2 0  9990
2 57579  98.7741 332.2496 0024644 190.7296 169.3359 14.21906076 81667
CZ-6A DEB
1 57579U 22151AHW 24332.30094202  .00005093  00000-0  23172-2 0  9992
2 57579  98.7736 340.2270 0025050 167.9279 192.2504 14.21976709 82803
CZ-6A DEB
1 57579U 22151AHW 24332.30094202  .00005093  00000-0  23172-2 0  9992
2 57579  98.7736 340.2270 0025050 167.9279 192.2504 14.21976709 82803
CZ-6A DEB
1 57579U 22151AHW 24334.76367444  .00005593  00000-0  25415-2 0  9992
2 57579  98.7731 342.6760 0025130 160.9750 199.2372 14.22004475 83156
CZ-6A DEB
1 57579U 22151AHW 24334.76367444  .00005593  00000-0  25415-2 0  9992
2 57579  98.7731 342.6760 0025130 160.9750 199.2372 14.22004475 83156
CZ-6A DEB
1 57579U 22151AHW 24336.31165315  .00005323  00000-0  24187-2 0  9994
2 57579  98.7722 344.2149 0025190 156.5668 203.6663 14.22021271 83370
CZ-6A DEB
1 57579U 22151AHW 24336.31165315  .00005323  00000-0  24187-2 0  9994
2 57579  98.7722 344.2149 0025190 156.5668 203.6663 14.22021271 83370
CZ-6A DEB
1 57579U 22151AHW 24345.73990146  .00003874  00000-0  17631-2 0  9993
2 57579  98.7729 353.5916 0025369 130.0569 230.2839 14.22104694 84718
CZ-6A DEB
1 57579U 22151AHW 24345.73990146  .00003874  00000-0  17631-2 0  9993
2 57579  98.7729 353.5916 0025369 130.0569 230.2839 14.22104694 84718
CZ-6A DEB
1 57579U 22151AHW 24347.28777325  .00003075  00000-0  14036-2 0  9996
2 57579  98.7726 355.1316 0025504 125.8072 234.5481 14.22114818 84932
CZ-6A DEB
1 57579U 22151AHW 24347.28777325  .00003075  00000-0  14036-2 0  9996
2 57579  98.7726 355.1316 0025504 125.8072 234.5481 14.22114818 84932
CZ-6A DEB
1 57579U 22151AHW 24348.76527718  .00002852  00000-0  13029-2 0  9992
2 57579  98.7727 356.6012 0025572 121.5597 238.8082 14.22123753 85148
CZ-6A DEB
1 57579U 22151AHW 24348.76527718  .00002852  00000-0  13029-2 0  9992
2 57579  98.7727 356.6012 0025572 121.5597 238.8082 14.22123753 85148
CZ-6A DEB
1 57579U 22151AHW 24351.29811762  .00003327  00000-0  15160-2 0  9995
2 57579  98.7725 359.1203 0025655 114.6229 245.7625 14.22141006 85504
CZ-6A DEB
1 57579U 22151AHW 24351.29811762  .00003327  00000-0  15160-2 0  9995
2 57579  98.7725 359.1203 0025655 114.6229 245.7625 14.22141006 85504
CZ-6A DEB
1 57579U 22151AHW 24359.74068059  .00004576  00000-0  20747-2 0  9990
2 57579  98.7727   7.5178 0025670  91.0074 269.4045 14.22205435 86703
CZ-6A DEB
1 57579U 22151AHW 24359.74068059  .00004576  00000-0  20747-2 0  9990
2 57579  98.7727   7.5178 0025670  91.0074 269.4045 14.22205435 86703
CZ-6A DEB
1 57579U 22151AHW 24361.28843794  .00004524  00000-0  20510-2 0  9990
2 57579  98.7726   9.0576 0025681  86.7238 273.6877 14.22219923 86927
CZ-6A DEB
1 57579U 22151AHW 24361.28843794  .00004524  00000-0  20510-2 0  9990
2 57579  98.7726   9.0576 0025681  86.7238 273.6877 14.22219923 86927
CZ-6A DEB
1 57579U 22151AHW 24364.31355296  .00004956  00000-0  22433-2 0  9997
2 57579  98.7718  12.0665 0025712  78.2373 282.1687 14.22249215 87351
CZ-6A DEB
1 57579U 22151AHW 24364.31355296  .00004956  00000-0  22433-2 0  9997
2 57579  98.7718  12.0665 0025712  78.2373 282.1687 14.22249215 87351
CZ-6A DEB
1 57579U 22151AHW 24365.29845907  .00005954  00000-0  26903-2 0  9993
2 57579  98.7707  13.0463 0025743  75.6669 284.7365 14.22262092 87493
CZ-6A DEB
1 57579U 22151AHW 25001.47929239  .00006885  00000-0  31058-2 0  9993
2 57579  98.7727  15.2166 0025670  69.7356 290.6578 14.22290469 87801
CZ-6A DEB
1 57579U 22151AHW 25004.29319573  .00004595  00000-0  20787-2 0  9993
2 57579  98.7725  18.0154 0025563  61.8257 298.5499 14.22326948 88207
CZ-6A DEB
1 57579U 22151AHW 25004.29319573  .00004595  00000-0  20787-2 0  9993
2 57579  98.7725  18.0154 0025563  61.8257 298.5499 14.22326948 88207
CZ-6A DEB
1 57579U 22151AHW 25005.27804618  .00004891  00000-0  22106-2 0  9997
2 57579  98.7722  18.9949 0025407  58.8702 301.4963 14.22339077 88345
CZ-6A DEB
1 57579U 22151AHW 25005.27804618  .00004891  00000-0  22106-2 0  9997
2 57579  98.7722  18.9949 0025407  58.8702 301.4963 14.22339077 88345
CZ-6A DEB
1 57579U 22151AHW 25010.27255353  .00002697  00000-0  12277-2 0  9999
2 57579  98.7719  23.9644 0025217  44.8982 315.4230 14.22376817 89057
CZ-6A DEB
1 57579U 22151AHW 25010.27255353  .00002697  00000-0  12277-2 0  9999
2 57579  98.7719  23.9644 0025217  44.8982 315.4230 14.22376817 89057
CZ-6A DEB
1 57579U 22151AHW 25013.29733820  .00002866  00000-0  13029-2 0  9998
2 57579  98.7712  26.9741 0025021  35.6496 324.6347 14.22396553 89489
CZ-6A DEB
1 57579U 22151AHW 25013.29733820  .00002866  00000-0  13029-2 0  9998
2 57579  98.7712  26.9741 0025021  35.6496 324.6347 14.22396553 89489
CZ-6A DEB
1 57579U 22151AHW 25014.28214332  .00002780  00000-0  12640-2 0  9993
2 57579  98.7711  27.9535 0024994  33.0182 327.2550 14.22402277 89624
CZ-6A DEB
1 57579U 22151AHW 25014.77454421  .00002805  00000-0  12752-2 0  9994
2 57579  98.7711  28.4434 0025114  32.3646 327.9066 14.22405291 89695
CZ-6A DEB
1 57579U 22151AHW 25015.47797222  .00002889  00000-0  13126-2 0  9999
2 57579  98.7713  29.1434 0025093  30.3670 329.8956 14.22409865 89797
CZ-6A DEB
1 57579U 22151AHW 25018.78404929  .00003842  00000-0  17380-2 0  9991
2 57579  98.7732  32.4340 0024963  21.0652 339.1548 14.22435564 90263
CZ-6A DEB
1 57579U 22151AHW 25018.78404929  .00003842  00000-0  17380-2 0  9991
2 57579  98.7732  32.4340 0024963  21.0652 339.1548 14.22435564 90263
CZ-6A DEB
1 57579U 22151AHW 25019.48746227  .00003811  00000-0  17243-2 0  9993
2 57579  98.7730  33.1338 0024923  19.0300 341.1803 14.22441034 90366
CZ-6A DEB
1 57579U 22151AHW 25023.28583126  .00004479  00000-0  20213-2 0  9995
2 57579  98.7726  36.9140 0024685   8.1894 351.9682 14.22478759 90903
CZ-6A DEB
1 57579U 22151AHW 25023.28583126  .00004479  00000-0  20213-2 0  9995
2 57579  98.7726  36.9140 0024685   8.1894 351.9682 14.22478759 90903
CZ-6A DEB
1 57579U 22151AHW 25024.48159270  .00006410  00000-0  28827-2 0  9993
2 57579  98.7724  38.1028 0024485   4.5319 355.6076 14.22495188 91072
CZ-6A DEB
1 57579U 22151AHW 25024.48159270  .00006410  00000-0  28827-2 0  9993
2 57579  98.7724  38.1028 0024485   4.5319 355.6076 14.22495188 91072
CZ-6A DEB
1 57579U 22151AHW 25024.48159367  .00005187  00000-0  23367-2 0  9994
2 57579  98.7727  38.1042 0024625   4.7378 355.4028 14.22491841 91071
CZ-6A DEB
1 57579U 22151AHW 25024.48159367  .00005187  00000-0  23367-2 0  9994
2 57579  98.7727  38.1042 0024625   4.7378 355.4028 14.22491841 91071
CZ-6A DEB
1 57579U 22151AHW 25033.48469598  .00004879  00000-0  21965-2 0  9993
2 57579  98.7721  47.0637 0024026 338.5383  21.4785 14.22570414 92359
CZ-6A DEB
1 57579U 22151AHW 25033.48469598  .00004879  00000-0  21965-2 0  9993
2 57579  98.7721  47.0637 0024026 338.5383  21.4785 14.22570414 92359
CZ-6A DEB
1 57579U 22151AHW 25036.29806380  .00003935  00000-0  17747-2 0  9994
2 57579  98.7739  49.8656 0023843 330.3639  29.6186 14.22593639 92752
CZ-6A DEB
1 57579U 22151AHW 25036.29806380  .00003935  00000-0  17747-2 0  9994
2 57579  98.7739  49.8656 0023843 330.3639  29.6186 14.22593639 92752
CZ-6A DEB
1 57579U 22151AHW 25038.75972547  .00003471  00000-0  15676-2 0  9990
2 57579  98.7731  52.3162 0023757 323.0058  36.9481 14.22611194 93109
CZ-6A DEB
1 57579U 22151AHW 25038.75972547  .00003471  00000-0  15676-2 0  9990
2 57579  98.7731  52.3162 0023757 323.0058  36.9481 14.22611194 93109
CZ-6A DEB
1 57579U 22151AHW 25041.29168903  .00004354  00000-0  19605-2 0  9993
2 57579  98.7718  54.8360 0023652 315.3549  44.5724 14.22631468 93464
CZ-6A DEB
1 57579U 22151AHW 25041.29168903  .00004354  00000-0  19605-2 0  9993
2 57579  98.7718  54.8360 0023652 315.3549  44.5724 14.22631468 93464
CZ-6A DEB
1 57579U 22151AHW 25042.76865290  .00003483  00000-0  15721-2 0  9996
2 57579  98.7720  56.3068 0023622 310.8749  49.0381 14.22640436 93675
CZ-6A DEB
1 57579U 22151AHW 25042.76865290  .00003483  00000-0  15721-2 0  9996
2 57579  98.7720  56.3068 0023622 310.8749  49.0381 14.22640436 93675
CZ-6A DEB
1 57579U 22151AHW 25046.49618321  .00003936  00000-0  17729-2 0  9994
2 57579  98.7719  60.0168 0023523 299.6202  60.2633 14.22667325 94205
CZ-6A DEB
1 57579U 22151AHW 25046.49618321  .00003936  00000-0  17729-2 0  9994
2 57579  98.7719  60.0168 0023523 299.6202  60.2633 14.22667325 94205
CZ-6A DEB
1 57579U 22151AHW 25047.48080204  .00004029  00000-0  18140-2 0  9999
2 57579  98.7721  60.9970 0023474 296.7265  63.1510 14.22675127 94340
CZ-6A DEB
1 57579U 22151AHW 25047.76212059  .00003814  00000-0  17184-2 0  9993
2 57579  98.7721  61.2771 0023477 295.8952  63.9806 14.22676824 94384
CZ-6A DEB
1 57579U 22151AHW 25047.76212059  .00003814  00000-0  17184-2 0  9993
2 57579  98.7721  61.2771 0023477 295.8952  63.9806 14.22676824 94384
CZ-6A DEB
1 57579U 22151AHW 25049.30936345  .00004484  00000-0  20161-2 0  9999
2 57579  98.7727  62.8181 0023436 291.2381  68.6293 14.22691829 94602
CZ-6A DEB
1 57579U 22151AHW 25049.30936345  .00004484  00000-0  20161-2 0  9999
2 57579  98.7727  62.8181 0023436 291.2381  68.6293 14.22691829 94602
CZ-6A DEB
1 57579U 22151AHW 25050.29396431  .00004940  00000-0  22185-2 0  9990
2 57579  98.7728  63.7988 0023406 288.1650  71.6980 14.22702068 94749
CZ-6A DEB
1 57579U 22151AHW 25051.27855950  .00004359  00000-0  19597-2 0  9992
2 57579  98.7729  64.7795 0023404 285.1350  74.7239 14.22709706 94881
CZ-6A DEB
1 57579U 22151AHW 25051.27855950  .00004359  00000-0  19597-2 0  9992
2 57579  98.7729  64.7795 0023404 285.1350  74.7239 14.22709706 94881
CZ-6A DEB
1 57579U 22151AHW 25054.30263721  .00004274  00000-0  19209-2 0  9994
2 57579  98.7717  67.7900 0023320 275.9699  83.8821 14.22735587 95312
CZ-6A DEB
1 57579U 22151AHW 25054.30263721  .00004274  00000-0  19209-2 0  9994
2 57579  98.7717  67.7900 0023320 275.9699  83.8821 14.22735587 95312
CZ-6A DEB
1 57579U 22151AHW 25055.28720822  .00004668  00000-0  20959-2 0  9993
2 57579  98.7729  68.7713 0023342 272.9040  86.9466 14.22745563 95458
CZ-6A DEB
1 57579U 22151AHW 25056.76405222  .00004993  00000-0  22395-2 0  9998
2 57579  98.7725  70.2418 0023274 268.3959  91.4553 14.22760772 95666
CZ-6A DEB
1 57579U 22151AHW 25056.76405222  .00004993  00000-0  22395-2 0  9998
2 57579  98.7725  70.2418 0023274 268.3959  91.4553 14.22760772 95666
CZ-6A DEB
1 57579U 22151AHW 25057.74860575  .00005265  00000-0  23599-2 0  9993
2 57579  98.7721  71.2219 0023275 265.3564  94.4956 14.22771831 95806
CZ-6A DEB
1 57579U 22151AHW 25057.74860575  .00005265  00000-0  23599-2 0  9993
2 57579  98.7721  71.2219 0023275 265.3564  94.4956 14.22771831 95806
CZ-6A DEB
1 57579U 22151AHW 25063.30418249  .00003257  00000-0  14667-2 0  9994
2 57579  98.7727  76.7549 0023348 248.3767 111.4923 14.22817788 96598
CZ-6A DEB
1 57579U 22151AHW 25063.30418249  .00003257  00000-0  14667-2 0  9994
2 57579  98.7727  76.7549 0023348 248.3767 111.4923 14.22817788 96598
CZ-6A DEB
1 57579U 22151AHW 25064.28870046  .00002983  00000-0  13445-2 0  9997
2 57579  98.7737  77.7354 0023581 245.4591 114.4129 14.22822684 96734
CZ-6A DEB
1 57579U 22151AHW 25064.28870046  .00002983  00000-0  13445-2 0  9997
2 57579  98.7737  77.7354 0023581 245.4591 114.4129 14.22822684 96734
CZ-6A DEB
1 57579U 22151AHW 25068.78930195  .00003474  00000-0  15616-2 0  9996
2 57579  98.7722  82.2169 0023914 231.2273 128.6768 14.22851624 97376
CZ-6A DEB
1 57579U 22151AHW 25069.49251270  .00003236  00000-0  14558-2 0  9995
2 57579  98.7724  82.9180 0023808 229.5398 130.3704 14.22856155 97473
CZ-6A DEB
1 57579U 22151AHW 25070.47700479  .00003153  00000-0  14189-2 0  9993
2 57579  98.7716  83.8983 0023687 226.6121 133.3085 14.22862367 97615
CZ-6A DEB
1 57579U 22151AHW 25070.47700479  .00003153  00000-0  14189-2 0  9993
2 57579  98.7716  83.8983 0023687 226.6121 133.3085 14.22862367 97615
CZ-6A DEB
1 57579U 22151AHW 25073.28980782  .00004558  00000-0  20412-2 0  9998
2 57579  98.7712  86.6997 0023862 218.1088 141.8403 14.22887152 98012
CZ-6A DEB
1 57579U 22151AHW 25081.30598310  .00007035  00000-0  31322-2 0  9997
2 57579  98.7717  94.6846 0024432 194.5107 165.5373 14.22980159 99158
CZ-6A DEB
1 57579U 22151AHW 25081.30598310  .00007035  00000-0  31322-2 0  9997
2 57579  98.7717  94.6846 0024432 194.5107 165.5373 14.22980159 99158
CZ-6A DEB
1 57579U 22151AHW 25086.29823633  .00005823  00000-0  25934-2 0  9994
2 57579  98.7710  99.6577 0024885 180.1426 179.9749 14.23038656 99865
CZ-6A DEB
1 57579U 22151AHW 25086.29823633  .00005823  00000-0  25934-2 0  9994
2 57579  98.7710  99.6577 0024885 180.1426 179.9749 14.23038656 99865
CZ-6A DEB
1 57579U 22151AHW 25087.28260174  .00004305  00000-0  19226-2 0  9990
2 57579  98.7703 100.6380 0024930 177.3515 182.7799 14.23046322100005
CZ-6A DEB
1 57579U 22151AHW 25087.28260174  .00004305  00000-0  19226-2 0  9990
2 57579  98.7703 100.6380 0024930 177.3515 182.7799 14.23046322100005
CZ-6A DEB
1 57579U 22151AHW 25088.75913950  .00003750  00000-0  16769-2 0  9992
2 57579  98.7699 102.1088 0025066 173.1472 187.0053 14.23058102100211
CZ-6A DEB
1 57579U 22151AHW 25088.75913950  .00003750  00000-0  16769-2 0  9992
2 57579  98.7699 102.1088 0025066 173.1472 187.0053 14.23058102100211
CZ-6A DEB
1 57579U 22151AHW 25091.29032424  .00003233  00000-0  14478-2 0  9994
2 57579  98.7701 104.6310 0025198 165.7257 194.4639 14.23074323100578
CZ-6A DEB
1 57579U 22151AHW 25091.29032424  .00003233  00000-0  14478-2 0  9994
2 57579  98.7701 104.6310 0025198 165.7257 194.4639 14.23074323100578
CZ-6A DEB
1 57579U 22151AHW 25096.49320965  .00003751  00000-0  16751-2 0  9992
2 57579  98.7705 109.8150 0025619 151.2347 209.0249 14.23115644101314
CZ-6A DEB
1 57579U 22151AHW 25096.49320965  .00003751  00000-0  16751-2 0  9992
2 57579  98.7705 109.8150 0025619 151.2347 209.0249 14.23115644101314
CZ-6A DEB
1 57579U 22151AHW 25097.75875179  .00003456  00000-0  15446-2 0  9996
2 57579  98.7707 111.0763 0025776 147.7182 212.5580 14.23125277101491
CZ-6A DEB
1 57579U 22151AHW 25099.30551350  .00003997  00000-0  17825-2 0  9994
2 57579  98.7700 112.6169 0025901 143.6788 216.6155 14.23138407101715
CZ-6A DEB
1 57579U 22151AHW 25099.30551350  .00003997  00000-0  17825-2 0  9994
2 57579  98.7700 112.6169 0025901 143.6788 216.6155 14.23138407101715
CZ-6A DEB
1 57579U 22151AHW 25100.28980926  .00003935  00000-0  17553-2 0  9999
2 57579  98.7689 113.5971 0025830 140.8859 219.4193 14.23146361101857
CZ-6A DEB
1 57579U 22151AHW 25101.76624347  .00003733  00000-0  16657-2 0  9995
2 57579  98.7692 115.0681 0025898 136.7416 223.5802 14.23157263102063
CZ-6A DEB
1 57579U 22151AHW 25101.76624347  .00003733  00000-0  16657-2 0  9995
2 57579  98.7692 115.0681 0025898 136.7416 223.5802 14.23157263102063
CZ-6A DEB
1 57579U 22151AHW 25102.75052632  .00003819  00000-0  17034-2 0  9992
2 57579  98.7693 116.0488 0025962 134.0617 226.2704 14.23164818102207
CZ-6A DEB
1 57579U 22151AHW 25102.75052632  .00003819  00000-0  17034-2 0  9992
2 57579  98.7693 116.0488 0025962 134.0617 226.2704 14.23164818102207
CZ-6A DEB
1 57579U 22151AHW 25124.75500274  .00002605  00000-0  11649-2 0  9994
2 57579  98.7686 137.9753 0026020  74.8462 285.5592 14.23315044105330
CZ-6A DEB
1 57579U 22151AHW 25124.75500274  .00002605  00000-0  11649-2 0  9994
2 57579  98.7686 137.9753 0026020  74.8462 285.5592 14.23315044105330
CZ-6A DEB
1 57579U 22151AHW 25125.80947179  .00002630  00000-0  11757-2 0  9998
2 57579  98.7679 139.0248 0026056  71.7425 288.6586 14.23321586105489
CZ-6A DEB
1 57579U 22151AHW 25125.80947179  .00002630  00000-0  11757-2 0  9998
2 57579  98.7679 139.0248 0026056  71.7425 288.6586 14.23321586105489
CZ-6A DEB
1 57579U 22151AHW 25126.30155595  .00002555  00000-0  11429-2 0  9999
2 57579  98.7677 139.5149 0026057  70.4104 289.9884 14.23324094105553
CZ-6A DEB
1 57579U 22151AHW 25137.26780622  .00002327  00000-0  10418-2 0  9995
2 57579  98.7666 150.4415 0025392  40.3725 319.9332 14.23369787107119
CZ-6A DEB
1 57579U 22151AHW 25137.26780622  .00002327  00000-0  10418-2 0  9995
2 57579  98.7666 150.4415 0025392  40.3725 319.9332 14.23369787107119
CZ-6A DEB
1 57579U 22151AHW 25137.75987302  .00002451  00000-0  10962-2 0  9995
2 57579  98.7667 150.9318 0025397  38.9130 321.3871 14.23372625107182
CZ-6A DEB
1 57579U 22151AHW 25139.30636505  .00001995  00000-0  89584-3 0  9993
2 57579  98.7670 152.4727 0025274  34.5909 325.6908 14.23377487107401
CZ-6A DEB
1 57579U 22151AHW 25139.30636505  .00001995  00000-0  89584-3 0  9993
2 57579  98.7670 152.4727 0025274  34.5909 325.6908 14.23377487107401
CZ-6A DEB
1 57579U 22151AHW 25144.29727415  .00001569  00000-0  70879-3 0  9992
2 57579  98.7663 157.4456 0024878  20.5182 339.6989 14.23394307108117
CZ-6A DEB
1 57579U 22151AHW 25144.29727415  .00001569  00000-0  70879-3 0  9992
2 57579  98.7663 157.4456 0024878  20.5182 339.6989 14.23394307108117
CZ-6A DEB
1 57579U 22151AHW 25145.77344713  .00001565  00000-0  70685-3 0  9993
2 57579  98.7662 158.9167 0024748  16.4144 343.7830 14.23399229108321
CZ-6A DEB
1 57579U 22151AHW 25146.75755983  .00001511  00000-0  68323-3 0  9994
2 57579  98.7670 159.8974 0024676  13.5418 346.6417 14.23401994108469
CZ-6A DEB
1 57579U 22151AHW 25146.75755983  .00001511  00000-0  68323-3 0  9994
2 57579  98.7670 159.8974 0024676  13.5418 346.6417 14.23401994108469
CZ-6A DEB
1 57579U 22151AHW 25157.30144961  .00001626  00000-0  73345-3 0  9992
2 57579  98.7660 170.4029 0023746 342.7280  17.3087 14.23444529109961
CZ-6A DEB
1 57579U 22151AHW 25158.77756915  .00001524  00000-0  68834-3 0  9996
2 57579  98.7659 171.8739 0023606 338.4425  21.5757 14.23449922110178
CZ-6A DEB
1 57579U 22151AHW 25167.28274172  .00001431  00000-0  64725-3 0  9994
2 57579  98.7656 180.3482 0022969 312.6062  47.3178 14.23476933111386
CZ-6A DEB
1 57579U 22151AHW 25167.28274172  .00001431  00000-0  64725-3 0  9994
2 57579  98.7656 180.3482 0022969 312.6062  47.3178 14.23476933111386
CZ-6A DEB
1 57579U 22151AHW 25171.28925698  .00001296  00000-0  58818-3 0  9990
2 57579  98.7655 184.3402 0022773 300.2612  59.6312 14.23489008111954
CZ-6A DEB
1 57579U 22151AHW 25171.28925698  .00001296  00000-0  58818-3 0  9990
2 57579  98.7655 184.3402 0022773 300.2612  59.6312 14.23489008111954
CZ-6A DEB
1 57579U 22151AHW 25174.31169863  .00001168  00000-0  53213-3 0  9993
2 57579  98.7660 187.3528 0022696 290.9512  68.9237 14.23496209112388
CZ-6A DEB
1 57579U 22151AHW 25174.31169863  .00001168  00000-0  53213-3 0  9993
2 57579  98.7660 187.3528 0022696 290.9512  68.9237 14.23496209112388
CZ-6A DEB
1 57579U 22151AHW 25175.29574657  .00001153  00000-0  52542-3 0  9990
2 57579  98.7660 188.3333 0022667 287.8983  71.9724 14.23498496112529
CZ-6A DEB
1 57579U 22151AHW 25176.77181541  .00001090  00000-0  49762-3 0  9990
2 57579  98.7664 189.8043 0022636 283.3427  76.5228 14.23501680112730
CZ-6A DEB
1 57579U 22151AHW 25176.77181541  .00001090  00000-0  49762-3 0  9990
2 57579  98.7664 189.8043 0022636 283.3427  76.5228 14.23501680112730
CZ-6A DEB
1 57579U 22151AHW 25185.76873242  .00001242  00000-0  56414-3 0  9996
2 57579  98.7663 198.7699 0022684 255.3509 104.5154 14.23524529114018
CZ-6A DEB
1 57579U 22151AHW 25185.76873242  .00001242  00000-0  56414-3 0  9996
2 57579  98.7663 198.7699 0022684 255.3509 104.5154 14.23524529114018
CZ-6A DEB
1 57579U 22151AHW 25193.99235626  .00001086  00000-0  49535-3 0  9990
2 57579  98.7661 206.9645 0023048 229.9926 129.9229 14.23545164115185
CZ-6A DEB
1 57579U 22151AHW 25193.99235626  .00001086  00000-0  49535-3 0  9990
2 57579  98.7661 206.9645 0023048 229.9926 129.9229 14.23545164115185
CZ-6A DEB
1 57579U 22151AHW 25194.76551147  .00001112  00000-0  50675-3 0  9992
2 57579  98.7663 207.7354 0023088 227.6410 132.2814 14.23547199115299
CZ-6A DEB
1 57579U 22151AHW 25196.31182024  .00001139  00000-0  51843-3 0  9996
2 57579  98.7663 209.2763 0023185 222.9503 136.9866 14.23550972115515
CZ-6A DEB
1 57579U 22151AHW 25196.31182024  .00001139  00000-0  51843-3 0  9996
2 57579  98.7663 209.2763 0023185 222.9503 136.9866 14.23550972115515
CZ-6A DEB
1 57579U 22151AHW 25197.29583295  .00001113  00000-0  50699-3 0  9999
2 57579  98.7673 210.2570 0023221 219.8966 140.0506 14.23553250115657
CZ-6A DEB
1 57579U 22151AHW 25198.84213464  .00001179  00000-0  53594-3 0  9998
2 57579  98.7664 211.7979 0023347 215.2867 144.6766 14.23557502115871
CZ-6A DEB
1 57579U 22151AHW 25198.84213464  .00001179  00000-0  53594-3 0  9998
2 57579  98.7664 211.7979 0023347 215.2867 144.6766 14.23557502115871
CZ-6A DEB
1 57579U 22151AHW 25202.28615531  .00001263  00000-0  57246-3 0  9995
2 57579  98.7667 215.2304 0023617 205.0000 155.0036 14.23566948116366
CZ-6A DEB
1 57579U 22151AHW 25202.28615531  .00001263  00000-0  57246-3 0  9995
2 57579  98.7667 215.2304 0023617 205.0000 155.0036 14.23566948116366
CZ-6A DEB
1 57579U 22151AHW 25202.77815654  .00001285  00000-0  58216-3 0  9999
2 57579  98.7667 215.7208 0023650 203.5613 156.4484 14.23568348116430
CZ-6A DEB
1 57579U 22151AHW 25202.98901392  .00001275  00000-0  57794-3 0  9996
2 57579  98.7668 215.9310 0023668 202.9405 157.0718 14.23568914116467
CZ-6A DEB
1 57579U 22151AHW 25203.76215710  .00001426  00000-0  64400-3 0  9995
2 57579  98.7668 216.7015 0023738 200.6247 159.3976 14.23571876116579
CZ-6A DEB
1 57579U 22151AHW 25203.76215710  .00001426  00000-0  64400-3 0  9995
2 57579  98.7668 216.7015 0023738 200.6247 159.3976 14.23571876116579
CZ-6A DEB
1 57579U 22151AHW 25205.30843865  .00001551  00000-0  69872-3 0  9992
2 57579  98.7667 218.2426 0023864 196.0408 164.0017 14.23577396116794
CZ-6A DEB
1 57579U 22151AHW 25205.30843865  .00001551  00000-0  69872-3 0  9992
2 57579  98.7667 218.2426 0023864 196.0408 164.0017 14.23577396116794
CZ-6A DEB
1 57579U 22151AHW 25206.29243393  .00001481  00000-0  66794-3 0  9993
2 57579  98.7667 219.2233 0023962 193.1406 166.9151 14.23579983116936
CZ-6A DEB
1 57579U 22151AHW 25207.76842196  .00001544  00000-0  69535-3 0  9998
2 57579  98.7668 220.6945 0024092 188.8612 171.2144 14.23585099117148
CZ-6A DEB
1 57579U 22151AHW 25207.76842196  .00001544  00000-0  69535-3 0  9998
2 57579  98.7668 220.6945 0024092 188.8612 171.2144 14.23585099117148
CZ-6A DEB
1 57579U 22151AHW 25210.29867541  .00001565  00000-0  70430-3 0  9990
2 57579  98.7668 223.2164 0024309 181.5210 178.5898 14.23593739117501
CZ-6A DEB
1 57579U 22151AHW 25210.29867541  .00001565  00000-0  70430-3 0  9990
2 57579  98.7668 223.2164 0024309 181.5210 178.5898 14.23593739117501
CZ-6A DEB
1 57579U 22151AHW 25211.77464989  .00001563  00000-0  70341-3 0  9992
2 57579  98.7669 224.6875 0024444 177.2809 182.8506 14.23598559117714
CZ-6A DEB
1 57579U 22151AHW 25211.77464989  .00001563  00000-0  70341-3 0  9992
2 57579  98.7669 224.6875 0024444 177.2809 182.8506 14.23598559117714
CZ-6A DEB
1 57579U 22151AHW 25216.76481080  .00001531  00000-0  68916-3 0  9997
2 57579  98.7674 229.6617 0024861 163.0871 197.1142 14.23615063118428
CZ-6A DEB
1 57579U 22151AHW 25216.76481080  .00001531  00000-0  68916-3 0  9997
2 57579  98.7674 229.6617 0024861 163.0871 197.1142 14.23615063118428
CZ-6A DEB
1 57579U 22151AHW 25217.74877964  .00001438  00000-0  64854-3 0  9999
2 57579  98.7674 230.6425 0024933 160.3152 199.8994 14.23617752118565
CZ-6A DEB
1 57579U 22151AHW 25220.77095737  .00001317  00000-0  59537-3 0  9994
2 57579  98.7675 233.6550 0025182 151.8706 208.3838 14.23626140118996
CZ-6A DEB
1 57579U 22151AHW 25220.77095737  .00001317  00000-0  59537-3 0  9994
2 57579  98.7675 233.6550 0025182 151.8706 208.3838 14.23626140118996
CZ-6A DEB
1 57579U 22151AHW 25222.31717907  .00001612  00000-0  72400-3 0  9998
2 57579  98.7676 235.1965 0025294 147.5885 212.6853 14.23632593119218
CZ-6A DEB
1 57579U 22151AHW 25222.31717907  .00001612  00000-0  72400-3 0  9998
2 57579  98.7676 235.1965 0025294 147.5885 212.6853 14.23632593119218
CZ-6A DEB
1 57579U 22151AHW 25224.28508999  .00001593  00000-0  71556-3 0  9994
2 57579  98.7676 237.1580 0025397 142.1191 218.1780 14.23638788119490
CZ-6A DEB
1 57579U 22151AHW 25224.28508999  .00001593  00000-0  71556-3 0  9994
2 57579  98.7676 237.1580 0025397 142.1191 218.1780 14.23638788119490
CZ-6A DEB
1 57579U 22151AHW 25233.28114368  .00001362  00000-0  61419-3 0  9998
2 57579  98.7679 246.1261 0025774 117.3450 243.0356 14.23665100120777
CZ-6A DEB
1 57579U 22151AHW 25236.30321754  .00001384  00000-0  62377-3 0  9991
2 57579  98.7677 249.1383 0025879 109.1630 251.2353 14.23673636121208
CZ-6A DEB
1 57579U 22151AHW 25238.76302944  .00001565  00000-0  70288-3 0  9994
2 57579  98.7677 251.5904 0025940 102.4952 257.9130 14.23681860121558
CZ-6A DEB
1 57579U 22151AHW 25241.29310298  .00002143  00000-0  95473-3 0  9993
2 57579  98.7677 254.1126 0025961  95.6585 264.7555 14.23693983121917
CZ-6A DEB
1 57579U 22151AHW 25241.78505924  .00002217  00000-0  98692-3 0  9997
2 57579  98.7679 254.6033 0025945  94.3333 266.0811 14.23696345121982
CZ-6A DEB
1 57579U 22151AHW 25242.76896849  .00002537  00000-0  11267-2 0  9992
2 57579  98.7676 255.5839 0025932  91.6865 268.7284 14.23702460122125
CZ-6A DEB
1 57579U 22151AHW 25245.79094752  .00003570  00000-0  15766-2 0  9997
2 57579  98.7678 258.5966 0025885  83.5029 276.9095 14.23724595122551
CZ-6A DEB
1 57579U 22151AHW 25246.28289444  .00004084  00000-0  18007-2 0  9998
2 57579  98.7677 259.0870 0025874  82.2664 278.1451 14.23727856122620
CZ-6A DEB
1 57579U 22151AHW 25246.77483953  .00003650  00000-0  16113-2 0  9997
2 57579  98.7679 259.5777 0025875  80.8960 279.5144 14.23729689122694
CZ-6A DEB
1 57579U 22151AHW 25248.32094449  .00002897  00000-0  12828-2 0  9999
2 57579  98.7676 261.1192 0025830  76.6918 283.7138 14.23737656122916
CZ-6A DEB
1 57579U 22151AHW 25249.30482438  .00002795  00000-0  12384-2 0  9991
2 57579  98.7674 262.1002 0025790  74.0115 286.3902 14.23743248123059
CZ-6A DEB
1 57579U 22151AHW 25250.78063806  .00002303  00000-0  10237-2 0  9999
2 57579  98.7676 263.5718 0025719  69.9981 290.3963 14.23749365123266
CZ-6A DEB
1 57579U 22151AHW 25252.74837996  .00001690  00000-0  75646-3 0  9990
2 57579  98.7671 265.5331 0025645  64.6151 295.7678 14.23756019123540
CZ-6A DEB
1 57579U 22151AHW 25254.29445716  .00001367  00000-0  61531-3 0  9996
2 57579  98.7678 267.0748 0025603  60.3069 300.0654 14.23760056123765
CZ-6A DEB
1 57579U 22151AHW 25256.82439066  .00001380  00000-0  62112-3 0  9999
2 57579  98.7677 269.5968 0025433  53.2928 307.0581 14.23767293124128
CZ-6A DEB
1 57579U 22151AHW 25258.30017747  .00002629  00000-0  11653-2 0  9992
2 57579  98.7680 271.0682 0025374  49.1657 311.1716 14.23776134124333
CZ-6A DEB
1 57579U 22151AHW 25259.28403497  .00001796  00000-0  80228-3 0  9990
2 57579  98.7680 272.0492 0025313  46.4020 313.9253 14.23775844124478
CZ-6A DEB
1 57579U 22151AHW 25264.76546861  .00002279  00000-0  10125-2 0  9997
2 57579  98.7673 277.5139 0025041  31.0006 329.2645 14.23798659125251
CZ-6A DEB
1 57579U 22151AHW 25265.74930501  .00002578  00000-0  11427-2 0  9992
2 57579  98.7671 278.4946 0024955  28.2628 331.9899 14.23804601125397
CZ-6A DEB
1 57579U 22151AHW 25275.30630234  .00004682  00000-0  20561-2 0  9992
2 57579  98.7673 288.0232 0024200   0.6643 359.4564 14.23883899126759
CZ-6A DEB
1 57579U 22151AHW 25275.30630234  .00004682  00000-0  20561-2 0  9992
2 57579  98.7673 288.0232 0024200   0.6643 359.4564 14.23883899126759
CZ-6A DEB
1 57579U 22151AHW 25276.29007668  .00004492  00000-0  19732-2 0  9997
2 57579  98.7674 289.0047 0024075 357.7487   2.3580 14.23894478126899
CZ-6A DEB
1 57579U 22151AHW 25277.76573059  .00003387  00000-0  14927-2 0  9995
2 57579  98.7667 290.4760 0023975 353.4138   6.6722 14.23903161127103
CZ-6A DEB
1 57579U 22151AHW 25277.76573060  .00003387  00000-0  14927-2 0  9997
2 57579  98.7667 290.4760 0023975 353.4138   6.6722 14.23903161127103
CZ-6A DEB
1 57579U 22151AHW 25280.29540285  .00002410  00000-0  10676-2 0  9995
2 57579  98.7657 292.9981 0023809 345.9956  14.0560 14.23915561127463
CZ-6A DEB
1 57579U 22151AHW 25284.30067308  .00002082  00000-0  92462-3 0  9990
2 57579  98.7659 296.9908 0023587 334.1435  25.8563 14.23934166128032
CZ-6A DEB
1 57579U 22151AHW 25285.77628514  .00002559  00000-0  11317-2 0  9992
2 57579  98.7675 298.4629 0023523 329.6670  30.3146 14.23942705128246
CZ-6A DEB
1 57579U 22151AHW 25288.79775080  .00002570  00000-0  11361-2 0  9990
2 57579  98.7666 301.4750 0023413 320.3837  39.5630 14.23958962128675
CZ-6A DEB
1 57579U 22151AHW 25288.79775081  .00002570  00000-0  11361-2 0  9991
2 57579  98.7666 301.4751 0023413 320.3837  39.5630 14.23958962128676
CZ-6A DEB
1 57579U 22151AHW 25296.31612858  .00002622  00000-0  11579-2 0  9999
2 57579  98.7657 308.9721 0023292 297.5562  62.3250 14.24003443129747
CZ-6A DEB
1 57579U 22151AHW 25296.31612858  .00002622  00000-0  11579-2 0  9999
2 57579  98.7657 308.9721 0023292 297.5562  62.3250 14.24003443129747
CZ-6A DEB
1 57579U 22151AHW 25298.77536153  .00002498  00000-0  11040-2 0  9998
2 57579  98.7657 311.4237 0023160 290.2975  69.5714 14.24016626130091
CZ-6A DEB
1 57579U 22151AHW 25298.77536153  .00002498  00000-0  11040-2 0  9998
2 57579  98.7657 311.4237 0023160 290.2975  69.5714 14.24016626130091
CZ-6A DEB
1 57579U 22151AHW 25301.30483726  .00002604  00000-0  11496-2 0  9993
2 57579  98.7660 313.9452 0023130 282.5888  77.2704 14.24029545130454
CZ-6A DEB
1 57579U 22151AHW 25302.28851657  .00002610  00000-0  11522-2 0  9990
2 57579  98.7655 314.9253 0023112 279.6026  80.2541 14.24034420130595
CZ-6A DEB
1 57579U 22151AHW 25302.28851658  .00002610  00000-0  11522-2 0  9991
2 57579  98.7655 314.9253 0023112 279.6026  80.2541 14.24034420130595
CZ-6A DEB
1 57579U 22151AHW 25306.29345972  .00002201  00000-0  97434-3 0  9996
2 57579  98.7637 318.9178 0023110 267.3873  92.4660 14.24054605131165
CZ-6A DEB
1 57579U 22151AHW 25306.29345973  .00002201  00000-0  97434-3 0  9997
2 57579  98.7637 318.9178 0023110 267.3873  92.4660 14.24054605131165
CZ-6A DEB
1 57579U 22151AHW 25314.79499697  .00003074  00000-0  13514-2 0  9999
2 57579  98.7643 327.3939 0023435 241.9950 117.8857 14.24102080132370
CZ-6A DEB
1 57579U 22151AHW 25319.29153205  .00003426  00000-0  15026-2 0  9992
2 57579  98.7641 331.8770 0023603 228.6871 131.2277 14.24142924133011
CZ-6A DEB
1 57579U 22151AHW 25320.27513242  .00003136  00000-0  13770-2 0  9995
2 57579  98.7640 332.8581 0023620 225.7615 134.1625 14.24150663133157
CZ-6A DEB
1 57579U 22151AHW 25320.27513242  .00003136  00000-0  13770-2 0  9995
2 57579  98.7640 332.8581 0023620 225.7615 134.1625 14.24150663133157
CZ-6A DEB
1 57579U 22151AHW 25323.29617018  .00002227  00000-0  98325-3 0  9996
2 57579  98.7632 335.8700 0023748 216.8848 143.0698 14.24165786133582
CZ-6A DEB
1 57579U 22151AHW 25324.27975757  .00001973  00000-0  87309-3 0  9999
2 57579  98.7626 336.8501 0023788 213.9815 145.9841 14.24169921133723
CZ-6A DEB
1 57579U 22151AHW 25324.27975758  .00001973  00000-0  87309-3 0  9990
2 57579  98.7626 336.8501 0023788 213.9815 145.9841 14.24169921133723
CZ-6A DEB
1 57579U 22151AHW 25328.77612052  .00002353  00000-0  10371-2 0  9991
2 57579  98.7628 341.3323 0023976 200.6458 159.3754 14.24190683134365
CZ-6A DEB
1 57579U 22151AHW 25328.77612053  .00002353  00000-0  10371-2 0  9992
2 57579  98.7628 341.3323 0023976 200.6458 159.3755 14.24190683134366
CZ-6A DEB
1 57579U 22151AHW 25330.32173054  .00002228  00000-0  98300-3 0  9999
2 57579  98.7638 342.8741 0024025 196.2710 163.7699 14.24197479134584
CZ-6A DEB
1 57579U 22151AHW 25330.32173055  .00002228  00000-0  98300-3 0  9990
2 57579  98.7638 342.8741 0024025 196.2710 163.7700 14.24197479134587
CZ-6A DEB
1 57579U 22151AHW 25340.29775069  .00003563  00000-0  15584-2 0  9995
2 57579  98.7622 352.8194 0024471 167.5155 192.6635 14.24251969136004
CZ-6A DEB
1 57579U 22151AHW 25341.77304156  .00003266  00000-0  14295-2 0  9992
2 57579  98.7622 354.2898 0024587 163.1629 197.0371 14.24261323136211
CZ-6A DEB
1 57579U 22151AHW 25342.75656429  .00003399  00000-0  14868-2 0  9997
2 57579  98.7623 355.2698 0024590 160.5353 199.6770 14.24267501136350
CZ-6A DEB
1 57579U 22151AHW 25342.75656430  .00003399  00000-0  14868-2 0  9999
2 57579  98.7623 355.2698 0024590 160.5353 199.6770 14.24267501136350
CZ-6A DEB
1 57579U 22151AHW 25343.31857544  .00003081  00000-0  13496-2 0  9995
2 57579  98.7624 355.8300 0024606 158.9786 201.2409 14.24269731136431
CZ-6A DEB
1 57579U 22151AHW 25343.31857545  .00003081  00000-0  13496-2 0  9996
2 57579  98.7624 355.8300 0024606 158.9786 201.2409 14.24269731136431
CZ-6A DEB
1 57579U 22151AHW 25344.30209198  .00002769  00000-0  12150-2 0  9999
2 57579  98.7625 356.8105 0024634 156.1966 204.0358 14.24274269136578
CZ-6A DEB
1 57579U 22151AHW 25344.30209198  .00002769  00000-0  12150-2 0  9999
2 57579  98.7625 356.8105 0024634 156.1965 204.0358 14.24274269136577
CZ-6A DEB
1 57579U 22151AHW 25354.76930956  .00001281  00000-0  57190-3 0  9995
2 57579  98.7616   7.2465 0024945 126.6436 233.7041 14.24316835138063
CZ-6A DEB
1 57579U 22151AHW 25354.76930957  .00001281  00000-0  57190-3 0  9996
2 57579  98.7616   7.2465 0024945 126.6436 233.7041 14.24316835138063
CZ-6A DEB
1 57579U 22151AHW 25355.75279278  .00001483  00000-0  65898-3 0  9996
2 57579  98.7614   8.2267 0024972 123.8843 236.4716 14.24320303138203
CZ-6A DEB
1 57579U 22151AHW 25355.75279278  .00001483  00000-0  65898-3 0  9996
2 57579  98.7614   8.2267 0024972 123.8843 236.4717 14.24320303138204
CZ-6A DEB
1 57579U 22151AHW 25357.78999847  .00001797  00000-0  79413-3 0  9998
2 57579  98.7613  10.2571 0024885 118.1957 242.1739 14.24328458138498
CZ-6A DEB
1 57579U 22151AHW 25357.78999848  .00001797  00000-0  79413-3 0  9999
2 57579  98.7613  10.2571 0024885 118.1957 242.1739 14.24328458138498
CZ-6A DEB
1 57579U 22151AHW 26005.29388962  .00002499  00000-0  10956-2 0  9991
2 57579  98.7608  22.7232 0024959  83.2079 277.1939 14.24399115140270
CZ-6A DEB
1 57579U 22151AHW 26005.29388963  .00002499  00000-0  10956-2 0  9992
2 57579  98.7608  22.7232 0024959  83.2079 277.1939 14.24399115140270
CZ-6A DEB
1 57579U 22151AHW 26006.27731324  .00002178  00000-0  95738-3 0  9990
2 57579  98.7614  23.7045 0024891  80.3719 280.0270 14.24403597140411
CZ-6A DEB
1 57579U 22151AHW 26006.27731324  .00002178  00000-0  95738-3 0  9990
2 57579  98.7614  23.7045 0024891  80.3719 280.0270 14.24403597140411
CZ-6A DEB
1 57579U 22151AHW 26006.76902398  .00002188  00000-0  96171-3 0  9998
2 57579  98.7613  24.1944 0024865  79.1613 281.2362 14.24406069140482
CZ-6A DEB
1 57579U 22151AHW 26009.29780964  .00002102  00000-0  92416-3 0  9996
2 57579  98.7610  26.7151 0024764  72.0254 288.3621 14.24417129140843
CZ-6A DEB
1 57579U 22151AHW 26009.78951598  .00001783  00000-0  78711-3 0  9999
2 57579  98.7614  27.2056 0024749  70.6347 289.7504 14.24418085140912
CZ-6A DEB
1 57579U 22151AHW 26013.79338569  .00001338  00000-0  59536-3 0  9992
2 57579  98.7611  31.1980 0024651  59.3625 300.9979 14.24431652141484
CZ-6A DEB
1 57579U 22151AHW 26018.28891733  .00001597  00000-0  70669-3 0  9995
2 57579  98.7607  35.6802 0024512  46.6600 313.6616 14.24445849142123
CZ-6A DEB
1 57579U 22151AHW 26020.32593459  .00002529  00000-0  11074-2 0  9997
2 57579  98.7609  37.7116 0024446  40.8380 319.4625 14.24458571142415
CZ-6A DEB
1 57579U 22151AHW 26023.76773245  .00002989  00000-0  13047-2 0  9993
2 57579  98.7614  41.1439 0024289  31.2091 329.0524 14.24487794142904
CZ-6A DEB
1 57579U 22151AHW 26031.49402198  .00002089  00000-0  91679-3 0  9997
2 57579  98.7606  48.8491 0023904   9.2004 350.9608 14.24532802144009
CZ-6A DEB
1 57579U 22151AHW 26031.49402198  .00002089  00000-0  91679-3 0  9997
2 57579  98.7606  48.8491 0023904   9.2004 350.9608 14.24532802144009
CZ-6A DEB
1 57579U 22151AHW 26073.28300900  .00002065  00000-0  90362-3 0  9990
2 57579  98.7603  90.5351 0023855 246.4326 113.4347 14.24715239149950
CZ-6A DEB
1 57579U 22151AHW 26080.30589782  .00001730  00000-0  75984-3 0  9999
2 57579  98.7612  97.5389 0023209 222.0309 137.9090 14.24733686150956
CZ-6A DEB
1 57579U 22151AHW 26081.78069111  .00001862  00000-0  81626-3 0  9997
2 57579  98.7603  99.0099 0023331 217.5661 142.3889 14.24739210151166
CZ-6A DEB
1 57579U 22151AHW 26086.76685377  .00001618  00000-0  71146-3 0  9993
2 57579  98.7598 103.9827 0023756 202.9292 157.0829 14.24757205151871
CZ-6A DEB
1 57579U 22151AHW 26086.76685378  .00001618  00000-0  71146-3 0  9994
2 57579  98.7598 103.9827 0023756 202.9292 157.0829 14.24757205151871
CZ-6A DEB
1 57579U 22151AHW 26087.25844421  .00001774  00000-0  77816-3 0  9998
2 57579  98.7594 104.4728 0023722 201.4183 158.6005 14.24759828151943
CZ-6A DEB
1 57579U 22151AHW 26087.32867131  .00001775  00000-0  77850-3 0  9998
2 57579  98.7597 104.5431 0023744 201.2045 158.8152 14.24760081151956
CZ-6A DEB
1 57579U 22151AHW 26088.31184904  .00002012  00000-0  87997-3 0  9996
2 57579  98.7594 105.5238 0023799 198.3313 161.7011 14.24765143152090
CZ-6A DEB
1 57579U 22151AHW 26095.75581176  .00002266  00000-0  98802-3 0  9992
2 57579  98.7574 112.9483 0024160 176.6626 183.4718 14.24799425153154
CZ-6A DEB
1 57579U 22151AHW 26095.75581176  .00002266  00000-0  98802-3 0  9992
2 57579  98.7574 112.9484 0024160 176.6626 183.4718 14.24799425153155
CZ-6A DEB
1 57579U 22151AHW 26098.77548150  .00001431  00000-0  63073-3 0  9997
2 57579  98.7572 115.9614 0024562 168.1483 192.0279 14.24810028153582
CZ-6A DEB
1 57579U 22151AHW 26105.30633527  .00000975  00000-0  43550-3 0  9998
2 57579  98.7556 122.4751 0024934 149.6791 210.5836 14.24826083154515
CZ-6A DEB
1 57579U 22151AHW 26105.30633527  .00000975  00000-0  43550-3 0  9998
2 57579  98.7556 122.4751 0024934 149.6791 210.5836 14.24826083154515
CZ-6A DEB
1 57579U 22151AHW 26106.78103519  .00001090  00000-0  48470-3 0  9999
2 57579  98.7564 123.9464 0025075 145.7961 214.4839 14.24829538154721
CZ-6A DEB
1 57579U 22151AHW 26106.78103519  .00001090  00000-0  48470-3 0  9999
2 57579  98.7564 123.9464 0025075 145.7961 214.4839 14.24829538154721
CZ-6A DEB
1 57579U 22151AHW 26110.29221145  .00001088  00000-0  48360-3 0  9991
2 57579  98.7552 127.4482 0025352 136.1357 224.1841 14.24836904155220
CZ-6A DEB
1 57579U 22151AHW 26110.29221145  .00001088  00000-0  48360-3 0  9991
2 57579  98.7552 127.4482 0025352 136.1357 224.1841 14.24836904155220
CZ-6A DEB
1 57579U 22151AHW 26110.78377408  .00001104  00000-0  49072-3 0  9999
2 57579  98.7550 127.9382 0025386 134.8256 225.4993 14.24838180155299
CZ-6A DEB
1 57579U 22151AHW 26110.78377408  .00001104  00000-0  49072-3 0  9999
2 57579  98.7550 127.9382 0025386 134.8256 225.4993 14.24838180155299
CZ-6A DEB
1 57579U 22151AHW 26121.31713465  .00001770  00000-0  77413-3 0  9996
2 57579  98.7565 138.4483 0025677 106.3072 254.0934 14.24872629156792
CZ-6A DEB
1 57579U 22151AHW 26121.31713466  .00001770  00000-0  77413-3 0  9997
2 57579  98.7565 138.4483 0025677 106.3072 254.0934 14.24872629156792
CZ-6A DEB
1 57579U 22151AHW 26121.31713466  .00001770  00000-0  77413-3 0  9997
2 57579  98.7565 138.4483 0025677 106.3072 254.0934 14.24872629156792
CZ-6A DEB
1 57579U 22151AHW 26122.30023436  .00001679  00000-0  73555-3 0  9999
2 57579  98.7548 139.4273 0025645 103.2639 257.1403 14.24875665156935
CZ-6A DEB
1 57579U 22151AHW 26122.30023437  .00001679  00000-0  73555-3 0  9990
2 57579  98.7548 139.4273 0025645 103.2639 257.1403 14.24875665156935
CZ-6A DEB
1 57579U 22151AHW 26126.30282671  .00001557  00000-0  68338-3 0  9999
2 57579  98.7547 143.4193 0025696  92.3725 268.0396 14.24889370157504
CZ-6A DEB
1 57579U 22151AHW 26126.30282672  .00001557  00000-0  68338-3 0  9990
2 57579  98.7547 143.4193 0025696  92.3725 268.0396 14.24889370157504
CZ-6A DEB
1 57579U 22151AHW 26128.76054015  .00001356  00000-0  59741-3 0  9995
2 57579  98.7540 145.8701 0025609  85.6970 274.7135 14.24896348157855
CZ-6A DEB
1 57579U 22151AHW 26128.76054016  .00001356  00000-0  59741-3 0  9996
2 57579  98.7540 145.8701 0025609  85.6970 274.7135 14.24896348157855
CZ-6A DEB
1 57579U 22151AHW 26131.78000141  .00001069  00000-0  47508-3 0  9991
2 57579  98.7539 148.8818 0025556  77.5769 282.8268 14.24903039158283
CZ-6A DEB
1 57579U 22151AHW 26131.78000142  .00001069  00000-0  47508-3 0  9992
2 57579  98.7539 148.8818 0025556  77.5769 282.8268 14.24903039158283
CZ-6A DEB
1 57579U 22151AHW 26134.30791094  .00001102  00000-0  48914-3 0  9996
2 57579  98.7537 151.4032 0025460  70.7121 289.6809 14.24909025158647
CZ-6A DEB
1 57579U 22151AHW 26137.32734515  .00001033  00000-0  45961-3 0  9998
2 57579  98.7535 154.4146 0025320  62.4900 297.8848 14.24915073159074
CZ-6A DEB
1 57579U 22151AHW 26137.32734516  .00001033  00000-0  45961-3 0  9999
2 57579  98.7535 154.4146 0025320  62.4900 297.8848 14.24915073159074
CZ-6A DEB
1 57579U 22151AHW 26139.78501259  .00000988  00000-0  44046-3 0  9998
2 57579  98.7533 156.8659 0025191  55.7266 304.6293 14.24920293159423
CZ-6A DEB
1 57579U 22151AHW 26139.78501260  .00000988  00000-0  44046-3 0  9990
2 57579  98.7533 156.8659 0025191  55.7266 304.6293 14.24920293159423
CZ-6A DEB
1 57579U 22151AHW 26143.29594731  .00001164  00000-0  51532-3 0  9991
2 57579  98.7528 160.3672 0024951  46.0107 314.3123 14.24929501159928
CZ-6A DEB
1 57579U 22151AHW 26143.29594732  .00001164  00000-0  51532-3 0  9992
2 57579  98.7528 160.3672 0024951  46.0107 314.3123 14.24929501159928
CZ-6A DEB
1 57579U 22151AHW 26143.78747652  .00001105  00000-0  49008-3 0  9997
2 57579  98.7523 160.8570 0024925  44.7045 315.6137 14.24930354159996
CZ-6A DEB
1 57579U 22151AHW 26143.78747652  .00001105  00000-0  49008-3 0  9997
2 57579  98.7523 160.8570 0024925  44.7045 315.6137 14.24930354159996
CZ-6A DEB
1 57579U 22151AHW 26156.28613984  .00001670  00000-0  73074-3 0  9993
2 57579  98.7524 173.3231 0024015   9.1491 351.0121 14.24977782161772
CZ-6A DEB
1 57579U 22151AHW 26156.28613984  .00001670  00000-0  73074-3 0  9993
2 57579  98.7524 173.3231 0024015   9.1491 351.0121 14.24977782161772
CZ-6A DEB
1 57579U 22151AHW 26160.77994155  .00001400  00000-0  61548-3 0  9998
2 57579  98.7522 177.8043 0023489 356.1183   3.9810 14.24991922162419
CZ-6A DEB
1 57579U 22151AHW 26160.77994156  .00001400  00000-0  61548-3 0  9999
2 57579  98.7522 177.8043 0023489 356.1183   3.9810 14.24991922162419
CZ-6A DEB
1 57579U 22151AHW 26163.30768657  .00001447  00000-0  63563-3 0  9996
2 57579  98.7521 180.3254 0023300 348.6567  11.4084 14.25000015162776
CZ-6A DEB
1 57579U 22151AHW 26171.31213185  .00001120  00000-0  49621-3 0  9994
2 57579  98.7523 188.3094 0022679 324.6079  35.3594 14.25020619163918
CZ-6A DEB
1 57579U 22151AHW 26171.31213186  .00001120  00000-0  49621-3 0  9995
2 57579  98.7523 188.3094 0022679 324.6079  35.3594 14.25020619163918
CZ-6A DEB
1 57579U 22151AHW 26171.31213186  .00001120  00000-0  49621-3 0  9995
2 57579  98.7523 188.3094 0022679 324.6079  35.3594 14.25020619163918
CZ-6A DEB
1 57579U 22151AHW 26176.29730308  .00001412  00000-0  62052-3 0  9994
2 57579  98.7521 193.2813 0022396 309.3114  50.6079 14.25034404164620
CZ-6A DEB
1 57579U 22151AHW 26176.29730309  .00001412  00000-0  62052-3 0  9995
2 57579  98.7521 193.2813 0022396 309.3114  50.6079 14.25034404164620
CZ-6A DEB
1 57579U 22151AHW 26177.28028892  .00001443  00000-0  63344-3 0  9991
2 57579  98.7521 194.2615 0022375 306.2443  53.6668 14.25037307164766
CZ-6A DEB
1 57579U 22151AHW 26177.28028893  .00001443  00000-0  63344-3 0  9992
2 57579  98.7521 194.2615 0022375 306.2443  53.6668 14.25037307164766
CZ-6A DEB
1 57579U 22151AHW 26178.75476411  .00001425  00000-0  62593-3 0  9993
2 57579  98.7518 195.7319 0022287 301.6761  58.2244 14.25041484164978
CZ-6A DEB
1 57579U 22151AHW 26178.75476411  .00001425  00000-0  62593-3 0  9993
2 57579  98.7518 195.7319 0022287 301.6761  58.2244 14.25041484164978
CZ-6A DEB
1 57579U 22151AHW 26187.88236925  .00001320  00000-0  58080-3 0  9991
2 57579  98.7520 204.8361 0022070 273.0422  86.8231 14.25069101166270
CZ-6A DEB
1 57579U 22151AHW 26187.88236925  .00001320  00000-0  58080-3 0  9991
2 57579  98.7520 204.8361 0022070 273.0422  86.8231 14.25069101166270
CZ-6A DEB
1 57579U 22151AHW 26198.76510410  .00000714  00000-0  32266-3 0  9998
2 57579  98.7525 215.6921 0022396 239.3313 120.5659 14.25089840167826
CZ-6A DEB
1 57579U 22151AHW 26206.76908610  .00001438  00000-0  63028-3 0  9995
2 57579  98.7528 223.6766 0022921 214.9784 144.9890 14.25110561168968
CZ-6A DEB
1 57579U 22151AHW 26210.77103186  .00001515  00000-0  66306-3 0  9994
2 57579  98.7527 227.6686 0023179 203.0923 156.9217 14.25122661169536
CZ-6A DEB
1 57579U 22151AHW 26212.31563424  .00001302  00000-0  57217-3 0  9996
2 57579  98.7538 229.2094 0023274 198.5456 161.4878 14.25126004169757
CZ-6A DEB
1 57579U 22151AHW 26222.77670411  .00000771  00000-0  34649-3 0  9995
2 57579  98.7531 239.6459 0024197 168.2451 191.9298 14.25147488171244
CZ-6A DEB
1 57579U 22151AHW 26222.77670412  .00000771  00000-0  34649-3 0  9996
2 57579  98.7531 239.6459 0024197 168.2451 191.9298 14.25147488171244
CZ-6A DEB
1 57579U 22151AHW 26223.75961628  .00000756  00000-0  34002-3 0  9993
2 57579  98.7538 240.6272 0024359 165.5448 194.6433 14.25148998171385
CZ-6A DEB
1 57579U 22151AHW 26223.75961629  .00000756  00000-0  34002-3 0  9994
2 57579  98.7538 240.6272 0024359 165.5448 194.6433 14.25148998171385
CZ-6A DEB
1 57579U 22151AHW 26228.32312293  .00000855  00000-0  38199-3 0  9990
2 57579  98.7536 245.1801 0024681 152.7834 207.4644 14.25156920172030
CZ-6A DEB
1 57579U 22151AHW 26228.32312293  .00000855  00000-0  38199-3 0  9990
2 57579  98.7536 245.1801 0024681 152.7834 207.4644 14.25156920172030
CZ-6A DEB
1 57579U 22151AHW 26229.30602869  .00000913  00000-0  40652-3 0  9992
2 57579  98.7534 246.1605 0024708 149.9662 210.2940 14.25158878172178
CZ-6A DEB
1 57579U 22151AHW 26229.79748087  .00000876  00000-0  39085-3 0  9994
2 57579  98.7532 246.6507 0024757 148.4976 211.7692 14.25159618172249
CZ-6A DEB
1 57579U 22151AHW 26234.78218789  .00001194  00000-0  52552-3 0  9998
2 57579  98.7535 251.6240 0025036 134.6580 225.6646 14.25171824172955
CZ-6A DEB
1 57579U 22151AHW 26239.83705522  .00001357  00000-0  59469-3 0  9990
2 57579  98.7532 256.6670 0025230 120.7849 239.5818 14.25185191173671
CZ-6A DEB
1 57579U 22151AHW 26239.83705523  .00001357  00000-0  59469-3 0  9991
2 57579  98.7532 256.6670 0025230 120.7849 239.5818 14.25185191173671
CZ-6A DEB
1 57579U 22151AHW 26242.29426553  .00001190  00000-0  52384-3 0  9992
2 57579  98.7531 259.1184 0025299 114.1659 246.2168 14.25190358174023
CZ-6A DEB
1 57579U 22151AHW 26242.29426554  .00001190  00000-0  52384-3 0  9993
2 57579  98.7531 259.1184 0025299 114.1659 246.2169 14.25190358174024
