CZ-6A DEB
1 58434U 22151AJC 23324.30360508  .00000236  00000-0  10010-3 0  9990
2 58434  98.8088 340.1435 0105347 297.4416  61.6084 14.31726202 28137
CZ-6A DEB
1 58434U 22151AJC 24055.32358193  .00000179  00000-0  79030-4 0  9995
2 58434  98.7760  77.5366 0107313  18.5289 341.9756 14.31813686 41871
CZ-6A DEB
1 58434U 22151AJC 24055.32358193  .00000179  00000-0  79030-4 0  9995
2 58434  98.7760  77.5366 0107313  18.5289 341.9756 14.31813686 41871
CZ-6A DEB
1 58434U 22151AJC 24059.30675735  .00000402  00000-0  15786-3 0  9997
2 58434  98.8030  81.5884 0106064   4.8528 355.3657 14.31817645 42440
CZ-6A DEB
1 58434U 22151AJC 24059.30675735  .00000402  00000-0  15786-3 0  9997
2 58434  98.8030  81.5884 0106064   4.8528 355.3657 14.31817645 42440
CZ-6A DEB
1 58434U 22151AJC 24063.77908235  .00000411  00000-0  16112-3 0  9991
2 58434  98.8027  86.1249 0105796 351.7369   8.2068 14.31821707 43085
CZ-6A DEB
1 58434U 22151AJC 24063.77908235  .00000411  00000-0  16112-3 0  9991
2 58434  98.8027  86.1249 0105796 351.7369   8.2068 14.31821707 43085
CZ-6A DEB
1 58434U 22151AJC 24065.31644146  .00000471  00000-0  18210-3 0  9998
2 58434  98.8025  87.6843 0105707 347.2351  12.6159 14.31823385 43301
CZ-6A DEB
1 58434U 22151AJC 24071.32610573  .00000359  00000-0  14283-3 0  9994
2 58434  98.8023  93.7803 0105372 329.5299  29.9787 14.31828762 44162
CZ-6A DEB
1 58434U 22151AJC 24071.32610573  .00000359  00000-0  14283-3 0  9994
2 58434  98.8023  93.7803 0105372 329.5299  29.9787 14.31828762 44162
CZ-6A DEB
1 58434U 22151AJC 24072.79357991  .00000345  00000-0  13815-3 0  9993
2 58434  98.8020  95.2686 0105304 325.2053  34.2274 14.31830028 44372
CZ-6A DEB
1 58434U 22151AJC 24072.79357991  .00000345  00000-0  13815-3 0  9993
2 58434  98.8020  95.2686 0105304 325.2053  34.2274 14.31830028 44372
CZ-6A DEB
1 58434U 22151AJC 24087.32853917  .00000634  00000-0  23980-3 0  9992
2 58434  98.7999 110.0099 0104847 282.2392  76.7065 14.31846239 46450
CZ-6A DEB
1 58434U 22151AJC 24087.32853917  .00000634  00000-0  23980-3 0  9992
2 58434  98.7999 110.0099 0104847 282.2392  76.7065 14.31846239 46450
CZ-6A DEB
1 58434U 22151AJC 24088.30685105  .00000541  00000-0  20704-3 0  9991
2 58434  98.8002 111.0029 0104844 279.3227  79.6112 14.31847119 46599
CZ-6A DEB
1 58434U 22151AJC 24092.77913304  .00000326  00000-0  13133-3 0  9991
2 58434  98.8000 115.5389 0104885 266.0638  92.8550 14.31851054 47237
CZ-6A DEB
1 58434U 22151AJC 24092.77913304  .00000326  00000-0  13133-3 0  9991
2 58434  98.8000 115.5389 0104885 266.0638  92.8550 14.31851054 47237
CZ-6A DEB
1 58434U 22151AJC 24094.31648115  .00000293  00000-0  11991-3 0  9991
2 58434  98.7995 117.0980 0104843 261.5265  97.4024 14.31851977 47458
CZ-6A DEB
1 58434U 22151AJC 24094.31648115  .00000293  00000-0  11991-3 0  9991
2 58434  98.7995 117.0980 0104843 261.5265  97.4024 14.31851977 47458
CZ-6A DEB
1 58434U 22151AJC 24095.78394996  .00000224  00000-0  95672-4 0  9991
2 58434  98.7994 118.5863 0104877 257.1739 101.7709 14.31852585 47665
CZ-6A DEB
1 58434U 22151AJC 24095.78394996  .00000224  00000-0  95672-4 0  9991
2 58434  98.7994 118.5863 0104877 257.1739 101.7709 14.31852585 47665
CZ-6A DEB
1 58434U 22151AJC 24101.79358878  .00000212  00000-0  91222-4 0  9993
2 58434  98.7986 124.6809 0105010 239.3916 119.6878 14.31856011 48522
CZ-6A DEB
1 58434U 22151AJC 24101.79358878  .00000212  00000-0  91222-4 0  9993
2 58434  98.7986 124.6809 0105010 239.3916 119.6878 14.31856011 48522
CZ-6A DEB
1 58434U 22151AJC 24106.33576051  .00000366  00000-0  14519-3 0  9996
2 58434  98.7980 129.2869 0105188 225.9692 133.2789 14.31859620 49175
CZ-6A DEB
1 58434U 22151AJC 24106.33576051  .00000366  00000-0  14519-3 0  9996
2 58434  98.7980 129.2869 0105188 225.9692 133.2789 14.31859620 49175
CZ-6A DEB
1 58434U 22151AJC 24117.79596017  .00000600  00000-0  22729-3 0  9995
2 58434  98.7966 140.9074 0105733 192.2142 167.6475 14.31876875 50816
CZ-6A DEB
1 58434U 22151AJC 24117.79596017  .00000600  00000-0  22729-3 0  9995
2 58434  98.7966 140.9074 0105733 192.2142 167.6475 14.31876875 50816
CZ-6A DEB
1 58434U 22151AJC 24119.82244780  .00000447  00000-0  17319-3 0  9996
2 58434  98.7958 142.9605 0105825 186.2683 173.7183 14.31878955 51102
CZ-6A DEB
1 58434U 22151AJC 24119.82244780  .00000447  00000-0  17319-3 0  9996
2 58434  98.7958 142.9605 0105825 186.2683 173.7183 14.31878955 51102
CZ-6A DEB
1 58434U 22151AJC 24127.78861790  .00000328  00000-0  13136-3 0  9997
2 58434  98.7948 151.0371 0106350 162.9826 197.4968 14.31885393 52240
CZ-6A DEB
1 58434U 22151AJC 24127.78861790  .00000328  00000-0  13136-3 0  9997
2 58434  98.7948 151.0371 0106350 162.9826 197.4968 14.31885393 52240
CZ-6A DEB
1 58434U 22151AJC 24132.81985683  .00001155  00000-0  42105-3 0  9992
2 58434  98.7943 156.1366 0106654 148.2026 212.5656 14.31895565 52965
CZ-6A DEB
1 58434U 22151AJC 24132.81985683  .00001155  00000-0  42105-3 0  9992
2 58434  98.7943 156.1366 0106654 148.2026 212.5656 14.31895565 52965
CZ-6A DEB
1 58434U 22151AJC 24133.79814860  .00001032  00000-0  37803-3 0  9991
2 58434  98.7945 157.1286 0106707 145.3714 215.4478 14.31896565 53102
CZ-6A DEB
1 58434U 22151AJC 24133.79814860  .00001032  00000-0  37803-3 0  9991
2 58434  98.7945 157.1286 0106707 145.3714 215.4478 14.31896565 53102
CZ-6A DEB
1 58434U 22151AJC 24146.79527960  .00000551  00000-0  20917-3 0  9990
2 58434  98.7929 170.3019 0107045 107.7204 253.5697 14.31919132 54964
CZ-6A DEB
1 58434U 22151AJC 24146.79527960  .00000551  00000-0  20917-3 0  9990
2 58434  98.7929 170.3019 0107045 107.7204 253.5697 14.31919132 54964
CZ-6A DEB
1 58434U 22151AJC 24155.32014286  .00000508  00000-0  19404-3 0  9992
2 58434  98.7923 178.9420 0107047  83.0149 278.3195 14.31927758 56181
CZ-6A DEB
1 58434U 22151AJC 24155.32014286  .00000508  00000-0  19404-3 0  9992
2 58434  98.7923 178.9420 0107047  83.0149 278.3195 14.31927758 56181
CZ-6A DEB
1 58434U 22151AJC 24156.78752709  .00000572  00000-0  21646-3 0  9994
2 58434  98.7919 180.4288 0107021  78.7450 282.5739 14.31929895 56392
CZ-6A DEB
1 58434U 22151AJC 24156.78752709  .00000572  00000-0  21646-3 0  9994
2 58434  98.7919 180.4288 0107021  78.7450 282.5739 14.31929895 56392
CZ-6A DEB
1 58434U 22151AJC 24160.35116208  .00000673  00000-0  25189-3 0  9998
2 58434  98.7924 184.0406 0106959  68.4240 292.8301 14.31934799 56907
CZ-6A DEB
1 58434U 22151AJC 24160.35116208  .00000673  00000-0  25189-3 0  9998
2 58434  98.7924 184.0406 0106959  68.4240 292.8301 14.31934799 56907
CZ-6A DEB
1 58434U 22151AJC 24162.30765896  .00000691  00000-0  25816-3 0  9995
2 58434  98.7919 186.0232 0106906  62.7370 298.4655 14.31937645 57181
CZ-6A DEB
1 58434U 22151AJC 24162.30765896  .00000691  00000-0  25816-3 0  9995
2 58434  98.7919 186.0232 0106906  62.7370 298.4655 14.31937645 57181
CZ-6A DEB
1 58434U 22151AJC 24163.77502764  .00000656  00000-0  24582-3 0  9990
2 58434  98.7920 187.5104 0106822  58.4760 302.6804 14.31939593 57390
CZ-6A DEB
1 58434U 22151AJC 24163.77502764  .00000656  00000-0  24582-3 0  9990
2 58434  98.7920 187.5104 0106822  58.4760 302.6804 14.31939593 57390
CZ-6A DEB
1 58434U 22151AJC 24164.33402483  .00000580  00000-0  21939-3 0  9999
2 58434  98.7920 188.0770 0106812  56.8500 304.2876 14.31939863 57474
CZ-6A DEB
1 58434U 22151AJC 24165.80138977  .00000467  00000-0  17962-3 0  9991
2 58434  98.7918 189.5640 0106754  52.5877 308.4965 14.31941180 57681
CZ-6A DEB
1 58434U 22151AJC 24169.78422483  .00000426  00000-0  16545-3 0  9991
2 58434  98.7916 193.6002 0106563  41.0110 319.9024 14.31945375 58255
CZ-6A DEB
1 58434U 22151AJC 24169.78422483  .00000426  00000-0  16545-3 0  9991
2 58434  98.7916 193.6002 0106563  41.0110 319.9024 14.31945375 58255
CZ-6A DEB
1 58434U 22151AJC 24181.80251217  .00000598  00000-0  22621-3 0  9995
2 58434  98.7910 205.7795 0105896   5.9044 354.3360 14.31957621 59979
CZ-6A DEB
1 58434U 22151AJC 24181.80251217  .00000598  00000-0  22621-3 0  9995
2 58434  98.7910 205.7795 0105896   5.9044 354.3360 14.31957621 59979
CZ-6A DEB
1 58434U 22151AJC 24183.33972541  .00000542  00000-0  20667-3 0  9992
2 58434  98.7909 207.3372 0105825   1.4058 358.7403 14.31959206 60197
CZ-6A DEB
1 58434U 22151AJC 24183.33972541  .00000542  00000-0  20667-3 0  9992
2 58434  98.7909 207.3372 0105825   1.4058 358.7403 14.31959206 60197
CZ-6A DEB
1 58434U 22151AJC 24188.78983109  .00000338  00000-0  13520-3 0  9991
2 58434  98.7905 212.8596 0105539 345.3944  14.4195 14.31964280 60976
CZ-6A DEB
1 58434U 22151AJC 24188.78983109  .00000338  00000-0  13520-3 0  9991
2 58434  98.7905 212.8596 0105539 345.3944  14.4195 14.31964280 60976
CZ-6A DEB
1 58434U 22151AJC 24195.77712757  .00000392  00000-0  15413-3 0  9990
2 58434  98.7917 219.9430 0104941 324.7517  34.6756 14.31970476 61979
CZ-6A DEB
1 58434U 22151AJC 24195.77712757  .00000392  00000-0  15413-3 0  9990
2 58434  98.7917 219.9430 0104941 324.7517  34.6756 14.31970476 61979
CZ-6A DEB
1 58434U 22151AJC 24197.80344065  .00000384  00000-0  15156-3 0  9994
2 58434  98.7908 221.9948 0104986 318.8334  40.4963 14.31972249 62264
CZ-6A DEB
1 58434U 22151AJC 24197.80344065  .00000384  00000-0  15156-3 0  9994
2 58434  98.7908 221.9948 0104986 318.8334  40.4963 14.31972249 62264
CZ-6A DEB
1 58434U 22151AJC 24210.31065601  .00000308  00000-0  12482-3 0  9997
2 58434  98.7907 234.6701 0104676 281.7758  77.1698 14.31984971 64051
CZ-6A DEB
1 58434U 22151AJC 24210.31065601  .00000308  00000-0  12482-3 0  9997
2 58434  98.7907 234.6701 0104676 281.7758  77.1698 14.31984971 64051
CZ-6A DEB
1 58434U 22151AJC 24212.82607224  .00000436  00000-0  16991-3 0  9999
2 58434  98.7913 237.2206 0104622 274.3974  84.5261 14.31987736 64416
CZ-6A DEB
1 58434U 22151AJC 24217.78703364  .00000417  00000-0  16291-3 0  9993
2 58434  98.7906 242.2474 0104605 259.6170  99.3209 14.31991630 65129
CZ-6A DEB
1 58434U 22151AJC 24217.78703364  .00000417  00000-0  16291-3 0  9993
2 58434  98.7906 242.2474 0104605 259.6170  99.3209 14.31991630 65129
CZ-6A DEB
1 58434U 22151AJC 24225.33327631  .00000762  00000-0  28399-3 0  9997
2 58434  98.7904 249.8948 0104785 237.2643 121.8406 14.32002004 66201
CZ-6A DEB
1 58434U 22151AJC 24225.33327631  .00000762  00000-0  28399-3 0  9997
2 58434  98.7904 249.8948 0104785 237.2643 121.8406 14.32002004 66201
CZ-6A DEB
1 58434U 22151AJC 24235.81409389  .00000606  00000-0  22873-3 0  9990
2 58434  98.7900 260.5153 0105303 206.3326 153.2482 14.32020544 67705
CZ-6A DEB
1 58434U 22151AJC 24235.81409389  .00000606  00000-0  22873-3 0  9990
2 58434  98.7900 260.5153 0105303 206.3326 153.2482 14.32020544 67705
CZ-6A DEB
1 58434U 22151AJC 24238.32948059  .00000478  00000-0  18377-3 0  9992
2 58434  98.7896 263.0637 0105409 198.9109 160.8147 14.32023023 68063
CZ-6A DEB
1 58434U 22151AJC 24238.32948059  .00000478  00000-0  18377-3 0  9992
2 58434  98.7896 263.0637 0105409 198.9109 160.8147 14.32023023 68063
CZ-6A DEB
1 58434U 22151AJC 24238.81858335  .00000435  00000-0  16886-3 0  9999
2 58434  98.7901 263.5599 0105474 197.4786 162.2756 14.32023195 68139
CZ-6A DEB
1 58434U 22151AJC 24239.30768580  .00000459  00000-0  17699-3 0  9995
2 58434  98.7905 264.0561 0105466 196.0602 163.7229 14.32023820 68205
CZ-6A DEB
1 58434U 22151AJC 24239.79678822  .00000459  00000-0  17699-3 0  9997
2 58434  98.7901 264.5516 0105499 194.6247 165.1877 14.32024317 68275
CZ-6A DEB
1 58434U 22151AJC 24239.79678822  .00000459  00000-0  17699-3 0  9997
2 58434  98.7901 264.5516 0105499 194.6247 165.1877 14.32024317 68275
CZ-6A DEB
1 58434U 22151AJC 24242.31216913  .00000621  00000-0  23361-3 0  9992
2 58434  98.7901 267.1005 0105649 187.2394 172.7269 14.32027932 68630
CZ-6A DEB
1 58434U 22151AJC 24242.31216913  .00000621  00000-0  23361-3 0  9992
2 58434  98.7901 267.1005 0105649 187.2394 172.7269 14.32027932 68630
CZ-6A DEB
1 58434U 22151AJC 24244.33844283  .00000934  00000-0  34318-3 0  9994
2 58434  98.7897 269.1535 0105761 181.3003 178.7920 14.32032588 68926
CZ-6A DEB
1 58434U 22151AJC 24244.33844283  .00000934  00000-0  34318-3 0  9994
2 58434  98.7897 269.1535 0105761 181.3003 178.7920 14.32032588 68926
CZ-6A DEB
1 58434U 22151AJC 24251.81465528  .00001081  00000-0  39433-3 0  9993
2 58434  98.7889 276.7284 0106157 159.4103 201.1407 14.32045680 69995
CZ-6A DEB
1 58434U 22151AJC 24251.81465528  .00001081  00000-0  39433-3 0  9993
2 58434  98.7889 276.7284 0106157 159.4103 201.1407 14.32045680 69995
CZ-6A DEB
1 58434U 22151AJC 24254.32999568  .00001076  00000-0  39239-3 0  9996
2 58434  98.7887 279.2766 0106313 152.1053 208.5886 14.32050899 70356
CZ-6A DEB
1 58434U 22151AJC 24254.32999568  .00001076  00000-0  39239-3 0  9996
2 58434  98.7887 279.2766 0106313 152.1053 208.5886 14.32050899 70356
CZ-6A DEB
1 58434U 22151AJC 24256.35623482  .00001125  00000-0  40956-3 0  9993
2 58434  98.7889 281.3300 0106394 146.1971 214.6055 14.32055210 70647
CZ-6A DEB
1 58434U 22151AJC 24256.35623482  .00001125  00000-0  40956-3 0  9993
2 58434  98.7889 281.3300 0106394 146.1971 214.6055 14.32055210 70647
CZ-6A DEB
1 58434U 22151AJC 24257.33441487  .00001226  00000-0  44475-3 0  9997
2 58434  98.7888 282.3210 0106439 143.3467 217.5058 14.32058243 70785
CZ-6A DEB
1 58434U 22151AJC 24258.80168400  .00000993  00000-0  36307-3 0  9996
2 58434  98.7887 283.8075 0106526 139.0721 221.8521 14.32060015 70997
CZ-6A DEB
1 58434U 22151AJC 24258.80168400  .00000993  00000-0  36307-3 0  9996
2 58434  98.7887 283.8075 0106526 139.0721 221.8521 14.32060015 70997
CZ-6A DEB
1 58434U 22151AJC 24267.32574848  .00000665  00000-0  24838-3 0  9992
2 58434  98.7873 292.4421 0106762 114.3101 246.9275 14.32072616 72214
CZ-6A DEB
1 58434U 22151AJC 24267.32574848  .00000665  00000-0  24838-3 0  9992
2 58434  98.7873 292.4421 0106762 114.3101 246.9275 14.32072616 72214
CZ-6A DEB
1 58434U 22151AJC 24270.33010790  .00000745  00000-0  27608-3 0  9995
2 58434  98.7869 295.4851 0106784 105.6115 255.6883 14.32076563 72645
CZ-6A DEB
1 58434U 22151AJC 24270.33010790  .00000745  00000-0  27608-3 0  9995
2 58434  98.7869 295.4851 0106784 105.6115 255.6883 14.32076563 72645
CZ-6A DEB
1 58434U 22151AJC 24273.33445212  .00000785  00000-0  29007-3 0  9998
2 58434  98.7867 298.5278 0106779  96.8927 264.4417 14.32081052 73074
CZ-6A DEB
1 58434U 22151AJC 24273.33445212  .00000785  00000-0  29007-3 0  9998
2 58434  98.7867 298.5278 0106779  96.8927 264.4417 14.32081052 73074
CZ-6A DEB
1 58434U 22151AJC 24274.80168293  .00000922  00000-0  33813-3 0  9995
2 58434  98.7869 300.0147 0106812  92.6222 268.7193 14.32084507 73289
CZ-6A DEB
1 58434U 22151AJC 24274.80168293  .00000922  00000-0  33813-3 0  9995
2 58434  98.7869 300.0147 0106812  92.6222 268.7193 14.32084507 73289
CZ-6A DEB
1 58434U 22151AJC 24277.80599841  .00001567  00000-0  56330-3 0  9990
2 58434  98.7860 303.0573 0106780  83.8987 277.4350 14.32094193 73712
CZ-6A DEB
1 58434U 22151AJC 24277.80599841  .00001567  00000-0  56330-3 0  9990
2 58434  98.7860 303.0573 0106780  83.8987 277.4350 14.32094193 73712
CZ-6A DEB
1 58434U 22151AJC 24279.34308130  .00001661  00000-0  59595-3 0  9991
2 58434  98.7860 304.6142 0106784  79.4372 281.8819 14.32098551 73939
CZ-6A DEB
1 58434U 22151AJC 24279.34308130  .00001661  00000-0  59595-3 0  9991
2 58434  98.7860 304.6142 0106784  79.4372 281.8819 14.32098551 73939
CZ-6A DEB
1 58434U 22151AJC 24281.78842780  .00001328  00000-0  47967-3 0  9996
2 58434  98.7861 307.0911 0106746  72.3483 288.9323 14.32103478 74286
CZ-6A DEB
1 58434U 22151AJC 24281.78842780  .00001328  00000-0  47967-3 0  9996
2 58434  98.7861 307.0911 0106746  72.3483 288.9323 14.32103478 74286
CZ-6A DEB
1 58434U 22151AJC 24283.81455996  .00001273  00000-0  46058-3 0  9990
2 58434  98.7861 309.1433 0106683  66.4658 294.7690 14.32109087 74572
CZ-6A DEB
1 58434U 22151AJC 24298.34658324  .00000660  00000-0  24669-3 0  9997
2 58434  98.7848 323.8610 0105886  24.0704 336.5376 14.32134939 76654
CZ-6A DEB
1 58434U 22151AJC 24298.34658324  .00000660  00000-0  24669-3 0  9997
2 58434  98.7848 323.8610 0105886  24.0704 336.5376 14.32134939 76654
CZ-6A DEB
1 58434U 22151AJC 24301.35076265  .00001005  00000-0  36758-3 0  9997
2 58434  98.7851 326.9045 0105353  15.0354 345.3920 14.32141414 77081
CZ-6A DEB
1 58434U 22151AJC 24301.35076265  .00001005  00000-0  36758-3 0  9997
2 58434  98.7851 326.9045 0105353  15.0354 345.3920 14.32141414 77081
CZ-6A DEB
1 58434U 22151AJC 24305.33302202  .00001255  00000-0  45488-3 0  9999
2 58434  98.7829 330.9327 0105429   3.3538 356.8329 14.32151508 77650
CZ-6A DEB
1 58434U 22151AJC 24305.33302202  .00001255  00000-0  45488-3 0  9999
2 58434  98.7829 330.9327 0105429   3.3538 356.8329 14.32151508 77650
CZ-6A DEB
1 58434U 22151AJC 24309.80428904  .00001267  00000-0  45915-3 0  9991
2 58434  98.7819 335.4586 0105446 350.3218   9.5932 14.32164751 78292
CZ-6A DEB
1 58434U 22151AJC 24309.80428904  .00001267  00000-0  45915-3 0  9991
2 58434  98.7819 335.4586 0105446 350.3218   9.5932 14.32164751 78292
CZ-6A DEB
1 58434U 22151AJC 24313.78648140  .00001216  00000-0  44112-3 0  9991
2 58434  98.7806 339.4895 0105271 338.6410  21.0395 14.32175665 78865
CZ-6A DEB
1 58434U 22151AJC 24313.78648140  .00001216  00000-0  44112-3 0  9991
2 58434  98.7806 339.4895 0105271 338.6410  21.0395 14.32175665 78865
CZ-6A DEB
1 58434U 22151AJC 24314.34538576  .00001266  00000-0  45875-3 0  9997
2 58434  98.7805 340.0562 0105176 337.1752  22.4774 14.32177096 78945
CZ-6A DEB
1 58434U 22151AJC 24314.83442460  .00001353  00000-0  48908-3 0  9994
2 58434  98.7805 340.5513 0105151 335.7229  23.9019 14.32178880 79011
CZ-6A DEB
1 58434U 22151AJC 24314.83442460  .00001353  00000-0  48908-3 0  9994
2 58434  98.7805 340.5513 0105151 335.7229  23.9019 14.32178880 79011
CZ-6A DEB
1 58434U 22151AJC 24315.25360074  .00001234  00000-0  44758-3 0  9998
2 58434  98.7805 340.9756 0105138 334.4812  25.1201 14.32179313 79078
CZ-6A DEB
1 58434U 22151AJC 24315.81250194  .00001072  00000-0  39109-3 0  9995
2 58434  98.7803 341.5414 0105112 332.8284  26.7421 14.32179832 79157
CZ-6A DEB
1 58434U 22151AJC 24317.34947875  .00000910  00000-0  33438-3 0  9993
2 58434  98.7808 343.0974 0104943 328.3177  31.1717 14.32182481 79378
CZ-6A DEB
1 58434U 22151AJC 24317.34947875  .00000910  00000-0  33438-3 0  9993
2 58434  98.7808 343.0974 0104943 328.3177  31.1717 14.32182481 79378
CZ-6A DEB
1 58434U 22151AJC 24324.33571763  .00000438  00000-0  16978-3 0  9994
2 58434  98.7780 350.1674 0104697 307.6534  51.5185 14.32190864 80377
CZ-6A DEB
1 58434U 22151AJC 24324.33571763  .00000438  00000-0  16978-3 0  9994
2 58434  98.7780 350.1674 0104697 307.6534  51.5185 14.32190864 80377
CZ-6A DEB
1 58434U 22151AJC 24334.32600512  .00000908  00000-0  33413-3 0  9994
2 58434  98.7787   0.2810 0104254 278.1163  80.8204 14.32207274 81808
CZ-6A DEB
1 58434U 22151AJC 24334.32600512  .00000908  00000-0  33413-3 0  9994
2 58434  98.7787   0.2810 0104254 278.1163  80.8204 14.32207274 81808
CZ-6A DEB
1 58434U 22151AJC 24339.35605438  .00000728  00000-0  27080-3 0  9997
2 58434  98.7777   5.3708 0104408 263.1840  95.7455 14.32215836 82522
CZ-6A DEB
1 58434U 22151AJC 24339.35605438  .00000728  00000-0  27080-3 0  9997
2 58434  98.7777   5.3708 0104408 263.1840  95.7455 14.32215836 82522
CZ-6A DEB
1 58434U 22151AJC 24340.33411766  .00000732  00000-0  27246-3 0  9995
2 58434  98.7778   6.3611 0104380 260.2817  98.6564 14.32217611 82669
CZ-6A DEB
1 58434U 22151AJC 24341.80121198  .00000640  00000-0  24015-3 0  9994
2 58434  98.7778   7.8460 0104375 255.9257 103.0307 14.32219595 82872
CZ-6A DEB
1 58434U 22151AJC 24341.80121198  .00000640  00000-0  24015-3 0  9994
2 58434  98.7778   7.8460 0104375 255.9257 103.0307 14.32219595 82872
CZ-6A DEB
1 58434U 22151AJC 24343.82719767  .00000660  00000-0  24720-3 0  9998
2 58434  98.7773   9.8960 0104440 249.9315 109.0602 14.32222897 83161
CZ-6A DEB
1 58434U 22151AJC 24343.82719767  .00000660  00000-0  24720-3 0  9998
2 58434  98.7773   9.8960 0104440 249.9315 109.0602 14.32222897 83161
CZ-6A DEB
1 58434U 22151AJC 24350.81334558  .00000531  00000-0  20197-3 0  9997
2 58434  98.7764  16.9652 0104636 229.2413 129.9653 14.32231368 84166
CZ-6A DEB
1 58434U 22151AJC 24350.81334558  .00000531  00000-0  20197-3 0  9997
2 58434  98.7764  16.9652 0104636 229.2413 129.9653 14.32231368 84166
CZ-6A DEB
1 58434U 22151AJC 24353.81738475  .00000549  00000-0  20792-3 0  9996
2 58434  98.7756  20.0040 0104724 220.3669 138.9709 14.32234961 84598
CZ-6A DEB
1 58434U 22151AJC 24353.81738475  .00000549  00000-0  20792-3 0  9996
2 58434  98.7756  20.0040 0104724 220.3669 138.9709 14.32234961 84598
CZ-6A DEB
1 58434U 22151AJC 24362.82947574  .00000647  00000-0  24205-3 0  9991
2 58434  98.7750  29.1222 0105150 193.8080 166.0222 14.32246503 85889
CZ-6A DEB
1 58434U 22151AJC 24362.82947574  .00000647  00000-0  24205-3 0  9991
2 58434  98.7750  29.1222 0105150 193.8080 166.0222 14.32246503 85889
CZ-6A DEB
1 58434U 22151AJC 24363.31850132  .00000674  00000-0  25143-3 0  9991
2 58434  98.7752  29.6177 0105227 192.4506 167.4074 14.32247397 85958
CZ-6A DEB
1 58434U 22151AJC 24364.36641471  .00000673  00000-0  25088-3 0  9998
2 58434  98.7753  30.6781 0105294 189.3122 170.6111 14.32248921 86105
CZ-6A DEB
1 58434U 22151AJC 24364.36641471  .00000673  00000-0  25088-3 0  9998
2 58434  98.7753  30.6781 0105294 189.3122 170.6111 14.32248921 86105
CZ-6A DEB
1 58434U 22151AJC 24365.34446608  .00000828  00000-0  30500-3 0  9999
2 58434  98.7745  31.6672 0105359 186.4368 173.5468 14.32251171 86241
CZ-6A DEB
1 58434U 22151AJC 25002.34847225  .00001053  00000-0  38306-3 0  9991
2 58434  98.7741  34.7062 0105497 177.6322 182.5382 14.32257720 86677
CZ-6A DEB
1 58434U 22151AJC 25003.32651863  .00000787  00000-0  29064-3 0  9995
2 58434  98.7751  35.6964 0105553 174.7742 185.4569 14.32258015 86819
CZ-6A DEB
1 58434U 22151AJC 25003.81554100  .00000674  00000-0  25092-3 0  9997
2 58434  98.7748  36.1911 0105579 173.3266 186.9351 14.32258424 86883
CZ-6A DEB
1 58434U 22151AJC 25003.81554100  .00000674  00000-0  25092-3 0  9997
2 58434  98.7748  36.1911 0105579 173.3266 186.9351 14.32258424 86883
CZ-6A DEB
1 58434U 22151AJC 25005.84148771  .00000705  00000-0  26191-3 0  9991
2 58434  98.7751  38.2410 0105686 167.3847 193.0019 14.32262533 87170
CZ-6A DEB
1 58434U 22151AJC 25005.84148771  .00000705  00000-0  26191-3 0  9991
2 58434  98.7751  38.2410 0105686 167.3847 193.0019 14.32262533 87170
CZ-6A DEB
1 58434U 22151AJC 25008.35645022  .00000490  00000-0  18692-3 0  9999
2 58434  98.7749  40.7853 0105825 160.0067 200.5311 14.32265434 87537
CZ-6A DEB
1 58434U 22151AJC 25008.35645022  .00000490  00000-0  18692-3 0  9999
2 58434  98.7749  40.7853 0105825 160.0067 200.5311 14.32265434 87537
CZ-6A DEB
1 58434U 22151AJC 25012.33846298  .00000355  00000-0  13976-3 0  9990
2 58434  98.7739  44.8131 0105985 148.3926 212.3680 14.32268986 88109
CZ-6A DEB
1 58434U 22151AJC 25012.33846298  .00000355  00000-0  13976-3 0  9990
2 58434  98.7739  44.8131 0105985 148.3926 212.3680 14.32268986 88109
CZ-6A DEB
1 58434U 22151AJC 25013.31649897  .00000359  00000-0  14114-3 0  9994
2 58434  98.7740  45.8027 0106047 145.5325 215.2795 14.32269893 88240
CZ-6A DEB
1 58434U 22151AJC 25015.83144432  .00000351  00000-0  13806-3 0  9997
2 58434  98.7754  48.3475 0105979 138.2952 222.6372 14.32272047 88606
CZ-6A DEB
1 58434U 22151AJC 25015.83144432  .00000351  00000-0  13806-3 0  9997
2 58434  98.7754  48.3475 0105979 138.2952 222.6372 14.32272047 88606
CZ-6A DEB
1 58434U 22151AJC 25015.83144485  .00000343  00000-0  13541-3 0  9992
2 58434  98.7739  48.3471 0106029 138.2434 222.6902 14.32271823 88607
CZ-6A DEB
1 58434U 22151AJC 25015.83144485  .00000343  00000-0  13541-3 0  9992
2 58434  98.7739  48.3471 0106029 138.2434 222.6902 14.32271823 88607
CZ-6A DEB
1 58434U 22151AJC 25019.32441450  .00000443  00000-0  17017-3 0  9995
2 58434  98.7736  51.8804 0106207 128.0528 233.0297 14.32275375 89107
CZ-6A DEB
1 58434U 22151AJC 25019.32441450  .00000443  00000-0  17017-3 0  9995
2 58434  98.7736  51.8804 0106207 128.0528 233.0297 14.32275375 89107
CZ-6A DEB
1 58434U 22151AJC 25019.32441450  .00000443  00000-0  17017-3 0  9995
2 58434  98.7736  51.8804 0106207 128.0528 233.0297 14.32275375 89107
CZ-6A DEB
1 58434U 22151AJC 25028.33620101  .00000483  00000-0  18389-3 0  9995
2 58434  98.7722  60.9954 0106358 101.8683 259.4450 14.32285821 90390
CZ-6A DEB
1 58434U 22151AJC 25031.34010496  .00000512  00000-0  19415-3 0  9994
2 58434  98.7726  64.0353 0106161  93.1046 268.2291 14.32289312 90828
CZ-6A DEB
1 58434U 22151AJC 25031.34010496  .00000512  00000-0  19415-3 0  9994
2 58434  98.7726  64.0353 0106161  93.1046 268.2291 14.32289312 90828
CZ-6A DEB
1 58434U 22151AJC 25033.36598645  .00000478  00000-0  18214-3 0  9992
2 58434  98.7721  66.0834 0106415  87.2400 274.0957 14.32291429 91118
CZ-6A DEB
1 58434U 22151AJC 25033.36598645  .00000478  00000-0  18214-3 0  9992
2 58434  98.7721  66.0834 0106415  87.2400 274.0957 14.32291429 91118
CZ-6A DEB
1 58434U 22151AJC 25035.81100841  .00000468  00000-0  17866-3 0  9992
2 58434  98.7721  68.5566 0106413  80.1482 281.1696 14.32294128 91463
CZ-6A DEB
1 58434U 22151AJC 25035.81100841  .00000468  00000-0  17866-3 0  9992
2 58434  98.7721  68.5566 0106413  80.1482 281.1696 14.32294128 91463
CZ-6A DEB
1 58434U 22151AJC 25041.32974349  .00000554  00000-0  20865-3 0  9996
2 58434  98.7716  74.1387 0106312  64.1106 297.0991 14.32300354 92255
CZ-6A DEB
1 58434U 22151AJC 25041.32974349  .00000554  00000-0  20865-3 0  9996
2 58434  98.7716  74.1387 0106312  64.1106 297.0991 14.32300354 92255
CZ-6A DEB
1 58434U 22151AJC 25043.35559842  .00000457  00000-0  17496-3 0  9996
2 58434  98.7710  76.1873 0106237  58.2125 302.9353 14.32301944 92548
CZ-6A DEB
1 58434U 22151AJC 25043.35559842  .00000457  00000-0  17496-3 0  9996
2 58434  98.7710  76.1873 0106237  58.2125 302.9353 14.32301944 92548
CZ-6A DEB
1 58434U 22151AJC 25046.35944331  .00000477  00000-0  18201-3 0  9997
2 58434  98.7704  79.2250 0106123  49.4746 311.5622 14.32305154 92978
CZ-6A DEB
1 58434U 22151AJC 25046.35944331  .00000477  00000-0  18201-3 0  9997
2 58434  98.7704  79.2250 0106123  49.4746 311.5622 14.32305154 92978
CZ-6A DEB
1 58434U 22151AJC 25050.34126598  .00000616  00000-0  23050-3 0  9991
2 58434  98.7703  83.2523 0105921  37.8542 323.0029 14.32310533 93545
CZ-6A DEB
1 58434U 22151AJC 25050.34126598  .00000616  00000-0  23050-3 0  9991
2 58434  98.7703  83.2523 0105921  37.8542 323.0029 14.32310533 93545
CZ-6A DEB
1 58434U 22151AJC 25050.83026052  .00000561  00000-0  21131-3 0  9996
2 58434  98.7700  83.7467 0105906  36.4375 324.3956 14.32310809 93613
CZ-6A DEB
1 58434U 22151AJC 25053.34508409  .00000560  00000-0  21106-3 0  9997
2 58434  98.7699  86.2902 0105783  29.1138 331.5887 14.32314059 93974
CZ-6A DEB
1 58434U 22151AJC 25053.34508409  .00000560  00000-0  21106-3 0  9997
2 58434  98.7699  86.2902 0105783  29.1138 331.5887 14.32314059 93974
CZ-6A DEB
1 58434U 22151AJC 25056.34889067  .00000685  00000-0  25463-3 0  9990
2 58434  98.7694  89.3281 0105589  20.2901 340.2431 14.32318757 94407
CZ-6A DEB
1 58434U 22151AJC 25056.34889067  .00000685  00000-0  25463-3 0  9990
2 58434  98.7694  89.3281 0105589  20.2901 340.2431 14.32318757 94407
CZ-6A DEB
1 58434U 22151AJC 25059.35268518  .00000746  00000-0  27606-3 0  9995
2 58434  98.7687  92.3655 0105433  11.5452 348.8114 14.32323810 94835
CZ-6A DEB
1 58434U 22151AJC 25059.35268518  .00000746  00000-0  27606-3 0  9995
2 58434  98.7687  92.3655 0105433  11.5452 348.8114 14.32323810 94835
CZ-6A DEB
1 58434U 22151AJC 25062.35646965  .00000530  00000-0  20091-3 0  9997
2 58434  98.7684  95.4032 0105255   2.7467 357.4272 14.32327220 95263
CZ-6A DEB
1 58434U 22151AJC 25062.35646965  .00000530  00000-0  20091-3 0  9997
2 58434  98.7684  95.4032 0105255   2.7467 357.4272 14.32327220 95263
CZ-6A DEB
1 58434U 22151AJC 25063.33444430  .00000510  00000-0  19408-3 0  9997
2 58434  98.7684  96.3924 0105184 359.8537   0.2598 14.32328391 95408
CZ-6A DEB
1 58434U 22151AJC 25064.80140507  .00000413  00000-0  16014-3 0  9990
2 58434  98.7684  97.8759 0105080 355.5245   4.4988 14.32329637 95610
CZ-6A DEB
1 58434U 22151AJC 25064.80140507  .00000413  00000-0  16014-3 0  9990
2 58434  98.7684  97.8759 0105080 355.5245   4.4988 14.32329637 95610
CZ-6A DEB
1 58434U 22151AJC 25069.34199102  .00000458  00000-0  17586-3 0  9993
2 58434  98.7672 102.4672 0104819 342.1762  17.5755 14.32334219 96260
CZ-6A DEB
1 58434U 22151AJC 25069.34199102  .00000458  00000-0  17586-3 0  9993
2 58434  98.7672 102.4672 0104819 342.1762  17.5755 14.32334219 96260
CZ-6A DEB
1 58434U 22151AJC 25075.34951638  .00000598  00000-0  22483-3 0  9997
2 58434  98.7662 108.5416 0104507 324.4398  34.9851 14.32341937 97125
CZ-6A DEB
1 58434U 22151AJC 25075.34951638  .00000598  00000-0  22483-3 0  9997
2 58434  98.7662 108.5416 0104507 324.4398  34.9851 14.32341937 97125
CZ-6A DEB
1 58434U 22151AJC 25082.82395731  .00000796  00000-0  29410-3 0  9991
2 58434  98.7651 116.0989 0104205 302.2951  56.8171 14.32355309 98190
CZ-6A DEB
1 58434U 22151AJC 25082.82395731  .00000796  00000-0  29410-3 0  9991
2 58434  98.7651 116.0989 0104205 302.2951  56.8171 14.32355309 98190
CZ-6A DEB
1 58434U 22151AJC 25088.83142400  .00000474  00000-0  18164-3 0  9998
2 58434  98.7638 122.1719 0104098 284.4411  74.5238 14.32363600 99056
CZ-6A DEB
1 58434U 22151AJC 25088.83142400  .00000474  00000-0  18164-3 0  9998
2 58434  98.7638 122.1719 0104098 284.4411  74.5238 14.32363600 99056
CZ-6A DEB
1 58434U 22151AJC 25093.37194707  .00000460  00000-0  17682-3 0  9999
2 58434  98.7637 126.7624 0104009 270.9827  87.9440 14.32368467 99704
CZ-6A DEB
1 58434U 22151AJC 25095.81684308  .00000450  00000-0  17339-3 0  9999
2 58434  98.7635 129.2346 0104022 263.7215  95.2111 14.32370826100057
CZ-6A DEB
1 58434U 22151AJC 25095.81684308  .00000450  00000-0  17339-3 0  9999
2 58434  98.7635 129.2346 0104022 263.7215  95.2111 14.32370826100057
CZ-6A DEB
1 58434U 22151AJC 25098.33159211  .00000467  00000-0  17918-3 0  9990
2 58434  98.7631 131.7764 0104109 256.2551 102.7027 14.32373716100412
CZ-6A DEB
1 58434U 22151AJC 25098.33159211  .00000467  00000-0  17918-3 0  9990
2 58434  98.7631 131.7764 0104109 256.2551 102.7027 14.32373716100412
CZ-6A DEB
1 58434U 22151AJC 25098.82057102  .00000438  00000-0  16905-3 0  9993
2 58434  98.7629 132.2708 0104133 254.8076 104.1573 14.32374086100486
CZ-6A DEB
1 58434U 22151AJC 25100.35736173  .00000470  00000-0  18024-3 0  9997
2 58434  98.7629 133.8245 0104154 250.2488 108.7439 14.32375927100700
CZ-6A DEB
1 58434U 22151AJC 25100.84634054  .00000465  00000-0  17839-3 0  9993
2 58434  98.7620 134.3184 0104136 248.7921 110.2112 14.32376433100779
CZ-6A DEB
1 58434U 22151AJC 25100.84634054  .00000465  00000-0  17839-3 0  9993
2 58434  98.7620 134.3184 0104136 248.7921 110.2112 14.32376433100779
CZ-6A DEB
1 58434U 22151AJC 25102.80225512  .00000447  00000-0  17209-3 0  9997
2 58434  98.7617 136.2953 0104194 242.9919 116.0597 14.32378448101058
CZ-6A DEB
1 58434U 22151AJC 25102.80225512  .00000447  00000-0  17209-3 0  9997
2 58434  98.7617 136.2953 0104194 242.9919 116.0597 14.32378448101058
CZ-6A DEB
1 58434U 22151AJC 25104.33904506  .00000432  00000-0  16675-3 0  9994
2 58434  98.7613 137.8485 0104227 238.4476 120.6497 14.32379899101271
CZ-6A DEB
1 58434U 22151AJC 25104.82802367  .00000418  00000-0  16200-3 0  9998
2 58434  98.7613 138.3427 0104263 236.9992 122.1138 14.32380276101347
CZ-6A DEB
1 58434U 22151AJC 25120.82458209  .00000347  00000-0  13677-3 0  9994
2 58434  98.7585 154.5076 0105105 189.8020 170.1114 14.32394171103639
CZ-6A DEB
1 58434U 22151AJC 25120.82458209  .00000347  00000-0  13677-3 0  9994
2 58434  98.7585 154.5076 0105105 189.8020 170.1114 14.32394171103639
CZ-6A DEB
1 58434U 22151AJC 25126.34302173  .00000319  00000-0  12682-3 0  9999
2 58434  98.7579 160.0838 0105402 173.6008 186.6550 14.32398838104425
CZ-6A DEB
1 58434U 22151AJC 25126.34302173  .00000319  00000-0  12682-3 0  9999
2 58434  98.7579 160.0838 0105402 173.6008 186.6550 14.32398838104425
CZ-6A DEB
1 58434U 22151AJC 25130.81364414  .00000234  00000-0  97285-4 0  9991
2 58434  98.7576 164.6005 0105653 160.5054 200.0216 14.32401561105061
CZ-6A DEB
1 58434U 22151AJC 25130.81364414  .00000234  00000-0  97285-4 0  9991
2 58434  98.7576 164.6005 0105653 160.5054 200.0216 14.32401561105061
CZ-6A DEB
1 58434U 22151AJC 25139.82470252  .00000247  00000-0  10154-3 0  9992
2 58434  98.7542 173.7006 0106075 134.1583 226.8382 14.32406981106353
CZ-6A DEB
1 58434U 22151AJC 25139.82470252  .00000247  00000-0  10154-3 0  9992
2 58434  98.7542 173.7006 0106075 134.1583 226.8382 14.32406981106353
CZ-6A DEB
1 58434U 22151AJC 25142.33940405  .00000259  00000-0  10582-3 0  9992
2 58434  98.7560 176.2434 0106173 126.9088 234.1881 14.32408677106714
CZ-6A DEB
1 58434U 22151AJC 25142.33940405  .00000259  00000-0  10582-3 0  9992
2 58434  98.7560 176.2434 0106173 126.9088 234.1881 14.32408677106714
CZ-6A DEB
1 58434U 22151AJC 25143.80631092  .00000217  00000-0  91275-4 0  9997
2 58434  98.7561 177.7255 0106216 122.6391 238.5096 14.32409353106921
CZ-6A DEB
1 58434U 22151AJC 25143.80631092  .00000217  00000-0  91275-4 0  9997
2 58434  98.7561 177.7255 0106216 122.6391 238.5096 14.32409353106921
CZ-6A DEB
1 58434U 22151AJC 25145.34306845  .00000216  00000-0  90884-4 0  9997
2 58434  98.7559 179.2777 0106259 118.1692 243.0274 14.32410215107148
CZ-6A DEB
1 58434U 22151AJC 25145.34306845  .00000216  00000-0  90884-4 0  9997
2 58434  98.7559 179.2777 0106259 118.1692 243.0274 14.32410215107148
CZ-6A DEB
1 58434U 22151AJC 25148.83569069  .00000235  00000-0  97287-4 0  9998
2 58434  98.7556 182.8055 0106341 108.0155 253.2651 14.32412323107647
CZ-6A DEB
1 58434U 22151AJC 25148.83569069  .00000235  00000-0  97287-4 0  9998
2 58434  98.7556 182.8055 0106341 108.0155 253.2651 14.32412323107647
CZ-6A DEB
1 58434U 22151AJC 25151.35037067  .00000256  00000-0  10471-3 0  9999
2 58434  98.7555 185.3456 0106351 100.7151 260.6027 14.32414051108005
CZ-6A DEB
1 58434U 22151AJC 25151.35037067  .00000256  00000-0  10471-3 0  9999
2 58434  98.7555 185.3456 0106351 100.7151 260.6027 14.32414051108005
CZ-6A DEB
1 58434U 22151AJC 25158.82451608  .00000233  00000-0  96756-4 0  9995
2 58434  98.7547 192.8942 0106300  79.0174 282.2946 14.32419480109075
CZ-6A DEB
1 58434U 22151AJC 25158.82451608  .00000233  00000-0  96756-4 0  9995
2 58434  98.7547 192.8942 0106300  79.0174 282.2946 14.32419480109075
CZ-6A DEB
1 58434U 22151AJC 25164.83173142  .00000290  00000-0  11653-3 0  9992
2 58434  98.7544 198.9613 0106155  61.5524 299.6306 14.32423438109932
CZ-6A DEB
1 58434U 22151AJC 25164.83173142  .00000290  00000-0  11653-3 0  9992
2 58434  98.7544 198.9613 0106155  61.5524 299.6306 14.32423438109932
CZ-6A DEB
1 58434U 22151AJC 25167.34636988  .00000201  00000-0  85812-4 0  9994
2 58434  98.7542 201.5007 0106077  54.2266 306.8723 14.32424382110297
CZ-6A DEB
1 58434U 22151AJC 25167.34636988  .00000201  00000-0  85812-4 0  9994
2 58434  98.7542 201.5007 0106077  54.2266 306.8723 14.32424382110297
CZ-6A DEB
1 58434U 22151AJC 25167.83532656  .00000209  00000-0  88650-4 0  9996
2 58434  98.7548 201.9951 0106079  52.7971 308.2837 14.32424741110362
CZ-6A DEB
1 58434U 22151AJC 25170.34995833  .00000197  00000-0  84414-4 0  9996
2 58434  98.7533 204.5335 0105942  45.4866 315.4913 14.32426071110724
CZ-6A DEB
1 58434U 22151AJC 25170.34995833  .00000197  00000-0  84414-4 0  9996
2 58434  98.7533 204.5335 0105942  45.4866 315.4913 14.32426071110724
CZ-6A DEB
1 58434U 22151AJC 25171.81682470  .00000158  00000-0  70948-4 0  9993
2 58434  98.7537 206.0154 0105882  41.2032 319.7083 14.32426537110931
CZ-6A DEB
1 58434U 22151AJC 25171.81682470  .00000158  00000-0  70948-4 0  9993
2 58434  98.7537 206.0154 0105882  41.2032 319.7083 14.32426537110931
CZ-6A DEB
1 58434U 22151AJC 25179.36068861  .00000132  00000-0  62096-4 0  9990
2 58434  98.7537 213.6340 0105442  19.1584 341.3519 14.32429397112013
CZ-6A DEB
1 58434U 22151AJC 25179.36068861  .00000132  00000-0  62096-4 0  9990
2 58434  98.7537 213.6340 0105442  19.1584 341.3519 14.32429397112013
CZ-6A DEB
1 58434U 22151AJC 25183.34216091  .00000138  00000-0  64010-4 0  9997
2 58434  98.7534 217.6546 0105211   7.4902 352.7824 14.32431019112581
CZ-6A DEB
1 58434U 22151AJC 25183.34216091  .00000138  00000-0  64010-4 0  9997
2 58434  98.7534 217.6546 0105211   7.4902 352.7824 14.32431019112581
CZ-6A DEB
1 58434U 22151AJC 25192.35284360  .00000106  00000-0  53338-4 0  9998
2 58434  98.7534 226.7543 0104717 340.9946  18.7342 14.32434484113878
CZ-6A DEB
1 58434U 22151AJC 25192.35284360  .00000106  00000-0  53338-4 0  9998
2 58434  98.7534 226.7543 0104717 340.9946  18.7342 14.32434484113878
CZ-6A DEB
1 58434U 22151AJC 25195.35640253  .00000109  00000-0  54250-4 0  9995
2 58434  98.7531 229.7873 0104542 332.1180  27.4424 14.32435554114309
CZ-6A DEB
1 58434U 22151AJC 25195.35640253  .00000109  00000-0  54250-4 0  9995
2 58434  98.7531 229.7873 0104542 332.1180  27.4424 14.32435554114309
CZ-6A DEB
1 58434U 22151AJC 25195.84535401  .00000104  00000-0  52578-4 0  9993
2 58434  98.7530 230.2809 0104514 330.6760  28.8583 14.32435684114372
CZ-6A DEB
1 58434U 22151AJC 25199.82681666  .00000125  00000-0  59803-4 0  9991
2 58434  98.7529 234.3017 0104323 318.9049  40.4309 14.32437194114940
CZ-6A DEB
1 58434U 22151AJC 25199.82681666  .00000125  00000-0  59803-4 0  9991
2 58434  98.7529 234.3017 0104323 318.9049  40.4309 14.32437194114940
CZ-6A DEB
1 58434U 22151AJC 25200.80472023  .00000117  00000-0  57254-4 0  9996
2 58434  98.7534 235.2898 0104286 316.0250  43.2670 14.32437447115083
CZ-6A DEB
1 58434U 22151AJC 25201.36352218  .00000124  00000-0  59645-4 0  9995
2 58434  98.7542 235.8542 0104255 314.3638  44.9039 14.32437699115166
CZ-6A DEB
1 58434U 22151AJC 25201.36352218  .00000124  00000-0  59645-4 0  9995
2 58434  98.7542 235.8542 0104255 314.3638  44.9039 14.32437699115166
CZ-6A DEB
1 58434U 22151AJC 25206.81184437  .00000166  00000-0  74427-4 0  9997
2 58434  98.7531 241.3561 0104065 298.1843  60.8860 14.32440190115948
CZ-6A DEB
1 58434U 22151AJC 25206.81184437  .00000166  00000-0  74427-4 0  9997
2 58434  98.7531 241.3561 0104065 298.1843  60.8860 14.32440190115948
CZ-6A DEB
1 58434U 22151AJC 25215.82254709  .00000132  00000-0  62430-4 0  9992
2 58434  98.7527 250.4552 0103945 271.4328  87.4950 14.32443859117236
CZ-6A DEB
1 58434U 22151AJC 25215.82254709  .00000132  00000-0  62430-4 0  9992
2 58434  98.7527 250.4552 0103945 271.4328  87.4950 14.32443859117236
CZ-6A DEB
1 58434U 22151AJC 25224.83327645  .00000146  00000-0  67301-4 0  9990
2 58434  98.7519 259.5533 0104033 244.6876 114.3502 14.32447602118521
CZ-6A DEB
1 58434U 22151AJC 25226.36999207  .00000149  00000-0  68381-4 0  9991
2 58434  98.7518 261.1047 0104097 240.1304 118.9504 14.32448346118748
CZ-6A DEB
1 58434U 22151AJC 25226.36999207  .00000149  00000-0  68381-4 0  9991
2 58434  98.7518 261.1047 0104097 240.1304 118.9504 14.32448346118748
CZ-6A DEB
1 58434U 22151AJC 25232.37715984  .00000140  00000-0  65112-4 0  9997
2 58434  98.7516 267.1702 0104371 222.3280 136.9815 14.32450508119604
CZ-6A DEB
1 58434U 22151AJC 25232.37715984  .00000140  00000-0  65112-4 0  9997
2 58434  98.7516 267.1702 0104371 222.3280 136.9815 14.32450508119604
CZ-6A DEB
1 58434U 22151AJC 25233.35507178  .00000129  00000-0  61208-4 0  9999
2 58434  98.7513 268.1572 0104390 219.4444 139.9107 14.32450745119742
CZ-6A DEB
1 58434U 22151AJC 25236.35865900  .00000139  00000-0  64666-4 0  9994
2 58434  98.7513 271.1898 0104526 210.5618 148.9449 14.32451826120172
CZ-6A DEB
1 58434U 22151AJC 25237.33657128  .00000147  00000-0  67310-4 0  9992
2 58434  98.7511 272.1770 0104578 207.6731 151.8863 14.32452226120314
CZ-6A DEB
1 58434U 22151AJC 25243.34374425  .00000318  00000-0  12660-3 0  9993
2 58434  98.7504 278.2409 0104954 189.9819 169.9280 14.32456013121175
CZ-6A DEB
1 58434U 22151AJC 25243.83269965  .00000370  00000-0  14466-3 0  9993
2 58434  98.7504 278.7345 0104993 188.5514 171.3884 14.32456612121249
CZ-6A DEB
1 58434U 22151AJC 25246.83628024  .00000383  00000-0  14895-3 0  9991
2 58434  98.7502 281.7664 0105170 179.7316 180.3942 14.32459000121671
CZ-6A DEB
1 58434U 22151AJC 25248.37299381  .00000360  00000-0  14121-3 0  9999
2 58434  98.7501 283.3175 0105260 175.2255 184.9958 14.32460214121898
CZ-6A DEB
1 58434U 22151AJC 25249.83985524  .00000351  00000-0  13784-3 0  9996
2 58434  98.7499 284.7982 0105344 170.9264 189.3855 14.32461464122108
CZ-6A DEB
1 58434U 22151AJC 25255.84699125  .00000111  00000-0  54344-4 0  9995
2 58434  98.7489 290.8608 0105678 153.3645 207.3022 14.32463840122969
CZ-6A DEB
1 58434U 22151AJC 25256.82489558  .00000120  00000-0  57447-4 0  9998
2 58434  98.7489 291.8478 0105728 150.4938 210.2270 14.32464260123106
CZ-6A DEB
1 58434U 22151AJC 25258.36160046  .00000239  00000-0  98919-4 0  9997
2 58434  98.7487 293.3984 0105791 146.0193 214.7825 14.32465623123320
CZ-6A DEB
1 58434U 22151AJC 25265.34660333  .00000362  00000-0  14128-3 0  9993
2 58434  98.7476 300.4469 0106049 125.6692 235.4420 14.32469571124328
CZ-6A DEB
1 58434U 22151AJC 25266.81344738  .00000438  00000-0  16754-3 0  9995
2 58434  98.7473 301.9270 0106095 121.3970 239.7643 14.32471167124535
CZ-6A DEB
1 58434U 22151AJC 25274.35717270  .00000587  00000-0  21936-3 0  9991
2 58434  98.7462 309.5377 0106208  99.4522 261.8685 14.32479929125615
CZ-6A DEB
1 58434U 22151AJC 25274.35717270  .00000587  00000-0  21936-3 0  9991
2 58434  98.7462 309.5377 0106208  99.4522 261.8685 14.32479929125615
CZ-6A DEB
1 58434U 22151AJC 25277.36066880  .00000548  00000-0  20578-3 0  9997
2 58434  98.7459 312.5679 0106210  90.7237 270.6117 14.32483807126046
CZ-6A DEB
1 58434U 22151AJC 25280.36415278  .00000365  00000-0  14224-3 0  9998
2 58434  98.7449 315.5970 0106158  81.9950 279.3264 14.32486392126475
CZ-6A DEB
1 58434U 22151AJC 25284.83443555  .00000300  00000-0  11993-3 0  9992
2 58434  98.7440 320.1057 0105974  68.9962 292.2520 14.32489735127112
CZ-6A DEB
1 58434U 22151AJC 25286.37109060  .00000315  00000-0  12494-3 0  9996
2 58434  98.7447 321.6564 0105997  64.5167 296.6936 14.32490828127330
CZ-6A DEB
1 58434U 22151AJC 25287.34896066  .00000318  00000-0  12605-3 0  9990
2 58434  98.7442 322.6424 0105988  61.6738 299.5087 14.32491588127471
CZ-6A DEB
1 58434U 22151AJC 25290.84134549  .00000358  00000-0  14015-3 0  9991
2 58434  98.7437 326.1647 0105877  51.5044 309.5577 14.32494352127979
CZ-6A DEB
1 58434U 22151AJC 25290.84134549  .00000358  00000-0  14015-3 0  9991
2 58434  98.7437 326.1647 0105877  51.5044 309.5577 14.32494352127979
CZ-6A DEB
1 58434U 22151AJC 25293.84478603  .00000414  00000-0  15962-3 0  9991
2 58434  98.7424 329.1930 0105748  42.7430 318.1917 14.32497113128402
CZ-6A DEB
1 58434U 22151AJC 25296.35928696  .00000362  00000-0  14156-3 0  9998
2 58434  98.7421 331.7288 0105618  35.3909 325.4224 14.32499144128766
CZ-6A DEB
1 58434U 22151AJC 25296.35928696  .00000362  00000-0  14156-3 0  9998
2 58434  98.7421 331.7288 0105618  35.3909 325.4224 14.32499144128766
CZ-6A DEB
1 58434U 22151AJC 25299.36271157  .00000323  00000-0  12809-3 0  9995
2 58434  98.7418 334.7575 0105457  26.5945 334.0594 14.32501389129196
CZ-6A DEB
1 58434U 22151AJC 25299.85164043  .00000323  00000-0  12820-3 0  9997
2 58434  98.7416 335.2504 0105433  25.1680 335.4589 14.32501775129263
CZ-6A DEB
1 58434U 22151AJC 25299.85164043  .00000323  00000-0  12820-3 0  9997
2 58434  98.7416 335.2504 0105433  25.1680 335.4589 14.32501775129263
CZ-6A DEB
1 58434U 22151AJC 25302.36612955  .00000324  00000-0  12842-3 0  9993
2 58434  98.7415 337.7860 0105309  17.8115 342.6715 14.32503528129626
CZ-6A DEB
1 58434U 22151AJC 25302.36612956  .00000324  00000-0  12842-3 0  9994
2 58434  98.7415 337.7860 0105309  17.8115 342.6715 14.32503528129626
CZ-6A DEB
1 58434U 22151AJC 25305.36954144  .00000312  00000-0  12453-3 0  9990
2 58434  98.7405 340.8139 0105143   8.9952 351.3083 14.32505618130051
CZ-6A DEB
1 58434U 22151AJC 25305.85846843  .00000297  00000-0  11933-3 0  9994
2 58434  98.7406 341.3070 0105112   7.5652 352.7088 14.32505885130124
CZ-6A DEB
1 58434U 22151AJC 25318.36098539  .00000535  00000-0  20204-3 0  9991
2 58434  98.7387 353.9106 0104414 330.7301  28.8057 14.32518192131917
CZ-6A DEB
1 58434U 22151AJC 25318.36098540  .00000535  00000-0  20204-3 0  9993
2 58434  98.7387 353.9106 0104414 330.7301  28.8057 14.32518192131917
CZ-6A DEB
1 58434U 22151AJC 25321.36436966  .00000446  00000-0  17116-3 0  9994
2 58434  98.7385 356.9385 0104263 321.8599  37.5237 14.32521548132343
CZ-6A DEB
1 58434U 22151AJC 25321.36436967  .00000446  00000-0  17116-3 0  9995
2 58434  98.7385 356.9385 0104263 321.8599  37.5237 14.32521548132343
CZ-6A DEB
1 58434U 22151AJC 25321.85329242  .00000368  00000-0  14432-3 0  9997
2 58434  98.7385 357.4315 0104250 320.4094  38.9509 14.32521701132419
CZ-6A DEB
1 58434U 22151AJC 25321.85329243  .00000368  00000-0  14432-3 0  9998
2 58434  98.7385 357.4315 0104250 320.4094  38.9509 14.32521702132410
CZ-6A DEB
1 58434U 22151AJC 25322.83113773  .00000325  00000-0  12938-3 0  9998
2 58434  98.7382 358.4170 0104210 317.5114  41.8037 14.32522544132552
CZ-6A DEB
1 58434U 22151AJC 25322.83113774  .00000325  00000-0  12938-3 0  9999
2 58434  98.7382 358.4170 0104210 317.5114  41.8037 14.32522544132552
CZ-6A DEB
1 58434U 22151AJC 25324.36775187  .00000277  00000-0  11258-3 0  9991
2 58434  98.7379 359.9660 0104172 312.9617  46.2865 14.32523576132770
CZ-6A DEB
1 58434U 22151AJC 25324.36775188  .00000277  00000-0  11258-3 0  9992
2 58434  98.7379 359.9660 0104172 312.9617  46.2865 14.32523576132770
CZ-6A DEB
1 58434U 22151AJC 25330.37451551  .00000284  00000-0  11510-3 0  9994
2 58434  98.7364   6.0196 0104118 295.1361  63.9050 14.32528031133635
CZ-6A DEB
1 58434U 22151AJC 25330.37451551  .00000284  00000-0  11510-3 0  9994
2 58434  98.7364   6.0196 0104118 295.1361  63.9050 14.32528031133635
CZ-6A DEB
1 58434U 22151AJC 25331.84128269  .00000276  00000-0  11247-3 0  9992
2 58434  98.7385   7.5001 0104078 290.7848  68.2210 14.32529188133848
CZ-6A DEB
1 58434U 22151AJC 25332.81912896  .00000239  00000-0  99367-4 0  9996
2 58434  98.7369   8.4839 0103901 287.8929  71.0946 14.32529582133981
CZ-6A DEB
1 58434U 22151AJC 25332.81912896  .00000239  00000-0  99367-4 0  9996
2 58434  98.7369   8.4839 0103901 287.8929  71.0946 14.32529582133981
CZ-6A DEB
1 58434U 22151AJC 25340.36250819  .00000521  00000-0  19727-3 0  9990
2 58434  98.7359  16.0857 0103862 265.4871  93.4442 14.32537335135064
CZ-6A DEB
1 58434U 22151AJC 25346.85819183  .00000401  00000-0  15570-3 0  9994
2 58434  98.7350  22.6310 0103975 246.1972 112.8283 14.32543243135991
CZ-6A DEB
1 58434U 22151AJC 25349.37264955  .00000273  00000-0  11128-3 0  9997
2 58434  98.7347  25.1646 0104060 238.7431 120.3527 14.32544816136353
CZ-6A DEB
1 58434U 22151AJC 25349.86157182  .00000254  00000-0  10441-3 0  9990
2 58434  98.7350  25.6579 0104060 237.2907 121.8210 14.32545119136429
CZ-6A DEB
1 58434U 22151AJC 25350.35049440  .00000249  00000-0  10288-3 0  9996
2 58434  98.7345  26.1500 0104102 235.8563 123.2714 14.32545433136493
CZ-6A DEB
1 58434U 22151AJC 25362.85294270  .00000347  00000-0  13656-3 0  9998
2 58434  98.7331  38.7462 0104677 198.9156 160.8127 14.32553525138283
CZ-6A DEB
1 58434U 22151AJC 25365.36739819  .00000485  00000-0  18433-3 0  9991
2 58434  98.7324  41.2790 0104773 191.4545 168.4253 14.32556353138641
CZ-6A DEB
1 58434U 22151AJC 25365.36739820  .00000485  00000-0  18433-3 0  9993
2 58434  98.7324  41.2790 0104773 191.4545 168.4253 14.32556353138641
CZ-6A DEB
1 58434U 22151AJC 26007.84089651  .00000256  00000-0  10456-3 0  9993
2 58434  98.7319  48.8076 0105173 169.5826 190.7571 14.32561837139711
CZ-6A DEB
1 58434U 22151AJC 26007.84089651  .00000256  00000-0  10456-3 0  9993
2 58434  98.7319  48.8076 0105173 169.5826 190.7571 14.32561837139711
CZ-6A DEB
1 58434U 22151AJC 26013.35869376  .00000165  00000-0  73045-4 0  9999
2 58434  98.7314  54.3657 0105448 153.4088 207.2559 14.32564638140501
CZ-6A DEB
1 58434U 22151AJC 26013.35869376  .00000165  00000-0  73045-4 0  9999
2 58434  98.7314  54.3657 0105448 153.4088 207.2559 14.32564638140501
CZ-6A DEB
1 58434U 22151AJC 26016.85096177  .00000158  00000-0  70464-4 0  9992
2 58434  98.7305  57.8827 0105652 143.1760 217.6740 14.32566149141000
CZ-6A DEB
1 58434U 22151AJC 26031.37866242  .00000277  00000-0  11170-3 0  9994
2 58434  98.7282  72.5127 0106040 100.8315 260.4824 14.32578856143086
CZ-6A DEB
1 58434U 22151AJC 26031.37866242  .00000277  00000-0  11170-3 0  9994
2 58434  98.7282  72.5127 0106040 100.8315 260.4824 14.32578856143086
CZ-6A DEB
1 58434U 22151AJC 26032.84538793  .00000229  00000-0  94788-4 0  9998
2 58434  98.7282  73.9900 0105917  96.5752 264.7501 14.32579706143295
CZ-6A DEB
1 58434U 22151AJC 26035.35976977  .00000244  00000-0  10030-3 0  9991
2 58434  98.7274  76.5209 0105983  89.2715 272.0610 14.32581439143657
CZ-6A DEB
1 58434U 22151AJC 26035.35976978  .00000244  00000-0  10030-3 0  9992
2 58434  98.7274  76.5209 0105983  89.2715 272.0610 14.32581439143657
CZ-6A DEB
1 58434U 22151AJC 26072.86534138  .00000254  00000-0  10417-3 0  9997
2 58434  98.7209 114.2774 0104302 339.4305  20.2693 14.32603352149021
CZ-6A DEB
1 58434U 22151AJC 26075.37965612  .00000210  00000-0  89112-4 0  9992
2 58434  98.7209 116.8079 0104248 332.1050  27.4568 14.32603932149386
CZ-6A DEB
1 58434U 22151AJC 26082.36386292  .00000182  00000-0  79474-4 0  9998
2 58434  98.7196 123.8363 0103974 311.3684  47.8592 14.32606873150384
CZ-6A DEB
1 58434U 22151AJC 26082.85275757  .00000168  00000-0  74796-4 0  9991
2 58434  98.7194 124.3281 0103898 309.9229  49.2858 14.32607034150459
CZ-6A DEB
1 58434U 22151AJC 26085.36707325  .00000170  00000-0  75174-4 0  9995
2 58434  98.7187 126.8579 0103817 302.4556  56.6622 14.32608308150816
CZ-6A DEB
1 58434U 22151AJC 26085.36707325  .00000170  00000-0  75174-4 0  9995
2 58434  98.7187 126.8579 0103817 302.4556  56.6622 14.32608308150816
CZ-6A DEB
1 58434U 22151AJC 26092.84018471  .00000289  00000-0  11677-3 0  9991
2 58434  98.7181 134.3778 0103737 280.2279  78.7219 14.32612806151884
CZ-6A DEB
1 58434U 22151AJC 26092.84018472  .00000289  00000-0  11677-3 0  9992
2 58434  98.7181 134.3778 0103737 280.2279  78.7219 14.32612806151884
CZ-6A DEB
1 58434U 22151AJC 26095.84339970  .00000246  00000-0  10177-3 0  9991
2 58434  98.7175 137.3993 0103757 271.2924  87.6375 14.32614625152310
CZ-6A DEB
1 58434U 22151AJC 26095.84339971  .00000246  00000-0  10177-3 0  9992
2 58434  98.7175 137.3993 0103757 271.2924  87.6375 14.32614625152310
CZ-6A DEB
1 58434U 22151AJC 26097.37992949  .00000208  00000-0  88628-4 0  9997
2 58434  98.7173 138.9447 0103682 266.7426  92.1892 14.32615384152534
CZ-6A DEB
1 58434U 22151AJC 26100.38314818  .00000169  00000-0  75079-4 0  9998
2 58434  98.7159 141.9649 0103701 257.8312 101.1240 14.32616791152961
CZ-6A DEB
1 58434U 22151AJC 26100.38314819  .00000169  00000-0  75079-4 0  9999
2 58434  98.7159 141.9649 0103701 257.8312 101.1240 14.32616791152961
CZ-6A DEB
1 58434U 22151AJC 26101.36094100  .00000132  00000-0  62197-4 0  9993
2 58434  98.7160 142.9487 0103717 254.9210 104.0479 14.32616987153106
CZ-6A DEB
1 58434U 22151AJC 26101.84983752  .00000127  00000-0  60204-4 0  9997
2 58434  98.7159 143.4405 0103747 253.4644 105.5122 14.32617136153173
CZ-6A DEB
1 58434U 22151AJC 26101.84983753  .00000127  00000-0  60204-4 0  9998
2 58434  98.7159 143.4405 0103747 253.4644 105.5122 14.32617136153173
CZ-6A DEB
1 58434U 22151AJC 26104.85306125  .00000093  00000-0  48443-4 0  9997
2 58434  98.7144 146.4607 0103829 244.5285 114.5128 14.32617982153600
CZ-6A DEB
1 58434U 22151AJC 26104.85306125  .00000093  00000-0  48443-4 0  9997
2 58434  98.7144 146.4607 0103829 244.5285 114.5128 14.32617982153600
CZ-6A DEB
1 58434U 22151AJC 26110.37061992  .00000088  00000-0  46797-4 0  9995
2 58434  98.7143 152.0104 0104075 228.1622 131.0641 14.32619534154397
CZ-6A DEB
1 58434U 22151AJC 26110.37061993  .00000088  00000-0  46797-4 0  9996
2 58434  98.7143 152.0104 0104075 228.1622 131.0641 14.32619534154397
CZ-6A DEB
1 58434U 22151AJC 26110.85951793  .00000101  00000-0  51065-4 0  9995
2 58434  98.7139 152.5019 0104079 226.7071 132.5397 14.32619769154460
CZ-6A DEB
1 58434U 22151AJC 26111.83731410  .00000098  00000-0  50307-4 0  9999
2 58434  98.7141 153.4859 0104102 223.8133 135.4757 14.32620075154609
CZ-6A DEB
1 58434U 22151AJC 26111.83731410  .00000098  00000-0  50307-4 0  9999
2 58434  98.7141 153.4859 0104102 223.8133 135.4757 14.32620075154609
CZ-6A DEB
1 58434U 22151AJC 26111.83731410  .00000098  00000-0  50307-4 0  9999
2 58434  98.7141 153.4859 0104102 223.8133 135.4757 14.32620075154609
CZ-6A DEB
1 58434U 22151AJC 26123.85024381  .00000183  00000-0  79337-4 0  9995
2 58434  98.7120 165.5654 0104775 188.3331 171.6117 14.32625535156323
CZ-6A DEB
1 58434U 22151AJC 26123.85024381  .00000183  00000-0  79337-4 0  9995
2 58434  98.7120 165.5654 0104775 188.3331 171.6117 14.32625535156323
CZ-6A DEB
1 58434U 22151AJC 26126.36457503  .00000156  00000-0  70050-4 0  9993
2 58434  98.7104 168.0910 0105022 180.9865 179.1127 14.32626608156689
CZ-6A DEB
1 58434U 22151AJC 26126.36457504  .00000156  00000-0  70050-4 0  9994
2 58434  98.7104 168.0910 0105022 180.9865 179.1127 14.32626608156689
CZ-6A DEB
1 58434U 22151AJC 26128.39000691  .00000143  00000-0  65428-4 0  9999
2 58434  98.7114 170.1300 0105004 174.9583 185.2684 14.32627818156979
CZ-6A DEB
1 58434U 22151AJC 26128.39000692  .00000143  00000-0  65428-4 0  9990
2 58434  98.7114 170.1300 0105004 174.9583 185.2684 14.32627819156970
CZ-6A DEB
1 58434U 22151AJC 26131.39323227  .00000092  00000-0  47478-4 0  9994
2 58434  98.7108 173.1487 0105177 166.1889 194.2211 14.32628481157406
CZ-6A DEB
1 58434U 22151AJC 26131.39323227  .00000092  00000-0  47478-4 0  9994
2 58434  98.7108 173.1487 0105177 166.1889 194.2211 14.32628481157406
CZ-6A DEB
1 58434U 22151AJC 26132.37102564  .00000077  00000-0  42474-4 0  9996
2 58434  98.7120 174.1329 0105269 163.2787 197.1911 14.32628692157541
CZ-6A DEB
1 58434U 22151AJC 26132.85992230  .00000104  00000-0  51871-4 0  9998
2 58434  98.7114 174.6240 0105284 161.8779 198.6203 14.32629018157614
CZ-6A DEB
1 58434U 22151AJC 26132.85992230  .00000104  00000-0  51871-4 0  9998
2 58434  98.7114 174.6240 0105284 161.8779 198.6203 14.32629018157614
CZ-6A DEB
1 58434U 22151AJC 26132.85992231  .00000104  00000-0  51871-4 0  9999
2 58434  98.7114 174.6240 0105284 161.8779 198.6203 14.32629018157614
CZ-6A DEB
1 58434U 22151AJC 26139.35525301  .00000117  00000-0  56227-4 0  9995
2 58434  98.7108 181.1540 0105621 142.8755 217.9793 14.32631038158548
CZ-6A DEB
1 58434U 22151AJC 26139.35525301  .00000117  00000-0  56227-4 0  9995
2 58434  98.7108 181.1540 0105621 142.8755 217.9794 14.32631038158549
CZ-6A DEB
1 58434U 22151AJC 26142.84735582  .00000141  00000-0  64446-4 0  9996
2 58434  98.7102 184.6642 0105778 132.7093 228.3058 14.32632442159045
CZ-6A DEB
1 58434U 22151AJC 26145.85055672  .00000198  00000-0  84104-4 0  9990
2 58434  98.7099 187.6829 0105864 123.9698 237.1601 14.32634026159478
CZ-6A DEB
1 58434U 22151AJC 26158.35215669  .00000256  00000-0  10422-3 0  9999
2 58434  98.7086 200.2474 0105996  87.5965 273.7349 14.32642194161260
CZ-6A DEB
1 58434U 22151AJC 26158.35215670  .00000256  00000-0  10422-3 0  9991
2 58434  98.7086 200.2474 0105996  87.5965 273.7349 14.32642195161261
CZ-6A DEB
1 58434U 22151AJC 26160.37754058  .00000194  00000-0  82738-4 0  9995
2 58434  98.7085 202.2833 0106009  81.6724 279.6463 14.32642991161553
CZ-6A DEB
1 58434U 22151AJC 26160.37754058  .00000194  00000-0  82738-4 0  9995
2 58434  98.7085 202.2833 0106009  81.6724 279.6463 14.32642991161553
CZ-6A DEB
1 58434U 22151AJC 26164.84733970  .00000217  00000-0  90798-4 0  9992
2 58434  98.7082 206.7750 0105868  68.6782 292.5663 14.32645352162199
CZ-6A DEB
1 58434U 22151AJC 26164.84733971  .00000217  00000-0  90798-4 0  9993
2 58434  98.7082 206.7750 0105868  68.6782 292.5663 14.32645352162199
CZ-6A DEB
1 58434U 22151AJC 26167.85047553  .00000173  00000-0  75395-4 0  9998
2 58434  98.7095 209.7952 0105704  59.9460 301.2157 14.32646581162624
CZ-6A DEB
1 58434U 22151AJC 26167.85047554  .00000173  00000-0  75395-4 0  9999
2 58434  98.7095 209.7952 0105704  59.9460 301.2157 14.32646581162624
CZ-6A DEB
1 58434U 22151AJC 26167.85047568  .00000168  00000-0  73642-4 0  9991
2 58434  98.7094 209.7950 0105726  59.9423 301.2196 14.32646526162626
CZ-6A DEB
1 58434U 22151AJC 26173.36784733  .00000110  00000-0  54010-4 0  9991
2 58434  98.7075 215.3378 0105525  43.8322 317.1175 14.32648465163414
CZ-6A DEB
1 58434U 22151AJC 26174.83448683  .00000125  00000-0  59116-4 0  9993
2 58434  98.7079 216.8125 0105496  39.5483 321.3338 14.32649086163622
CZ-6A DEB
1 58434U 22151AJC 26176.37096472  .00000171  00000-0  74889-4 0  9994
2 58434  98.7078 218.3566 0105427  35.0560 325.7504 14.32649915163846
CZ-6A DEB
1 58434U 22151AJC 26176.37096473  .00000171  00000-0  74889-4 0  9995
2 58434  98.7078 218.3566 0105427  35.0560 325.7504 14.32649915163846
CZ-6A DEB
1 58434U 22151AJC 26178.39631964  .00000181  00000-0  78343-4 0  9999
2 58434  98.7080 220.3920 0105328  29.1286 331.5717 14.32650814164139
CZ-6A DEB
1 58434U 22151AJC 26178.39631965  .00000181  00000-0  78343-4 0  9990
2 58434  98.7080 220.3920 0105328  29.1286 331.5717 14.32650814164139
CZ-6A DEB
1 58434U 22151AJC 26189.36113457  .00000114  00000-0  55412-4 0  9998
2 58434  98.7075 231.4113 0104703 356.9395   3.1136 14.32655632165702
CZ-6A DEB
1 58434U 22151AJC 26189.36113458  .00000114  00000-0  55412-4 0  9999
2 58434  98.7075 231.4113 0104703 356.9395   3.1136 14.32655632165702
CZ-6A DEB
1 58434U 22151AJC 26189.36113458  .00000114  00000-0  55412-4 0  9999
2 58434  98.7075 231.4113 0104703 356.9395   3.1136 14.32655632165702
CZ-6A DEB
1 58434U 22151AJC 26215.83031587  .00000105  00000-0  52894-4 0  9994
2 58434  98.7059 258.0090 0103571 278.4385  80.5070 14.32663638169493
CZ-6A DEB
1 58434U 22151AJC 26217.36679106  .00000081  00000-0  44308-4 0  9993
2 58434  98.7056 259.5523 0103588 273.9056  85.0290 14.32663958169714
CZ-6A DEB
1 58434U 22151AJC 26223.86190243  .00000060  00000-0  37081-4 0  9992
2 58434  98.7052 266.0778 0103654 254.5767 104.3947 14.32665466170647
CZ-6A DEB
1 58434U 22151AJC 26223.86190244  .00000060  00000-0  37081-4 0  9993
2 58434  98.7052 266.0778 0103654 254.5767 104.3947 14.32665466170647
CZ-6A DEB
1 58434U 22151AJC 26226.37614428  .00000057  00000-0  36011-4 0  9995
2 58434  98.7049 268.6037 0103730 247.0999 111.9208 14.32666001171009
CZ-6A DEB
1 58434U 22151AJC 26226.37614429  .00000057  00000-0  36011-4 0  9996
2 58434  98.7049 268.6037 0103730 247.1000 111.9208 14.32666001171003
CZ-6A DEB
1 58434U 22151AJC 26236.85217619  .00000139  00000-0  64064-4 0  9990
2 58434  98.7039 279.1275 0104162 216.0145 143.3990 14.32669195172508
CZ-6A DEB
1 58434U 22151AJC 26242.36956103  .00000138  00000-0  63658-4 0  9998
2 58434  98.7030 284.6693 0104408 199.6897 160.0242 14.32671177173293
CZ-6A DEB
1 58434U 22151AJC 26242.36956104  .00000138  00000-0  63658-4 0  9999
2 58434  98.7030 284.6693 0104408 199.6897 160.0242 14.32671178173294
