TBA - TO BE ASSIGNED
1 58430U 22151AHY 23328.46383907  .00005862  00000-0  38578-2 0  9993
2 58430  98.8614 325.4674 0101802 117.2370 243.9211 13.99678857 30976
CZ-6A DEB
1 58430U 22151AHY 23330.96575750  .00000092  00000-0  82481-4 0  9994
2 58430  98.9992 328.1011 0084406 119.6728 241.2876 14.04379552 31329
CZ-6A DEB
1 58430U 22151AHY 23330.96575750  .00000092  00000-0  82481-4 0  9994
2 58430  98.9992 328.1011 0084406 119.6728 241.2876 14.04379552 31329
TBA - TO BE ASSIGNED
1 58430U 22151AHY 23330.96576746  .00005502  00000-0  36299-2 0  9995
2 58430  98.8539 327.8812 0098751 109.1625 252.0275 13.99707509 31321
CZ-6A DEB
1 58430U 22151AHY 23330.96576746  .00005502  00000-0  36299-2 0  9995
2 58430  98.8539 327.8812 0098751 109.1625 252.0275 13.99707509 31321
CZ-6A DEB
1 58430U 22151AHY 24339.94140925  .00010988  00000-0  63382-2 0  9996
2 58430  98.8819 332.4281 0093094 148.8624 211.8107 14.07042216 83813
CZ-6A DEB
1 58430U 22151AHY 24339.94140925  .00010988  00000-0  63382-2 0  9996
2 58430  98.8819 332.4281 0093094 148.8624 211.8107 14.07042216    14
CZ-6A DEB
1 58430U 22151AHY 24345.91449353  .00008087  00000-0  46603-2 0  9991
2 58430  98.8774 338.2943 0093978 131.8210 229.1033 14.07152649 84651
CZ-6A DEB
1 58430U 22151AHY 24345.91449353  .00008087  00000-0  46603-2 0  9991
2 58430  98.8774 338.2943 0093978 131.8210 229.1033 14.07152649   851
CZ-6A DEB
1 58430U 22151AHY 24346.41222966  .00007850  00000-0  45238-2 0  9996
2 58430  98.8822 338.7848 0093917 130.5117 230.4281 14.07160799   922
CZ-6A DEB
1 58430U 22151AHY 24346.90996229  .00007392  00000-0  42619-2 0  9991
2 58430  98.8787 339.2725 0093727 129.0067 231.9495 14.07168935   998
CZ-6A DEB
1 58430U 22151AHY 24346.90996229  .00007392  00000-0  42619-2 0  9991
2 58430  98.8787 339.2725 0093727 129.0067 231.9495 14.07168935 84798
CZ-6A DEB
1 58430U 22151AHY 24352.45594919  .00008023  00000-0  46147-2 0  9990
2 58430  98.8826 344.7229 0094029 112.9976 248.1145 14.07252215 85572
CZ-6A DEB
1 58430U 22151AHY 24352.45594919  .00008023  00000-0  46147-2 0  9990
2 58430  98.8826 344.7229 0094029 112.9976 248.1145 14.07252215  1772
CZ-6A DEB
1 58430U 22151AHY 24353.94903321  .00008040  00000-0  46235-2 0  9993
2 58430  98.8833 346.1919 0093685 109.1716 251.9622 14.07278600 85780
CZ-6A DEB
1 58430U 22151AHY 24355.93977618  .00007869  00000-0  45227-2 0  9992
2 58430  98.8864 348.1507 0093934 103.7593 257.4053 14.07308461 86069
CZ-6A DEB
1 58430U 22151AHY 24355.93977618  .00007869  00000-0  45227-2 0  9992
2 58430  98.8864 348.1507 0093934 103.7593 257.4053 14.07308461  2269
CZ-6A DEB
1 58430U 22151AHY 24356.93513069  .00009259  00000-0  53153-2 0  9991
2 58430  98.8814 349.1257 0093693 100.9385 260.2342 14.07326805  2408
CZ-6A DEB
1 58430U 22151AHY 24357.43280249  .00009001  00000-0  51670-2 0  9995
2 58430  98.8816 349.6150 0093725  99.5685 261.6089 14.07335631 86276
CZ-6A DEB
1 58430U 22151AHY 24357.43280249  .00009001  00000-0  51670-2 0  9995
2 58430  98.8816 349.6150 0093725  99.5685 261.6089 14.07335631  2476
CZ-6A DEB
1 58430U 22151AHY 24365.46606458  .00014484  00000-0  82625-2 0  9996
2 58430  98.8824 357.5122 0093807  77.1850 283.9781 14.07534120 87405
CZ-6A DEB
1 58430U 22151AHY 24365.46606458  .00014484  00000-0  82625-2 0  9996
2 58430  98.8824 357.5122 0093807  77.1850 283.9781 14.07534120  3605
CZ-6A DEB
1 58430U 22151AHY 25001.95397657  .00070289  00000-0  39585-1 0  9997
2 58430  98.8843 359.9599 0093888  70.2872 290.8396 14.07685342  3957
CZ-6A DEB
1 58430U 22151AHY 25001.95397657  .00070289  00000-0  39585-1 0  9997
2 58430  98.8843 359.9599 0093888  70.2872 290.8396 14.07685342 87757
CZ-6A DEB
1 58430U 22151AHY 25002.45153896  .00025990  00000-0  14744-1 0  9997
2 58430  98.8813   0.4466 0094245  68.7975 292.3231 14.07657771  4028
CZ-6A DEB
1 58430U 22151AHY 25002.94909075  .00015060  00000-0  85668-2 0  9990
2 58430  98.8900   0.9360 0093994  67.2826 293.8245 14.07665859 87895
CZ-6A DEB
1 58430U 22151AHY 25003.44663765  .00012612  00000-0  71781-2 0  9990
2 58430  98.8855   1.4250 0094134  66.0596 295.0398 14.07681005  4169
CZ-6A DEB
1 58430U 22151AHY 25003.94417993  .00010441  00000-0  59465-2 0  9998
2 58430  98.8839   1.9159 0094184  64.6690 296.4198 14.07692913  4239
CZ-6A DEB
1 58430U 22151AHY 25004.44171776  .00011463  00000-0  65240-2 0  9993
2 58430  98.8834   2.4050 0094114  63.3294 297.7475 14.07706720 88101
CZ-6A DEB
1 58430U 22151AHY 25004.44171776  .00011463  00000-0  65240-2 0  9993
2 58430  98.8834   2.4050 0094114  63.3294 297.7475 14.07706720  4301
CZ-6A DEB
1 58430U 22151AHY 25007.42683539  .00009668  00000-0  55016-2 0  9993
2 58430  98.8834   5.3412 0093758  55.0465 305.9466 14.07786305 88521
CZ-6A DEB
1 58430U 22151AHY 25007.42683539  .00009668  00000-0  55016-2 0  9993
2 58430  98.8834   5.3412 0093758  55.0465 305.9466 14.07786305  4721
CZ-6A DEB
1 58430U 22151AHY 25013.46775136  .00008358  00000-0  47465-2 0  9993
2 58430  98.8917  11.2867 0094754  38.0372 322.7439 14.07893339 89375
CZ-6A DEB
1 58430U 22151AHY 25013.46775136  .00008358  00000-0  47465-2 0  9993
2 58430  98.8917  11.2867 0094754  38.0372 322.7439 14.07893339  5575
CZ-6A DEB
1 58430U 22151AHY 25013.96521932  .00007586  00000-0  43096-2 0  9999
2 58430  98.8905  11.7751 0094886  36.8752 323.8893 14.07901856  5641
CZ-6A DEB
1 58430U 22151AHY 25014.46268286  .00007976  00000-0  45293-2 0  9999
2 58430  98.8898  12.2647 0094856  35.4788 325.2641 14.07910148  5712
CZ-6A DEB
1 58430U 22151AHY 25015.45760061  .00008233  00000-0  46723-2 0  9993
2 58430  98.8895  13.2442 0094917  32.7752 327.9258 14.07927533 89656
CZ-6A DEB
1 58430U 22151AHY 25015.45760061  .00008233  00000-0  46723-2 0  9993
2 58430  98.8895  13.2442 0094917  32.7752 327.9258 14.07927533  5856
CZ-6A DEB
1 58430U 22151AHY 25015.95505323  .00008076  00000-0  45845-2 0  9995
2 58430  98.8880  13.7333 0094539  31.4187 329.2582 14.07937096  5920
CZ-6A DEB
1 58430U 22151AHY 25016.45250344  .00007987  00000-0  45341-2 0  9992
2 58430  98.8864  14.2223 0094511  30.0960 330.5594 14.07946497  5990
CZ-6A DEB
1 58430U 22151AHY 25016.94994902  .00009582  00000-0  54324-2 0  9995
2 58430  98.8860  14.7119 0094354  28.7048 331.9269 14.07959136  6068
CZ-6A DEB
1 58430U 22151AHY 25016.94994902  .00009582  00000-0  54324-2 0  9995
2 58430  98.8860  14.7119 0094354  28.7048 331.9269 14.07959136 89867
CZ-6A DEB
1 58430U 22151AHY 25017.44739148  .00009753  00000-0  55283-2 0  9995
2 58430  98.8848  15.2012 0094267  27.3723 333.2368 14.07969776  6134
CZ-6A DEB
1 58430U 22151AHY 25018.44226308  .00011931  00000-0  67530-2 0  9994
2 58430  98.8842  16.1800 0094110  24.5851 335.9763 14.07995830 90075
CZ-6A DEB
1 58430U 22151AHY 25018.44226308  .00011931  00000-0  67530-2 0  9994
2 58430  98.8842  16.1800 0094110  24.5851 335.9763 14.07995830  6274
CZ-6A DEB
1 58430U 22151AHY 25018.93969305  .00011521  00000-0  65209-2 0  9995
2 58430  98.8844  16.6696 0094107  23.2068 337.3309 14.08007101  6342
CZ-6A DEB
1 58430U 22151AHY 25019.43711856  .00011089  00000-0  62763-2 0  9998
2 58430  98.8840  17.1589 0094071  21.8296 338.6842 14.08018167  6410
CZ-6A DEB
1 58430U 22151AHY 25020.92936506  .00015510  00000-0  87573-2 0  9994
2 58430  98.8836  18.6272 0093972  17.6910 342.7495 14.08064112  6629
CZ-6A DEB
1 58430U 22151AHY 25020.92936506  .00015510  00000-0  87573-2 0  9994
2 58430  98.8836  18.6272 0093972  17.6910 342.7495 14.08064112 90420
CZ-6A DEB
1 58430U 22151AHY 25021.92416946  .00014223  00000-0  80300-2 0  9997
2 58430  98.8834  19.6061 0093895  14.9217 345.4689 14.08092683  6762
CZ-6A DEB
1 58430U 22151AHY 25021.92416946  .00014223  00000-0  80300-2 0  9997
2 58430  98.8834  19.6061 0093895  14.9217 345.4689 14.08092683 90563
CZ-6A DEB
1 58430U 22151AHY 25022.91895385  .00014395  00000-0  81230-2 0  9998
2 58430  98.8842  20.5861 0093848  12.2183 348.1231 14.08120461 27257
CZ-6A DEB
1 58430U 22151AHY 25025.97423164  .00012248  00000-0  69054-2 0  9994
2 58430  98.8818  23.5916 0093911   3.7803 356.4056 14.08209226 91131
CZ-6A DEB
1 58430U 22151AHY 25026.47158611  .00011967  00000-0  67463-2 0  9991
2 58430  98.8866  24.0849 0093960   2.5239 357.6386 14.08221138  7401
CZ-6A DEB
1 58430U 22151AHY 25027.46628210  .00010559  00000-0  59538-2 0  9998
2 58430  98.8856  25.0639 0093959 359.8137   0.2983 14.08242535 91345
CZ-6A DEB
1 58430U 22151AHY 25027.46628210  .00010559  00000-0  59538-2 0  9998
2 58430  98.8856  25.0639 0093959 359.8137   0.2983 14.08242535  7544
CZ-6A DEB
1 58430U 22151AHY 25028.46096012  .00011832  00000-0  66645-2 0  9990
2 58430  98.8859  26.0436 0093920 357.1257   2.9362 14.08268827  7682
CZ-6A DEB
1 58430U 22151AHY 25028.46096012  .00011832  00000-0  66645-2 0  9990
2 58430  98.8859  26.0436 0093920 357.1257   2.9362 14.08268827 91483
CZ-6A DEB
1 58430U 22151AHY 25029.45561848  .00013944  00000-0  78444-2 0  9990
2 58430  98.8854  27.0226 0093725 354.3638   5.6469 14.08298627  7825
CZ-6A DEB
1 58430U 22151AHY 25029.95293966  .00012195  00000-0  68652-2 0  9995
2 58430  98.8848  27.5120 0093502 352.8652   7.1181 14.08310636  7898
CZ-6A DEB
1 58430U 22151AHY 25029.95293966  .00012195  00000-0  68652-2 0  9995
2 58430  98.8848  27.5120 0093502 352.8652   7.1181 14.08310636 91699
CZ-6A DEB
1 58430U 22151AHY 25030.45025753  .00011511  00000-0  64808-2 0  9999
2 58430  98.8852  28.0018 0093470 351.4741   8.4837 14.08322491  7965
CZ-6A DEB
1 58430U 22151AHY 25031.44488172  .00011898  00000-0  66953-2 0  9998
2 58430  98.8861  28.9817 0093396 348.6954  11.2117 14.08345668 91903
CZ-6A DEB
1 58430U 22151AHY 25031.44488172  .00011898  00000-0  66953-2 0  9998
2 58430  98.8861  28.9817 0093396 348.6954  11.2117 14.08345668  8103
CZ-6A DEB
1 58430U 22151AHY 25031.94218800  .00011504  00000-0  64736-2 0  9993
2 58430  98.8858  29.4714 0093334 347.3324  12.5501 14.08356488  8170
CZ-6A DEB
1 58430U 22151AHY 25032.93678584  .00015131  00000-0  84987-2 0  9992
2 58430  98.8856  30.4508 0093193 344.5292  15.3033 14.08386368  8314
CZ-6A DEB
1 58430U 22151AHY 25032.93678584  .00015131  00000-0  84987-2 0  9992
2 58430  98.8856  30.4508 0093193 344.5292  15.3033 14.08386368 92115
CZ-6A DEB
1 58430U 22151AHY 25033.93136371  .00014001  00000-0  78639-2 0  9998
2 58430  98.8867  31.4312 0093113 341.7516  18.0320 14.08414024  8455
CZ-6A DEB
1 58430U 22151AHY 25034.42864540  .00012489  00000-0  70177-2 0  9996
2 58430  98.8852  31.9202 0093019 340.4151  19.3454 14.08426061 92323
CZ-6A DEB
1 58430U 22151AHY 25034.42864540  .00012489  00000-0  70177-2 0  9996
2 58430  98.8852  31.9202 0093019 340.4151  19.3454 14.08426061  8522
CZ-6A DEB
1 58430U 22151AHY 25035.42319590  .00011949  00000-0  67135-2 0  9997
2 58430  98.8850  32.8999 0092936 337.6714  22.0422 14.08450738  8662
CZ-6A DEB
1 58430U 22151AHY 25035.42319590  .00011949  00000-0  67135-2 0  9997
2 58430  98.8850  32.8999 0092936 337.6714  22.0422 14.08450738 92463
CZ-6A DEB
1 58430U 22151AHY 25041.46120569  .00013675  00000-0  76631-2 0  9993
2 58430  98.8845  38.8477 0092190 321.0608  38.3946 14.08585203 93317
CZ-6A DEB
1 58430U 22151AHY 25041.46120569  .00013675  00000-0  76631-2 0  9993
2 58430  98.8845  38.8477 0092190 321.0608  38.3946 14.08585203  9516
CZ-6A DEB
1 58430U 22151AHY 25042.45565002  .00010170  00000-0  57073-2 0  9994
2 58430  98.8863  39.8275 0092064 318.2390  41.1778 14.08602184 93458
CZ-6A DEB
1 58430U 22151AHY 25042.45565002  .00010170  00000-0  57073-2 0  9994
2 58430  98.8863  39.8275 0092064 318.2390  41.1778 14.08602184  9657
CZ-6A DEB
1 58430U 22151AHY 25042.95286663  .00008823  00000-0  49557-2 0  9992
2 58430  98.8832  40.3180 0091869 316.7351  42.6629 14.08610196  9728
CZ-6A DEB
1 58430U 22151AHY 25043.45008194  .00008561  00000-0  48082-2 0  9990
2 58430  98.8839  40.8089 0091960 315.3830  43.9964 14.08617951  9796
CZ-6A DEB
1 58430U 22151AHY 25044.44450275  .00008518  00000-0  47834-2 0  9997
2 58430  98.8824  41.7884 0091758 312.5738  46.7714 14.08634869 93732
CZ-6A DEB
1 58430U 22151AHY 25044.44450275  .00008518  00000-0  47834-2 0  9997
2 58430  98.8824  41.7884 0091758 312.5738  46.7714 14.08634869  9931
CZ-6A DEB
1 58430U 22151AHY 25044.94170912  .00009084  00000-0  50991-2 0  9996
2 58430  98.8834  42.2784 0091651 311.2177  48.1119 14.08643840 10006
CZ-6A DEB
1 58430U 22151AHY 25045.93611064  .00010412  00000-0  58374-2 0  9994
2 58430  98.8851  43.2592 0091609 308.3997  50.8972 14.08664907 10142
CZ-6A DEB
1 58430U 22151AHY 25045.93611064  .00010412  00000-0  58374-2 0  9994
2 58430  98.8851  43.2592 0091609 308.3997  50.8972 14.08664907 93941
CZ-6A DEB
1 58430U 22151AHY 25046.43330561  .00011313  00000-0  63380-2 0  9994
2 58430  98.8861  43.7496 0091641 306.9707  52.3099 14.08676791 10219
CZ-6A DEB
1 58430U 22151AHY 25046.43330561  .00011313  00000-0  63380-2 0  9994
2 58430  98.8861  43.7496 0091641 306.9707  52.3099 14.08676791 94019
CZ-6A DEB
1 58430U 22151AHY 25054.95601285  .00010176  00000-0  56899-2 0  9997
2 58430  98.8878  52.1529 0090225 283.0462  76.0648 14.08877393 11415
CZ-6A DEB
1 58430U 22151AHY 25054.95601285  .00010176  00000-0  56899-2 0  9997
2 58430  98.8878  52.1529 0090225 283.0462  76.0648 14.08877393 95215
CZ-6A DEB
1 58430U 22151AHY 25055.95025085  .00013943  00000-0  77774-2 0  9996
2 58430  98.8877  53.1338 0090437 280.0377  79.0598 14.08906246 11552
CZ-6A DEB
1 58430U 22151AHY 25055.95025085  .00013943  00000-0  77774-2 0  9996
2 58430  98.8877  53.1338 0090437 280.0377  79.0598 14.08906246 95352
CZ-6A DEB
1 58430U 22151AHY 25056.44736286  .00013578  00000-0  75743-2 0  9991
2 58430  98.8862  53.6222 0090260 278.6323  80.4629 14.08919434 11623
CZ-6A DEB
1 58430U 22151AHY 25057.93867181  .00012909  00000-0  71981-2 0  9992
2 58430  98.8858  55.0931 0090171 274.2888  84.7982 14.08958173 11835
CZ-6A DEB
1 58430U 22151AHY 25057.93867181  .00012909  00000-0  71981-2 0  9992
2 58430  98.8858  55.0931 0090171 274.2888  84.7982 14.08958173 95635
CZ-6A DEB
1 58430U 22151AHY 25062.90944929  .00007182  00000-0  40135-2 0  9995
2 58430  98.8907  59.9991 0089555 260.0291  99.0763 14.09056410 12532
CZ-6A DEB
1 58430U 22151AHY 25062.90944929  .00007182  00000-0  40135-2 0  9995
2 58430  98.8907  59.9991 0089555 260.0291  99.0763 14.09056410 96332
CZ-6A DEB
1 58430U 22151AHY 25063.97457889  .00007497  00000-0  41873-2 0  9996
2 58430  98.8894  61.0481 0089524 256.9716 102.1448 14.09072822 96484
CZ-6A DEB
1 58430U 22151AHY 25066.24682008  .00006222  00000-0  34814-2 0  9994
2 58430  98.8865  63.2894 0088274 250.0877 109.0766 14.09103133 96803
CZ-6A DEB
1 58430U 22151AHY 25066.24682008  .00006222  00000-0  34814-2 0  9994
2 58430  98.8865  63.2894 0088274 250.0877 109.0766 14.09103133 13004
CZ-6A DEB
1 58430U 22151AHY 25066.74386712  .00006749  00000-0  37696-2 0  9997
2 58430  98.8861  63.7793 0089640 249.0838 110.0720 14.09109061 13071
CZ-6A DEB
1 58430U 22151AHY 25066.74386712  .00006749  00000-0  37696-2 0  9997
2 58430  98.8861  63.7793 0089640 249.0838 110.0720 14.09109061 96870
CZ-6A DEB
1 58430U 22151AHY 25072.21121678  .00010527  00000-0  58546-2 0  9990
2 58430  98.8854  69.1720 0089265 233.0753 126.2216 14.09195802 97647
CZ-6A DEB
1 58430U 22151AHY 25072.21121678  .00010527  00000-0  58546-2 0  9990
2 58430  98.8854  69.1720 0089265 233.0753 126.2216 14.09195802 13847
CZ-6A DEB
1 58430U 22151AHY 25077.96215903  .00011689  00000-0  64832-2 0  9997
2 58430  98.8894  74.8505 0088996 216.1072 143.4067 14.09322880 14654
CZ-6A DEB
1 58430U 22151AHY 25077.96215903  .00011689  00000-0  64832-2 0  9997
2 58430  98.8894  74.8505 0088996 216.1072 143.4067 14.09322880 98454
CZ-6A DEB
1 58430U 22151AHY 25078.95609503  .00012359  00000-0  68500-2 0  9991
2 58430  98.8915  75.8341 0088953 213.3887 146.1654 14.09348948 14793
CZ-6A DEB
1 58430U 22151AHY 25078.95609503  .00012359  00000-0  68500-2 0  9991
2 58430  98.8915  75.8341 0088953 213.3887 146.1654 14.09348948 98593
CZ-6A DEB
1 58430U 22151AHY 25090.74009440  .00007008  00000-0  38755-2 0  9990
2 58430  98.8901  87.4719 0090119 180.3924 179.7190 14.09595460100255
CZ-6A DEB
1 58430U 22151AHY 25090.74009440  .00007008  00000-0  38755-2 0  9990
2 58430  98.8901  87.4719 0090119 180.3924 179.7190 14.09595460 16453
CZ-6A DEB
1 58430U 22151AHY 25102.94825667  .00008327  00000-0  45772-2 0  9995
2 58430  98.8853  99.5231 0091574 145.3076 215.4113 14.09790470 18179
CZ-6A DEB
1 58430U 22151AHY 25102.94825667  .00008327  00000-0  45772-2 0  9995
2 58430  98.8853  99.5231 0091574 145.3076 215.4113 14.09790470101970
CZ-6A DEB
1 58430U 22151AHY 25104.43866686  .00007374  00000-0  40531-2 0  9996
2 58430  98.8894 101.0023 0092072 141.0780 219.7067 14.09813454102189
CZ-6A DEB
1 58430U 22151AHY 25104.43866686  .00007374  00000-0  40531-2 0  9996
2 58430  98.8894 101.0023 0092072 141.0780 219.7067 14.09813454 18387
CZ-6A DEB
1 58430U 22151AHY 25113.94830451  .00007255  00000-0  39735-2 0  9995
2 58430  98.8890 110.3984 0093090 114.8341 246.2545 14.09962130 19725
CZ-6A DEB
1 58430U 22151AHY 25113.94830451  .00007255  00000-0  39735-2 0  9995
2 58430  98.8890 110.3984 0093090 114.8341 246.2545 14.09962130103527
CZ-6A DEB
1 58430U 22151AHY 25117.92215244  .00009841  00000-0  53699-2 0  9992
2 58430  98.8882 114.3255 0093443 104.0763 257.0815 14.10038259 20283
CZ-6A DEB
1 58430U 22151AHY 25117.92215244  .00009841  00000-0  53699-2 0  9992
2 58430  98.8882 114.3255 0093443 104.0763 257.0815 14.10038259104084
CZ-6A DEB
1 58430U 22151AHY 25121.39909555  .00007428  00000-0  40542-2 0  9995
2 58430  98.8896 117.7632 0093882  94.6562 266.5339 14.10096787104573
CZ-6A DEB
1 58430U 22151AHY 25121.39909555  .00007428  00000-0  40542-2 0  9995
2 58430  98.8896 117.7632 0093882  94.6562 266.5339 14.10096787 20772
CZ-6A DEB
1 58430U 22151AHY 25124.94683744  .00006682  00000-0  36470-2 0  9994
2 58430  98.8887 121.2694 0093513  84.8715 276.3120 14.10155516 21271
CZ-6A DEB
1 58430U 22151AHY 25124.94683744  .00006682  00000-0  36470-2 0  9994
2 58430  98.8887 121.2694 0093513  84.8715 276.3120 14.10155516105072
CZ-6A DEB
1 58430U 22151AHY 25127.43017860  .00006357  00000-0  34694-2 0  9996
2 58430  98.8873 123.7263 0093342  78.1688 282.9933 14.10188252105428
CZ-6A DEB
1 58430U 22151AHY 25127.92684014  .00005844  00000-0  31915-2 0  9994
2 58430  98.8871 124.2169 0093333  76.7743 284.3818 14.10193411 21690
CZ-6A DEB
1 58430U 22151AHY 25127.92684014  .00005844  00000-0  31915-2 0  9994
2 58430  98.8871 124.2169 0093333  76.7743 284.3818 14.10193411105491
CZ-6A DEB
1 58430U 22151AHY 25132.96427939  .00005352  00000-0  29220-2 0  9995
2 58430  98.8888 129.1973 0093282  63.0380 298.0281 14.10253530 22409
CZ-6A DEB
1 58430U 22151AHY 25132.96427939  .00005352  00000-0  29220-2 0  9995
2 58430  98.8888 129.1973 0093282  63.0380 298.0281 14.10253530106200
CZ-6A DEB
1 58430U 22151AHY 25135.94407145  .00005055  00000-0  27602-2 0  9995
2 58430  98.8904 132.1449 0093056  54.9963 305.9898 14.10285312106627
CZ-6A DEB
1 58430U 22151AHY 25135.94407145  .00005055  00000-0  27602-2 0  9995
2 58430  98.8904 132.1449 0093056  54.9963 305.9898 14.10285312 22826
CZ-6A DEB
1 58430U 22151AHY 25136.93732031  .00005081  00000-0  27738-2 0  9999
2 58430  98.8900 133.1267 0092954  52.2759 308.6791 14.10295695 22963
CZ-6A DEB
1 58430U 22151AHY 25138.42717608  .00007244  00000-0  39428-2 0  9990
2 58430  98.8900 134.5997 0092728  48.1595 312.7445 14.10317440106978
CZ-6A DEB
1 58430U 22151AHY 25138.42717608  .00007244  00000-0  39428-2 0  9990
2 58430  98.8900 134.5997 0092728  48.1595 312.7445 14.10317440 23178
CZ-6A DEB
1 58430U 22151AHY 25147.43688035  .00004454  00000-0  24326-2 0  9993
2 58430  98.8881 143.5089 0091708  23.3969 337.1335 14.10406067108240
CZ-6A DEB
1 58430U 22151AHY 25147.43688035  .00004454  00000-0  24326-2 0  9993
2 58430  98.8881 143.5089 0091708  23.3969 337.1335 14.10406067 24449
CZ-6A DEB
1 58430U 22151AHY 25148.43004065  .00005551  00000-0  30252-2 0  9993
2 58430  98.8886 144.4906 0091536  20.6594 339.8240 14.10417835 24589
CZ-6A DEB
1 58430U 22151AHY 25148.43004065  .00005551  00000-0  30252-2 0  9993
2 58430  98.8886 144.4906 0091536  20.6594 339.8240 14.10417835108380
CZ-6A DEB
1 58430U 22151AHY 25157.43900370  .00003917  00000-0  21400-2 0  9996
2 58430  98.8889 153.4013 0090218 355.4494   4.5847 14.10528400109657
CZ-6A DEB
1 58430U 22151AHY 25157.43900370  .00003917  00000-0  21400-2 0  9996
2 58430  98.8889 153.4013 0090218 355.4494   4.5847 14.10528400 25856
CZ-6A DEB
1 58430U 22151AHY 25159.42514642  .00004878  00000-0  26589-2 0  9990
2 58430  98.8874 155.3642 0089888 349.8439  10.0912 14.10547321109936
CZ-6A DEB
1 58430U 22151AHY 25159.42514642  .00004878  00000-0  26589-2 0  9990
2 58430  98.8874 155.3642 0089888 349.8439  10.0912 14.10547321 26136
CZ-6A DEB
1 58430U 22151AHY 25165.95086689  .00004426  00000-0  24138-2 0  9997
2 58430  98.8874 161.8185 0088987 331.3454  28.2843 14.10608410 27055
CZ-6A DEB
1 58430U 22151AHY 25165.95086689  .00004426  00000-0  24138-2 0  9997
2 58430  98.8874 161.8185 0088987 331.3454  28.2843 14.10608410110856
CZ-6A DEB
1 58430U 22151AHY 25166.44737755  .00003856  00000-0  21064-2 0  9990
2 58430  98.8875 162.3096 0088918 329.9199  29.6881 14.10611567 27128
CZ-6A DEB
1 58430U 22151AHY 25166.94388642  .00003938  00000-0  21502-2 0  9990
2 58430  98.8867 162.8001 0088969 328.4555  31.1299 14.10616514 27191
CZ-6A DEB
1 58430U 22151AHY 25167.44039422  .00003521  00000-0  19257-2 0  9997
2 58430  98.8895 163.2935 0088565 327.1532  32.4152 14.10619994111063
CZ-6A DEB
1 58430U 22151AHY 25167.44039422  .00003521  00000-0  19257-2 0  9997
2 58430  98.8895 163.2935 0088565 327.1532  32.4152 14.10619994 27261
CZ-6A DEB
1 58430U 22151AHY 25168.43340519  .00003966  00000-0  21663-2 0  9996
2 58430  98.8890 164.2756 0088316 324.3025  35.2261 14.10629397 27404
CZ-6A DEB
1 58430U 22151AHY 25169.42641235  .00003929  00000-0  21460-2 0  9999
2 58430  98.8886 165.2576 0088207 321.4602  38.0292 14.10636508111342
CZ-6A DEB
1 58430U 22151AHY 25169.42641235  .00003929  00000-0  21460-2 0  9999
2 58430  98.8886 165.2576 0088207 321.4602  38.0292 14.10636508 27540
CZ-6A DEB
1 58430U 22151AHY 25175.45527879  .00002914  00000-0  15978-2 0  9996
2 58430  98.8869 171.2214 0087679 304.2108  55.0776 14.10677568112192
CZ-6A DEB
1 58430U 22151AHY 25175.45527879  .00002914  00000-0  15978-2 0  9996
2 58430  98.8869 171.2214 0087679 304.2108  55.0776 14.10677568 28390
CZ-6A DEB
1 58430U 22151AHY 25175.95176597  .00003045  00000-0  16684-2 0  9999
2 58430  98.8874 171.7129 0087440 302.7128  56.5635 14.10681115 28468
CZ-6A DEB
1 58430U 22151AHY 25176.94473979  .00003041  00000-0  16666-2 0  9999
2 58430  98.8875 172.6955 0087355 299.8352  59.4156 14.10686594 28608
CZ-6A DEB
1 58430U 22151AHY 25176.94473979  .00003041  00000-0  16666-2 0  9999
2 58430  98.8875 172.6955 0087355 299.8352  59.4156 14.10686594112400
CZ-6A DEB
1 58430U 22151AHY 25178.93067551  .00003126  00000-0  17123-2 0  9998
2 58430  98.8859 174.6587 0087247 294.0432  65.1626 14.10698705 28882
CZ-6A DEB
1 58430U 22151AHY 25178.93067551  .00003126  00000-0  17123-2 0  9998
2 58430  98.8859 174.6587 0087247 294.0432  65.1626 14.10698705112684
CZ-6A DEB
1 58430U 22151AHY 25185.45577227  .00003363  00000-0  18396-2 0  9995
2 58430  98.8882 181.1170 0086433 275.1284  84.0027 14.10743904113602
CZ-6A DEB
1 58430U 22151AHY 25185.45577227  .00003363  00000-0  18396-2 0  9995
2 58430  98.8882 181.1170 0086433 275.1284  84.0027 14.10743904 29800
CZ-6A DEB
1 58430U 22151AHY 25186.44870594  .00003451  00000-0  18872-2 0  9995
2 58430  98.8874 182.0985 0086239 272.2186  86.9112 14.10750845 29941
CZ-6A DEB
1 58430U 22151AHY 25186.94517063  .00003088  00000-0  16913-2 0  9999
2 58430  98.8870 182.5886 0086267 270.6901  88.4386 14.10753488 30016
CZ-6A DEB
1 58430U 22151AHY 25186.94517063  .00003088  00000-0  16913-2 0  9999
2 58430  98.8870 182.5886 0086267 270.6901  88.4386 14.10753488113816
CZ-6A DEB
1 58430U 22151AHY 25187.44163445  .00003179  00000-0  17403-2 0  9992
2 58430  98.8871 183.0800 0086255 269.2275  89.9012 14.10757129 30089
CZ-6A DEB
1 58430U 22151AHY 25187.93809735  .00002990  00000-0  16381-2 0  9999
2 58430  98.8870 183.5711 0086244 267.7799  91.3495 14.10759967 30158
CZ-6A DEB
1 58430U 22151AHY 25188.43455899  .00003443  00000-0  18823-2 0  9990
2 58430  98.8867 184.0621 0086263 266.3293  92.8010 14.10764458114024
CZ-6A DEB
1 58430U 22151AHY 25188.43455899  .00003443  00000-0  18823-2 0  9990
2 58430  98.8867 184.0621 0086263 266.3293  92.8010 14.10764458 30223
CZ-6A DEB
1 58430U 22151AHY 25188.93102016  .00002958  00000-0  16206-2 0  9998
2 58430  98.8865 184.5533 0086256 264.8787  94.2535 14.10766307 30291
CZ-6A DEB
1 58430U 22151AHY 25189.92393932  .00002896  00000-0  15872-2 0  9996
2 58430  98.8869 185.5359 0086262 261.9880  97.1496 14.10772266 30436
CZ-6A DEB
1 58430U 22151AHY 25189.92393932  .00002896  00000-0  15872-2 0  9996
2 58430  98.8869 185.5359 0086262 261.9880  97.1496 14.10772266114237
CZ-6A DEB
1 58430U 22151AHY 25190.42039720  .00002898  00000-0  15880-2 0  9996
2 58430  98.8869 186.0274 0086225 260.5137  98.6280 14.10775541 30501
CZ-6A DEB
1 58430U 22151AHY 25195.95229608  .00002492  00000-0  13682-2 0  9993
2 58430  98.8877 191.5009 0086208 244.3428 114.8819 14.10807884 31282
CZ-6A DEB
1 58430U 22151AHY 25195.95229608  .00002492  00000-0  13682-2 0  9993
2 58430  98.8877 191.5009 0086208 244.3428 114.8819 14.10807884115083
CZ-6A DEB
1 58430U 22151AHY 25196.44874287  .00002789  00000-0  15282-2 0  9994
2 58430  98.8875 191.9919 0086201 242.8752 116.3608 14.10811460 31356
CZ-6A DEB
1 58430U 22151AHY 25197.44163445  .00002634  00000-0  14446-2 0  9992
2 58430  98.8876 192.9742 0086225 239.9627 119.2970 14.10816434115292
CZ-6A DEB
1 58430U 22151AHY 25197.44163445  .00002634  00000-0  14446-2 0  9992
2 58430  98.8876 192.9742 0086225 239.9627 119.2970 14.10816434 31491
CZ-6A DEB
1 58430U 22151AHY 25197.93807888  .00002740  00000-0  15014-2 0  9992
2 58430  98.8874 193.4652 0086249 238.5267 120.7454 14.10819449 31567
CZ-6A DEB
1 58430U 22151AHY 25198.43452186  .00003110  00000-0  17008-2 0  9992
2 58430  98.8875 193.9565 0086269 237.0669 122.2183 14.10823616 31633
CZ-6A DEB
1 58430U 22151AHY 25198.93096418  .00003086  00000-0  16875-2 0  9992
2 58430  98.8876 194.4478 0086289 235.6052 123.6938 14.10826452 31707
CZ-6A DEB
1 58430U 22151AHY 25198.93096418  .00003086  00000-0  16875-2 0  9992
2 58430  98.8876 194.4478 0086289 235.6052 123.6938 14.10826452115508
CZ-6A DEB
1 58430U 22151AHY 25199.42740584  .00003111  00000-0  17008-2 0  9995
2 58430  98.8877 194.9391 0086311 234.1601 125.1530 14.10829373 31774
CZ-6A DEB
1 58430U 22151AHY 25201.41316048  .00003209  00000-0  17532-2 0  9992
2 58430  98.8883 196.9046 0086410 228.3868 130.9877 14.10842520115859
CZ-6A DEB
1 58430U 22151AHY 25201.41316048  .00003209  00000-0  17532-2 0  9992
2 58430  98.8883 196.9046 0086410 228.3868 130.9877 14.10842520 32059
CZ-6A DEB
1 58430U 22151AHY 25202.76062649  .00003188  00000-0  17416-2 0  9993
2 58430  98.8886 198.2382 0086509 224.3961 135.0253 14.10851739116047
CZ-6A DEB
1 58430U 22151AHY 25202.76062649  .00003188  00000-0  17416-2 0  9993
2 58430  98.8886 198.2382 0086509 224.3961 135.0253 14.10851739 32246
CZ-6A DEB
1 58430U 22151AHY 25203.96624695  .00003496  00000-0  19067-2 0  9997
2 58430  98.8882 199.4313 0086608 220.8546 138.6112 14.10861047116215
CZ-6A DEB
1 58430U 22151AHY 25203.96624695  .00003496  00000-0  19067-2 0  9997
2 58430  98.8882 199.4313 0086608 220.8546 138.6112 14.10861047 32414
CZ-6A DEB
1 58430U 22151AHY 25204.95910483  .00003780  00000-0  20590-2 0  9999
2 58430  98.8874 200.4139 0086715 217.9097 141.5949 14.10869362 32555
CZ-6A DEB
1 58430U 22151AHY 25205.45553280  .00003852  00000-0  20976-2 0  9991
2 58430  98.8874 200.9052 0086654 216.4606 143.0644 14.10873008 32625
CZ-6A DEB
1 58430U 22151AHY 25205.45553280  .00003852  00000-0  20976-2 0  9991
2 58430  98.8874 200.9052 0086654 216.4606 143.0644 14.10873008116426
CZ-6A DEB
1 58430U 22151AHY 25205.95195929  .00003614  00000-0  19694-2 0  9999
2 58430  98.8870 201.3964 0086666 215.0033 144.5423 14.10876051 32699
CZ-6A DEB
1 58430U 22151AHY 25206.94480780  .00003281  00000-0  17897-2 0  9994
2 58430  98.8870 202.3789 0086778 212.1209 147.4658 14.10882805 32834
CZ-6A DEB
1 58430U 22151AHY 25206.94480780  .00003281  00000-0  17897-2 0  9994
2 58430  98.8870 202.3789 0086778 212.1209 147.4658 14.10882805116635
CZ-6A DEB
1 58430U 22151AHY 25207.93765177  .00003780  00000-0  20580-2 0  9997
2 58430  98.8873 203.3615 0086901 209.2485 150.3805 14.10890931 32978
CZ-6A DEB
1 58430U 22151AHY 25208.93049121  .00003809  00000-0  20730-2 0  9991
2 58430  98.8877 204.3441 0087035 206.3639 153.3090 14.10897846 33116
CZ-6A DEB
1 58430U 22151AHY 25208.93049121  .00003809  00000-0  20730-2 0  9991
2 58430  98.8877 204.3441 0087035 206.3639 153.3090 14.10897846116916
CZ-6A DEB
1 58430U 22151AHY 25213.46911939  .00003952  00000-0  21473-2 0  9994
2 58430  98.8885 208.8356 0087512 193.3704 166.5147 14.10933863117557
CZ-6A DEB
1 58430U 22151AHY 25213.46911939  .00003952  00000-0  21473-2 0  9994
2 58430  98.8885 208.8356 0087512 193.3704 166.5147 14.10933863 33756
CZ-6A DEB
1 58430U 22151AHY 25215.45473335  .00003301  00000-0  17965-2 0  9997
2 58430  98.8884 210.8006 0087916 187.5643 172.4207 14.10947825117833
CZ-6A DEB
1 58430U 22151AHY 25215.45473335  .00003301  00000-0  17965-2 0  9997
2 58430  98.8884 210.8006 0087916 187.5643 172.4207 14.10947825 34033
CZ-6A DEB
1 58430U 22151AHY 25215.95113423  .00002956  00000-0  16115-2 0  9992
2 58430  98.8886 211.2925 0087928 186.1703 173.8392 14.10950122 34107
CZ-6A DEB
1 58430U 22151AHY 25216.94393261  .00003192  00000-0  17375-2 0  9994
2 58430  98.8883 212.2752 0088037 183.3283 176.7313 14.10957054 34248
CZ-6A DEB
1 58430U 22151AHY 25216.94393261  .00003192  00000-0  17375-2 0  9994
2 58430  98.8883 212.2752 0088037 183.3283 176.7313 14.10957054118049
CZ-6A DEB
1 58430U 22151AHY 25217.44032978  .00003292  00000-0  17913-2 0  9994
2 58430  98.8883 212.7665 0088109 181.9017 178.1831 14.10960738 34317
CZ-6A DEB
1 58430U 22151AHY 25217.93672633  .00003235  00000-0  17603-2 0  9999
2 58430  98.8878 213.2579 0088243 180.4283 179.6826 14.10963587 34381
CZ-6A DEB
1 58430U 22151AHY 25219.42590866  .00003447  00000-0  18730-2 0  9999
2 58430  98.8879 214.7321 0088478 176.1859 184.0006 14.10973599 34591
CZ-6A DEB
1 58430U 22151AHY 25219.92230077  .00003586  00000-0  19474-2 0  9999
2 58430  98.8898 215.2246 0088444 174.8273 185.3833 14.10976817 34668
CZ-6A DEB
1 58430U 22151AHY 25219.92230077  .00003586  00000-0  19474-2 0  9999
2 58430  98.8898 215.2246 0088444 174.8273 185.3833 14.10976817118469
CZ-6A DEB
1 58430U 22151AHY 25220.41869152  .00003316  00000-0  18026-2 0  9990
2 58430  98.8872 215.7143 0088674 173.3227 186.9147 14.10979564 34734
CZ-6A DEB
1 58430U 22151AHY 25222.75879725  .00004261  00000-0  23069-2 0  9999
2 58430  98.8888 218.0313 0089132 166.6644 193.6912 14.11001119118869
CZ-6A DEB
1 58430U 22151AHY 25222.75879725  .00004261  00000-0  23069-2 0  9999
2 58430  98.8888 218.0313 0089132 166.6644 193.6912 14.11001119 35069
CZ-6A DEB
1 58430U 22151AHY 25224.46067115  .00003788  00000-0  20527-2 0  9990
2 58430  98.8892 219.7160 0089439 161.8051 198.6354 14.11014780119102
CZ-6A DEB
1 58430U 22151AHY 25224.46067115  .00003788  00000-0  20527-2 0  9990
2 58430  98.8892 219.7160 0089439 161.8051 198.6354 14.11014780 35301
CZ-6A DEB
1 58430U 22151AHY 25225.45342380  .00003765  00000-0  20399-2 0  9992
2 58430  98.8894 220.6987 0089592 158.9714 201.5178 14.11022257 35445
CZ-6A DEB
1 58430U 22151AHY 25225.94979846  .00003445  00000-0  18686-2 0  9990
2 58430  98.8896 221.1906 0089614 157.5580 202.9550 14.11024964 35519
CZ-6A DEB
1 58430U 22151AHY 25225.94979846  .00003445  00000-0  18686-2 0  9990
2 58430  98.8896 221.1906 0089614 157.5580 202.9550 14.11024964119310
CZ-6A DEB
1 58430U 22151AHY 25226.44617215  .00003580  00000-0  19407-2 0  9997
2 58430  98.8900 221.6820 0089630 156.1832 204.3526 14.11028433 35589
CZ-6A DEB
1 58430U 22151AHY 25227.93528453  .00003481  00000-0  18868-2 0  9997
2 58430  98.8900 223.1563 0089947 152.0150 208.5900 14.11038464 35799
CZ-6A DEB
1 58430U 22151AHY 25227.93528453  .00003481  00000-0  18868-2 0  9997
2 58430  98.8900 223.1563 0089947 152.0150 208.5900 14.11038464119590
CZ-6A DEB
1 58430U 22151AHY 25234.45887732  .00003052  00000-0  16541-2 0  9990
2 58430  98.8899 229.6163 0090971 133.7974 227.0767 14.11084494 36716
CZ-6A DEB
1 58430U 22151AHY 25235.45157841  .00003095  00000-0  16766-2 0  9998
2 58430  98.8901 230.5997 0091077 131.0519 229.8568 14.11090794 36854
CZ-6A DEB
1 58430U 22151AHY 25236.44427541  .00003241  00000-0  17542-2 0  9991
2 58430  98.8905 231.5828 0091205 128.2869 232.6550 14.11096926 36992
CZ-6A DEB
1 58430U 22151AHY 25236.94062231  .00003584  00000-0  19368-2 0  9995
2 58430  98.8904 232.0744 0091316 126.8661 234.0925 14.11100680 37065
CZ-6A DEB
1 58430U 22151AHY 25237.43696750  .00003705  00000-0  20013-2 0  9993
2 58430  98.8890 232.5655 0091497 125.5144 235.4605 14.11104345 37137
CZ-6A DEB
1 58430U 22151AHY 25242.47121246  .00007035  00000-0  37699-2 0  9994
2 58430  98.8922 237.5515 0092440 111.7958 249.3080 14.11165819 37844
CZ-6A DEB
1 58430U 22151AHY 25243.46385041  .00007665  00000-0  41042-2 0  9995
2 58430  98.8915 238.5339 0092315 108.9896 252.1305 14.11181467 37985
CZ-6A DEB
1 58430U 22151AHY 25243.96016494  .00008534  00000-0  45653-2 0  9991
2 58430  98.8917 239.0256 0092357 107.6251 253.5032 14.11190432 38051
CZ-6A DEB
1 58430U 22151AHY 25244.45647788  .00008018  00000-0  42911-2 0  9993
2 58430  98.8915 239.5173 0092285 106.2238 254.9111 14.11195880 38125
CZ-6A DEB
1 58430U 22151AHY 25247.43428083  .00007693  00000-0  41143-2 0  9993
2 58430  98.8898 242.4683 0092306  98.0156 263.1501 14.11248410 38544
CZ-6A DEB
1 58430U 22151AHY 25262.25125921  .00004662  00000-0  24953-2 0  9998
2 58430  98.8931 257.1498 0092813  57.5917 303.4191 14.11396046 40632
CZ-6A DEB
1 58430U 22151AHY 25274.72695291  .00014000  00000-0  74067-2 0  9993
2 58430  98.8950 269.5174 0091652  23.3456 337.1837 14.11672748 42392
CZ-6A DEB
1 58430U 22151AHY 25274.93957881  .00013747  00000-0  72739-2 0  9993
2 58430  98.8956 269.7287 0091350  22.4452 338.0677 14.11682601 42421
CZ-6A DEB
1 58430U 22151AHY 25274.93957881  .00013747  00000-0  72739-2 0  9993
2 58430  98.8956 269.7287 0091350  22.4452 338.0677 14.11682601 42421
CZ-6A DEB
1 58430U 22151AHY 25279.97157606  .00007970  00000-0  42241-2 0  9995
2 58430  98.8938 274.7159 0090812   8.5200 351.7488 14.11786193 43135
CZ-6A DEB
1 58430U 22151AHY 25281.45985630  .00008015  00000-0  42467-2 0  9998
2 58430  98.8945 276.1928 0090713   4.3912 355.8035 14.11808939 43346
CZ-6A DEB
1 58430U 22151AHY 25281.45985630  .00008015  00000-0  42467-2 0  9998
2 58430  98.8945 276.1928 0090713   4.3912 355.8035 14.11808939 43346
CZ-6A DEB
1 58430U 22151AHY 25284.93241765  .00007536  00000-0  39919-2 0  9993
2 58430  98.8970 279.6372 0090399 354.3772   5.6377 14.11857592 43839
CZ-6A DEB
1 58430U 22151AHY 25286.91667612  .00008269  00000-0  43768-2 0  9997
2 58430  98.8954 281.6036 0089777 349.1159  10.8069 14.11894761 44117
CZ-6A DEB
1 58430U 22151AHY 25290.95592637  .00010067  00000-0  53165-2 0  9991
2 58430  98.8978 285.6144 0089580 337.6761  22.0522 14.11958618 44683
CZ-6A DEB
1 58430U 22151AHY 25290.95592637  .00010067  00000-0  53165-2 0  9991
2 58430  98.8978 285.6144 0089580 337.6761  22.0522 14.11958618 44683
CZ-6A DEB
1 58430U 22151AHY 25291.94799296  .00011228  00000-0  59230-2 0  9990
2 58430  98.8983 286.5994 0089676 334.5719  25.1054 14.11979983 44825
CZ-6A DEB
1 58430U 22151AHY 25293.43606250  .00010766  00000-0  56789-2 0  9995
2 58430  98.8953 288.0725 0089300 330.4655  29.1489 14.12013597 45030
CZ-6A DEB
1 58430U 22151AHY 25293.93207883  .00009677  00000-0  51069-2 0  9994
2 58430  98.8951 288.5644 0089281 329.0463  30.5464 14.12022010 45109
CZ-6A DEB
1 58430U 22151AHY 25295.91611297  .00008267  00000-0  43649-2 0  9991
2 58430  98.8955 290.5333 0089115 323.4148  36.0958 14.12056446 45384
CZ-6A DEB
1 58430U 22151AHY 25298.96293279  .00007329  00000-0  38702-2 0  9997
2 58430  98.8959 293.5557 0088861 314.7618  44.6347 14.12106318 45810
CZ-6A DEB
1 58430U 22151AHY 25298.96293279  .00007329  00000-0  38702-2 0  9997
2 58430  98.8959 293.5557 0088861 314.7618  44.6347 14.12106318 45810
CZ-6A DEB
1 58430U 22151AHY 25303.92267012  .00008907  00000-0  46920-2 0  9990
2 58430  98.8962 298.4779 0088562 300.5687  58.6769 14.12182497 46514
CZ-6A DEB
1 58430U 22151AHY 25304.91458482  .00007583  00000-0  39976-2 0  9995
2 58430  98.8962 299.4629 0088499 297.7322  61.4895 14.12197630 46653
CZ-6A DEB
1 58430U 22151AHY 25318.44609653  .00008415  00000-0  44148-2 0  9998
2 58430  98.8966 312.8947 0087907 259.0720 100.0552 14.12446522 48565
CZ-6A DEB
1 58430U 22151AHY 25319.93369260  .00007648  00000-0  40115-2 0  9997
2 58430  98.8966 314.3728 0088401 254.7147 104.4240 14.12471533 48779
CZ-6A DEB
1 58430U 22151AHY 25320.92541092  .00008769  00000-0  45958-2 0  9998
2 58430  98.8958 315.3556 0087808 252.0041 107.1546 14.12491218 48911
CZ-6A DEB
1 58430U 22151AHY 25321.42126500  .00008680  00000-0  45487-2 0  9996
2 58430  98.8961 315.8486 0087780 250.6078 108.5590 14.12500156 48988
CZ-6A DEB
1 58430U 22151AHY 25321.42126500  .00008680  00000-0  45487-2 0  9996
2 58430  98.8961 315.8486 0087780 250.6078 108.5590 14.12500156 48988
CZ-6A DEB
1 58430U 22151AHY 25324.96301735  .00005097  00000-0  26803-2 0  9993
2 58430  98.8968 319.3656 0087462 240.5524 118.6899 14.12542462 49480
CZ-6A DEB
1 58430U 22151AHY 25324.96301736  .00005097  00000-0  26803-2 0  9994
2 58430  98.8968 319.3656 0087462 240.5524 118.6899 14.12542462 49480
CZ-6A DEB
1 58430U 22151AHY 25327.44218329  .00005136  00000-0  26992-2 0  9998
2 58430  98.8967 321.8272 0087463 233.4474 125.8623 14.12572189 49830
CZ-6A DEB
1 58430U 22151AHY 25327.44218329  .00005136  00000-0  26992-2 0  9998
2 58430  98.8967 321.8272 0087463 233.4474 125.8624 14.12572189 49831
CZ-6A DEB
1 58430U 22151AHY 25328.43383765  .00005347  00000-0  28086-2 0  9995
2 58430  98.8962 322.8112 0087445 230.6218 128.7185 14.12582655 49973
CZ-6A DEB
1 58430U 22151AHY 25328.43383766  .00005347  00000-0  28086-2 0  9996
2 58430  98.8962 322.8112 0087445 230.6218 128.7185 14.12582656 49974
CZ-6A DEB
1 58430U 22151AHY 25328.92966071  .00006685  00000-0  35038-2 0  9997
2 58430  98.8960 323.3035 0087625 229.2160 130.1386 14.12590551 50045
CZ-6A DEB
1 58430U 22151AHY 25328.92966071  .00006685  00000-0  35038-2 0  9997
2 58430  98.8960 323.3035 0087625 229.2160 130.1386 14.12590551 50045
CZ-6A DEB
1 58430U 22151AHY 25329.42548227  .00006562  00000-0  34396-2 0  9992
2 58430  98.8963 323.7958 0087635 227.8066 131.5642 14.12596884 50119
CZ-6A DEB
1 58430U 22151AHY 25329.42548228  .00006562  00000-0  34396-2 0  9993
2 58430  98.8963 323.7958 0087635 227.8066 131.5642 14.12596884 50119
CZ-6A DEB
1 58430U 22151AHY 25334.45441484  .00005250  00000-0  27541-2 0  9995
2 58430  98.8958 328.7902 0087587 213.4479 146.1143 14.12655372 50826
CZ-6A DEB
1 58430U 22151AHY 25334.45441484  .00005250  00000-0  27541-2 0  9995
2 58430  98.8958 328.7902 0087587 213.4479 146.1143 14.12655372 50826
CZ-6A DEB
1 58430U 22151AHY 25334.73773031  .00005004  00000-0  26261-2 0  9997
2 58430  98.8960 329.0720 0087489 212.6522 146.9223 14.12657701 50861
CZ-6A DEB
1 58430U 22151AHY 25334.73773032  .00005004  00000-0  26261-2 0  9998
2 58430  98.8960 329.0720 0087489 212.6522 146.9223 14.12657701 50861
CZ-6A DEB
1 58430U 22151AHY 25336.43760346  .00006137  00000-0  32138-2 0  9999
2 58430  98.8956 330.7604 0087463 207.8179 151.8301 14.12678983 51107
CZ-6A DEB
1 58430U 22151AHY 25336.43760347  .00006137  00000-0  32138-2 0  9990
2 58430  98.8956 330.7604 0087463 207.8179 151.8301 14.12678983 51107
CZ-6A DEB
1 58430U 22151AHY 25337.42918425  .00007163  00000-0  37454-2 0  9998
2 58430  98.8953 331.7449 0087489 204.9917 154.7007 14.12693180 51244
CZ-6A DEB
1 58430U 22151AHY 25337.42918425  .00007163  00000-0  37454-2 0  9998
2 58430  98.8953 331.7449 0087489 204.9917 154.7007 14.12693181 51245
CZ-6A DEB
1 58430U 22151AHY 25338.42075147  .00011516  00000-0  60014-2 0  9999
2 58430  98.8949 332.7294 0087465 202.1535 157.5848 14.12718270 51385
CZ-6A DEB
1 58430U 22151AHY 25338.42075147  .00011516  00000-0  60014-2 0  9999
2 58430  98.8949 332.7294 0087465 202.1535 157.5848 14.12718270 51385
CZ-6A DEB
1 58430U 22151AHY 25339.48312829  .00009283  00000-0  48410-2 0  9991
2 58430  98.8944 333.7845 0087735 199.2459 160.5392 14.12736239 51534
CZ-6A DEB
1 58430U 22151AHY 25342.95347367  .00005982  00000-0  31266-2 0  9995
2 58430  98.8947 337.2311 0087556 189.2419 170.7146 14.12786609 52021
CZ-6A DEB
1 58430U 22151AHY 25342.95347367  .00005982  00000-0  31266-2 0  9995
2 58430  98.8947 337.2311 0087556 189.2419 170.7146 14.12786609 52021
CZ-6A DEB
1 58430U 22151AHY 25343.44922837  .00007105  00000-0  37083-2 0  9993
2 58430  98.8962 337.7238 0087513 187.7692 172.2130 14.12794380 52092
CZ-6A DEB
1 58430U 22151AHY 25343.44922837  .00007105  00000-0  37083-2 0  9993
2 58430  98.8962 337.7238 0087513 187.7692 172.2130 14.12794380 52092
CZ-6A DEB
1 58430U 22151AHY 25344.93647606  .00007501  00000-0  39114-2 0  9993
2 58430  98.8966 339.2011 0087708 183.6153 176.4395 14.12814870 52305
CZ-6A DEB
1 58430U 22151AHY 25344.93647607  .00007501  00000-0  39114-2 0  9994
2 58430  98.8966 339.2011 0087708 183.6153 176.4396 14.12814870 52306
CZ-6A DEB
1 58430U 22151AHY 25345.92796038  .00007983  00000-0  41592-2 0  9994
2 58430  98.8966 340.1861 0087700 180.8077 179.2967 14.12832276 52446
CZ-6A DEB
1 58430U 22151AHY 25345.92796039  .00007983  00000-0  41592-2 0  9995
2 58430  98.8966 340.1861 0087700 180.8077 179.2967 14.12832276 52446
CZ-6A DEB
1 58430U 22151AHY 25346.42369801  .00007962  00000-0  41480-2 0  9997
2 58430  98.8966 340.6785 0087679 179.4115 180.7176 14.12841174 52512
CZ-6A DEB
1 58430U 22151AHY 25351.45177706  .00003755  00000-0  19674-2 0  9993
2 58430  98.8956 345.6739 0087554 164.9922 195.3879 14.12891726 53221
CZ-6A DEB
1 58430U 22151AHY 25352.44321127  .00004144  00000-0  21689-2 0  9993
2 58430  98.8957 346.6590 0087517 162.1627 198.2651 14.12900153 53369
CZ-6A DEB
1 58430U 22151AHY 25353.43463997  .00003826  00000-0  20039-2 0  9999
2 58430  98.8959 347.6440 0087500 159.3574 201.1168 14.12907103 53502
CZ-6A DEB
1 58430U 22151AHY 25353.43463997  .00003826  00000-0  20039-2 0  9999
2 58430  98.8959 347.6440 0087500 159.3574 201.1168 14.12907103 53502
CZ-6A DEB
1 58430U 22151AHY 25354.42606264  .00003837  00000-0  20094-2 0  9998
2 58430  98.8955 348.6284 0087494 156.5302 203.9900 14.12915174 53641
CZ-6A DEB
1 58430U 22151AHY 25354.42606265  .00003837  00000-0  20094-2 0  9999
2 58430  98.8955 348.6284 0087494 156.5302 203.9900 14.12915174 53641
CZ-6A DEB
1 58430U 22151AHY 25354.92177185  .00003860  00000-0  20212-2 0  9996
2 58430  98.8960 349.1214 0087542 155.1657 205.3766 14.12918991 53712
CZ-6A DEB
1 58430U 22151AHY 25354.92177186  .00003860  00000-0  20212-2 0  9997
2 58430  98.8960 349.1214 0087542 155.1657 205.3766 14.12918991 53712
CZ-6A DEB
1 58430U 22151AHY 25357.96680412  .00004834  00000-0  25232-2 0  9994
2 58430  98.8954 352.1461 0087576 146.3921 214.2849 14.12950508 54145
CZ-6A DEB
1 58430U 22151AHY 25357.96680413  .00004834  00000-0  25232-2 0  9995
2 58430  98.8954 352.1461 0087576 146.3921 214.2849 14.12950509 54146
CZ-6A DEB
1 58430U 22151AHY 25360.44526545  .00004753  00000-0  24801-2 0  9998
2 58430  98.8961 354.6089 0087605 139.3081 221.4680 14.12976205 54491
CZ-6A DEB
1 58430U 22151AHY 25360.44526546  .00004753  00000-0  24801-2 0  9999
2 58430  98.8961 354.6089 0087605 139.3081 221.4680 14.12976205 54491
CZ-6A DEB
1 58430U 22151AHY 25360.94095163  .00005680  00000-0  29586-2 0  9995
2 58430  98.8960 355.1013 0087610 137.9076 222.8869 14.12983668 54560
CZ-6A DEB
1 58430U 22151AHY 25360.94095164  .00005680  00000-0  29586-2 0  9996
2 58430  98.8960 355.1013 0087610 137.9076 222.8869 14.12983668 54560
CZ-6A DEB
1 58430U 22151AHY 25361.43663589  .00005449  00000-0  28388-2 0  9995
2 58430  98.8968 355.5946 0087635 136.5124 224.3002 14.12988576 54630
CZ-6A DEB
1 58430U 22151AHY 25361.43663590  .00005449  00000-0  28388-2 0  9997
2 58430  98.8968 355.5946 0087635 136.5124 224.3003 14.12988576 54631
CZ-6A DEB
1 58430U 22151AHY 25361.93231759  .00006542  00000-0  34026-2 0  9991
2 58430  98.8966 356.0870 0087649 135.1191 225.7112 14.12996563 54704
CZ-6A DEB
1 58430U 22151AHY 25362.42799700  .00006822  00000-0  35466-2 0  9991
2 58430  98.8966 356.5796 0087662 133.7155 227.1321 14.13003236 54777
CZ-6A DEB
1 58430U 22151AHY 25362.42799701  .00006822  00000-0  35466-2 0  9992
2 58430  98.8966 356.5796 0087662 133.7155 227.1321 14.13003236 54777
CZ-6A DEB
1 58430U 22151AHY 25363.91501794  .00008215  00000-0  42636-2 0  9995
2 58430  98.8959 358.0573 0087676 129.5194 231.3770 14.13027859 54985
CZ-6A DEB
1 58430U 22151AHY 25363.91501795  .00008215  00000-0  42636-2 0  9996
2 58430  98.8959 358.0573 0087676 129.5194 231.3770 14.13027859 54985
CZ-6A DEB
1 58430U 22151AHY 26002.45543441  .00008720  00000-0  45182-2 0  9990
2 58430  98.8965   1.5755 0087790 119.4873 241.5091 14.13088192 55485
CZ-6A DEB
1 58430U 22151AHY 26002.45543442  .00008720  00000-0  45182-2 0  9991
2 58430  98.8965   1.5755 0087790 119.4873 241.5092 14.13088192 55486
CZ-6A DEB
1 58430U 22151AHY 26003.94236404  .00007910  00000-0  40991-2 0  9996
2 58430  98.8970   3.0533 0087860 115.2051 245.8262 14.13111396 55695
CZ-6A DEB
1 58430U 22151AHY 26003.94236404  .00007910  00000-0  40991-2 0  9996
2 58430  98.8970   3.0533 0087860 115.2051 245.8262 14.13111396 55695
CZ-6A DEB
1 58430U 22151AHY 26004.43800175  .00006596  00000-0  34222-2 0  9992
2 58430  98.8962   3.5452 0087888 113.8212 247.2204 14.13117278 55769
CZ-6A DEB
1 58430U 22151AHY 26004.43800175  .00006596  00000-0  34222-2 0  9992
2 58430  98.8962   3.5452 0087888 113.8212 247.2204 14.13117278 55769
CZ-6A DEB
1 58430U 22151AHY 26006.91615450  .00005644  00000-0  29296-2 0  9995
2 58430  98.8968   6.0085 0087946 106.8100 254.2742 14.13148884 56110
CZ-6A DEB
1 58430U 22151AHY 26006.91615451  .00005644  00000-0  29296-2 0  9996
2 58430  98.8968   6.0085 0087946 106.8100 254.2742 14.13148884 56110
CZ-6A DEB
1 58430U 22151AHY 26010.45627913  .00004793  00000-0  24894-2 0  9999
2 58430  98.8972   9.5280 0088097  96.8056 264.3150 14.13187681 56614
CZ-6A DEB
1 58430U 22151AHY 26010.95188956  .00004962  00000-0  25763-2 0  9997
2 58430  98.8973  10.0210 0088149  95.3495 265.7742 14.13192407 56685
CZ-6A DEB
1 58430U 22151AHY 26013.42991008  .00004395  00000-0  22835-2 0  9999
2 58430  98.8969  12.4842 0088230  88.3459 272.7817 14.13216174 57039
CZ-6A DEB
1 58430U 22151AHY 26013.42991008  .00004395  00000-0  22835-2 0  9999
2 58430  98.8969  12.4842 0088230  88.3459 272.7817 14.13216174 57039
CZ-6A DEB
1 58430U 22151AHY 26015.41230078  .00003658  00000-0  19036-2 0  9993
2 58430  98.8969  14.4550 0088426  82.6858 278.4354 14.13229615 57318
CZ-6A DEB
1 58430U 22151AHY 26015.41230079  .00003658  00000-0  19036-2 0  9994
2 58430  98.8969  14.4550 0088426  82.6858 278.4354 14.13229615 57318
CZ-6A DEB
1 58430U 22151AHY 26017.46546539  .00005243  00000-0  27170-2 0  9992
2 58430  98.8969  16.4959 0088594  76.8491 284.2548 14.13249326 57600
CZ-6A DEB
1 58430U 22151AHY 26018.95221985  .00005027  00000-0  26056-2 0  9994
2 58430  98.8968  17.9736 0088525  72.7216 288.3619 14.13263296 57811
CZ-6A DEB
1 58430U 22151AHY 26019.94337991  .00006660  00000-0  34428-2 0  9995
2 58430  98.8972  18.9590 0088543  69.9247 291.1428 14.13277203 57955
CZ-6A DEB
1 58430U 22151AHY 26020.43894885  .00009944  00000-0  51252-2 0  9993
2 58430  98.8974  19.4518 0088534  68.5560 292.5027 14.13295613 58020
CZ-6A DEB
1 58430U 22151AHY 26021.43007030  .00013209  00000-0  67931-2 0  9992
2 58430  98.8967  20.4370 0088506  65.7514 295.2875 14.13332035 58163
CZ-6A DEB
1 58430U 22151AHY 26021.92562327  .00010751  00000-0  55331-2 0  9991
2 58430  98.8969  20.9298 0088569  64.3459 296.6830 14.13346974 58232
CZ-6A DEB
1 58430U 22151AHY 26024.96966985  .00009892  00000-0  50869-2 0  9991
2 58430  98.8979  23.9577 0088830  55.8173 305.1380 14.13402443 58662
CZ-6A DEB
1 58430U 22151AHY 26024.96966986  .00009892  00000-0  50869-2 0  9992
2 58430  98.8979  23.9577 0088830  55.8173 305.1380 14.13402443 58662
CZ-6A DEB
1 58430U 22151AHY 26025.96072748  .00009536  00000-0  49041-2 0  9992
2 58430  98.8989  24.9441 0088718  53.1122 307.8140 14.13420385 58808
CZ-6A DEB
1 58430U 22151AHY 26028.93382470  .00009687  00000-0  49759-2 0  9991
2 58430  98.8968  27.8995 0088690  44.8116 316.0175 14.13474429 59225
CZ-6A DEB
1 58430U 22151AHY 26028.93382486  .00009803  00000-0  50353-2 0  9990
2 58430  98.8965  27.8996 0088655  44.7487 316.0794 14.13474474 59221
CZ-6A DEB
1 58430U 22151AHY 26028.93382487  .00009803  00000-0  50353-2 0  9991
2 58430  98.8965  27.8996 0088655  44.7487 316.0794 14.13474474 59221
CZ-6A DEB
1 58430U 22151AHY 26032.96856236  .00005500  00000-0  28331-2 0  9998
2 58430  98.8987  31.9147 0088805  33.4719 327.2022 14.13534372 59793
CZ-6A DEB
1 58430U 22151AHY 26033.95952435  .00006616  00000-0  34021-2 0  9998
2 58430  98.8997  32.9013 0088748  30.8293 329.8049 14.13550277 59936
CZ-6A DEB
1 58430U 22151AHY 26033.95952435  .00006616  00000-0  34021-2 0  9998
2 58430  98.8997  32.9013 0088748  30.8293 329.8049 14.13550277 59936
CZ-6A DEB
1 58430U 22151AHY 26034.95047506  .00007192  00000-0  36954-2 0  9990
2 58430  98.9003  33.8876 0088702  28.3559 332.2400 14.13566628 60072
CZ-6A DEB
1 58430U 22151AHY 26034.95047506  .00007192  00000-0  36954-2 0  9990
2 58430  98.9003  33.8876 0088702  28.3559 332.2400 14.13566628 60072
CZ-6A DEB
1 58430U 22151AHY 26035.44594692  .00006848  00000-0  35191-2 0  9997
2 58430  98.8984  34.3782 0088783  26.8290 333.7434 14.13573692 60145
CZ-6A DEB
1 58430U 22151AHY 26035.44594693  .00006848  00000-0  35191-2 0  9998
2 58430  98.8984  34.3782 0088783  26.8290 333.7434 14.13573692 60145
CZ-6A DEB
1 58430U 22151AHY 26036.93234227  .00009673  00000-0  49572-2 0  9994
2 58430  98.8987  35.8572 0088696  22.6679 337.8373 14.13603252 60355
CZ-6A DEB
1 58430U 22151AHY 26036.93234227  .00009673  00000-0  49572-2 0  9994
2 58430  98.8987  35.8572 0088696  22.6679 337.8373 14.13603252 60355
CZ-6A DEB
1 58430U 22151AHY 26041.46215919  .00006248  00000-0  32078-2 0  9993
2 58430  98.8998  40.3659 0088667  10.1076 350.1854 14.13666132 60993
CZ-6A DEB
1 58430U 22151AHY 26041.46215920  .00006248  00000-0  32078-2 0  9995
2 58430  98.8998  40.3659 0088667  10.1076 350.1854 14.13666132 60993
CZ-6A DEB
1 58430U 22151AHY 26042.45302935  .00007245  00000-0  37147-2 0  9998
2 58430  98.8997  41.3521 0088577   7.3430 352.9017 14.13680894 61132
CZ-6A DEB
1 58430U 22151AHY 26047.97343564  .00006804  00000-0  34865-2 0  9997
2 58430  98.8996  46.8466 0088357 352.0055   7.9704 14.13749326 61910
CZ-6A DEB
1 58430U 22151AHY 26047.97343564  .00006804  00000-0  34865-2 0  9997
2 58430  98.8996  46.8466 0088357 352.0055   7.9704 14.13749326 61910
CZ-6A DEB
1 58430U 22151AHY 26049.45965299  .00005290  00000-0  27164-2 0  9999
2 58430  98.9001  48.3280 0088059 347.4681  12.4302 14.13764550 62126
CZ-6A DEB
1 58430U 22151AHY 26049.45965299  .00005290  00000-0  27164-2 0  9999
2 58430  98.9001  48.3280 0088059 347.4680  12.4302 14.13764550 62125
CZ-6A DEB
1 58430U 22151AHY 26050.45045690  .00005153  00000-0  26466-2 0  9997
2 58430  98.8996  49.3139 0087919 344.7768  15.0762 14.13774315 62266
CZ-6A DEB
1 58430U 22151AHY 26050.45045691  .00005153  00000-0  26466-2 0  9998
2 58430  98.8996  49.3139 0087919 344.7768  15.0762 14.13774315 62266
CZ-6A DEB
1 58430U 22151AHY 26050.94585777  .00005070  00000-0  26039-2 0  9990
2 58430  98.8993  49.8066 0087889 343.6149  16.2186 14.13778838 62339
CZ-6A DEB
1 58430U 22151AHY 26050.94585777  .00005070  00000-0  26039-2 0  9990
2 58430  98.8993  49.8066 0087889 343.6149  16.2186 14.13778838 62339
CZ-6A DEB
1 58430U 22151AHY 26055.47513526  .00005627  00000-0  28852-2 0  9999
2 58430  98.9009  54.3166 0087566 330.8650  28.7653 14.13831394 62971
CZ-6A DEB
1 58430U 22151AHY 26055.47513526  .00005627  00000-0  28852-2 0  9999
2 58430  98.9009  54.3166 0087566 330.8650  28.7653 14.13831394 62971
CZ-6A DEB
1 58430U 22151AHY 26055.97051336  .00004975  00000-0  25537-2 0  9992
2 58430  98.9013  54.8101 0087601 329.3125  30.2940 14.13836437 63049
CZ-6A DEB
1 58430U 22151AHY 26055.97051336  .00004975  00000-0  25537-2 0  9992
2 58430  98.9013  54.8101 0087601 329.3125  30.2940 14.13836437 63049
CZ-6A DEB
1 58430U 22151AHY 26056.46589071  .00005258  00000-0  26972-2 0  9998
2 58430  98.9020  55.3037 0087508 328.0094  31.5784 14.13842926 63116
CZ-6A DEB
1 58430U 22151AHY 26056.46589071  .00005258  00000-0  26972-2 0  9998
2 58430  98.9020  55.3037 0087508 328.0094  31.5784 14.13842926 63116
CZ-6A DEB
1 58430U 22151AHY 26056.96126624  .00005171  00000-0  26528-2 0  9995
2 58430  98.9017  55.7968 0087454 326.6053  32.9621 14.13848227 63180
CZ-6A DEB
1 58430U 22151AHY 26056.96126624  .00005171  00000-0  26528-2 0  9995
2 58430  98.9017  55.7969 0087454 326.6053  32.9621 14.13848227 63181
CZ-6A DEB
1 58430U 22151AHY 26057.45663961  .00005405  00000-0  27718-2 0  9992
2 58430  98.9027  56.2904 0087442 325.2316  34.3162 14.13854252 63250
CZ-6A DEB
1 58430U 22151AHY 26057.45663961  .00005405  00000-0  27718-2 0  9992
2 58430  98.9027  56.2904 0087442 325.2316  34.3162 14.13854252 63250
CZ-6A DEB
1 58430U 22151AHY 26057.95201109  .00005519  00000-0  28295-2 0  9996
2 58430  98.9027  56.7837 0087395 323.8225  35.7055 14.13860139 63325
CZ-6A DEB
1 58430U 22151AHY 26057.95201110  .00005519  00000-0  28295-2 0  9998
2 58430  98.9027  56.7837 0087395 323.8225  35.7055 14.13860139 63325
CZ-6A DEB
1 58430U 22151AHY 26058.94274747  .00005933  00000-0  30395-2 0  9998
2 58430  98.9018  57.7701 0087243 321.0028  38.4874 14.13873022 63468
CZ-6A DEB
1 58430U 22151AHY 26058.94274747  .00005933  00000-0  30395-2 0  9998
2 58430  98.9018  57.7701 0087243 321.0028  38.4874 14.13873022 63468
CZ-6A DEB
1 58430U 22151AHY 26059.93347588  .00006163  00000-0  31556-2 0  9998
2 58430  98.9014  58.7564 0087120 318.2038  41.2502 14.13885585 63608
CZ-6A DEB
1 58430U 22151AHY 26059.93347589  .00006163  00000-0  31556-2 0  9999
2 58430  98.9014  58.7564 0087120 318.2038  41.2502 14.13885585 63608
CZ-6A DEB
1 58430U 22151AHY 26062.97636887  .00007842  00000-0  40064-2 0  9998
2 58430  98.9024  61.7875 0086736 309.5910  49.7626 14.13930760 64036
CZ-6A DEB
1 58430U 22151AHY 26062.97636887  .00007842  00000-0  40064-2 0  9998
2 58430  98.9024  61.7875 0086736 309.5910  49.7626 14.13930760 64036
CZ-6A DEB
1 58430U 22151AHY 26063.47171288  .00008741  00000-0  44613-2 0  9996
2 58430  98.9018  62.2804 0086791 308.0926  51.2442 14.13940807 64104
CZ-6A DEB
1 58430U 22151AHY 26063.47171288  .00008741  00000-0  44613-2 0  9996
2 58430  98.9018  62.2804 0086791 308.0926  51.2442 14.13940807 64104
CZ-6A DEB
1 58430U 22151AHY 26063.96705648  .00007075  00000-0  36161-2 0  9991
2 58430  98.9017  62.7735 0086650 306.7240  52.5997 14.13945178 64171
CZ-6A DEB
1 58430U 22151AHY 26063.96705648  .00007075  00000-0  36161-2 0  9991
2 58430  98.9017  62.7735 0086650 306.7240  52.5997 14.13945178 64171
CZ-6A DEB
1 58430U 22151AHY 26064.46239703  .00006929  00000-0  35423-2 0  9998
2 58430  98.9021  63.2671 0086537 305.3454  53.9652 14.13952791 64247
CZ-6A DEB
1 58430U 22151AHY 26064.46239703  .00006929  00000-0  35423-2 0  9998
2 58430  98.9021  63.2671 0086537 305.3454  53.9652 14.13952791 64247
CZ-6A DEB
1 58430U 22151AHY 26065.45307121  .00006471  00000-0  33090-2 0  9998
2 58430  98.9025  64.2540 0086506 302.4749  56.8082 14.13965532 64389
CZ-6A DEB
1 58430U 22151AHY 26065.94840510  .00006221  00000-0  31822-2 0  9990
2 58430  98.9025  64.7475 0086432 301.0675  58.2034 14.13971608 64454
CZ-6A DEB
1 58430U 22151AHY 26066.23145223  .00007636  00000-0  38994-2 0  9990
2 58430  98.9029  65.0298 0086333 300.2825  58.9825 14.13977369 64492
CZ-6A DEB
1 58430U 22151AHY 26066.23145224  .00007636  00000-0  38994-2 0  9991
2 58430  98.9029  65.0298 0086333 300.2825  58.9825 14.13977369 64492
CZ-6A DEB
1 58430U 22151AHY 26067.78819522  .00007818  00000-0  39905-2 0  9996
2 58430  98.9033  66.5810 0086223 295.7941  63.4354 14.14000695 64711
CZ-6A DEB
1 58430U 22151AHY 26068.21275747  .00006482  00000-0  33133-2 0  9993
2 58430  98.9032  67.0039 0086153 294.5783  64.6430 14.14004938 64770
CZ-6A DEB
1 58430U 22151AHY 26068.21275747  .00006482  00000-0  33133-2 0  9993
2 58430  98.9032  67.0039 0086153 294.5783  64.6430 14.14004939 64771
CZ-6A DEB
1 58430U 22151AHY 26068.92035737  .00006379  00000-0  32604-2 0  9991
2 58430  98.9033  67.7090 0086097 292.5469  66.6609 14.14014731 64874
CZ-6A DEB
1 58430U 22151AHY 26068.92035737  .00006379  00000-0  32604-2 0  9991
2 58430  98.9033  67.7090 0086097 292.5469  66.6609 14.14014731 64874
CZ-6A DEB
1 58430U 22151AHY 26072.45829779  .00005080  00000-0  26007-2 0  9999
2 58430  98.9031  71.2341 0085669 282.3830  76.7764 14.14054685 65376
CZ-6A DEB
1 58430U 22151AHY 26076.91598163  .00003905  00000-0  20038-2 0  9996
2 58430  98.9025  75.6755 0085301 269.4356  89.7042 14.14095765 66006
CZ-6A DEB
1 58430U 22151AHY 26077.19900604  .00003934  00000-0  20186-2 0  9990
2 58430  98.9020  75.9560 0085175 268.5621  90.5793 14.14097714 66045
CZ-6A DEB
1 58430U 22151AHY 26078.96789868  .00003795  00000-0  19480-2 0  9993
2 58430  98.9019  77.7184 0085037 263.4085  95.7402 14.14109565 66299
CZ-6A DEB
1 58430U 22151AHY 26078.96789868  .00003795  00000-0  19480-2 0  9993
2 58430  98.9019  77.7184 0085037 263.4085  95.7402 14.14109565 66299
CZ-6A DEB
1 58430U 22151AHY 26079.95847282  .00003955  00000-0  20292-2 0  9999
2 58430  98.9041  78.7071 0084714 260.3294  98.8301 14.14116604 66439
CZ-6A DEB
1 58430U 22151AHY 26083.92070092  .00004240  00000-0  21725-2 0  9998
2 58430  98.9041  82.6556 0084593 248.7094 110.5031 14.14156196 66997
CZ-6A DEB
1 58430U 22151AHY 26085.97253167  .00004273  00000-0  21884-2 0  9993
2 58430  98.9044  84.7013 0084582 242.7195 116.5345 14.14174455 67280
CZ-6A DEB
1 58430U 22151AHY 26085.97253168  .00004273  00000-0  21884-2 0  9994
2 58430  98.9044  84.7013 0084582 242.7195 116.5345 14.14174455 67280
CZ-6A DEB
1 58430U 22151AHY 26087.95358727  .00004447  00000-0  22756-2 0  9993
2 58430  98.9039  86.6757 0084626 236.9436 122.3589 14.14191895 67565
CZ-6A DEB
1 58430U 22151AHY 26087.95358727  .00004447  00000-0  22756-2 0  9993
2 58430  98.9039  86.6757 0084626 236.9436 122.3589 14.14191895 67565
CZ-6A DEB
1 58430U 22151AHY 26096.72648505  .00004620  00000-0  23578-2 0  9990
2 58430  98.9040  95.4203 0085034 211.4627 148.1445 14.14289833 68800
CZ-6A DEB
1 58430U 22151AHY 26102.95211213  .00002554  00000-0  13118-2 0  9998
2 58430  98.9028 101.6255 0085882 193.5926 166.2934 14.14332588 69683
CZ-6A DEB
1 58430U 22151AHY 26102.95211213  .00002554  00000-0  13118-2 0  9998
2 58430  98.9028 101.6255 0085882 193.5926 166.2934 14.14332588 69683
CZ-6A DEB
1 58430U 22151AHY 26103.94253837  .00002543  00000-0  13058-2 0  9997
2 58430  98.9027 102.6131 0086028 190.7676 169.1657 14.14337289 69823
CZ-6A DEB
1 58430U 22151AHY 26103.94253837  .00002543  00000-0  13058-2 0  9997
2 58430  98.9027 102.6131 0086028 190.7676 169.1657 14.14337288 69822
CZ-6A DEB
1 58430U 22151AHY 26104.93296141  .00002680  00000-0  13746-2 0  9998
2 58430  98.9029 103.6017 0086183 187.9837 171.9970 14.14342057 69961
CZ-6A DEB
1 58430U 22151AHY 26104.93296142  .00002680  00000-0  13746-2 0  9999
2 58430  98.9029 103.6017 0086183 187.9837 171.9970 14.14342057 69961
CZ-6A DEB
1 58430U 22151AHY 26106.91379773  .00002710  00000-0  13874-2 0  9997
2 58430  98.8956 105.5676 0088193 180.3120 179.8012 14.14352510 70248
CZ-6A DEB
1 58430U 22151AHY 26111.93655955  .00003194  00000-0  16262-2 0  9995
2 58430  98.9024 110.5809 0090879 165.4425 194.9398 14.14383244 70956
CZ-6A DEB
1 58430U 22151AHY 26111.93655955  .00003194  00000-0  16262-2 0  9995
2 58430  98.9024 110.5809 0090879 165.4424 194.9398 14.14383244 70955
CZ-6A DEB
1 58430U 22151AHY 26111.93655955  .00003194  00000-0  16262-2 0  9995
2 58430  98.9024 110.5809 0090879 165.4425 194.9398 14.14383244 70956
CZ-6A DEB
1 58430U 22151AHY 26117.94956242  .00004236  00000-0  21454-2 0  9992
2 58430  98.9027 116.5771 0091676 149.5598 211.0942 14.14429852 71800
CZ-6A DEB
1 58430U 22151AHY 26117.94956243  .00004236  00000-0  21454-2 0  9993
2 58430  98.9027 116.5771 0091676 149.5598 211.0942 14.14429852 71800
CZ-6A DEB
1 58430U 22151AHY 26118.72770198  .00004092  00000-0  20798-2 0  9993
2 58430  98.9024 117.3523 0088059 148.7644 211.8804 14.14435023 71919
CZ-6A DEB
1 58430U 22151AHY 26118.93992100  .00004048  00000-0  20573-2 0  9997
2 58430  98.9032 117.5647 0088104 148.1448 212.5096 14.14436525 71946
CZ-6A DEB
1 58430U 22151AHY 26118.93992100  .00004048  00000-0  20573-2 0  9997
2 58430  98.9032 117.5647 0088104 148.1448 212.5096 14.14436525 71946
CZ-6A DEB
1 58430U 22151AHY 26119.93027160  .00004453  00000-0  22602-2 0  9998
2 58430  98.9036 118.5527 0088202 145.3951 215.3005 14.14445458 72087
CZ-6A DEB
1 58430U 22151AHY 26119.93027160  .00004453  00000-0  22602-2 0  9998
2 58430  98.9036 118.5527 0088202 145.3951 215.3005 14.14445458 72087
CZ-6A DEB
1 58430U 22151AHY 26122.97201846  .00004348  00000-0  22053-2 0  9994
2 58430  98.9015 121.5860 0088637 136.8743 223.9418 14.14474510 72516
CZ-6A DEB
1 58430U 22151AHY 26122.97201847  .00004348  00000-0  22053-2 0  9995
2 58430  98.9015 121.5860 0088637 136.8743 223.9418 14.14474510 72516
CZ-6A DEB
1 58430U 22151AHY 26123.96234088  .00004032  00000-0  20465-2 0  9993
2 58430  98.9018 122.5737 0088754 134.1130 226.7389 14.14483075 72653
CZ-6A DEB
1 58430U 22151AHY 26123.96234088  .00004032  00000-0  20465-2 0  9993
2 58430  98.9018 122.5737 0088754 134.1130 226.7389 14.14483075 72653
CZ-6A DEB
1 58430U 22151AHY 26125.94296719  .00004227  00000-0  21434-2 0  9995
2 58430  98.9011 124.5476 0088877 128.6093 232.3080 14.14500444 72932
CZ-6A DEB
1 58430U 22151AHY 26125.94296719  .00004227  00000-0  21434-2 0  9995
2 58430  98.9011 124.5476 0088877 128.6093 232.3080 14.14500444 72932
CZ-6A DEB
1 58430U 22151AHY 26126.43811975  .00004139  00000-0  20988-2 0  9992
2 58430  98.9022 125.0423 0088943 127.2470 233.6858 14.14504568 73007
CZ-6A DEB
1 58430U 22151AHY 26126.43811975  .00004139  00000-0  20988-2 0  9992
2 58430  98.9022 125.0424 0088943 127.2470 233.6858 14.14504568 73008
CZ-6A DEB
1 58430U 22151AHY 26126.93327109  .00003981  00000-0  20193-2 0  9990
2 58430  98.9024 125.5364 0089021 125.8881 235.0598 14.14508152 73073
CZ-6A DEB
1 58430U 22151AHY 26126.93327109  .00003981  00000-0  20193-2 0  9990
2 58430  98.9024 125.5364 0089021 125.8881 235.0598 14.14508152 73073
CZ-6A DEB
1 58430U 22151AHY 26129.97488378  .00003177  00000-0  16149-2 0  9996
2 58430  98.9024 128.5695 0089297 117.4768 243.5518 14.14529768 73509
CZ-6A DEB
1 58430U 22151AHY 26129.97488379  .00003177  00000-0  16149-2 0  9997
2 58430  98.9024 128.5695 0089297 117.4768 243.5518 14.14529768 73509
CZ-6A DEB
1 58430U 22151AHY 26129.97488379  .00003177  00000-0  16149-2 0  9997
2 58430  98.9024 128.5695 0089297 117.4768 243.5518 14.14529768 73509
CZ-6A DEB
1 58430U 22151AHY 26130.96516587  .00002826  00000-0  14390-2 0  9997
2 58430  98.9022 129.5569 0089409 114.7643 246.2865 14.14535704 73642
CZ-6A DEB
1 58430U 22151AHY 26130.96516587  .00002826  00000-0  14390-2 0  9997
2 58430  98.9022 129.5569 0089409 114.7643 246.2865 14.14535704 73642
CZ-6A DEB
1 58430U 22151AHY 26131.95544440  .00002695  00000-0  13730-2 0  9997
2 58430  98.9014 130.5440 0089363 111.9829 249.0869 14.14540881 73789
CZ-6A DEB
1 58430U 22151AHY 26131.95544440  .00002695  00000-0  13730-2 0  9997
2 58430  98.9014 130.5440 0089363 111.9829 249.0869 14.14540881 73789
CZ-6A DEB
1 58430U 22151AHY 26132.45058169  .00002830  00000-0  14404-2 0  9991
2 58430  98.9018 131.0382 0089539 110.6924 250.3875 14.14543936 73855
CZ-6A DEB
1 58430U 22151AHY 26132.45058170  .00002830  00000-0  14404-2 0  9993
2 58430  98.9018 131.0382 0089539 110.6924 250.3875 14.14543936 73855
CZ-6A DEB
1 58430U 22151AHY 26132.94571853  .00002952  00000-0  15016-2 0  9990
2 58430  98.9016 131.5318 0089606 109.3144 251.7745 14.14546627 73920
CZ-6A DEB
1 58430U 22151AHY 26132.94571854  .00002952  00000-0  15016-2 0  9991
2 58430  98.9016 131.5318 0089606 109.3144 251.7745 14.14546627 73920
CZ-6A DEB
1 58430U 22151AHY 26133.44085414  .00002919  00000-0  14849-2 0  9995
2 58430  98.9020 132.0259 0089636 107.9588 253.1381 14.14549131 73996
CZ-6A DEB
1 58430U 22151AHY 26133.44085415  .00002919  00000-0  14849-2 0  9996
2 58430  98.9020 132.0259 0089636 107.9588 253.1381 14.14549131 73996
CZ-6A DEB
1 58430U 22151AHY 26134.92625479  .00003291  00000-0  16707-2 0  9999
2 58430  98.9018 133.5073 0089714 103.8814 257.2359 14.14557736 74202
CZ-6A DEB
1 58430U 22151AHY 26139.45312008  .00002806  00000-0  14268-2 0  9994
2 58430  98.9018 138.0219 0089918  91.4355 269.7120 14.14585808 74847
CZ-6A DEB
1 58430U 22151AHY 26139.94823943  .00003067  00000-0  15573-2 0  9993
2 58430  98.9020 138.5158 0089915  90.0844 271.0633 14.14589809 74910
CZ-6A DEB
1 58430U 22151AHY 26139.94823944  .00003067  00000-0  15573-2 0  9994
2 58430  98.9020 138.5158 0089915  90.0844 271.0633 14.14589809 74910
CZ-6A DEB
1 58430U 22151AHY 26140.44335786  .00003105  00000-0  15762-2 0  9996
2 58430  98.9026 139.0100 0089962  88.7572 272.3906 14.14593022 74989
CZ-6A DEB
1 58430U 22151AHY 26140.44335787  .00003105  00000-0  15762-2 0  9997
2 58430  98.9026 139.0100 0089962  88.7572 272.3906 14.14593022 74989
CZ-6A DEB
1 58430U 22151AHY 26140.93847505  .00003248  00000-0  16476-2 0  9998
2 58430  98.9027 139.5036 0089951  87.3851 273.7615 14.14596574 75052
CZ-6A DEB
1 58430U 22151AHY 26141.43359075  .00003409  00000-0  17283-2 0  9990
2 58430  98.9028 139.9976 0089958  86.0331 275.1120 14.14600329 75125
CZ-6A DEB
1 58430U 22151AHY 26141.43359076  .00003409  00000-0  17283-2 0  9991
2 58430  98.9028 139.9976 0089958  86.0331 275.1120 14.14600329 75125
CZ-6A DEB
1 58430U 22151AHY 26142.42381752  .00003722  00000-0  18843-2 0  9998
2 58430  98.9027 140.9851 0089949  83.3311 277.8089 14.14608376 75264
CZ-6A DEB
1 58430U 22151AHY 26142.42381753  .00003722  00000-0  18843-2 0  9999
2 58430  98.9027 140.9851 0089949  83.3311 277.8089 14.14608376 75264
CZ-6A DEB
1 58430U 22151AHY 26142.91892820  .00003914  00000-0  19801-2 0  9993
2 58430  98.9021 141.4783 0089883  81.9623 279.1737 14.14612788 75330
CZ-6A DEB
1 58430U 22151AHY 26145.96028714  .00004550  00000-0  22971-2 0  9993
2 58430  98.9012 144.5109 0089825  73.6557 287.4470 14.14641158 75762
CZ-6A DEB
1 58430U 22151AHY 26146.45538498  .00005416  00000-0  27296-2 0  9990
2 58430  98.9021 145.0051 0089804  72.3233 288.7720 14.14648460 75831
CZ-6A DEB
1 58430U 22151AHY 26146.95048248  .00005348  00000-0  26956-2 0  9990
2 58430  98.9013 145.4984 0089816  70.9321 290.1553 14.14652643 75903
CZ-6A DEB
1 58430U 22151AHY 26146.95048248  .00005348  00000-0  26956-2 0  9990
2 58430  98.9013 145.4984 0089816  70.9321 290.1553 14.14652643 75903
CZ-6A DEB
1 58430U 22151AHY 26147.44557626  .00006322  00000-0  31816-2 0  9994
2 58430  98.9013 145.9922 0089787  69.5710 291.5076 14.14660581 75975
CZ-6A DEB
1 58430U 22151AHY 26147.44557627  .00006322  00000-0  31816-2 0  9995
2 58430  98.9013 145.9922 0089787  69.5710 291.5076 14.14660581 75975
CZ-6A DEB
1 58430U 22151AHY 26147.94066877  .00006044  00000-0  30424-2 0  9997
2 58430  98.9011 146.4859 0089771  68.2071 292.8624 14.14665253 76040
CZ-6A DEB
1 58430U 22151AHY 26147.94066878  .00006044  00000-0  30424-2 0  9998
2 58430  98.9011 146.4859 0089771  68.2071 292.8624 14.14665253 76040
CZ-6A DEB
1 58430U 22151AHY 26148.43575838  .00006385  00000-0  32123-2 0  9990
2 58430  98.9011 146.9796 0089731  66.8476 294.2121 14.14672048 76110
CZ-6A DEB
1 58430U 22151AHY 26148.93084551  .00006785  00000-0  34116-2 0  9990
2 58430  98.9010 147.4733 0089687  65.5082 295.5412 14.14679074 76185
CZ-6A DEB
1 58430U 22151AHY 26149.42593027  .00006829  00000-0  34334-2 0  9999
2 58430  98.9009 147.9671 0089659  64.1252 296.9131 14.14685700 76256
CZ-6A DEB
1 58430U 22151AHY 26149.42593027  .00006829  00000-0  34334-2 0  9999
2 58430  98.9009 147.9671 0089659  64.1252 296.9131 14.14685700 76256
CZ-6A DEB
1 58430U 22151AHY 26149.92101211  .00007231  00000-0  36335-2 0  9995
2 58430  98.9005 148.4608 0089651  62.7163 298.3105 14.14693634 76325
CZ-6A DEB
1 58430U 22151AHY 26149.92101211  .00007231  00000-0  36335-2 0  9995
2 58430  98.9005 148.4608 0089651  62.7163 298.3105 14.14693634 76325
CZ-6A DEB
1 58430U 22151AHY 26167.95471534  .00003918  00000-0  19781-2 0  9990
2 58430  98.8993 166.4459 0086732  13.3755 346.9689 14.14884273 78870
CZ-6A DEB
1 58430U 22151AHY 26167.95471534  .00003918  00000-0  19781-2 0  9990
2 58430  98.8993 166.4459 0086732  13.3755 346.9689 14.14884273 78870
CZ-6A DEB
1 58430U 22151AHY 26168.94473665  .00003969  00000-0  20016-2 0  9996
2 58430  98.9022 167.4406 0087404   9.8643 350.4221 14.14892352 79016
CZ-6A DEB
1 58430U 22151AHY 26169.43974495  .00003876  00000-0  19558-2 0  9994
2 58430  98.9009 167.9316 0087187   8.6966 351.5693 14.14895544 79087
CZ-6A DEB
1 58430U 22151AHY 26169.43974496  .00003876  00000-0  19558-2 0  9995
2 58430  98.9009 167.9317 0087187   8.6966 351.5694 14.14895544 79089
CZ-6A DEB
1 58430U 22151AHY 26169.93475181  .00003878  00000-0  19569-2 0  9991
2 58430  98.8999 168.4250 0087123   7.2877 352.9540 14.14899434 79159
CZ-6A DEB
1 58430U 22151AHY 26169.93475181  .00003878  00000-0  19569-2 0  9991
2 58430  98.8999 168.4250 0087123   7.2877 352.9540 14.14899434 79159
CZ-6A DEB
1 58430U 22151AHY 26170.42975740  .00004174  00000-0  21043-2 0  9993
2 58430  98.8998 168.9187 0087053   5.8674 354.3498 14.14903590 79228
CZ-6A DEB
1 58430U 22151AHY 26170.92476138  .00004193  00000-0  21138-2 0  9991
2 58430  98.8992 169.4124 0087006   4.4609 355.7320 14.14907824 79290
CZ-6A DEB
1 58430U 22151AHY 26171.41976407  .00004083  00000-0  20591-2 0  9990
2 58430  98.8994 169.9061 0086926   3.0436 357.1248 14.14911514 79364
CZ-6A DEB
1 58430U 22151AHY 26171.41976408  .00004083  00000-0  20591-2 0  9991
2 58430  98.8994 169.9061 0086926   3.0436 357.1248 14.14911514 79364
CZ-6A DEB
1 58430U 22151AHY 26174.95546086  .00004035  00000-0  20351-2 0  9999
2 58430  98.8999 173.4330 0086380 353.0432   6.9535 14.14938238 79861
CZ-6A DEB
1 58430U 22151AHY 26175.94544285  .00004902  00000-0  24665-2 0  9993
2 58430  98.8997 174.4205 0086257 350.2228   9.7264 14.14948521 80000
CZ-6A DEB
1 58430U 22151AHY 26175.94544285  .00004902  00000-0  24665-2 0  9993
2 58430  98.8997 174.4205 0086257 350.2228   9.7264 14.14948521 80000
CZ-6A DEB
1 58430U 22151AHY 26176.93541769  .00005175  00000-0  26026-2 0  9993
2 58430  98.8996 175.4081 0086119 347.3972  12.5047 14.14958661 80144
CZ-6A DEB
1 58430U 22151AHY 26176.93541769  .00005175  00000-0  26026-2 0  9993
2 58430  98.8996 175.4081 0086119 347.3972  12.5047 14.14958661 80144
CZ-6A DEB
1 58430U 22151AHY 26177.92538541  .00005084  00000-0  25571-2 0  9990
2 58430  98.9000 176.3962 0086005 344.5504  15.3046 14.14968656 80283
CZ-6A DEB
1 58430U 22151AHY 26177.92538541  .00005084  00000-0  25571-2 0  9990
2 58430  98.9000 176.3962 0086005 344.5504  15.3046 14.14968656 80283
CZ-6A DEB
1 58430U 22151AHY 26180.96596063  .00004926  00000-0  24780-2 0  9996
2 58430  98.8993 179.4289 0085650 335.7843  23.9315 14.14997348 80714
CZ-6A DEB
1 58430U 22151AHY 26181.95590355  .00004988  00000-0  25077-2 0  9992
2 58430  98.9005 180.4179 0085996 332.6603  27.0057 14.15006013 80856
CZ-6A DEB
1 58430U 22151AHY 26181.95590356  .00004988  00000-0  25077-2 0  9993
2 58430  98.9005 180.4179 0085996 332.6604  27.0057 14.15006013 80857
CZ-6A DEB
1 58430U 22151AHY 26182.94584054  .00005181  00000-0  26035-2 0  9992
2 58430  98.9000 181.4051 0085798 329.9104  29.7155 14.15015154 80995
CZ-6A DEB
1 58430U 22151AHY 26182.94584054  .00005181  00000-0  26035-2 0  9992
2 58430  98.9000 181.4051 0085798 329.9104  29.7155 14.15015154 80995
CZ-6A DEB
1 58430U 22151AHY 26184.43073416  .00005108  00000-0  25686-2 0  9993
2 58430  98.9011 182.8874 0084804 325.9463  33.6286 14.15028632 81205
CZ-6A DEB
1 58430U 22151AHY 26184.92569552  .00005461  00000-0  27444-2 0  9994
2 58430  98.9011 183.3813 0084770 324.4985  35.0565 14.15034029 81279
CZ-6A DEB
1 58430U 22151AHY 26184.92569553  .00005461  00000-0  27444-2 0  9995
2 58430  98.9011 183.3813 0084770 324.4985  35.0565 14.15034030 81271
CZ-6A DEB
1 58430U 22151AHY 26187.47117850  .00003852  00000-0  19423-2 0  9997
2 58430  98.9016 185.9216 0084495 317.1467  42.3142 14.15059333 81634
CZ-6A DEB
1 58430U 22151AHY 26188.46107902  .00002845  00000-0  14406-2 0  9991
2 58430  98.9013 186.9092 0084351 314.3100  45.1177 14.15065445 81773
CZ-6A DEB
1 58430U 22151AHY 26188.46107902  .00002845  00000-0  14406-2 0  9991
2 58430  98.9013 186.9092 0084351 314.3100  45.1178 14.15065445 81774
CZ-6A DEB
1 58430U 22151AHY 26189.45097595  .00002514  00000-0  12759-2 0  9999
2 58430  98.9014 187.8970 0084173 311.3879  48.0079 14.15070771 81918
CZ-6A DEB
1 58430U 22151AHY 26189.45097595  .00002514  00000-0  12759-2 0  9999
2 58430  98.9014 187.8970 0084173 311.3879  48.0079 14.15070771 81918
CZ-6A DEB
1 58430U 22151AHY 26189.45097595  .00002514  00000-0  12759-2 0  9999
2 58430  98.9014 187.8970 0084173 311.3879  48.0079 14.15070771 81918
CZ-6A DEB
1 58430U 22151AHY 26190.44086950  .00002884  00000-0  14603-2 0  9993
2 58430  98.9010 188.8847 0084035 308.4820  50.8836 14.15077163 82058
CZ-6A DEB
1 58430U 22151AHY 26191.43075962  .00002893  00000-0  14649-2 0  9994
2 58430  98.9011 189.8729 0083934 305.5859  53.7512 14.15082705 82192
CZ-6A DEB
1 58430U 22151AHY 26191.78429071  .00002816  00000-0  14264-2 0  9994
2 58430  98.9011 190.2256 0083830 304.5246  54.8033 14.15084591 82248
CZ-6A DEB
1 58430U 22151AHY 26192.42064603  .00002655  00000-0  13460-2 0  9990
2 58430  98.9010 190.8607 0083739 302.6584  56.6531 14.15087929 82336
CZ-6A DEB
1 58430U 22151AHY 26192.42064604  .00002655  00000-0  13460-2 0  9991
2 58430  98.9010 190.8607 0083739 302.6584  56.6531 14.15087929 82336
CZ-6A DEB
1 58430U 22151AHY 26192.42064604  .00002655  00000-0  13460-2 0  9991
2 58430  98.9010 190.8607 0083739 302.6584  56.6531 14.15087929 82336
CZ-6A DEB
1 58430U 22151AHY 26194.47111676  .00002349  00000-0  11940-2 0  9991
2 58430  98.8978 192.9073 0083135 296.9427  62.3272 14.15098758 82629
CZ-6A DEB
1 58430U 22151AHY 26194.47111676  .00002349  00000-0  11940-2 0  9991
2 58430  98.8978 192.9073 0083135 296.9427  62.3272 14.15098759 82620
CZ-6A DEB
1 58430U 22151AHY 26194.96605509  .00002337  00000-0  11882-2 0  9990
2 58430  98.8984 193.4012 0083157 295.4583  63.8004 14.15101229 82690
CZ-6A DEB
1 58430U 22151AHY 26195.46099304  .00002181  00000-0  11103-2 0  9999
2 58430  98.8999 193.8948 0083255 294.0510  65.1968 14.15103273 82765
CZ-6A DEB
1 58430U 22151AHY 26195.95593016  .00002248  00000-0  11435-2 0  9994
2 58430  98.8993 194.3888 0083145 292.5278  66.7110 14.15105636 82839
CZ-6A DEB
1 58430U 22151AHY 26195.95593017  .00002248  00000-0  11435-2 0  9995
2 58430  98.8993 194.3888 0083145 292.5278  66.7110 14.15105636 82839
CZ-6A DEB
1 58430U 22151AHY 26196.45086652  .00002144  00000-0  10916-2 0  9991
2 58430  98.9005 194.8827 0083217 291.0659  68.1631 14.15107807 82903
CZ-6A DEB
1 58430U 22151AHY 26196.45086652  .00002144  00000-0  10916-2 0  9991
2 58430  98.9005 194.8827 0083217 291.0659  68.1631 14.15107807 82903
CZ-6A DEB
1 58430U 22151AHY 26196.94580264  .00002211  00000-0  11250-2 0  9990
2 58430  98.9007 195.3766 0083176 289.6071  69.6138 14.15110046 82972
CZ-6A DEB
1 58430U 22151AHY 26196.94580264  .00002211  00000-0  11250-2 0  9990
2 58430  98.9007 195.3766 0083176 289.6071  69.6138 14.15110046 82972
CZ-6A DEB
1 58430U 22151AHY 26197.44073810  .00002175  00000-0  11071-2 0  9990
2 58430  98.9009 195.8706 0083144 288.1526  71.0607 14.15112135 83045
CZ-6A DEB
1 58430U 22151AHY 26197.44073811  .00002175  00000-0  11071-2 0  9991
2 58430  98.9009 195.8706 0083144 288.1526  71.0607 14.15112135 83045
CZ-6A DEB
1 58430U 22151AHY 26197.93567272  .00002277  00000-0  11579-2 0  9990
2 58430  98.9010 196.3646 0083099 286.6951  72.5114 14.15114691 83116
CZ-6A DEB
1 58430U 22151AHY 26197.93567272  .00002277  00000-0  11579-2 0  9990
2 58430  98.9010 196.3646 0083099 286.6951  72.5114 14.15114691 83116
CZ-6A DEB
1 58430U 22151AHY 26198.43060676  .00002253  00000-0  11457-2 0  9991
2 58430  98.9011 196.8586 0083046 285.2294  73.9708 14.15116862 83185
CZ-6A DEB
1 58430U 22151AHY 26198.43060676  .00002253  00000-0  11457-2 0  9991
2 58430  98.9011 196.8586 0083046 285.2294  73.9708 14.15116862 83185
CZ-6A DEB
1 58430U 22151AHY 26198.92554005  .00002309  00000-0  11737-2 0  9992
2 58430  98.9011 197.3525 0083008 283.7698  75.4247 14.15119274 83256
CZ-6A DEB
1 58430U 22151AHY 26201.47090000  .00002357  00000-0  11976-2 0  9995
2 58430  98.9013 199.8927 0082855 276.2558  82.9182 14.15131524 83615
CZ-6A DEB
1 58430U 22151AHY 26201.96582861  .00002708  00000-0  13725-2 0  9994
2 58430  98.9014 200.3867 0082866 274.8186  84.3529 14.15135086 83685
CZ-6A DEB
1 58430U 22151AHY 26201.96582861  .00002708  00000-0  13725-2 0  9994
2 58430  98.9014 200.3867 0082866 274.8186  84.3529 14.15135086 83685
CZ-6A DEB
1 58430U 22151AHY 26202.46075615  .00003208  00000-0  16214-2 0  9996
2 58430  98.9016 200.8808 0082824 273.3593  85.8108 14.15139331 83751
CZ-6A DEB
1 58430U 22151AHY 26202.95568276  .00003708  00000-0  18703-2 0  9990
2 58430  98.9016 201.3748 0082808 271.9104  87.2587 14.15143619 83823
CZ-6A DEB
1 58430U 22151AHY 26203.45060817  .00003474  00000-0  17539-2 0  9990
2 58430  98.9015 201.8687 0082796 270.4594  88.7092 14.15145969 83896
CZ-6A DEB
1 58430U 22151AHY 26203.94553250  .00003681  00000-0  18566-2 0  9993
2 58430  98.9016 202.3628 0082777 269.0085  90.1604 14.15149774 83968
CZ-6A DEB
1 58430U 22151AHY 26204.44045609  .00003601  00000-0  18169-2 0  9994
2 58430  98.9014 202.8567 0082764 267.5454  91.6242 14.15152671 84035
CZ-6A DEB
1 58430U 22151AHY 26204.44045609  .00003601  00000-0  18169-2 0  9994
2 58430  98.9014 202.8567 0082764 267.5454  91.6242 14.15152671 84035
CZ-6A DEB
1 58430U 22151AHY 26204.93537833  .00003779  00000-0  19052-2 0  9991
2 58430  98.9017 203.3510 0082722 266.0848  93.0865 14.15156600 84108
CZ-6A DEB
1 58430U 22151AHY 26205.43029804  .00004170  00000-0  21000-2 0  9993
2 58430  98.9016 203.8448 0082718 264.6313  94.5419 14.15162062 84175
CZ-6A DEB
1 58430U 22151AHY 26208.47049803  .00003840  00000-0  19344-2 0  9992
2 58430  98.9019 206.8801 0082674 255.6400 103.5585 14.15184502 84608
CZ-6A DEB
1 58430U 22151AHY 26208.47049804  .00003840  00000-0  19344-2 0  9993
2 58430  98.9019 206.8801 0082674 255.6400 103.5585 14.15184502 84608
CZ-6A DEB
1 58430U 22151AHY 26208.96541003  .00003877  00000-0  19530-2 0  9992
2 58430  98.9015 207.3739 0082635 254.1091 105.0963 14.15188081 84677
CZ-6A DEB
1 58430U 22151AHY 26209.95523098  .00003604  00000-0  18169-2 0  9991
2 58430  98.9013 208.3620 0082618 251.2334 107.9862 14.15194563 84811
CZ-6A DEB
1 58430U 22151AHY 26209.95523099  .00003604  00000-0  18169-2 0  9992
2 58430  98.9013 208.3620 0082618 251.2334 107.9862 14.15194563 84811
CZ-6A DEB
1 58430U 22151AHY 26210.94504731  .00003588  00000-0  18089-2 0  9997
2 58430  98.9012 209.3501 0082634 248.3333 110.9025 14.15201597 84959
CZ-6A DEB
1 58430U 22151AHY 26212.42976310  .00003387  00000-0  17083-2 0  9998
2 58430  98.9017 210.8324 0082677 243.9489 115.3156 14.15211836 85169
CZ-6A DEB
1 58430U 22151AHY 26213.77306880  .00003756  00000-0  18913-2 0  9999
2 58430  98.9022 212.1735 0082699 239.9417 119.3535 14.15222022 85351
CZ-6A DEB
1 58430U 22151AHY 26214.97496703  .00003428  00000-0  17282-2 0  9990
2 58430  98.9024 213.3732 0082741 236.3926 122.9331 14.15229824 85527
CZ-6A DEB
1 58430U 22151AHY 26215.46986484  .00003316  00000-0  16722-2 0  9999
2 58430  98.9024 213.8672 0082726 234.9340 124.4054 14.15232852 85593
CZ-6A DEB
1 58430U 22151AHY 26215.96476134  .00003039  00000-0  15343-2 0  9990
2 58430  98.9025 214.3612 0082771 233.4657 125.8875 14.15235439 85667
CZ-6A DEB
1 58430U 22151AHY 26216.95455172  .00002622  00000-0  13267-2 0  9999
2 58430  98.9026 215.3493 0082837 230.5516 128.8307 14.15240704 85801
CZ-6A DEB
1 58430U 22151AHY 26217.94433901  .00002309  00000-0  11708-2 0  9995
2 58430  98.9029 216.3375 0082898 227.6596 131.7535 14.15245521 85949
CZ-6A DEB
1 58430U 22151AHY 26218.93412321  .00002297  00000-0  11645-2 0  9994
2 58430  98.9028 217.3257 0082988 224.7350 134.7111 14.15250403 86088
CZ-6A DEB
1 58430U 22151AHY 26219.42901405  .00002271  00000-0  11516-2 0  9994
2 58430  98.9029 217.8200 0083049 223.2353 136.2281 14.15252758 86156
CZ-6A DEB
1 58430U 22151AHY 26221.97415560  .00002213  00000-0  11226-2 0  9993
2 58430  98.9024 220.3613 0083279 215.7593 143.7986 14.15265048 86516
CZ-6A DEB
1 58430U 22151AHY 26222.46904215  .00002107  00000-0  10696-2 0  9990
2 58430  98.9022 220.8553 0083314 214.3315 145.2457 14.15267054 86585
CZ-6A DEB
1 58430U 22151AHY 26222.46904216  .00002107  00000-0  10696-2 0  9991
2 58430  98.9022 220.8553 0083314 214.3316 145.2457 14.15267054 86586
CZ-6A DEB
1 58430U 22151AHY 26222.96392786  .00002021  00000-0  10267-2 0  9998
2 58430  98.9023 221.3496 0083353 212.9189 146.6777 14.15269116 86653
CZ-6A DEB
1 58430U 22151AHY 26222.96392787  .00002021  00000-0  10267-2 0  9999
2 58430  98.9023 221.3496 0083353 212.9189 146.6777 14.15269116 86653
CZ-6A DEB
1 58430U 22151AHY 26223.45881286  .00002033  00000-0  10327-2 0  9991
2 58430  98.9023 221.8438 0083409 211.4667 148.1502 14.15271485 86724
CZ-6A DEB
1 58430U 22151AHY 26223.95369711  .00002096  00000-0  10639-2 0  9995
2 58430  98.9024 222.3380 0083453 210.0271 149.6103 14.15273938 86797
CZ-6A DEB
1 58430U 22151AHY 26223.95369711  .00002096  00000-0  10639-2 0  9995
2 58430  98.9024 222.3380 0083453 210.0271 149.6102 14.15273937 86795
CZ-6A DEB
1 58430U 22151AHY 26224.44858108  .00001939  00000-0  98562-3 0  9990
2 58430  98.9027 222.8324 0083470 208.5632 151.0955 14.15275528 86862
CZ-6A DEB
1 58430U 22151AHY 26224.44858108  .00001939  00000-0  98562-3 0  9990
2 58430  98.9027 222.8324 0083470 208.5632 151.0955 14.15275528 86862
CZ-6A DEB
1 58430U 22151AHY 26224.94346443  .00001992  00000-0  10123-2 0  9994
2 58430  98.9027 223.3266 0083493 207.1253 152.5546 14.15277586 86938
CZ-6A DEB
1 58430U 22151AHY 26225.93322894  .00002276  00000-0  11529-2 0  9995
2 58430  98.9030 224.3152 0083607 204.2319 155.4912 14.15282280 87077
CZ-6A DEB
1 58430U 22151AHY 26225.93322894  .00002276  00000-0  11529-2 0  9995
2 58430  98.9030 224.3152 0083607 204.2319 155.4912 14.15282280 87077
CZ-6A DEB
1 58430U 22151AHY 26226.42810997  .00002434  00000-0  12312-2 0  9993
2 58430  98.9034 224.8095 0083653 202.7730 156.9724 14.15284881 87147
CZ-6A DEB
1 58430U 22151AHY 26226.42810997  .00002434  00000-0  12312-2 0  9993
2 58430  98.9034 224.8095 0083653 202.7730 156.9724 14.15284881 87147
CZ-6A DEB
1 58430U 22151AHY 26228.97320019  .00002612  00000-0  13191-2 0  9990
2 58430  98.9041 227.3512 0083992 195.3708 164.4912 14.15297336 87507
CZ-6A DEB
1 58430U 22151AHY 26228.97320019  .00002612  00000-0  13191-2 0  9990
2 58430  98.9041 227.3512 0083992 195.3708 164.4912 14.15297336 87507
CZ-6A DEB
1 58430U 22151AHY 26229.46807606  .00002630  00000-0  13278-2 0  9993
2 58430  98.9041 227.8452 0084081 193.9113 165.9744 14.15299978 87579
CZ-6A DEB
1 58430U 22151AHY 26230.95269878  .00003180  00000-0  16001-2 0  9990
2 58430  98.9043 229.3277 0084312 189.5725 170.3845 14.15309232 87780
CZ-6A DEB
1 58430U 22151AHY 26230.95269879  .00003180  00000-0  16001-2 0  9991
2 58430  98.9043 229.3277 0084312 189.5725 170.3845 14.15309232 87780
CZ-6A DEB
1 58430U 22151AHY 26231.94244231  .00003424  00000-0  17206-2 0  9995
2 58430  98.9044 230.3160 0084420 186.7283 173.2764 14.15315426 87922
CZ-6A DEB
1 58430U 22151AHY 26235.47720393  .00003093  00000-0  15551-2 0  9998
2 58430  98.9048 233.8467 0084940 176.5732 183.6041 14.15337032 88423
CZ-6A DEB
1 58430U 22151AHY 26235.97206627  .00003016  00000-0  15169-2 0  9992
2 58430  98.9044 234.3407 0085037 175.1240 185.0781 14.15339919 88496
CZ-6A DEB
1 58430U 22151AHY 26236.46692757  .00002971  00000-0  14946-2 0  9991
2 58430  98.9042 234.8346 0085010 173.7697 186.4555 14.15342856 88568
CZ-6A DEB
1 58430U 22151AHY 26236.46692757  .00002971  00000-0  14946-2 0  9991
2 58430  98.9042 234.8346 0085010 173.7697 186.4555 14.15342856 88568
CZ-6A DEB
1 58430U 22151AHY 26236.96178772  .00002963  00000-0  14902-2 0  9995
2 58430  98.9042 235.3290 0085098 172.3265 187.9233 14.15345822 88637
CZ-6A DEB
1 58430U 22151AHY 26237.95150507  .00003158  00000-0  15863-2 0  9995
2 58430  98.9042 236.3175 0085164 169.5240 190.7733 14.15352183 88775
CZ-6A DEB
1 58430U 22151AHY 26237.95150508  .00003158  00000-0  15863-2 0  9996
2 58430  98.9042 236.3175 0085164 169.5240 190.7733 14.15352183 88775
CZ-6A DEB
1 58430U 22151AHY 26237.95150508  .00003158  00000-0  15863-2 0  9996
2 58430  98.9042 236.3175 0085164 169.5240 190.7733 14.15352183 88775
CZ-6A DEB
1 58430U 22151AHY 26239.93092715  .00003755  00000-0  18809-2 0  9997
2 58430  98.9039 238.2945 0085389 163.8832 196.5088 14.15365538 89057
CZ-6A DEB
1 58430U 22151AHY 26239.93092716  .00003755  00000-0  18809-2 0  9998
2 58430  98.9039 238.2945 0085389 163.8832 196.5088 14.15365538 89057
CZ-6A DEB
1 58430U 22151AHY 26242.47587025  .00003226  00000-0  16183-2 0  9999
2 58430  98.9045 240.8365 0085797 156.6542 203.8564 14.15380728 89419
CZ-6A DEB
1 58430U 22151AHY 26242.47587026  .00003226  00000-0  16183-2 0  9990
2 58430  98.9045 240.8365 0085797 156.6542 203.8564 14.15380728 89419
CZ-6A DEB
1 58430U 22151AHY 26243.96040640  .00002700  00000-0  13576-2 0  9990
2 58430  98.9043 242.3188 0086133 152.4212 208.1570 14.15388971 89626
CZ-6A DEB
1 58430U 22151AHY 26243.96040641  .00002700  00000-0  13576-2 0  9991
2 58430  98.9043 242.3188 0086133 152.4212 208.1570 14.15388971 89626
CZ-6A DEB
1 58430U 22151AHY 26244.45524990  .00002539  00000-0  12780-2 0  9996
2 58430  98.9046 242.8131 0086197 151.0211 209.5787 14.15391440 89693
CZ-6A DEB
1 58430U 22151AHY 26244.45524990  .00002539  00000-0  12780-2 0  9996
2 58430  98.9046 242.8132 0086197 151.0211 209.5787 14.15391440 89694
CZ-6A DEB
1 58430U 22151AHY 26244.95009229  .00002526  00000-0  12714-2 0  9997
2 58430  98.9048 243.3075 0086263 149.6036 211.0179 14.15394280 89766
