METEOR 2-11 DEB
1 60004U 84072Z   24153.53136911  .00003075  00000-0  22948-2 0  9997
2 60004  82.5228 248.1135 0018226 255.4579 104.4566 13.94424206359951
METEOR 2-11 DEB
1 60004U 84072Z   24162.50055710  .00003630  00000-0  27079-2 0  9998
2 60004  82.5199 240.8403 0018581 227.7578 132.2012 13.94488815361202
METEOR 2-11 DEB
1 60004U 84072Z   24162.50055710  .00003630  00000-0  27079-2 0  9998
2 60004  82.5199 240.8403 0018581 227.7578 132.2012 13.94488815361246
METEOR 2-11 DEB
1 60004U 84072Z   24163.50507960  .00003763  00000-0  28069-2 0  9995
2 60004  82.5206 240.0273 0018564 225.3847 134.5805 13.94495839361380
METEOR 2-11 DEB
1 60004U 84072Z   24163.93558785  .00003352  00000-0  24994-2 0  9990
2 60004  82.5207 239.6783 0018626 224.2202 135.7476 13.94497807361400
METEOR 2-11 DEB
1 60004U 84072Z   24163.93558785  .00003352  00000-0  24994-2 0  9990
2 60004  82.5207 239.6783 0018626 224.2202 135.7476 13.94497807361444
METEOR 2-11 DEB
1 60004U 84072Z   24167.45138187  .00002658  00000-0  19789-2 0  9995
2 60004  82.5219 236.8260 0018727 213.6514 146.3464 13.94515412361938
METEOR 2-11 DEB
1 60004U 84072Z   24169.89088587  .00002467  00000-0  18354-2 0  9998
2 60004  82.5211 234.8473 0018974 206.6231 153.3962 13.94527264362273
METEOR 2-11 DEB
1 60004U 84072Z   24169.89088587  .00002467  00000-0  18354-2 0  9998
2 60004  82.5211 234.8473 0018974 206.6231 153.3962 13.94527264362239
METEOR 2-11 DEB
1 60004U 84072Z   24180.86843296  .00003146  00000-0  23413-2 0  9991
2 60004  82.5216 225.9475 0020303 177.3764 182.7512 13.94577160363767
METEOR 2-11 DEB
1 60004U 84072Z   24180.86843296  .00003146  00000-0  23413-2 0  9991
2 60004  82.5216 225.9475 0020303 177.3764 182.7512 13.94577160363802
METEOR 2-11 DEB
1 60004U 84072Z   24186.82339103  .00002263  00000-0  16802-2 0  9993
2 60004  82.5204 221.1178 0020074 158.8028 201.3974 13.94607894364594
METEOR 2-11 DEB
1 60004U 84072Z   24186.82339103  .00002263  00000-0  16802-2 0  9993
2 60004  82.5204 221.1178 0020074 158.8028 201.3974 13.94607894364639
METEOR 2-11 DEB
1 60004U 84072Z   24198.30244247  .00003562  00000-0  26471-2 0  9999
2 60004  82.5209 211.8093 0020921 129.5379 230.7641 13.94670623366191
METEOR 2-11 DEB
1 60004U 84072Z   24198.30244247  .00003562  00000-0  26471-2 0  9999
2 60004  82.5209 211.8093 0020921 129.5379 230.7641 13.94670623366236
METEOR 2-11 DEB
1 60004U 84072Z   24200.31121367  .00004247  00000-0  31582-2 0  9991
2 60004  82.5283 210.1969 0018928 121.9757 238.3252 13.94689011366471
METEOR 2-11 DEB
1 60004U 84072Z   24200.31121367  .00004247  00000-0  31582-2 0  9991
2 60004  82.5283 210.1969 0018928 121.9757 238.3252 13.94689011366516
METEOR 2-11 DEB
1 60004U 84072Z   24246.50303752  .00009946  00000-0  72922-2 0  9996
2 60004  82.5053 172.6609 0034379  33.0488 327.2817 13.95372972372918
METEOR 2-11 DEB
1 60004U 84072Z   24246.50303752  .00009946  00000-0  72922-2 0  9996
2 60004  82.5053 172.6609 0034379  33.0488 327.2817 13.95372972372952
METEOR 2-11 DEB
1 60004U 84072Z   24250.51836186  .00011509  00000-0  84523-2 0  9992
2 60004  82.5201 169.4390 0019873 357.2677   2.8378 13.95467110373511
METEOR 2-11 DEB
1 60004U 84072Z   24250.51836186  .00011509  00000-0  84523-2 0  9992
2 60004  82.5201 169.4390 0019873 357.2677   2.8378 13.95467110373476
METEOR 2-11 DEB
1 60004U 84072Z   24256.03911248  .00010362  00000-0  75935-2 0  9991
2 60004  82.5227 164.9542 0019567 343.0450  17.0061 13.95588136374240
METEOR 2-11 DEB
1 60004U 84072Z   24256.03911248  .00010362  00000-0  75935-2 0  9991
2 60004  82.5227 164.9542 0019567 343.0450  17.0061 13.95588136374284
METEOR 2-11 DEB
1 60004U 84072Z   24264.42695793  .00005613  00000-0  41011-2 0  9998
2 60004  82.5273 158.1470 0019064 320.6145  39.3634 13.95724808375411
METEOR 2-11 DEB
1 60004U 84072Z   24264.42695793  .00005613  00000-0  41011-2 0  9998
2 60004  82.5273 158.1470 0019064 320.6145  39.3634 13.95724808375455
METEOR 2-11 DEB
1 60004U 84072Z   24271.38050573  .00006078  00000-0  44365-2 0  9993
2 60004  82.5208 152.4920 0017246 299.6726  60.2723 13.95808680376386
METEOR 2-11 DEB
1 60004U 84072Z   24271.38050573  .00006078  00000-0  44365-2 0  9993
2 60004  82.5208 152.4920 0017246 299.6726  60.2723 13.95808680376421
METEOR 2-11 DEB
1 60004U 84072Z   24272.38407099  .00005702  00000-0  41610-2 0  9996
2 60004  82.5176 151.6803 0017221 293.4577  66.4779 13.95821181376526
METEOR 2-11 DEB
1 60004U 84072Z   24272.38407099  .00005702  00000-0  41610-2 0  9996
2 60004  82.5176 151.6803 0017221 293.4577  66.4779 13.95821181376560
METEOR 2-11 DEB
1 60004U 84072Z   24273.38763146  .00006646  00000-0  48496-2 0  9992
2 60004  82.5186 150.8620 0017005 291.9278  68.0081 13.95835604376660
METEOR 2-11 DEB
1 60004U 84072Z   24273.38763146  .00006646  00000-0  48496-2 0  9992
2 60004  82.5186 150.8620 0017005 291.9278  68.0081 13.95835604376705
METEOR 2-11 DEB
1 60004U 84072Z   24276.39823950  .00011115  00000-0  81051-2 0  9997
2 60004  82.5223 148.4147 0017060 283.3747  76.5518 13.95889832377084
METEOR 2-11 DEB
1 60004U 84072Z   24276.39823950  .00011115  00000-0  81051-2 0  9997
2 60004  82.5223 148.4147 0017060 283.3747  76.5518 13.95889832377129
METEOR 2-11 DEB
1 60004U 84072Z   24288.29612135  .00004756  00000-0  34523-2 0  9995
2 60004  82.5163 138.7360 0014889 246.3515 113.6089 13.96106626378748
METEOR 2-11 DEB
1 60004U 84072Z   24288.29612135  .00004756  00000-0  34523-2 0  9995
2 60004  82.5163 138.7360 0014889 246.3515 113.6089 13.96106626378782
METEOR 2-11 DEB
1 60004U 84072Z   24290.30282568  .00005607  00000-0  40694-2 0  9995
2 60004  82.5200 137.1078 0016366 238.5482 121.4085 13.96125434379020
METEOR 2-11 DEB
1 60004U 84072Z   24290.30282568  .00005607  00000-0  40694-2 0  9995
2 60004  82.5200 137.1078 0016366 238.5482 121.4085 13.96125434379064
METEOR 2-11 DEB
1 60004U 84072Z   24316.17125237  .00008167  00000-0  58822-2 0  9994
2 60004  82.5154 116.0592 0016896 162.9697 197.2041 13.96580476382670
METEOR 2-11 DEB
1 60004U 84072Z   24316.17125237  .00008167  00000-0  58822-2 0  9994
2 60004  82.5154 116.0592 0016896 162.9697 197.2041 13.96580476382636
METEOR 2-11 DEB
1 60004U 84072Z   24350.98467899  .00004986  00000-0  35600-2 0  9998
2 60004  82.5232  87.7219 0016802  64.3388 295.9512 13.97024727387538
METEOR 2-11 DEB
1 60004U 84072Z   24360.93969359  .00005637  00000-0  40210-2 0  9999
2 60004  82.5283  79.6284 0013492  37.8238 322.3875 13.97126780388885
METEOR 2-11 DEB
1 60004U 84072Z   24360.93969359  .00005637  00000-0  40210-2 0  9999
2 60004  82.5283  79.6284 0013492  37.8238 322.3875 13.97126780388920
METEOR 2-11 DEB
1 60004U 84072Z   25059.16748449  .00007501  00000-0  52392-2 0  9991
2 60004  82.5182  26.8602 0009485 149.7260 210.4458 13.98348929397859
METEOR 2-11 DEB
1 60004U 84072Z   25059.16748449  .00007501  00000-0  52392-2 0  9991
2 60004  82.5182  26.8602 0009485 149.7260 210.4458 13.98348929397893
METEOR 2-11 DEB
1 60004U 84072Z   25069.11303611  .00006110  00000-0  42573-2 0  9990
2 60004  82.5169  18.7373 0010872 119.1788 241.0469 13.98464482399247
METEOR 2-11 DEB
1 60004U 84072Z   25069.11303611  .00006110  00000-0  42573-2 0  9990
2 60004  82.5169  18.7373 0010872 119.1788 241.0469 13.98464482399281
METEOR 2-11 DEB
1 60004U 84072Z   25070.11470280  .00005654  00000-0  39380-2 0  9993
2 60004  82.5176  17.9201 0011104 115.7207 244.5108 13.98475463399387
METEOR 2-11 DEB
1 60004U 84072Z   25070.11470280  .00005654  00000-0  39380-2 0  9993
2 60004  82.5176  17.9201 0011104 115.7207 244.5108 13.98475463399422
METEOR 2-11 DEB
1 60004U 84072Z   25086.49737788  .00008261  00000-0  57253-2 0  9996
2 60004  82.5182   4.5347 0013933  74.0461 286.2241 13.98770227401716
METEOR 2-11 DEB
1 60004U 84072Z   25086.49737788  .00008261  00000-0  57253-2 0  9996
2 60004  82.5182   4.5347 0013933  74.0461 286.2241 13.98770227401671
METEOR 2-11 DEB
1 60004U 84072Z   25092.00521579  .00005079  00000-0  35123-2 0  9995
2 60004  82.5184   0.0349 0015109  61.9961 298.2734 13.98836300402444
METEOR 2-11 DEB
1 60004U 84072Z   25092.00521579  .00005079  00000-0  35123-2 0  9995
2 60004  82.5184   0.0349 0015109  61.9961 298.2734 13.98836300402488
METEOR 2-11 DEB
1 60004U 84072Z   25104.37897461  .00005053  00000-0  34842-2 0  9994
2 60004  82.5189 349.9220 0016399  37.2094 323.0207 13.98990561404171
METEOR 2-11 DEB
1 60004U 84072Z   25104.37897461  .00005053  00000-0  34842-2 0  9994
2 60004  82.5189 349.9220 0016399  37.2094 323.0207 13.98990561404216
METEOR 2-11 DEB
1 60004U 84072Z   25125.83364254  .00003577  00000-0  24565-2 0  9997
2 60004  82.5183 332.3797 0013360 348.2885  11.7970 13.99186051407160
METEOR 2-11 DEB
1 60004U 84072Z   25125.83364254  .00003577  00000-0  24565-2 0  9997
2 60004  82.5183 332.3797 0013360 348.2885  11.7970 13.99186051407216
METEOR 2-11 DEB
1 60004U 84072Z   25145.71290992  .00002539  00000-0  17379-2 0  9995
2 60004  82.5147 316.1133 0010754 278.8870  81.1080 13.99291028409942
METEOR 2-11 DEB
1 60004U 84072Z   25145.71290992  .00002539  00000-0  17379-2 0  9995
2 60004  82.5147 316.1133 0010754 278.8870  81.1080 13.99291028409997
METEOR 2-11 DEB
1 60004U 84072Z   25162.65937768  .00001967  00000-0  13425-2 0  9998
2 60004  82.5165 302.2556 0012969 223.4381 136.5766 13.99359582412311
METEOR 2-11 DEB
1 60004U 84072Z   25162.65937768  .00001967  00000-0  13425-2 0  9998
2 60004  82.5165 302.2556 0012969 223.4381 136.5766 13.99359582412366
METEOR 2-11 DEB
1 60004U 84072Z   25165.09045647  .00003023  00000-0  20678-2 0  9998
2 60004  82.5168 300.2661 0013593 218.1215 141.8993 13.99364527412653
METEOR 2-11 DEB
1 60004U 84072Z   25165.09045647  .00003023  00000-0  20678-2 0  9998
2 60004  82.5168 300.2661 0013593 218.1215 141.8993 13.99364527412709
METEOR 2-11 DEB
1 60004U 84072Z   25169.59508267  .00001797  00000-0  12248-2 0  9999
2 60004  82.5146 296.5727 0013654 203.6430 156.4113 13.99372094413335
METEOR 2-11 DEB
1 60004U 84072Z   25169.59508267  .00001797  00000-0  12248-2 0  9999
2 60004  82.5146 296.5727 0013654 203.6430 156.4113 13.99372094413289
METEOR 2-11 DEB
1 60004U 84072Z   25175.02918235  .00001129  00000-0  76545-3 0  9994
2 60004  82.5163 292.1278 0014190 188.8376 171.2546 13.99383035414047
METEOR 2-11 DEB
1 60004U 84072Z   25175.02918235  .00001129  00000-0  76545-3 0  9994
2 60004  82.5163 292.1278 0014190 188.8376 171.2546 13.99383035414092
METEOR 2-11 DEB
1 60004U 84072Z   25190.97371400  .00000965  00000-0  65213-3 0  9999
2 60004  82.5153 279.0800 0015157 147.6745 212.5355 13.99417210416275
METEOR 2-11 DEB
1 60004U 84072Z   25190.97371400  .00000965  00000-0  65213-3 0  9999
2 60004  82.5153 279.0800 0015157 147.6745 212.5355 13.99417210416321
METEOR 2-11 DEB
1 60004U 84072Z   25199.91103059  .00001097  00000-0  74268-3 0  9992
2 60004  82.5155 271.7702 0015417 124.4380 235.8248 13.99441444417573
METEOR 2-11 DEB
1 60004U 84072Z   25199.91103059  .00001097  00000-0  74268-3 0  9992
2 60004  82.5155 271.7702 0015417 124.4380 235.8248 13.99441444417528
METEOR 2-11 DEB
1 60004U 84072Z   25201.91296111  .00001259  00000-0  85393-3 0  9999
2 60004  82.5175 270.1378 0014800 124.1579 236.0995 13.99448682417853
METEOR 2-11 DEB
1 60004U 84072Z   25201.91296111  .00001259  00000-0  85393-3 0  9999
2 60004  82.5175 270.1378 0014800 124.1579 236.0995 13.99448682417808
METEOR 2-11 DEB
1 60004U 84072Z   25202.48494849  .00001273  00000-0  86343-3 0  9992
2 60004  82.5150 269.6629 0015532 116.9112 243.3646 13.99449993417932
METEOR 2-11 DEB
1 60004U 84072Z   25250.24170756  .00003894  00000-0  26508-2 0  9994
2 60004  82.5053 230.5561 0013319 350.6204   9.4714 13.99693648424614
METEOR 2-11 DEB
1 60004U 84072Z   25264.60987607  .00004398  00000-0  29914-2 0  9994
2 60004  82.5122 218.7954 0011908 313.5164  46.5014 13.99765418426623
METEOR 2-11 DEB
1 60004U 84072Z   25276.54686780  .00006749  00000-0  45856-2 0  9993
2 60004  82.5143 209.0256 0010578 278.9326  81.0645 13.99887997428296
METEOR 2-11 DEB
1 60004U 84072Z   25277.54752426  .00004741  00000-0  32191-2 0  9993
2 60004  82.5169 208.2123 0010347 277.3820  82.6173 13.99886237428439
METEOR 2-11 DEB
1 60004U 84072Z   25278.54817610  .00003445  00000-0  23368-2 0  9997
2 60004  82.5170 207.3930 0010085 274.3636  85.6381 13.99891959428574
METEOR 2-11 DEB
1 60004U 84072Z   25289.05480332  .00003010  00000-0  20385-2 0  9996
2 60004  82.5144 198.7884 0008045 237.4751 122.5641 13.99946282430042
METEOR 2-11 DEB
1 60004U 84072Z   25289.05480333  .00003010  00000-0  20385-2 0  9997
2 60004  82.5144 198.7885 0008045 237.4751 122.5641 13.99946282430043
METEOR 2-11 DEB
1 60004U 84072Z   25293.98634833  .00003045  00000-0  20613-2 0  9992
2 60004  82.5156 194.7510 0007457 216.7998 143.2660 13.99972726430735
METEOR 2-11 DEB
1 60004U 84072Z   25300.41865352  .00002368  00000-0  16004-2 0  9997
2 60004  82.5172 189.4872 0006730 180.2757 179.8410 14.00004328431631
METEOR 2-11 DEB
1 60004U 84072Z   25300.41865352  .00002368  00000-0  16004-2 0  9997
2 60004  82.5172 189.4872 0006730 180.2757 179.8410 14.00004328431631
METEOR 2-11 DEB
1 60004U 84072Z   25308.92337180  .00001899  00000-0  12799-2 0  9999
2 60004  82.5180 182.5253 0007549 150.1726 209.9874 14.00042674432825
METEOR 2-11 DEB
1 60004U 84072Z   25316.35585225  .00003992  00000-0  26995-2 0  9999
2 60004  82.5173 176.4379 0008478 122.0127 238.1867 14.00089687433869
METEOR 2-11 DEB
1 60004U 84072Z   25324.28820382  .00002335  00000-0  15731-2 0  9992
2 60004  82.5166 169.9415 0009704  96.7328 263.4946 14.00157874434978
METEOR 2-11 DEB
1 60004U 84072Z   25324.28820382  .00002335  00000-0  15731-2 0  9992
2 60004  82.5166 169.9415 0009704  96.7328 263.4946 14.00157874434978
METEOR 2-11 DEB
1 60004U 84072Z   25332.79193819  .00002612  00000-0  17593-2 0  9991
2 60004  82.5170 162.9780 0010288  72.2353 287.9938 14.00209321436167
METEOR 2-11 DEB
1 60004U 84072Z   26055.38022875  .00002174  00000-0  14469-2 0  9994
2 60004  82.5074  91.1482 0014073 160.2034 199.9685 14.00787671448424
METEOR 2-11 DEB
1 60004U 84072Z   26055.38022875  .00002174  00000-0  14469-2 0  9994
2 60004  82.5074  91.1482 0014073 160.2034 199.9685 14.00787671448424
METEOR 2-11 DEB
1 60004U 84072Z   26070.30860497  .00002404  00000-0  15990-2 0  9999
2 60004  82.5160  78.9349 0012955 125.2878 234.9506 14.00859041450515
METEOR 2-11 DEB
1 60004U 84072Z   26070.30860497  .00002404  00000-0  15990-2 0  9999
2 60004  82.5160  78.9349 0012955 125.2878 234.9506 14.00859040450514
METEOR 2-11 DEB
1 60004U 84072Z   26071.73710767  .00002994  00000-0  19935-2 0  9998
2 60004  82.5149  77.7577 0013130 120.5117 239.7350 14.00874167450710
METEOR 2-11 DEB
1 60004U 84072Z   26071.73710768  .00002994  00000-0  19935-2 0  9999
2 60004  82.5149  77.7577 0013130 120.5117 239.7350 14.00874167450710
METEOR 2-11 DEB
1 60004U 84072Z   26074.30840464  .00002565  00000-0  17052-2 0  9994
2 60004  82.5063  75.6291 0015101 114.2822 245.9927 14.00881724451074
METEOR 2-11 DEB
1 60004U 84072Z   26078.23672973  .00002203  00000-0  14627-2 0  9992
2 60004  82.5088  72.3986 0015396 103.2820 257.0067 14.00898642451625
METEOR 2-11 DEB
1 60004U 84072Z   26082.66496547  .00002407  00000-0  15989-2 0  9993
2 60004  82.5084  68.7670 0016167  89.7227 270.5795 14.00918913452247
METEOR 2-11 DEB
1 60004U 84072Z   26084.23625455  .00002416  00000-0  16042-2 0  9991
2 60004  82.5094  67.4778 0016077  85.8357 274.4650 14.00927952452464
METEOR 2-11 DEB
1 60004U 84072Z   26099.16287059  .00002768  00000-0  18355-2 0  9992
2 60004  82.5108  55.2241 0017161  48.9752 311.2898 14.01037306454556
METEOR 2-11 DEB
1 60004U 84072Z   26099.16287060  .00002768  00000-0  18355-2 0  9994
2 60004  82.5108  55.2241 0017161  48.9752 311.2898 14.01037306454556
METEOR 2-11 DEB
1 60004U 84072Z   26100.59119078  .00003042  00000-0  20178-2 0  9999
2 60004  82.5091  54.0479 0018179  46.1296 314.1371 14.01049877454756
METEOR 2-11 DEB
1 60004U 84072Z   26111.51752204  .00002804  00000-0  18575-2 0  9990
2 60004  82.5119  45.0850 0016874  23.0632 337.1291 14.01116182456288
METEOR 2-11 DEB
1 60004U 84072Z   26111.51752204  .00002804  00000-0  18575-2 0  9990
2 60004  82.5119  45.0850 0016874  23.0632 337.1291 14.01116182456288
METEOR 2-11 DEB
1 60004U 84072Z   26111.51752204  .00002804  00000-0  18575-2 0  9990
2 60004  82.5119  45.0850 0016874  23.0632 337.1291 14.01116182456288
METEOR 2-11 DEB
1 60004U 84072Z   26124.01427154  .00003532  00000-0  23379-2 0  9999
2 60004  82.5140  34.8268 0016021 355.1697   4.9316 14.01211181458032
METEOR 2-11 DEB
1 60004U 84072Z   26124.01427154  .00003532  00000-0  23379-2 0  9999
2 60004  82.5140  34.8268 0016021 355.1697   4.9316 14.01211181458032
METEOR 2-11 DEB
1 60004U 84072Z   26126.44211269  .00003157  00000-0  20887-2 0  9990
2 60004  82.5122  32.8298 0015525 351.0448   9.0442 14.01228582458376
METEOR 2-11 DEB
1 60004U 84072Z   26126.44211269  .00003157  00000-0  20887-2 0  9990
2 60004  82.5122  32.8298 0015525 351.0448   9.0442 14.01228582458376
METEOR 2-11 DEB
1 60004U 84072Z   26130.01242052  .00002492  00000-0  16459-2 0  9993
2 60004  82.5116  29.8975 0014934 342.0583  18.0058 14.01248001458876
METEOR 2-11 DEB
1 60004U 84072Z   26130.01242053  .00002492  00000-0  16459-2 0  9994
2 60004  82.5116  29.8975 0014934 342.0583  18.0058 14.01248001458876
METEOR 2-11 DEB
1 60004U 84072Z   26135.43919829  .00002413  00000-0  15931-2 0  9994
2 60004  82.5143  25.4427 0013787 328.8880  31.1472 14.01275672459632
METEOR 2-11 DEB
1 60004U 84072Z   26136.43885674  .00002814  00000-0  18594-2 0  9998
2 60004  82.5139  24.6217 0013526 326.4489  33.5822 14.01281983459777
METEOR 2-11 DEB
1 60004U 84072Z   26136.43885674  .00002814  00000-0  18594-2 0  9998
2 60004  82.5139  24.6217 0013526 326.4489  33.5822 14.01281983459777
METEOR 2-11 DEB
1 60004U 84072Z   26136.43885674  .00002814  00000-0  18594-2 0  9998
2 60004  82.5139  24.6217 0013526 326.4489  33.5822 14.01281983459777
METEOR 2-11 DEB
1 60004U 84072Z   26137.93833705  .00002682  00000-0  17710-2 0  9994
2 60004  82.5135  23.3904 0013159 322.2420  37.7825 14.01289509459987
METEOR 2-11 DEB
1 60004U 84072Z   26137.93833705  .00002682  00000-0  17710-2 0  9994
2 60004  82.5135  23.3904 0013159 322.2420  37.7825 14.01289509459987
METEOR 2-11 DEB
1 60004U 84072Z   26138.93798640  .00002540  00000-0  16772-2 0  9993
2 60004  82.5134  22.5693 0012887 319.5789  40.4422 14.01294314460128
METEOR 2-11 DEB
1 60004U 84072Z   26138.93798641  .00002540  00000-0  16772-2 0  9994
2 60004  82.5134  22.5693 0012887 319.5789  40.4422 14.01294314460128
METEOR 2-11 DEB
1 60004U 84072Z   26139.93763203  .00002460  00000-0  16240-2 0  9992
2 60004  82.5131  21.7481 0012583 316.9881  43.0304 14.01299348460263
METEOR 2-11 DEB
1 60004U 84072Z   26139.93763203  .00002460  00000-0  16240-2 0  9992
2 60004  82.5131  21.7481 0012583 316.9881  43.0304 14.01299348460263
METEOR 2-11 DEB
1 60004U 84072Z   26165.78430008  .00002628  00000-0  17314-2 0  9997
2 60004  82.5122   0.5170 0011204 228.0096 132.0120 14.01440485463889
METEOR 2-11 DEB
1 60004U 84072Z   26165.78430009  .00002628  00000-0  17314-2 0  9998
2 60004  82.5122   0.5170 0011204 228.0096 132.0120 14.01440485463889
METEOR 2-11 DEB
1 60004U 84072Z   26165.78430009  .00002628  00000-0  17314-2 0  9998
2 60004  82.5122   0.5170 0011204 228.0096 132.0120 14.01440485463889
METEOR 2-11 DEB
1 60004U 84072Z   26174.78014661  .00002149  00000-0  14131-2 0  9992
2 60004  82.5132 353.1308 0011705 198.8859 161.1878 14.01467601465140
METEOR 2-11 DEB
1 60004U 84072Z   26175.20851432  .00002328  00000-0  15314-2 0  9998
2 60004  82.5126 352.7785 0011641 194.0943 165.9903 14.01469951465206
METEOR 2-11 DEB
1 60004U 84072Z   26176.20803936  .00002430  00000-0  15988-2 0  9996
2 60004  82.5124 351.9562 0011694 190.5954 169.4971 14.01473006465344
METEOR 2-11 DEB
1 60004U 84072Z   26176.20803937  .00002430  00000-0  15988-2 0  9997
2 60004  82.5124 351.9562 0011694 190.5954 169.4971 14.01473006465344
METEOR 2-11 DEB
1 60004U 84072Z   26177.20756061  .00002300  00000-0  15130-2 0  9998
2 60004  82.5116 351.1349 0011910 187.8427 172.2558 14.01476679465482
METEOR 2-11 DEB
1 60004U 84072Z   26177.20756062  .00002300  00000-0  15130-2 0  9999
2 60004  82.5116 351.1349 0011910 187.8428 172.2558 14.01476679465483
METEOR 2-11 DEB
1 60004U 84072Z   26180.73180782  .00002331  00000-0  15665-2 0  9998
2 60004  82.5178 349.5941 0018932 238.6757 121.2559 14.00234482465940
METEOR 2-11 DEB
1 60004U 84072Z   26180.73180783  .00002331  00000-0  15665-2 0  9999
2 60004  82.5178 349.5941 0018932 238.6757 121.2559 14.00234482465940
METEOR 2-11 DEB
1 60004U 84072Z   26185.16214534  .00002765  00000-0  18596-2 0  9990
2 60004  82.5205 345.9719 0018721 224.5668 135.3996 14.00255781466560
METEOR 2-11 DEB
1 60004U 84072Z   26185.16214534  .00002765  00000-0  18596-2 0  9990
2 60004  82.5205 345.9719 0018721 224.5668 135.3996 14.00255781466560
METEOR 2-11 DEB
1 60004U 84072Z   26185.16214534  .00002765  00000-0  18596-2 0  9990
2 60004  82.5205 345.9719 0018721 224.5668 135.3996 14.00255781466560
METEOR 2-11 DEB
1 60004U 84072Z   26199.09591317  .00001382  00000-0  92358-3 0  9997
2 60004  82.5218 334.5606 0019604 183.9391 176.1627 14.00301629468519
METEOR 2-11 DEB
1 60004U 84072Z   26200.09626956  .00001410  00000-0  94216-3 0  9995
2 60004  82.5212 333.7386 0019623 181.5169 178.5945 14.00305332468656
METEOR 2-11 DEB
1 60004U 84072Z   26225.96148353  .00001376  00000-0  91742-3 0  9990
2 60004  82.5202 312.5519 0020436 111.8165 248.5181 14.00413952472275
METEOR 2-11 DEB
1 60004U 84072Z   26225.96148354  .00001376  00000-0  91742-3 0  9991
2 60004  82.5202 312.5519 0020436 111.8165 248.5181 14.00413952472275
METEOR 2-11 DEB
1 60004U 84072Z   26225.96148354  .00001376  00000-0  91742-3 0  9991
2 60004  82.5202 312.5519 0020436 111.8165 248.5181 14.00413952472275
METEOR 2-11 DEB
1 60004U 84072Z   26238.89335066  .00002128  00000-0  14224-2 0  9990
2 60004  82.5199 301.9617 0020671  74.9583 285.3872 14.00471664474086
METEOR 2-11 DEB
1 60004U 84072Z   26238.89335067  .00002128  00000-0  14224-2 0  9991
2 60004  82.5199 301.9617 0020671  74.9583 285.3872 14.00471664474086
METEOR 2-11 DEB
1 60004U 84072Z   26240.89381045  .00002249  00000-0  15037-2 0  9998
2 60004  82.5207 300.3313 0019657  69.3652 290.9623 14.00480247474363
METEOR 2-11 DEB
1 60004U 84072Z   26240.89381046  .00002249  00000-0  15037-2 0  9999
2 60004  82.5207 300.3313 0019657  69.3652 290.9623 14.00480247474363
