METEOR 2-11 DEB
1 60008U 84072AD  24157.88358517  .00004093  00000-0  27374-2 0  9990
2 60008  82.5137 215.1896 0036175 189.7948 170.2521 14.00407767620947
METEOR 2-11 DEB
1 60008U 84072AD  24159.88413987  .00004887  00000-0  32690-2 0  9993
2 60008  82.5134 213.5501 0036533 184.7596 175.3231 14.00427177530346
METEOR 2-11 DEB
1 60008U 84072AD  24159.88413987  .00004887  00000-0  32690-2 0  9993
2 60008  82.5134 213.5501 0036533 184.7596 175.3231 14.00427177621224
METEOR 2-11 DEB
1 60008U 84072AD  24161.88466863  .00004673  00000-0  31242-2 0  9992
2 60008  82.5133 211.9101 0036874 179.7132 180.4066 14.00445101530622
METEOR 2-11 DEB
1 60008U 84072AD  24161.88466863  .00004673  00000-0  31242-2 0  9992
2 60008  82.5133 211.9101 0036874 179.7132 180.4066 14.00445101621500
METEOR 2-11 DEB
1 60008U 84072AD  24162.38479849  .00004461  00000-0  29816-2 0  9995
2 60008  82.5124 211.4996 0036971 177.8695 182.2639 14.00449667530694
METEOR 2-11 DEB
1 60008U 84072AD  24163.38505043  .00004417  00000-0  29515-2 0  9999
2 60008  82.5128 210.6803 0037022 175.2948 184.8577 14.00457738530830
METEOR 2-11 DEB
1 60008U 84072AD  24163.38505043  .00004417  00000-0  29515-2 0  9999
2 60008  82.5128 210.6803 0037022 175.2948 184.8577 14.00457738621718
METEOR 2-11 DEB
1 60008U 84072AD  24164.38529707  .00003813  00000-0  25462-2 0  9999
2 60008  82.5134 209.8604 0037150 172.6274 187.5450 14.00464460621854
METEOR 2-11 DEB
1 60008U 84072AD  24164.38529707  .00003813  00000-0  25462-2 0  9999
2 60008  82.5134 209.8604 0037150 172.6274 187.5450 14.00464460530976
METEOR 2-11 DEB
1 60008U 84072AD  24166.38577555  .00003025  00000-0  20173-2 0  9994
2 60008  82.5136 208.2200 0037444 167.3621 192.8496 14.00477059531255
METEOR 2-11 DEB
1 60008U 84072AD  24170.81533760  .00002986  00000-0  19902-2 0  9990
2 60008  82.5135 204.5877 0037874 155.5408 204.7569 14.00506696622752
METEOR 2-11 DEB
1 60008U 84072AD  24170.81533760  .00002986  00000-0  19902-2 0  9990
2 60008  82.5135 204.5877 0037874 155.5408 204.7569 14.00506696531874
METEOR 2-11 DEB
1 60008U 84072AD  24179.31697833  .00004116  00000-0  27434-2 0  9992
2 60008  82.5119 197.6163 0038337 133.8245 226.6105 14.00564766623940
METEOR 2-11 DEB
1 60008U 84072AD  24179.31697833  .00004116  00000-0  27434-2 0  9992
2 60008  82.5119 197.6163 0038337 133.8245 226.6105 14.00564766533063
METEOR 2-11 DEB
1 60008U 84072AD  24183.31760183  .00004588  00000-0  30558-2 0  9990
2 60008  82.5139 194.3390 0038769 122.8987 237.5922 14.00605861624501
METEOR 2-11 DEB
1 60008U 84072AD  24183.31760183  .00004588  00000-0  30558-2 0  9990
2 60008  82.5139 194.3390 0038769 122.8987 237.5922 14.00605861533623
METEOR 2-11 DEB
1 60008U 84072AD  24185.74649763  .00003889  00000-0  25879-2 0  9992
2 60008  82.5118 192.3453 0038880 116.5291 243.9873 14.00625967624840
METEOR 2-11 DEB
1 60008U 84072AD  24185.74649763  .00003889  00000-0  25879-2 0  9992
2 60008  82.5118 192.3453 0038880 116.5291 243.9873 14.00625967533962
METEOR 2-11 DEB
1 60008U 84072AD  24186.74662078  .00003680  00000-0  24480-2 0  9993
2 60008  82.5114 191.5250 0038908 113.9685 246.5566 14.00633795624982
METEOR 2-11 DEB
1 60008U 84072AD  24186.74662078  .00003680  00000-0  24480-2 0  9993
2 60008  82.5114 191.5250 0038908 113.9685 246.5566 14.00633795534106
METEOR 2-11 DEB
1 60008U 84072AD  24187.31811604  .00003935  00000-0  26181-2 0  9991
2 60008  82.5112 191.0574 0038819 112.5580 247.9705 14.00639456534186
METEOR 2-11 DEB
1 60008U 84072AD  24190.31843894  .00003730  00000-0  24800-2 0  9990
2 60008  82.5118 188.5969 0039065 104.5970 255.9536 14.00663602625484
METEOR 2-11 DEB
1 60008U 84072AD  24190.31843894  .00003730  00000-0  24800-2 0  9990
2 60008  82.5118 188.5969 0039065 104.5970 255.9536 14.00663602534607
METEOR 2-11 DEB
1 60008U 84072AD  24199.24763779  .00006109  00000-0  40600-2 0  9993
2 60008  82.5076 181.2632 0039859  81.3122 279.2559 14.00751040626733
METEOR 2-11 DEB
1 60008U 84072AD  24199.24763779  .00006109  00000-0  40600-2 0  9993
2 60008  82.5076 181.2632 0039859  81.3122 279.2559 14.00751040535855
METEOR 2-11 DEB
1 60008U 84072AD  24203.24768926  .00007623  00000-0  50626-2 0  9999
2 60008  82.5090 177.9825 0039613  70.0660 290.4770 14.00811839627290
METEOR 2-11 DEB
1 60008U 84072AD  24203.24768926  .00007623  00000-0  50626-2 0  9999
2 60008  82.5090 177.9825 0039613  70.0660 290.4770 14.00811839536413
METEOR 2-11 DEB
1 60008U 84072AD  24206.24761112  .00007673  00000-0  50905-2 0  9997
2 60008  82.5095 175.5190 0040037  62.2234 298.2986 14.00858257627713
METEOR 2-11 DEB
1 60008U 84072AD  24206.24761112  .00007673  00000-0  50905-2 0  9997
2 60008  82.5095 175.5190 0040037  62.2234 298.2986 14.00858257536835
METEOR 2-11 DEB
1 60008U 84072AD  24209.60456687  .00005888  00000-0  39024-2 0  9993
2 60008  82.5142 172.7759 0040133  53.0688 307.4147 14.00896770628180
METEOR 2-11 DEB
1 60008U 84072AD  24209.60456687  .00005888  00000-0  39024-2 0  9993
2 60008  82.5142 172.7759 0040133  53.0688 307.4147 14.00896770537303
METEOR 2-11 DEB
1 60008U 84072AD  24229.10094874  .00010122  00000-0  66703-2 0  9997
2 60008  82.5175 156.7869 0037649   0.1864 359.9312 14.01288903630911
METEOR 2-11 DEB
1 60008U 84072AD  24229.10094874  .00010122  00000-0  66703-2 0  9997
2 60008  82.5175 156.7869 0037649   0.1864 359.9312 14.01288903540034
METEOR 2-11 DEB
1 60008U 84072AD  24242.02382933  .00008208  00000-0  53901-2 0  9997
2 60008  82.5184 146.1808 0036073 323.9694  35.9044 14.01511734541841
METEOR 2-11 DEB
1 60008U 84072AD  24244.02278199  .00009393  00000-0  61652-2 0  9995
2 60008  82.5177 144.5397 0035640 317.9305  41.9129 14.01548131633001
METEOR 2-11 DEB
1 60008U 84072AD  24244.02278199  .00009393  00000-0  61652-2 0  9995
2 60008  82.5177 144.5397 0035640 317.9305  41.9129 14.01548131542123
METEOR 2-11 DEB
1 60008U 84072AD  24245.02223951  .00009301  00000-0  61024-2 0  9994
2 60008  82.5193 143.7257 0035785 314.5345  45.2903 14.01566904542264
METEOR 2-11 DEB
1 60008U 84072AD  24246.02168624  .00009002  00000-0  59041-2 0  9994
2 60008  82.5111 142.8786 0035998 313.4918  46.3260 14.01585227633281
METEOR 2-11 DEB
1 60008U 84072AD  24246.02168624  .00009002  00000-0  59041-2 0  9994
2 60008  82.5111 142.8786 0035998 313.4918  46.3260 14.01585227542404
METEOR 2-11 DEB
1 60008U 84072AD  24247.02111828  .00008962  00000-0  58766-2 0  9996
2 60008  82.4869 142.0131 0035591 311.6930  48.1195 14.01602447633426
METEOR 2-11 DEB
1 60008U 84072AD  24247.02111828  .00008962  00000-0  58766-2 0  9996
2 60008  82.4869 142.0131 0035591 311.6930  48.1195 14.01602447542548
METEOR 2-11 DEB
1 60008U 84072AD  24252.01808168  .00011312  00000-0  74082-2 0  9993
2 60008  82.5092 137.9569 0034012 294.1834  65.5781 14.01703407634128
METEOR 2-11 DEB
1 60008U 84072AD  24252.01808168  .00011312  00000-0  74082-2 0  9993
2 60008  82.5092 137.9569 0034012 294.1834  65.5781 14.01703407543240
METEOR 2-11 DEB
1 60008U 84072AD  24253.01743308  .00009433  00000-0  61769-2 0  9997
2 60008  82.5067 137.1295 0033352 291.1262  68.6344 14.01718260543385
METEOR 2-11 DEB
1 60008U 84072AD  24253.01743308  .00009433  00000-0  61769-2 0  9997
2 60008  82.5067 137.1295 0033352 291.1262  68.6344 14.01718260634263
METEOR 2-11 DEB
1 60008U 84072AD  24256.37230513  .00007744  00000-0  50646-2 0  9993
2 60008  82.5113 134.3853 0033633 280.4667  79.2714 14.01775439634738
METEOR 2-11 DEB
1 60008U 84072AD  24256.37230513  .00007744  00000-0  50646-2 0  9993
2 60008  82.5113 134.3853 0033633 280.4667  79.2714 14.01775439543850
METEOR 2-11 DEB
1 60008U 84072AD  24260.36940988  .00006374  00000-0  41628-2 0  9999
2 60008  82.5105 131.0965 0033418 268.7475  90.9866 14.01843998635290
METEOR 2-11 DEB
1 60008U 84072AD  24260.36940988  .00006374  00000-0  41628-2 0  9999
2 60008  82.5105 131.0965 0033418 268.7475  90.9866 14.01843998544413
METEOR 2-11 DEB
1 60008U 84072AD  24260.94041282  .00006474  00000-0  42278-2 0  9995
2 60008  82.5101 130.6262 0033309 267.0523  92.6835 14.01850937544493
METEOR 2-11 DEB
1 60008U 84072AD  24261.36865884  .00022008  00000-0  14357-1 0  9991
2 60008  82.5093 130.2744 0033409 265.5162  94.2191 14.01883170635430
METEOR 2-11 DEB
1 60008U 84072AD  24261.36865884  .00022008  00000-0  14357-1 0  9991
2 60008  82.5093 130.2744 0033409 265.5162  94.2191 14.01883170544552
METEOR 2-11 DEB
1 60008U 84072AD  24274.28690796  .00008502  00000-0  55384-2 0  9993
2 60008  82.5077 119.6502 0033337 226.6472 133.1920 14.02004670637242
METEOR 2-11 DEB
1 60008U 84072AD  24274.28690796  .00008502  00000-0  55384-2 0  9993
2 60008  82.5077 119.6502 0033337 226.6472 133.1920 14.02004670546364
METEOR 2-11 DEB
1 60008U 84072AD  24276.28517335  .00012581  00000-0  81892-2 0  9997
2 60008  82.5098 118.0108 0033302 221.6530 138.2104 14.02046029637527
METEOR 2-11 DEB
1 60008U 84072AD  24284.84839321  .00015091  00000-0  97892-2 0  9996
2 60008  82.5176 110.9558 0030699 196.3286 163.6898 14.02270034547848
METEOR 2-11 DEB
1 60008U 84072AD  24314.09642898  .00016277  00000-0  10398-1 0  9990
2 60008  82.5086  86.8685 0032537 111.2454 249.2196 14.03085991642829
METEOR 2-11 DEB
1 60008U 84072AD  24314.09642898  .00016277  00000-0  10398-1 0  9990
2 60008  82.5086  86.8685 0032537 111.2454 249.2196 14.03085991551941
METEOR 2-11 DEB
1 60008U 84072AD  24316.09312615  .00016690  00000-0  10650-1 0  9993
2 60008  82.5120  85.2236 0031884 104.6693 255.8016 14.03154341643100
METEOR 2-11 DEB
1 60008U 84072AD  24316.09312615  .00016690  00000-0  10650-1 0  9993
2 60008  82.5120  85.2236 0031884 104.6693 255.8016 14.03154341552222
METEOR 2-11 DEB
1 60008U 84072AD  24326.28971714  .00007312  00000-0  46546-2 0  9991
2 60008  82.5108  76.8212 0030966  76.0805 284.3807 14.03306819553657
METEOR 2-11 DEB
1 60008U 84072AD  24326.28971714  .00007312  00000-0  46546-2 0  9991
2 60008  82.5108  76.8212 0030966  76.0805 284.3807 14.03306819644535
METEOR 2-11 DEB
1 60008U 84072AD  24335.98602252  .00009282  00000-0  58907-2 0  9998
2 60008  82.5110  68.8283 0030343  47.5179 312.8548 14.03495313645890
METEOR 2-11 DEB
1 60008U 84072AD  24335.98602252  .00009282  00000-0  58907-2 0  9998
2 60008  82.5110  68.8283 0030343  47.5179 312.8548 14.03495313555014
METEOR 2-11 DEB
1 60008U 84072AD  24355.44653886  .00004690  00000-0  29613-2 0  9990
2 60008  82.5077  52.7705 0028045 349.1964  10.8601 14.03758399648627
METEOR 2-11 DEB
1 60008U 84072AD  24355.44653886  .00004690  00000-0  29613-2 0  9990
2 60008  82.5077  52.7705 0028045 349.1964  10.8601 14.03758399557749
METEOR 2-11 DEB
1 60008U 84072AD  24356.44442849  .00005110  00000-0  32253-2 0  9998
2 60008  82.5046  51.9424 0029319 344.6865  15.3415 14.03767945557884
METEOR 2-11 DEB
1 60008U 84072AD  24361.43374038  .00006824  00000-0  43038-2 0  9993
2 60008  82.5084  47.8312 0030041 328.9979  30.9418 14.03833339649464
METEOR 2-11 DEB
1 60008U 84072AD  24361.43374038  .00006824  00000-0  43038-2 0  9993
2 60008  82.5084  47.8312 0030041 328.9979  30.9418 14.03833339558586
METEOR 2-11 DEB
1 60008U 84072AD  24361.86138417  .00007020  00000-0  44272-2 0  9999
2 60008  82.5087  47.4786 0029978 327.8231  32.1110 14.03839745558643
METEOR 2-11 DEB
1 60008U 84072AD  24364.85483966  .00008301  00000-0  52308-2 0  9995
2 60008  82.5083  45.0088 0030198 318.5678  41.3203 14.03885563559067
METEOR 2-11 DEB
1 60008U 84072AD  24364.85483966  .00008301  00000-0  52308-2 0  9995
2 60008  82.5083  45.0088 0030198 318.5678  41.3203 14.03885563649944
METEOR 2-11 DEB
1 60008U 84072AD  24366.42279864  .00008571  00000-0  53986-2 0  9992
2 60008  82.5075  43.7151 0030258 313.7034  46.1631 14.03912473650166
METEOR 2-11 DEB
1 60008U 84072AD  24366.42279864  .00008571  00000-0  53986-2 0  9992
2 60008  82.5075  43.7151 0030258 313.7034  46.1631 14.03912473559287
METEOR 2-11 DEB
1 60008U 84072AD  25020.30512173  .00007734  00000-0  48482-2 0  9995
2 60008  82.5074  27.2951 0029738 255.1712 104.6164 14.04175984652952
METEOR 2-11 DEB
1 60008U 84072AD  25020.30512173  .00007734  00000-0  48482-2 0  9995
2 60008  82.5074  27.2951 0029738 255.1712 104.6164 14.04175984562075
METEOR 2-11 DEB
1 60008U 84072AD  25020.73266256  .00005890  00000-0  36913-2 0  9997
2 60008  82.5052  26.9390 0029328 252.3250 107.4719 14.04180490653015
METEOR 2-11 DEB
1 60008U 84072AD  25020.73266256  .00005890  00000-0  36913-2 0  9997
2 60008  82.5052  26.9390 0029328 252.3250 107.4719 14.04180490562137
METEOR 2-11 DEB
1 60008U 84072AD  25020.73266260  .00007152  00000-0  44830-2 0  9992
2 60008  82.5062  26.9399 0029358 252.7387 107.0571 14.04181486562133
METEOR 2-11 DEB
1 60008U 84072AD  25020.73266260  .00007152  00000-0  44830-2 0  9992
2 60008  82.5062  26.9399 0029358 252.7387 107.0571 14.04181486653011
METEOR 2-11 DEB
1 60008U 84072AD  25023.72537653  .00007871  00000-0  49278-2 0  9990
2 60008  82.4940  24.4644 0030712 239.3732 120.4410 14.04235923653435
METEOR 2-11 DEB
1 60008U 84072AD  25023.72537653  .00007871  00000-0  49278-2 0  9990
2 60008  82.4940  24.4644 0030712 239.3732 120.4410 14.04235923562557
METEOR 2-11 DEB
1 60008U 84072AD  25038.18885898  .00006535  00000-0  40741-2 0  9995
2 60008  82.5081  12.5256 0030774 199.8184 160.1795 14.04448703655462
METEOR 2-11 DEB
1 60008U 84072AD  25038.18885898  .00006535  00000-0  40741-2 0  9995
2 60008  82.5081  12.5256 0030774 199.8184 160.1795 14.04448703564584
METEOR 2-11 DEB
1 60008U 84072AD  25039.18626261  .00006113  00000-0  38100-2 0  9991
2 60008  82.5015  11.6983 0030635 195.2075 164.8179 14.04461186564726
METEOR 2-11 DEB
1 60008U 84072AD  25039.18626261  .00006113  00000-0  38100-2 0  9991
2 60008  82.5015  11.6983 0030635 195.2075 164.8179 14.04461186655604
METEOR 2-11 DEB
1 60008U 84072AD  25048.16250615  .00007609  00000-0  47326-2 0  9996
2 60008  82.5210   4.2982 0031418 169.0341 191.1522 14.04578279656869
METEOR 2-11 DEB
1 60008U 84072AD  25048.58992561  .00007538  00000-0  46881-2 0  9991
2 60008  82.5134   3.9380 0031206 168.2772 191.9133 14.04585120566045
METEOR 2-11 DEB
1 60008U 84072AD  25049.15981544  .00007977  00000-0  49605-2 0  9998
2 60008  82.5128   3.4651 0031395 166.5402 193.6614 14.04595055566124
METEOR 2-11 DEB
1 60008U 84072AD  25050.15711398  .00007204  00000-0  44780-2 0  9990
2 60008  82.5132   2.6415 0031376 163.6047 196.6147 14.04610173657146
METEOR 2-11 DEB
1 60008U 84072AD  25050.15711398  .00007204  00000-0  44780-2 0  9990
2 60008  82.5132   2.6415 0031376 163.6047 196.6147 14.04610173566268
METEOR 2-11 DEB
1 60008U 84072AD  25053.57633440  .00006771  00000-0  42043-2 0  9998
2 60008  82.5141 359.8184 0031379 153.7322 206.5449 14.04664253566744
METEOR 2-11 DEB
1 60008U 84072AD  25053.57633440  .00006771  00000-0  42043-2 0  9998
2 60008  82.5141 359.8184 0031379 153.7322 206.5449 14.04664253657622
METEOR 2-11 DEB
1 60008U 84072AD  25056.56803897  .00009803  00000-0  60821-2 0  9998
2 60008  82.5147 357.3478 0031613 145.2531 215.0714 14.04721320658042
METEOR 2-11 DEB
1 60008U 84072AD  25058.56244312  .00010156  00000-0  62963-2 0  9993
2 60008  82.5148 355.7023 0031731 138.5644 221.7943 14.04759874658326
METEOR 2-11 DEB
1 60008U 84072AD  25058.56244312  .00010156  00000-0  62963-2 0  9993
2 60008  82.5148 355.7023 0031731 138.5644 221.7943 14.04759874567448
METEOR 2-11 DEB
1 60008U 84072AD  25062.05252067  .00005667  00000-0  35076-2 0  9994
2 60008  82.5154 352.8188 0032213 129.1900 231.2141 14.04813239658816
METEOR 2-11 DEB
1 60008U 84072AD  25062.05252067  .00005667  00000-0  35076-2 0  9994
2 60008  82.5154 352.8188 0032213 129.1900 231.2141 14.04813239567938
METEOR 2-11 DEB
1 60008U 84072AD  25066.53959882  .00005908  00000-0  36504-2 0  9995
2 60008  82.5089 349.1050 0034634 115.2284 245.2485 14.04868522659441
METEOR 2-11 DEB
1 60008U 84072AD  25069.03233593  .00007087  00000-0  43778-2 0  9998
2 60008  82.5119 347.0447 0034499 109.0011 251.4903 14.04904241659791
METEOR 2-11 DEB
1 60008U 84072AD  25069.03233593  .00007087  00000-0  43778-2 0  9998
2 60008  82.5119 347.0447 0034499 109.0011 251.4903 14.04904241568914
METEOR 2-11 DEB
1 60008U 84072AD  25070.02941440  .00006427  00000-0  39683-2 0  9993
2 60008  82.5121 346.2220 0034362 106.2622 254.2335 14.04916978569059
METEOR 2-11 DEB
1 60008U 84072AD  25070.02941440  .00006427  00000-0  39683-2 0  9993
2 60008  82.5121 346.2220 0034362 106.2622 254.2335 14.04916978659936
METEOR 2-11 DEB
1 60008U 84072AD  25076.43892881  .00008800  00000-0  54222-2 0  9991
2 60008  82.5123 340.9267 0035821  88.2846 272.2428 14.05028012660836
METEOR 2-11 DEB
1 60008U 84072AD  25076.43892881  .00008800  00000-0  54222-2 0  9991
2 60008  82.5123 340.9267 0035821  88.2846 272.2428 14.05028012569957
METEOR 2-11 DEB
1 60008U 84072AD  25077.43591837  .00009638  00000-0  59355-2 0  9991
2 60008  82.5090 340.0980 0036532  85.3582 275.1761 14.05046840570096
METEOR 2-11 DEB
1 60008U 84072AD  25079.42985074  .00010385  00000-0  63884-2 0  9995
2 60008  82.5064 338.4465 0037457  79.9134 280.6260 14.05089264661256
METEOR 2-11 DEB
1 60008U 84072AD  25079.42985074  .00010385  00000-0  63884-2 0  9995
2 60008  82.5064 338.4465 0037457  79.9134 280.6260 14.05089264570378
METEOR 2-11 DEB
1 60008U 84072AD  25081.42371937  .00012832  00000-0  78895-2 0  9992
2 60008  82.5105 336.8036 0036657  74.6437 285.8781 14.05132609661535
METEOR 2-11 DEB
1 60008U 84072AD  25081.42371937  .00012832  00000-0  78895-2 0  9992
2 60008  82.5105 336.8036 0036657  74.6437 285.8781 14.05132609570657
METEOR 2-11 DEB
1 60008U 84072AD  25086.40813360  .00009492  00000-0  58283-2 0  9993
2 60008  82.5189 332.6823 0035525  61.1979 299.2752 14.05227136662235
METEOR 2-11 DEB
1 60008U 84072AD  25086.40813360  .00009492  00000-0  58283-2 0  9993
2 60008  82.5189 332.6823 0035525  61.1979 299.2752 14.05227136571357
METEOR 2-11 DEB
1 60008U 84072AD  25092.38906948  .00005904  00000-0  36200-2 0  9991
2 60008  82.5170 327.7451 0034186  43.6109 316.7755 14.05298835663074
METEOR 2-11 DEB
1 60008U 84072AD  25092.38906948  .00005904  00000-0  36200-2 0  9991
2 60008  82.5170 327.7451 0034186  43.6109 316.7755 14.05298835572196
METEOR 2-11 DEB
1 60008U 84072AD  25093.38587655  .00006907  00000-0  42305-2 0  9999
2 60008  82.5135 326.9009 0037541  43.4438 316.9681 14.05314035663213
METEOR 2-11 DEB
1 60008U 84072AD  25093.38587655  .00006907  00000-0  42305-2 0  9999
2 60008  82.5135 326.9009 0037541  43.4438 316.9681 14.05314035572335
METEOR 2-11 DEB
1 60008U 84072AD  25101.85822705  .00005876  00000-0  35932-2 0  9991
2 60008  82.5120 319.9101 0035452  19.8280 340.4261 14.05422537664408
METEOR 2-11 DEB
1 60008U 84072AD  25101.85822705  .00005876  00000-0  35932-2 0  9991
2 60008  82.5120 319.9101 0035452  19.8280 340.4261 14.05422537573520
METEOR 2-11 DEB
1 60008U 84072AD  25116.23865738  .00004795  00000-0  29257-2 0  9994
2 60008  82.5105 308.0143 0033433 341.1002  18.8926 14.05558341666427
METEOR 2-11 DEB
1 60008U 84072AD  25116.23865738  .00004795  00000-0  29257-2 0  9994
2 60008  82.5105 308.0143 0033433 341.1002  18.8926 14.05558341575549
METEOR 2-11 DEB
1 60008U 84072AD  25117.23527393  .00004467  00000-0  27252-2 0  9996
2 60008  82.5101 307.1891 0033283 338.3049  21.6711 14.05560321666565
METEOR 2-11 DEB
1 60008U 84072AD  25117.23527393  .00004467  00000-0  27252-2 0  9996
2 60008  82.5101 307.1891 0033283 338.3049  21.6711 14.05560321575687
METEOR 2-11 DEB
1 60008U 84072AD  25122.21826415  .00004827  00000-0  29437-2 0  9994
2 60008  82.5094 303.0640 0032756 323.1442  36.7478 14.05603914667267
METEOR 2-11 DEB
1 60008U 84072AD  25122.21826415  .00004827  00000-0  29437-2 0  9994
2 60008  82.5094 303.0640 0032756 323.1442  36.7478 14.05603914576389
METEOR 2-11 DEB
1 60008U 84072AD  25125.20798635  .00003546  00000-0  21599-2 0  9996
2 60008  82.5074 300.5826 0031853 312.5037  47.3444 14.05626184667683
METEOR 2-11 DEB
1 60008U 84072AD  25125.20798635  .00003546  00000-0  21599-2 0  9996
2 60008  82.5074 300.5826 0031853 312.5037  47.3444 14.05626184576806
METEOR 2-11 DEB
1 60008U 84072AD  25126.20455568  .00003647  00000-0  22215-2 0  9990
2 60008  82.5014 299.7611 0031710 311.4312  48.4136 14.05635772576945
METEOR 2-11 DEB
1 60008U 84072AD  25128.19766698  .00002875  00000-0  17491-2 0  9991
2 60008  82.5078 298.1064 0031757 302.5082  57.3022 14.05645288668102
METEOR 2-11 DEB
1 60008U 84072AD  25128.19766698  .00002875  00000-0  17491-2 0  9991
2 60008  82.5078 298.1064 0031757 302.5082  57.3022 14.05645288577224
METEOR 2-11 DEB
1 60008U 84072AD  25150.61922529  .00002853  00000-0  17298-2 0  9991
2 60008  82.5072 279.5464 0035355 230.4620 129.3427 14.05765063580373
METEOR 2-11 DEB
1 60008U 84072AD  25150.61922529  .00002853  00000-0  17298-2 0  9991
2 60008  82.5072 279.5464 0035355 230.4620 129.3427 14.05765063671251
METEOR 2-11 DEB
1 60008U 84072AD  25162.57658944  .00001956  00000-0  11803-2 0  9995
2 60008  82.5071 269.6468 0038199 196.7513 163.2401 14.05832682672935
METEOR 2-11 DEB
1 60008U 84072AD  25165.99288000  .00002752  00000-0  16636-2 0  9990
2 60008  82.5069 266.8172 0038746 187.6358 172.4230 14.05855390673414
METEOR 2-11 DEB
1 60008U 84072AD  25165.99288000  .00002752  00000-0  16636-2 0  9990
2 60008  82.5069 266.8172 0038746 187.6358 172.4230 14.05855390582536
METEOR 2-11 DEB
1 60008U 84072AD  25169.97849139  .00002424  00000-0  14629-2 0  9994
2 60008  82.5068 263.5180 0039553 177.7866 182.3489 14.05876717673970
METEOR 2-11 DEB
1 60008U 84072AD  25169.97849139  .00002424  00000-0  14629-2 0  9994
2 60008  82.5068 263.5180 0039553 177.7866 182.3489 14.05876717583093
METEOR 2-11 DEB
1 60008U 84072AD  25172.54064313  .00002091  00000-0  12604-2 0  9995
2 60008  82.5070 261.3968 0039892 171.3782 188.8085 14.05887616674330
METEOR 2-11 DEB
1 60008U 84072AD  25172.54064313  .00002091  00000-0  12604-2 0  9995
2 60008  82.5070 261.3968 0039892 171.3782 188.8085 14.05887616583452
METEOR 2-11 DEB
1 60008U 84072AD  25172.96766600  .00002201  00000-0  13269-2 0  9990
2 60008  82.5072 261.0438 0039954 170.2241 189.9718 14.05890230583518
METEOR 2-11 DEB
1 60008U 84072AD  25174.96043352  .00002039  00000-0  12284-2 0  9999
2 60008  82.5071 259.3932 0040101 165.3631 194.8713 14.05898253674671
METEOR 2-11 DEB
1 60008U 84072AD  25174.96043352  .00002039  00000-0  12284-2 0  9999
2 60008  82.5071 259.3932 0040101 165.3631 194.8713 14.05898253583793
METEOR 2-11 DEB
1 60008U 84072AD  25175.95681303  .00002094  00000-0  12619-2 0  9996
2 60008  82.5071 258.5680 0040160 162.9293 197.3241 14.05902430583939
METEOR 2-11 DEB
1 60008U 84072AD  25179.94229972  .00002071  00000-0  12473-2 0  9992
2 60008  82.5073 255.2689 0040300 153.1090 207.2183 14.05919496675373
METEOR 2-11 DEB
1 60008U 84072AD  25179.94229972  .00002071  00000-0  12473-2 0  9992
2 60008  82.5073 255.2689 0040300 153.1090 207.2183 14.05919496584495
METEOR 2-11 DEB
1 60008U 84072AD  25182.50437168  .00002214  00000-0  13335-2 0  9993
2 60008  82.5071 253.1476 0040312 146.5459 213.8273 14.05931304675735
METEOR 2-11 DEB
1 60008U 84072AD  25182.50437168  .00002214  00000-0  13335-2 0  9993
2 60008  82.5071 253.1476 0040312 146.5459 213.8273 14.05931304584857
METEOR 2-11 DEB
1 60008U 84072AD  25188.90944742  .00002203  00000-0  13263-2 0  9992
2 60008  82.5080 247.8432 0040190 130.0794 230.3913 14.05962842585759
METEOR 2-11 DEB
1 60008U 84072AD  25188.90944742  .00002203  00000-0  13263-2 0  9992
2 60008  82.5080 247.8432 0040190 130.0794 230.3913 14.05962842676637
METEOR 2-11 DEB
1 60008U 84072AD  25194.38923033  .00002315  00000-0  13935-2 0  9991
2 60008  82.5074 243.3057 0040102 115.6190 244.9135 14.05988484677409
METEOR 2-11 DEB
1 60008U 84072AD  25194.38923033  .00002315  00000-0  13935-2 0  9991
2 60008  82.5074 243.3057 0040102 115.6190 244.9135 14.05988484586521
METEOR 2-11 DEB
1 60008U 84072AD  25197.37815784  .00002222  00000-0  13369-2 0  9994
2 60008  82.5074 240.8302 0040066 107.5264 253.0293 14.06002907677825
METEOR 2-11 DEB
1 60008U 84072AD  25197.37815784  .00002222  00000-0  13369-2 0  9994
2 60008  82.5074 240.8302 0040066 107.5264 253.0293 14.06002907586947
METEOR 2-11 DEB
1 60008U 84072AD  25201.36334182  .00002412  00000-0  14514-2 0  9991
2 60008  82.5085 237.5309 0039953  96.7154 263.8567 14.06023683678386
METEOR 2-11 DEB
1 60008U 84072AD  25201.36334182  .00002412  00000-0  14514-2 0  9991
2 60008  82.5085 237.5309 0039953  96.7154 263.8567 14.06023683587509
METEOR 2-11 DEB
1 60008U 84072AD  25202.35962804  .00002492  00000-0  14998-2 0  9993
2 60008  82.5080 236.7044 0040139  94.0626 266.5136 14.06029214587647
METEOR 2-11 DEB
1 60008U 84072AD  25203.35591070  .00002691  00000-0  16203-2 0  9999
2 60008  82.5078 235.8794 0040119  91.3580 269.2189 14.06034847678662
METEOR 2-11 DEB
1 60008U 84072AD  25203.35591070  .00002691  00000-0  16203-2 0  9999
2 60008  82.5078 235.8794 0040119  91.3580 269.2189 14.06034847587784
METEOR 2-11 DEB
1 60008U 84072AD  25205.34846155  .00003250  00000-0  19579-2 0  9998
2 60008  82.5078 234.2301 0040054  85.9404 274.6345 14.06048154588065
METEOR 2-11 DEB
1 60008U 84072AD  25205.34846155  .00003250  00000-0  19579-2 0  9998
2 60008  82.5078 234.2301 0040054  85.9404 274.6345 14.06048154678942
METEOR 2-11 DEB
1 60008U 84072AD  25208.76422027  .00002944  00000-0  17725-2 0  9995
2 60008  82.5060 231.4003 0039580  76.4329 284.1247 14.06068693679425
METEOR 2-11 DEB
1 60008U 84072AD  25208.76422027  .00002944  00000-0  17725-2 0  9995
2 60008  82.5060 231.4003 0039580  76.4329 284.1247 14.06068693588547
METEOR 2-11 DEB
1 60008U 84072AD  25215.73790279  .00002847  00000-0  17128-2 0  9996
2 60008  82.5074 225.6260 0039293  57.4158 303.0799 14.06110071680401
METEOR 2-11 DEB
1 60008U 84072AD  25215.73790279  .00002847  00000-0  17128-2 0  9996
2 60008  82.5074 225.6260 0039293  57.4158 303.0799 14.06110071589522
METEOR 2-11 DEB
1 60008U 84072AD  25216.73412489  .00002995  00000-0  18023-2 0  9990
2 60008  82.5069 224.8001 0039236  54.4788 306.0033 14.06116320589665
METEOR 2-11 DEB
1 60008U 84072AD  25218.72655734  .00002719  00000-0  16349-2 0  9996
2 60008  82.5067 223.1501 0039079  48.9027 311.5508 14.06126793589943
METEOR 2-11 DEB
1 60008U 84072AD  25218.72655734  .00002719  00000-0  16349-2 0  9996
2 60008  82.5067 223.1501 0039079  48.9027 311.5508 14.06126793680822
METEOR 2-11 DEB
1 60008U 84072AD  25223.70756813  .00003648  00000-0  21956-2 0  9992
2 60008  82.5072 219.0260 0039123  35.6331 324.7441 14.06159023681527
METEOR 2-11 DEB
1 60008U 84072AD  25223.70756813  .00003648  00000-0  21956-2 0  9992
2 60008  82.5072 219.0260 0039123  35.6331 324.7441 14.06159023590649
METEOR 2-11 DEB
1 60008U 84072AD  25224.70375532  .00003377  00000-0  20316-2 0  9996
2 60008  82.5074 218.2007 0039094  32.9341 327.4255 14.06165049590782
METEOR 2-11 DEB
1 60008U 84072AD  25224.70375532  .00003377  00000-0  20316-2 0  9996
2 60008  82.5074 218.2007 0039094  32.9341 327.4255 14.06165049681660
METEOR 2-11 DEB
1 60008U 84072AD  25229.68461761  .00003114  00000-0  18725-2 0  9998
2 60008  82.5071 214.0741 0037773  16.6754 343.5651 14.06195080682360
METEOR 2-11 DEB
1 60008U 84072AD  25229.68461761  .00003114  00000-0  18725-2 0  9998
2 60008  82.5071 214.0741 0037773  16.6754 343.5651 14.06195080591482
METEOR 2-11 DEB
1 60008U 84072AD  25232.67308740  .00003298  00000-0  19832-2 0  9991
2 60008  82.5074 211.5991 0037501   7.7257 352.4485 14.06213384591901
METEOR 2-11 DEB
1 60008U 84072AD  25239.21912495  .00004430  00000-0  26653-2 0  9994
2 60008  82.5059 206.1719 0036902 348.7037  11.3303 14.06257714592827
METEOR 2-11 DEB
1 60008U 84072AD  25246.19176752  .00008500  00000-0  51128-2 0  9994
2 60008  82.5093 200.4022 0036105 327.6610  32.2349 14.06347389593806
METEOR 2-11 DEB
1 60008U 84072AD  25255.15606059  .00002892  00000-0  17332-2 0  9995
2 60008  82.5127 192.9810 0035412 301.3833  58.3877 14.06413866595069
METEOR 2-11 DEB
1 60008U 84072AD  25264.12002614  .00003999  00000-0  23983-2 0  9997
2 60008  82.5150 185.5598 0034488 274.9171  84.8064 14.06464479596326
METEOR 2-11 DEB
1 60008U 84072AD  25280.41038075  .00003665  00000-0  21906-2 0  9990
2 60008  82.5190 172.0909 0033453 226.5724 133.2665 14.06636926598613
METEOR 2-11 DEB
1 60008U 84072AD  25291.93364835  .00004479  00000-0  26755-2 0  9996
2 60008  82.5124 162.5246 0033541 189.6636 170.3896 14.06705622600237
METEOR 2-11 DEB
1 60008U 84072AD  25292.36042424  .00004916  00000-0  29372-2 0  9995
2 60008  82.5116 162.1646 0033107 188.4169 171.6453 14.06709523600297
METEOR 2-11 DEB
1 60008U 84072AD  25299.89998330  .00002907  00000-0  17322-2 0  9996
2 60008  82.5114 155.9167 0033240 166.3307 193.8774 14.06755300601354
METEOR 2-11 DEB
1 60008U 84072AD  25299.89998330  .00002907  00000-0  17322-2 0  9996
2 60008  82.5114 155.9166 0033240 166.3306 193.8774 14.06755300601352
METEOR 2-11 DEB
1 60008U 84072AD  25307.86600937  .00003391  00000-0  20195-2 0  9996
2 60008  82.5103 149.3124 0033475 143.1258 217.2226 14.06813914602473
METEOR 2-11 DEB
1 60008U 84072AD  25307.86600938  .00003391  00000-0  20195-2 0  9997
2 60008  82.5103 149.3124 0033475 143.1258 217.2226 14.06813914602473
METEOR 2-11 DEB
1 60008U 84072AD  25310.85317522  .00003789  00000-0  22564-2 0  9997
2 60008  82.5083 146.8482 0033855 136.6064 223.7784 14.06838428602897
METEOR 2-11 DEB
1 60008U 84072AD  25310.85317523  .00003789  00000-0  22564-2 0  9998
2 60008  82.5083 146.8482 0033855 136.6064 223.7784 14.06838428602897
METEOR 2-11 DEB
1 60008U 84072AD  25319.81424478  .00005019  00000-0  29848-2 0  9991
2 60008  82.5084 139.4022 0034234 108.8290 251.6601 14.06954191604155
METEOR 2-11 DEB
1 60008U 84072AD  25319.81424479  .00005019  00000-0  29848-2 0  9992
2 60008  82.5084 139.4022 0034234 108.8290 251.6601 14.06954191604155
METEOR 2-11 DEB
1 60008U 84072AD  26027.40634975  .00004974  00000-0  29256-2 0  9990
2 60008  82.5064  79.1618 0030818 254.2850 105.4923 14.07614290614367
METEOR 2-11 DEB
1 60008U 84072AD  26027.40634976  .00004974  00000-0  29256-2 0  9991
2 60008  82.5064  79.1618 0030818 254.2850 105.4923 14.07614290614367
METEOR 2-11 DEB
1 60008U 84072AD  26033.37727640  .00002991  00000-0  17543-2 0  9998
2 60008  82.5065  74.2023 0032056 237.6377 122.1692 14.07649086615203
METEOR 2-11 DEB
1 60008U 84072AD  26033.37727641  .00002991  00000-0  17543-2 0  9999
2 60008  82.5065  74.2023 0032056 237.6377 122.1692 14.07649086615203
METEOR 2-11 DEB
1 60008U 84072AD  26085.11826552  .00004595  00000-0  26756-2 0  9997
2 60008  82.5092  31.2086 0037298  81.0149 279.5243 14.08037419622485
METEOR 2-11 DEB
1 60008U 84072AD  26085.11826553  .00004595  00000-0  26756-2 0  9998
2 60008  82.5092  31.2086 0037298  81.0149 279.5243 14.08037419622485
METEOR 2-11 DEB
1 60008U 84072AD  26087.10798200  .00004634  00000-0  26969-2 0  9996
2 60008  82.5088  29.5548 0037902  75.6655 284.8722 14.08055245622765
METEOR 2-11 DEB
1 60008U 84072AD  26087.10798201  .00004634  00000-0  26969-2 0  9997
2 60008  82.5088  29.5548 0037902  75.6655 284.8722 14.08055246622766
METEOR 2-11 DEB
1 60008U 84072AD  26089.09766844  .00005974  00000-0  34764-2 0  9995
2 60008  82.5087  27.9010 0038419  70.4012 290.1302 14.08078673623040
METEOR 2-11 DEB
1 60008U 84072AD  26089.09766844  .00005974  00000-0  34764-2 0  9995
2 60008  82.5087  27.9010 0038419  70.4012 290.1303 14.08078673623041
METEOR 2-11 DEB
1 60008U 84072AD  26090.09249926  .00005905  00000-0  34354-2 0  9993
2 60008  82.5088  27.0743 0038714  67.8237 292.7037 14.08089954623184
METEOR 2-11 DEB
1 60008U 84072AD  26090.09249927  .00005905  00000-0  34354-2 0  9994
2 60008  82.5088  27.0743 0038714  67.8237 292.7037 14.08089954623184
METEOR 2-11 DEB
1 60008U 84072AD  26092.08213788  .00004980  00000-0  28945-2 0  9992
2 60008  82.5094  25.4212 0039213  62.6903 297.8255 14.08109807623461
METEOR 2-11 DEB
1 60008U 84072AD  26092.08213789  .00004980  00000-0  28945-2 0  9993
2 60008  82.5094  25.4212 0039213  62.6903 297.8255 14.08109807623461
METEOR 2-11 DEB
1 60008U 84072AD  26093.07694332  .00007424  00000-0  43162-2 0  9994
2 60008  82.5082  24.5937 0039568  60.2501 300.2599 14.08126935623600
METEOR 2-11 DEB
1 60008U 84072AD  26096.06130321  .00005040  00000-0  29255-2 0  9998
2 60008  82.5071  22.1128 0040220  52.7672 307.7160 14.08161366624026
METEOR 2-11 DEB
1 60008U 84072AD  26097.05607453  .00004732  00000-0  27459-2 0  9994
2 60008  82.5069  21.2859 0040426  50.3225 310.1502 14.08170867624169
METEOR 2-11 DEB
1 60008U 84072AD  26097.05607453  .00004732  00000-0  27459-2 0  9994
2 60008  82.5069  21.2859 0040426  50.3225 310.1502 14.08170868624160
METEOR 2-11 DEB
1 60008U 84072AD  26098.05083983  .00003999  00000-0  23191-2 0  9994
2 60008  82.5068  20.4591 0040435  47.6384 312.8201 14.08178179624302
METEOR 2-11 DEB
1 60008U 84072AD  26098.05083983  .00003999  00000-0  23191-2 0  9994
2 60008  82.5068  20.4591 0040435  47.6384 312.8201 14.08178179624302
METEOR 2-11 DEB
1 60008U 84072AD  26099.04559881  .00003548  00000-0  20559-2 0  9994
2 60008  82.5061  19.6317 0040699  45.3420 315.1058 14.08186093624444
METEOR 2-11 DEB
1 60008U 84072AD  26099.04559881  .00003548  00000-0  20559-2 0  9994
2 60008  82.5061  19.6317 0040699  45.3420 315.1058 14.08186093624444
METEOR 2-11 DEB
1 60008U 84072AD  26100.04035236  .00003978  00000-0  23058-2 0  9994
2 60008  82.5065  18.8050 0040791  42.8455 317.5885 14.08194831624584
METEOR 2-11 DEB
1 60008U 84072AD  26100.04035237  .00003978  00000-0  23058-2 0  9995
2 60008  82.5066  18.8050 0040791  42.8455 317.5885 14.08194831624585
METEOR 2-11 DEB
1 60008U 84072AD  26102.02984257  .00003367  00000-0  19493-2 0  9990
2 60008  82.5054  17.1492 0041048  37.9556 322.4497 14.08208966624867
METEOR 2-11 DEB
1 60008U 84072AD  26102.02984257  .00003367  00000-0  19493-2 0  9990
2 60008  82.5054  17.1492 0041048  37.9556 322.4497 14.08208967624868
METEOR 2-11 DEB
1 60008U 84072AD  26104.01931383  .00002818  00000-0  16300-2 0  9997
2 60008  82.5050  15.4940 0041187  33.0423 327.3311 14.08220809625147
METEOR 2-11 DEB
1 60008U 84072AD  26104.01931384  .00002818  00000-0  16300-2 0  9998
2 60008  82.5050  15.4940 0041187  33.0423 327.3311 14.08220809625147
METEOR 2-11 DEB
1 60008U 84072AD  26105.01404301  .00002910  00000-0  16832-2 0  9996
2 60008  82.5038  14.6657 0041227  30.5274 329.8287 14.08226925625289
METEOR 2-11 DEB
1 60008U 84072AD  26105.01404301  .00002910  00000-0  16832-2 0  9996
2 60008  82.5038  14.6657 0041227  30.5274 329.8287 14.08226925625289
METEOR 2-11 DEB
1 60008U 84072AD  26106.00876800  .00002905  00000-0  16802-2 0  9994
2 60008  82.5038  13.8382 0041249  28.0386 332.2997 14.08232764625425
METEOR 2-11 DEB
1 60008U 84072AD  26107.00348904  .00003167  00000-0  18321-2 0  9993
2 60008  82.5038  13.0112 0041239  25.5131 334.8066 14.08238977625569
METEOR 2-11 DEB
1 60008U 84072AD  26108.99291740  .00003749  00000-0  21699-2 0  9995
2 60008  82.5038  11.3568 0041202  20.5586 339.7234 14.08252521625847
METEOR 2-11 DEB
1 60008U 84072AD  26108.99291740  .00003749  00000-0  21699-2 0  9995
2 60008  82.5038  11.3568 0041202  20.5586 339.7234 14.08252521625847
METEOR 2-11 DEB
1 60008U 84072AD  26109.98762436  .00003636  00000-0  21040-2 0  9995
2 60008  82.5049  10.5307 0041178  18.2749 341.9893 14.08259034625985
METEOR 2-11 DEB
1 60008U 84072AD  26109.98762437  .00003636  00000-0  21040-2 0  9996
2 60008  82.5049  10.5307 0041178  18.2749 341.9893 14.08259034625985
METEOR 2-11 DEB
1 60008U 84072AD  26110.98232629  .00003537  00000-0  20463-2 0  9991
2 60008  82.5054   9.7037 0041101  15.7781 344.4662 14.08265810626123
METEOR 2-11 DEB
1 60008U 84072AD  26110.98232629  .00003537  00000-0  20463-2 0  9991
2 60008  82.5054   9.7037 0041101  15.7781 344.4662 14.08265810626123
METEOR 2-11 DEB
1 60008U 84072AD  26117.94510222  .00004247  00000-0  24571-2 0  9995
2 60008  82.5083   3.9154 0040237 358.7607   1.3459 14.08317622627108
METEOR 2-11 DEB
1 60008U 84072AD  26117.94510223  .00004247  00000-0  24571-2 0  9996
2 60008  82.5083   3.9154 0040237 358.7607   1.3459 14.08317622627108
METEOR 2-11 DEB
1 60008U 84072AD  26118.93976352  .00003807  00000-0  22020-2 0  9993
2 60008  82.5088   3.0886 0040031 356.4644   3.6241 14.08323876627241
METEOR 2-11 DEB
1 60008U 84072AD  26118.93976352  .00003807  00000-0  22020-2 0  9993
2 60008  82.5088   3.0886 0040031 356.4644   3.6241 14.08323876627241
METEOR 2-11 DEB
1 60008U 84072AD  26121.92371595  .00003772  00000-0  21814-2 0  9995
2 60008  82.5083   0.6077 0039397 348.7100  11.3185 14.08345986627660
METEOR 2-11 DEB
1 60008U 84072AD  26121.92371595  .00003772  00000-0  21814-2 0  9995
2 60008  82.5083   0.6077 0039397 348.7100  11.3185 14.08345986627660
METEOR 2-11 DEB
1 60008U 84072AD  26122.91835609  .00003669  00000-0  21211-2 0  9992
2 60008  82.5085 359.7809 0039139 346.2070  13.8030 14.08353424627804
METEOR 2-11 DEB
1 60008U 84072AD  26122.91835609  .00003669  00000-0  21211-2 0  9992
2 60008  82.5085 359.7809 0039139 346.2070  13.8030 14.08353424627804
METEOR 2-11 DEB
1 60008U 84072AD  26123.91299110  .00003527  00000-0  20386-2 0  9999
2 60008  82.5085 358.9540 0038863 343.6950  16.2970 14.08360591627946
METEOR 2-11 DEB
1 60008U 84072AD  26123.91299111  .00003527  00000-0  20386-2 0  9990
2 60008  82.5085 358.9540 0038863 343.6950  16.2970 14.08360591627946
METEOR 2-11 DEB
1 60008U 84072AD  26128.88609872  .00002865  00000-0  16543-2 0  9994
2 60008  82.5088 354.8182 0037509 330.2005  29.7032 14.08391282628642
METEOR 2-11 DEB
1 60008U 84072AD  26128.88609872  .00002865  00000-0  16543-2 0  9994
2 60008  82.5088 354.8183 0037509 330.2005  29.7032 14.08391282628643
METEOR 2-11 DEB
1 60008U 84072AD  26131.86991968  .00002297  00000-0  13249-2 0  9995
2 60008  82.5092 352.3372 0036446 322.1163  37.7446 14.08404946629062
METEOR 2-11 DEB
1 60008U 84072AD  26131.86991968  .00002297  00000-0  13249-2 0  9995
2 60008  82.5092 352.3372 0036446 322.1163  37.7446 14.08404946629062
METEOR 2-11 DEB
1 60008U 84072AD  26132.86452067  .00002374  00000-0  13694-2 0  9998
2 60008  82.5090 351.5103 0036163 319.2216  40.6252 14.08409599629208
METEOR 2-11 DEB
1 60008U 84072AD  26132.86452068  .00002374  00000-0  13694-2 0  9999
2 60008  82.5090 351.5104 0036163 319.2216  40.6252 14.08409599629209
METEOR 2-11 DEB
1 60008U 84072AD  26133.36182020  .00002301  00000-0  13274-2 0  9997
2 60008  82.5088 351.0968 0036007 317.7741  42.0660 14.08411533629279
METEOR 2-11 DEB
1 60008U 84072AD  26133.36182020  .00002301  00000-0  13274-2 0  9997
2 60008  82.5088 351.0968 0036007 317.7741  42.0660 14.08411533629279
METEOR 2-11 DEB
1 60008U 84072AD  26142.31309550  .00002286  00000-0  13188-2 0  9997
2 60008  82.5084 343.6533 0033790 290.6201  69.1349 14.08448758630530
METEOR 2-11 DEB
1 60008U 84072AD  26142.31309550  .00002286  00000-0  13188-2 0  9997
2 60008  82.5084 343.6532 0033790 290.6201  69.1349 14.08448758630539
METEOR 2-11 DEB
1 60008U 84072AD  26154.24773718  .00003016  00000-0  17404-2 0  9990
2 60008  82.5088 333.7281 0032952 251.4348 108.3245 14.08514552632214
METEOR 2-11 DEB
1 60008U 84072AD  26154.24773718  .00003016  00000-0  17404-2 0  9990
2 60008  82.5088 333.7281 0032952 251.4348 108.3245 14.08514552632214
METEOR 2-11 DEB
1 60008U 84072AD  26156.23679073  .00002692  00000-0  15521-2 0  9997
2 60008  82.5132 332.0783 0033620 246.5693 113.1945 14.08522418632495
METEOR 2-11 DEB
1 60008U 84072AD  26156.23679074  .00002692  00000-0  15521-2 0  9998
2 60008  82.5132 332.0783 0033620 246.5693 113.1945 14.08522419632496
METEOR 2-11 DEB
1 60008U 84072AD  26159.22035955  .00002553  00000-0  14717-2 0  9996
2 60008  82.5084 329.5907 0033370 234.6658 125.1396 14.08534092632912
METEOR 2-11 DEB
1 60008U 84072AD  26159.22035955  .00002553  00000-0  14717-2 0  9996
2 60008  82.5084 329.5907 0033370 234.6658 125.1396 14.08534092632912
METEOR 2-11 DEB
1 60008U 84072AD  26160.21487588  .00002016  00000-0  11598-2 0  9998
2 60008  82.5093 328.7668 0033599 232.2253 127.5877 14.08535785633051
METEOR 2-11 DEB
1 60008U 84072AD  26160.21487588  .00002016  00000-0  11598-2 0  9998
2 60008  82.5093 328.7668 0033599 232.2253 127.5877 14.08535785633051
METEOR 2-11 DEB
1 60008U 84072AD  26164.19292337  .00001721  00000-0  98817-3 0  9997
2 60008  82.5095 325.4616 0034541 220.5618 139.2981 14.08547177633619
METEOR 2-11 DEB
1 60008U 84072AD  26170.15995481  .00001239  00000-0  70919-3 0  9997
2 60008  82.5112 320.5002 0033999 203.5385 156.4234 14.08559146634456
METEOR 2-11 DEB
1 60008U 84072AD  26170.15995482  .00001239  00000-0  70919-3 0  9998
2 60008  82.5112 320.5002 0033999 203.5386 156.4234 14.08559146634457
METEOR 2-11 DEB
1 60008U 84072AD  26170.15995482  .00001239  00000-0  70919-3 0  9998
2 60008  82.5112 320.5002 0033999 203.5386 156.4234 14.08559146634457
METEOR 2-11 DEB
1 60008U 84072AD  26175.13245900  .00000928  00000-0  52899-3 0  9995
2 60008  82.5134 316.3577 0033612 187.6389 172.4278 14.08564140635152
METEOR 2-11 DEB
1 60008U 84072AD  26177.12144606  .00001079  00000-0  61575-3 0  9996
2 60008  82.5076 314.7054 0035293 182.0738 178.0295 14.08568233635432
METEOR 2-11 DEB
1 60008U 84072AD  26177.12144607  .00001079  00000-0  61575-3 0  9997
2 60008  82.5076 314.7054 0035293 182.0739 178.0295 14.08568233635433
METEOR 2-11 DEB
1 60008U 84072AD  26181.09940760  .00001060  00000-0  60461-3 0  9995
2 60008  82.5057 311.3984 0036278 171.2556 188.9258 14.08576648635997
METEOR 2-11 DEB
1 60008U 84072AD  26181.09940760  .00001060  00000-0  60461-3 0  9995
2 60008  82.5057 311.3984 0036278 171.2556 188.9258 14.08576648635997
METEOR 2-11 DEB
1 60008U 84072AD  26183.08835323  .00001206  00000-0  68770-3 0  9997
2 60008  82.5116 309.7393 0040615 173.6179 186.5521 14.08584443636276
METEOR 2-11 DEB
1 60008U 84072AD  26183.08835323  .00001206  00000-0  68770-3 0  9997
2 60008  82.5116 309.7393 0040615 173.6179 186.5521 14.08584443636276
METEOR 2-11 DEB
1 60008U 84072AD  26192.03866093  .00000406  00000-0  22538-3 0  9993
2 60008  82.4979 302.3041 0038177 144.4826 215.8901 14.08597080637535
METEOR 2-11 DEB
1 60008U 84072AD  26192.03866093  .00000406  00000-0  22538-3 0  9993
2 60008  82.4979 302.3041 0038177 144.4826 215.8901 14.08597080637535
METEOR 2-11 DEB
1 60008U 84072AD  26192.03866093  .00000406  00000-0  22538-3 0  9993
2 60008  82.4979 302.3041 0038177 144.4826 215.8901 14.08597080637535
METEOR 2-11 DEB
1 60008U 84072AD  26198.99995557  .00000383  00000-0  21240-3 0  9995
2 60008  82.5309 296.4999 0035226 129.0368 231.3951 14.08601424638515
METEOR 2-11 DEB
1 60008U 84072AD  26201.98337970 -.00000023  00000-0 -22908-4 0  9994
2 60008  82.5105 294.0258 0036224 119.3951 241.0848 14.08597038638934
METEOR 2-11 DEB
1 60008U 84072AD  26209.51290288  .00000707  00000-0  39981-3 0  9996
2 60008  82.5069 287.7623 0035515  98.5530 261.9671 14.08610427639991
METEOR 2-11 DEB
1 60008U 84072AD  26213.91691991  .00000812  00000-0  46085-3 0  9991
2 60008  82.5082 284.0963 0035028  86.0052 274.5125 14.08620209640617
METEOR 2-11 DEB
1 60008U 84072AD  26213.91691991  .00000812  00000-0  46085-3 0  9991
2 60008  82.5082 284.0963 0035028  86.0052 274.5125 14.08620209640617
METEOR 2-11 DEB
1 60008U 84072AD  26214.48517675  .00000821  00000-0  46611-3 0  9995
2 60008  82.5077 283.6250 0034651  84.6765 275.8361 14.08621537640690
METEOR 2-11 DEB
1 60008U 84072AD  26215.90581846  .00000794  00000-0  45022-3 0  9998
2 60008  82.5058 282.4439 0034313  81.1932 279.3125 14.08624253640895
METEOR 2-11 DEB
1 60008U 84072AD  26220.45185919  .00000549  00000-0  30848-3 0  9993
2 60008  82.5054 278.6613 0033361  68.3816 292.0906 14.08630013641534
METEOR 2-11 DEB
1 60008U 84072AD  26220.45185920  .00000549  00000-0  30848-3 0  9995
2 60008  82.5054 278.6613 0033361  68.3816 292.0906 14.08630013641534
METEOR 2-11 DEB
1 60008U 84072AD  26220.87804920  .00000560  00000-0  31488-3 0  9993
2 60008  82.5052 278.3068 0033296  67.1923 293.2762 14.08630704641592
METEOR 2-11 DEB
1 60008U 84072AD  26220.87804921  .00000560  00000-0  31488-3 0  9994
2 60008  82.5052 278.3068 0033296  67.1923 293.2762 14.08630704641592
METEOR 2-11 DEB
1 60008U 84072AD  26225.85026073  .00000474  00000-0  26552-3 0  9991
2 60008  82.5046 274.1701 0032354  52.8954 307.5169 14.08634790642299
METEOR 2-11 DEB
1 60008U 84072AD  26225.85026073  .00000474  00000-0  26552-3 0  9991
2 60008  82.5046 274.1701 0032354  52.8954 307.5169 14.08634790642299
METEOR 2-11 DEB
1 60008U 84072AD  26233.37955382  .00001012  00000-0  57671-3 0  9996
2 60008  82.5052 267.9062 0031543  30.4361 329.8635 14.08649394643358
METEOR 2-11 DEB
1 60008U 84072AD  26233.37955382  .00001012  00000-0  57671-3 0  9996
2 60008  82.5052 267.9062 0031543  30.4361 329.8635 14.08649394643358
