CZ-6A DEB
1 61822U 24140ACN 24310.85170322  .00007292  00000-0  41447-2 0  9990
2 61822  89.2594 344.0005 0135525 263.1369  95.4379 14.05274464  8669
CZ-6A DEB
1 61822U 24140ACN 24334.27614407  .00005324  00000-0  30070-2 0  9993
2 61822  89.2577 342.0751 0136383 188.0554 171.8440 14.05522726 11951
CZ-6A DEB
1 61822U 24140ACN 24334.27614407  .00005324  00000-0  30070-2 0  9993
2 61822  89.2577 342.0751 0136383 188.0554 171.8440 14.05522726 11951
CZ-6A DEB
1 61822U 24140ACN 24335.27285238  .00005971  00000-0  33698-2 0  9997
2 61822  89.2558 341.9877 0136972 184.7125 175.2779 14.05535206 12094
CZ-6A DEB
1 61822U 24140ACN 24335.77120428  .00004794  00000-0  27036-2 0  9992
2 61822  89.2559 341.9461 0137051 183.1499 176.8836 14.05538211 12168
CZ-6A DEB
1 61822U 24140ACN 24335.77120428  .00004794  00000-0  27036-2 0  9992
2 61822  89.2559 341.9461 0137051 183.1499 176.8836 14.05538211 12168
CZ-6A DEB
1 61822U 24140ACN 24336.26955422  .00005054  00000-0  28504-2 0  9998
2 61822  89.2551 341.9047 0137125 181.5467 178.5311 14.05543826 12232
CZ-6A DEB
1 61822U 24140ACN 24336.76790249  .00004937  00000-0  27834-2 0  9991
2 61822  89.2550 341.8635 0137197 179.9562 180.1657 14.05548726 12303
CZ-6A DEB
1 61822U 24140ACN 24338.76128013  .00003884  00000-0  21873-2 0  9994
2 61822  89.2557 341.6988 0137374 173.6152 186.6823 14.05564889 12586
CZ-6A DEB
1 61822U 24140ACN 24338.76128013  .00003884  00000-0  21873-2 0  9994
2 61822  89.2557 341.6988 0137374 173.6152 186.6823 14.05564889 12586
CZ-6A DEB
1 61822U 24140ACN 24341.75130248  .00003394  00000-0  19090-2 0  9994
2 61822  89.2565 341.4516 0137672 164.1329 196.4234 14.05588270 13005
CZ-6A DEB
1 61822U 24140ACN 24341.75130248  .00003394  00000-0  19090-2 0  9994
2 61822  89.2565 341.4516 0137672 164.1329 196.4234 14.05588270 13005
CZ-6A DEB
1 61822U 24140ACN 24344.24295071  .00003613  00000-0  20309-2 0  9996
2 61822  89.2553 341.2455 0137974 156.2636 204.4994 14.05606402 13359
CZ-6A DEB
1 61822U 24140ACN 24344.24295071  .00003613  00000-0  20309-2 0  9996
2 61822  89.2553 341.2455 0137974 156.2636 204.4994 14.05606402 13359
CZ-6A DEB
1 61822U 24140ACN 24345.23960058  .00003688  00000-0  20726-2 0  9995
2 61822  89.2548 341.1631 0138090 153.1221 207.7204 14.05613658 13490
CZ-6A DEB
1 61822U 24140ACN 24345.73792413  .00003242  00000-0  18211-2 0  9990
2 61822  89.2547 341.1226 0138062 151.5578 209.3230 14.05615746 13560
CZ-6A DEB
1 61822U 24140ACN 24345.73792413  .00003242  00000-0  18211-2 0  9990
2 61822  89.2547 341.1226 0138062 151.5578 209.3230 14.05615746 13560
CZ-6A DEB
1 61822U 24140ACN 24347.23288651  .00002725  00000-0  15286-2 0  9995
2 61822  89.2532 340.9975 0138335 146.8773 214.1168 14.05624148 13772
CZ-6A DEB
1 61822U 24140ACN 24347.23288651  .00002725  00000-0  15286-2 0  9995
2 61822  89.2532 340.9975 0138335 146.8773 214.1168 14.05624148 13772
CZ-6A DEB
1 61822U 24140ACN 24349.22615637  .00002411  00000-0  13512-2 0  9996
2 61822  89.2531 340.8326 0138525 140.6075 220.5282 14.05633445 14058
CZ-6A DEB
1 61822U 24140ACN 24349.72447116  .00002642  00000-0  14807-2 0  9990
2 61822  89.2520 340.7900 0138709 139.0868 222.0825 14.05636439 14123
CZ-6A DEB
1 61822U 24140ACN 24352.71433539  .00003308  00000-0  18549-2 0  9994
2 61822  89.2535 340.5439 0138691 129.6773 231.6739 14.05654606 14546
CZ-6A DEB
1 61822U 24140ACN 24352.71433539  .00003308  00000-0  18549-2 0  9994
2 61822  89.2535 340.5439 0138691 129.6773 231.6739 14.05654606 14546
CZ-6A DEB
1 61822U 24140ACN 24354.70755274  .00002744  00000-0  15369-2 0  9998
2 61822  89.2541 340.3786 0138792 123.4312 238.0233 14.05665304 14827
CZ-6A DEB
1 61822U 24140ACN 24354.70755274  .00002744  00000-0  15369-2 0  9998
2 61822  89.2541 340.3786 0138792 123.4312 238.0233 14.05665304 14827
CZ-6A DEB
1 61822U 24140ACN 24355.70415371  .00002718  00000-0  15220-2 0  9997
2 61822  89.2544 340.2968 0138788 120.2994 241.2005 14.05671400 14969
CZ-6A DEB
1 61822U 24140ACN 24358.40918362  .00004023  00000-0  22556-2 0  9996
2 61822  89.2544 340.0735 0138815 111.8853 249.7157 14.05693503 15342
CZ-6A DEB
1 61822U 24140ACN 24358.40918362  .00004023  00000-0  22556-2 0  9996
2 61822  89.2544 340.0735 0138815 111.8853 249.7157 14.05693503 15342
CZ-6A DEB
1 61822U 24140ACN 24362.68017768  .00004910  00000-0  27517-2 0  9998
2 61822  89.2542 339.7193 0139017  98.5128 263.1837 14.05734290 15944
CZ-6A DEB
1 61822U 24140ACN 24362.68017768  .00004910  00000-0  27517-2 0  9998
2 61822  89.2542 339.7193 0139017  98.5128 263.1837 14.05734290 15944
CZ-6A DEB
1 61822U 24140ACN 24363.39199510  .00005171  00000-0  28987-2 0  9995
2 61822  89.2538 339.6593 0138852  96.3321 265.3695 14.05741772 16040
CZ-6A DEB
1 61822U 24140ACN 24363.67672141  .00005370  00000-0  30096-2 0  9997
2 61822  89.2534 339.6354 0138927  95.4412 266.2636 14.05745104 16087
CZ-6A DEB
1 61822U 24140ACN 24364.67325666  .00005849  00000-0  32781-2 0  9999
2 61822  89.2534 339.5532 0138930  92.3242 269.3855 14.05756893 16225
CZ-6A DEB
1 61822U 24140ACN 24364.67325666  .00005849  00000-0  32781-2 0  9999
2 61822  89.2534 339.5532 0138930  92.3242 269.3855 14.05756893 16225
CZ-6A DEB
1 61822U 24140ACN 24365.38506087  .00006800  00000-0  38119-2 0  9995
2 61822  89.2525 339.4938 0138814  90.1286 271.5803 14.05767549 16328
CZ-6A DEB
1 61822U 24140ACN 24366.66629553  .00007560  00000-0  42362-2 0  9990
2 61822  89.2533 339.3871 0138895  86.1448 275.5601 14.05785913 16501
CZ-6A DEB
1 61822U 24140ACN 24366.66629553  .00007560  00000-0  42362-2 0  9990
2 61822  89.2533 339.3871 0138895  86.1448 275.5601 14.05785913 16501
CZ-6A DEB
1 61822U 24140ACN 25001.66279611  .00009293  00000-0  52066-2 0  9990
2 61822  89.2553 339.3045 0138901  83.0481 278.6478 14.05805268 16644
CZ-6A DEB
1 61822U 24140ACN 25001.66279611  .00009293  00000-0  52066-2 0  9990
2 61822  89.2553 339.3045 0138901  83.0481 278.6478 14.05805268 16644
CZ-6A DEB
1 61822U 24140ACN 25008.63793507  .00004664  00000-0  26079-2 0  9991
2 61822  89.2517 338.7259 0138283  61.2442 300.2551 14.05907818 17629
CZ-6A DEB
1 61822U 24140ACN 25010.34606457  .00004526  00000-0  25296-2 0  9996
2 61822  89.2571 338.5879 0138261  55.8942 305.5269 14.05923610 17863
CZ-6A DEB
1 61822U 24140ACN 25010.34606457  .00004526  00000-0  25296-2 0  9996
2 61822  89.2571 338.5879 0138261  55.8942 305.5269 14.05923610 17863
CZ-6A DEB
1 61822U 24140ACN 25010.63075064  .00004978  00000-0  27838-2 0  9997
2 61822  89.2531 338.5614 0138038  54.9928 306.4119 14.05926157 17900
CZ-6A DEB
1 61822U 24140ACN 25011.62714861  .00004355  00000-0  24339-2 0  9994
2 61822  89.2530 338.4782 0138127  51.8732 309.4807 14.05934647 18048
CZ-6A DEB
1 61822U 24140ACN 25011.62714861  .00004355  00000-0  24339-2 0  9994
2 61822  89.2530 338.4782 0138127  51.8732 309.4807 14.05934647 18048
CZ-6A DEB
1 61822U 24140ACN 25012.33885609  .00004349  00000-0  24304-2 0  9997
2 61822  89.2556 338.4201 0138003  49.6319 311.6815 14.05941048 18149
CZ-6A DEB
1 61822U 24140ACN 25012.62353829  .00004305  00000-0  24059-2 0  9992
2 61822  89.2551 338.3961 0138000  48.7422 312.5551 14.05943514 18189
CZ-6A DEB
1 61822U 24140ACN 25013.61992113  .00004251  00000-0  23756-2 0  9990
2 61822  89.2554 338.3135 0137891  45.6058 315.6316 14.05952217 18322
CZ-6A DEB
1 61822U 24140ACN 25013.61992113  .00004251  00000-0  23756-2 0  9990
2 61822  89.2554 338.3135 0137891  45.6058 315.6316 14.05952217 18322
CZ-6A DEB
1 61822U 24140ACN 25019.59804636  .00007785  00000-0  43529-2 0  9990
2 61822  89.2578 337.8215 0137162  26.7751 334.0426 14.06025774 19162
CZ-6A DEB
1 61822U 24140ACN 25019.59804636  .00007785  00000-0  43529-2 0  9990
2 61822  89.2578 337.8215 0137162  26.7751 334.0426 14.06025774 19162
CZ-6A DEB
1 61822U 24140ACN 25020.59436659  .00008357  00000-0  46716-2 0  9995
2 61822  89.2557 337.7382 0137236  23.6734 337.0682 14.06041395 19302
CZ-6A DEB
1 61822U 24140ACN 25021.59067394  .00008209  00000-0  45878-2 0  9996
2 61822  89.2551 337.6557 0137143  20.5411 340.1211 14.06057264 19444
CZ-6A DEB
1 61822U 24140ACN 25021.59067394  .00008209  00000-0  45878-2 0  9996
2 61822  89.2551 337.6557 0137143  20.5411 340.1211 14.06057264 19444
CZ-6A DEB
1 61822U 24140ACN 25023.15627525  .00007694  00000-0  42993-2 0  9990
2 61822  89.2559 337.5268 0136927  15.5838 344.9495 14.06081873 19669
CZ-6A DEB
1 61822U 24140ACN 25023.15627525  .00007694  00000-0  42993-2 0  9990
2 61822  89.2559 337.5268 0136927  15.5838 344.9495 14.06081873 19669
CZ-6A DEB
1 61822U 24140ACN 25025.57578623  .00007236  00000-0  40418-2 0  9994
2 61822  89.2546 337.3262 0136651   7.9665 352.3642 14.06119825 20000
CZ-6A DEB
1 61822U 24140ACN 25025.57578623  .00007236  00000-0  40418-2 0  9994
2 61822  89.2546 337.3262 0136651   7.9665 352.3642 14.06119825 20000
CZ-6A DEB
1 61822U 24140ACN 25026.57203778  .00006340  00000-0  35399-2 0  9998
2 61822  89.2545 337.2433 0136595   4.8430 355.4037 14.06132592 20144
CZ-6A DEB
1 61822U 24140ACN 25026.57203778  .00006340  00000-0  35399-2 0  9998
2 61822  89.2545 337.2433 0136595   4.8430 355.4037 14.06132592 20144
CZ-6A DEB
1 61822U 24140ACN 25029.27610420  .00007524  00000-0  42009-2 0  9995
2 61822  89.2551 337.0209 0136270 356.4312   3.5884 14.06170219 20526
CZ-6A DEB
1 61822U 24140ACN 25029.56073801  .00006549  00000-0  36561-2 0  9995
2 61822  89.2555 336.9967 0136255 355.4813   4.5128 14.06172638 20560
CZ-6A DEB
1 61822U 24140ACN 25031.12621169  .00005703  00000-0  31834-2 0  9995
2 61822  89.2573 336.8686 0135946 350.4770   9.3837 14.06192856 20788
CZ-6A DEB
1 61822U 24140ACN 25031.55315522  .00006017  00000-0  33592-2 0  9997
2 61822  89.2557 336.8343 0135706 349.0111  10.8113 14.06197654 20849
CZ-6A DEB
1 61822U 24140ACN 25034.25709840  .00006304  00000-0  35191-2 0  9993
2 61822  89.2554 336.6115 0135346 340.5938  19.0118 14.06233379 21228
CZ-6A DEB
1 61822U 24140ACN 25034.25709840  .00006304  00000-0  35191-2 0  9993
2 61822  89.2554 336.6115 0135346 340.5938  19.0118 14.06233379 21228
CZ-6A DEB
1 61822U 24140ACN 25034.54171895  .00005932  00000-0  33112-2 0  9995
2 61822  89.2553 336.5877 0135319 339.6151  19.9658 14.06236974 21263
CZ-6A DEB
1 61822U 24140ACN 25035.53788993  .00006021  00000-0  33608-2 0  9998
2 61822  89.2548 336.5052 0135212 336.5215  22.9830 14.06249057 21409
CZ-6A DEB
1 61822U 24140ACN 25036.53405402  .00005473  00000-0  30544-2 0  9996
2 61822  89.2546 336.4225 0135092 333.4333  25.9967 14.06258832 21541
CZ-6A DEB
1 61822U 24140ACN 25037.53021325  .00004839  00000-0  26997-2 0  9997
2 61822  89.2536 336.3383 0135046 330.5373  28.8244 14.06267485 21684
CZ-6A DEB
1 61822U 24140ACN 25037.53021325  .00004839  00000-0  26997-2 0  9997
2 61822  89.2536 336.3383 0135046 330.5373  28.8244 14.06267485 21684
CZ-6A DEB
1 61822U 24140ACN 25039.09558743  .00004530  00000-0  25268-2 0  9997
2 61822  89.2560 336.2100 0134825 325.2755  33.9680 14.06282165 21904
CZ-6A DEB
1 61822U 24140ACN 25039.09558743  .00004530  00000-0  25268-2 0  9997
2 61822  89.2560 336.2100 0134825 325.2755  33.9680 14.06282165 21904
CZ-6A DEB
1 61822U 24140ACN 25040.51864918  .00004018  00000-0  22421-2 0  9999
2 61822  89.2550 336.0953 0134118 320.7239  38.4271 14.06291105 22102
CZ-6A DEB
1 61822U 24140ACN 25041.51478380  .00004496  00000-0  25084-2 0  9992
2 61822  89.2564 336.0109 0134347 317.5783  41.5073 14.06300789 22241
CZ-6A DEB
1 61822U 24140ACN 25041.51478380  .00004496  00000-0  25084-2 0  9992
2 61822  89.2564 336.0109 0134347 317.5783  41.5073 14.06300789 22241
CZ-6A DEB
1 61822U 24140ACN 25045.49928049  .00003635  00000-0  20279-2 0  9990
2 61822  89.2563 335.6816 0133624 305.0127  53.8573 14.06329206 22809
CZ-6A DEB
1 61822U 24140ACN 25046.06848856  .00003978  00000-0  22202-2 0  9999
2 61822  89.2562 335.6348 0133492 303.1951  55.6487 14.06334108 22884
CZ-6A DEB
1 61822U 24140ACN 25047.06459822  .00004371  00000-0  24398-2 0  9997
2 61822  89.2566 335.5527 0133325 300.0340  58.7671 14.06343105 23022
CZ-6A DEB
1 61822U 24140ACN 25047.06459822  .00004371  00000-0  24398-2 0  9997
2 61822  89.2566 335.5527 0133325 300.0340  58.7671 14.06343105 23022
CZ-6A DEB
1 61822U 24140ACN 25049.48369683  .00004544  00000-0  25377-2 0  9990
2 61822  89.2555 335.3528 0132696 292.3429  66.3734 14.06366068 23365
CZ-6A DEB
1 61822U 24140ACN 25049.48369683  .00004544  00000-0  25377-2 0  9990
2 61822  89.2555 335.3528 0132696 292.3429  66.3734 14.06366068 23365
CZ-6A DEB
1 61822U 24140ACN 25050.05289171  .00003969  00000-0  22157-2 0  9991
2 61822  89.2554 335.3055 0132614 290.5239  68.1753 14.06369931 23440
CZ-6A DEB
1 61822U 24140ACN 25052.04505905  .00003465  00000-0  19339-2 0  9997
2 61822  89.2554 335.1407 0132171 284.1535  74.4991 14.06387185 23721
CZ-6A DEB
1 61822U 24140ACN 25052.04505905  .00003465  00000-0  19339-2 0  9997
2 61822  89.2554 335.1407 0132171 284.1535  74.4991 14.06387185 23721
CZ-6A DEB
1 61822U 24140ACN 25056.02933734  .00004852  00000-0  27114-2 0  9995
2 61822  89.2562 334.8107 0131295 271.3648  87.2497 14.06422604 24283
CZ-6A DEB
1 61822U 24140ACN 25056.02933734  .00004852  00000-0  27114-2 0  9995
2 61822  89.2562 334.8107 0131295 271.3648  87.2497 14.06422604 24283
CZ-6A DEB
1 61822U 24140ACN 25057.52341858  .00004499  00000-0  25140-2 0  9995
2 61822  89.2570 334.6869 0131041 266.5521  92.0666 14.06436170 24498
CZ-6A DEB
1 61822U 24140ACN 25057.52341858  .00004499  00000-0  25140-2 0  9995
2 61822  89.2570 334.6869 0131041 266.5521  92.0666 14.06436170 24498
CZ-6A DEB
1 61822U 24140ACN 25058.51946544  .00004665  00000-0  26067-2 0  9992
2 61822  89.2571 334.6050 0130879 263.3264  95.3009 14.06446203 24639
CZ-6A DEB
1 61822U 24140ACN 25060.51154215  .00003598  00000-0  20097-2 0  9992
2 61822  89.2558 334.4413 0130331 256.8697 101.7915 14.06462733 24910
CZ-6A DEB
1 61822U 24140ACN 25060.51154215  .00003598  00000-0  20097-2 0  9992
2 61822  89.2558 334.4413 0130331 256.8697 101.7915 14.06462733 24910
CZ-6A DEB
1 61822U 24140ACN 25062.50360542  .00002405  00000-0  13421-2 0  9994
2 61822  89.2541 334.2765 0129772 250.3754 108.3384 14.06472824 25196
CZ-6A DEB
1 61822U 24140ACN 25062.50360542  .00002405  00000-0  13421-2 0  9994
2 61822  89.2541 334.2765 0129772 250.3754 108.3384 14.06472824 25196
CZ-6A DEB
1 61822U 24140ACN 25063.49963489  .00002168  00000-0  12099-2 0  9998
2 61822  89.2551 334.1944 0129364 247.1079 111.6405 14.06476248 25337
CZ-6A DEB
1 61822U 24140ACN 25066.70114252  .00001953  00000-0  10886-2 0  9994
2 61822  89.2541 333.9283 0129324 236.6484 122.2267 14.06487614 25780
CZ-6A DEB
1 61822U 24140ACN 25066.70114252  .00001953  00000-0  10886-2 0  9994
2 61822  89.2541 333.9283 0129324 236.6484 122.2267 14.06487614 25780
CZ-6A DEB
1 61822U 24140ACN 25067.48373145  .00001994  00000-0  11114-2 0  9998
2 61822  89.2544 333.8639 0129446 234.1318 124.7789 14.06489869 25893
CZ-6A DEB
1 61822U 24140ACN 25068.97775939  .00002238  00000-0  12478-2 0  9996
2 61822  89.2532 333.7399 0129536 229.3131 129.6740 14.06496601 26109
CZ-6A DEB
1 61822U 24140ACN 25068.97775939  .00002238  00000-0  12478-2 0  9996
2 61822  89.2532 333.7399 0129536 229.3131 129.6740 14.06496601 26109
CZ-6A DEB
1 61822U 24140ACN 25070.47178319  .00001993  00000-0  11104-2 0  9995
2 61822  89.2536 333.6158 0129530 224.4048 134.6692 14.06502124 26315
CZ-6A DEB
1 61822U 24140ACN 25070.47178319  .00001993  00000-0  11104-2 0  9995
2 61822  89.2536 333.6158 0129530 224.4048 134.6692 14.06502124 26315
CZ-6A DEB
1 61822U 24140ACN 25073.45981000  .00002998  00000-0  16729-2 0  9999
2 61822  89.2546 333.3702 0129648 214.7595 144.5068 14.06519887 26734
CZ-6A DEB
1 61822U 24140ACN 25073.67323954  .00002852  00000-0  15910-2 0  9991
2 61822  89.2546 333.3527 0129619 214.0701 145.2113 14.06520601 26767
CZ-6A DEB
1 61822U 24140ACN 25076.94579361  .00003253  00000-0  18143-2 0  9996
2 61822  89.2528 333.0809 0129846 203.4414 156.0818 14.06544033 27221
CZ-6A DEB
1 61822U 24140ACN 25076.94579361  .00003253  00000-0  18143-2 0  9996
2 61822  89.2528 333.0809 0129846 203.4414 156.0818 14.06544033 27221
CZ-6A DEB
1 61822U 24140ACN 25086.12284310  .00004343  00000-0  24171-2 0  9993
2 61822  89.2513 332.3180 0130897 174.2377 186.0350 14.06626847 28511
CZ-6A DEB
1 61822U 24140ACN 25086.40739691  .00004492  00000-0  25003-2 0  9991
2 61822  89.2530 332.2957 0130836 173.0611 187.2424 14.06629514 28555
CZ-6A DEB
1 61822U 24140ACN 25087.40332468  .00003653  00000-0  20319-2 0  9996
2 61822  89.2512 332.2106 0130864 169.8177 190.5706 14.06635773 28691
CZ-6A DEB
1 61822U 24140ACN 25087.40332468  .00003653  00000-0  20319-2 0  9996
2 61822  89.2512 332.2106 0130864 169.8177 190.5706 14.06635773 28691
CZ-6A DEB
1 61822U 24140ACN 25088.39924548  .00003177  00000-0  17656-2 0  9992
2 61822  89.2516 332.1302 0131065 166.7689 193.6987 14.06641743 28835
CZ-6A DEB
1 61822U 24140ACN 25090.39108224  .00002636  00000-0  14626-2 0  9993
2 61822  89.2501 331.9620 0131275 160.2074 200.4272 14.06650646 29117
CZ-6A DEB
1 61822U 24140ACN 25090.39108224  .00002636  00000-0  14626-2 0  9993
2 61822  89.2501 331.9620 0131275 160.2074 200.4272 14.06650646 29117
CZ-6A DEB
1 61822U 24140ACN 25092.38289915  .00002802  00000-0  15547-2 0  9999
2 61822  89.2512 331.7962 0131356 154.1596 206.6227 14.06660520 29397
CZ-6A DEB
1 61822U 24140ACN 25092.38289915  .00002802  00000-0  15547-2 0  9999
2 61822  89.2512 331.7962 0131356 154.1596 206.6227 14.06660520 29397
CZ-6A DEB
1 61822U 24140ACN 25093.37880322  .00003307  00000-0  18361-2 0  9996
2 61822  89.2488 331.7100 0131341 150.8176 210.0429 14.06668318 29536
CZ-6A DEB
1 61822U 24140ACN 25095.37059426  .00003558  00000-0  19748-2 0  9999
2 61822  89.2489 331.5433 0131536 144.4413 216.5625 14.06681398 29816
CZ-6A DEB
1 61822U 24140ACN 25095.93967145  .00003263  00000-0  18104-2 0  9995
2 61822  89.2498 331.4995 0131743 142.9126 218.1252 14.06683911 29897
CZ-6A DEB
1 61822U 24140ACN 25096.93555467  .00003416  00000-0  18943-2 0  9997
2 61822  89.2516 331.4182 0131958 139.7329 221.3719 14.06692079 30030
CZ-6A DEB
1 61822U 24140ACN 25096.93555467  .00003416  00000-0  18943-2 0  9997
2 61822  89.2516 331.4182 0131958 139.7329 221.3719 14.06692079 30030
CZ-6A DEB
1 61822U 24140ACN 25097.93143216  .00003182  00000-0  17639-2 0  9994
2 61822  89.2520 331.3350 0132023 136.5683 224.5992 14.06698719 30173
CZ-6A DEB
1 61822U 24140ACN 25099.92317106  .00003226  00000-0  17876-2 0  9998
2 61822  89.2520 331.1699 0132247 130.3156 230.9672 14.06712327 30451
CZ-6A DEB
1 61822U 24140ACN 25100.06543726  .00003245  00000-0  17975-2 0  9996
2 61822  89.2519 331.1585 0132330 129.8886 231.4022 14.06713367 30471
CZ-6A DEB
1 61822U 24140ACN 25100.34996942  .00003516  00000-0  19482-2 0  9995
2 61822  89.2518 331.1348 0132314 128.9980 232.3075 14.06716000 30514
CZ-6A DEB
1 61822U 24140ACN 25101.34582813  .00003659  00000-0  20276-2 0  9995
2 61822  89.2517 331.0521 0132390 125.8699 235.4863 14.06723322 30651
CZ-6A DEB
1 61822U 24140ACN 25101.34582813  .00003659  00000-0  20276-2 0  9995
2 61822  89.2517 331.0521 0132390 125.8699 235.4863 14.06723322 30651
CZ-6A DEB
1 61822U 24140ACN 25104.33337034  .00003253  00000-0  18003-2 0  9995
2 61822  89.2509 330.8037 0132730 116.4880 244.9987 14.06743130 31075
CZ-6A DEB
1 61822U 24140ACN 25104.33337034  .00003253  00000-0  18003-2 0  9995
2 61822  89.2509 330.8037 0132730 116.4880 244.9987 14.06743130 31075
CZ-6A DEB
1 61822U 24140ACN 25107.88990215  .00003185  00000-0  17612-2 0  9993
2 61822  89.2503 330.5064 0132919 105.3292 256.2625 14.06766793 31579
CZ-6A DEB
1 61822U 24140ACN 25107.88990215  .00003185  00000-0  17612-2 0  9993
2 61822  89.2503 330.5064 0132919 105.3292 256.2625 14.06766793 31579
CZ-6A DEB
1 61822U 24140ACN 25111.87313383  .00003340  00000-0  18448-2 0  9993
2 61822  89.2510 330.1750 0133558  92.8458 268.8019 14.06793782 32136
CZ-6A DEB
1 61822U 24140ACN 25111.87313383  .00003340  00000-0  18448-2 0  9993
2 61822  89.2510 330.1750 0133558  92.8458 268.8019 14.06793782 32136
CZ-6A DEB
1 61822U 24140ACN 25112.86892760  .00003348  00000-0  18490-2 0  9999
2 61822  89.2520 330.0932 0133619  89.6829 271.9663 14.06800888 32273
CZ-6A DEB
1 61822U 24140ACN 25117.84780084  .00003812  00000-0  21035-2 0  9992
2 61822  89.2501 329.6701 0134187  73.8241 287.7661 14.06840415 32974
CZ-6A DEB
1 61822U 24140ACN 25117.84780084  .00003812  00000-0  21035-2 0  9992
2 61822  89.2501 329.6701 0134187  73.8241 287.7661 14.06840415 32974
CZ-6A DEB
1 61822U 24140ACN 25118.84355610  .00003598  00000-0  19853-2 0  9992
2 61822  89.2558 329.5961 0133912  70.4133 291.1450 14.06848559 33110
CZ-6A DEB
1 61822U 24140ACN 25121.33291467  .00003171  00000-0  17473-2 0  9992
2 61822  89.2491 329.3821 0134330  63.3240 298.1624 14.06865773 33469
CZ-6A DEB
1 61822U 24140ACN 25121.33291467  .00003171  00000-0  17473-2 0  9992
2 61822  89.2491 329.3821 0134330  63.3240 298.1624 14.06865773 33469
CZ-6A DEB
1 61822U 24140ACN 25122.32864845  .00003609  00000-0  19901-2 0  9992
2 61822  89.2475 329.2988 0134191  60.3789 301.0683 14.06873615 33603
CZ-6A DEB
1 61822U 24140ACN 25123.32437503  .00003769  00000-0  20782-2 0  9996
2 61822  89.2489 329.2172 0134114  57.1412 304.2597 14.06882208 33747
CZ-6A DEB
1 61822U 24140ACN 25123.32437503  .00003769  00000-0  20782-2 0  9996
2 61822  89.2489 329.2172 0134114  57.1412 304.2597 14.06882208 33747
CZ-6A DEB
1 61822U 24140ACN 25124.53346547  .00003032  00000-0  16704-2 0  9999
2 61822  89.2485 329.1157 0134081  53.4346 307.9089 14.06889274 33918
CZ-6A DEB
1 61822U 24140ACN 25124.53346547  .00003032  00000-0  16704-2 0  9999
2 61822  89.2485 329.1157 0134081  53.4346 307.9089 14.06889274 33918
CZ-6A DEB
1 61822U 24140ACN 25125.81367111  .00002917  00000-0  16068-2 0  9995
2 61822  89.2485 329.0088 0134051  49.4733 311.8034 14.06896926 34098
CZ-6A DEB
1 61822U 24140ACN 25125.81367111  .00002917  00000-0  16068-2 0  9995
2 61822  89.2485 329.0088 0134051  49.4733 311.8034 14.06896926 34098
CZ-6A DEB
1 61822U 24140ACN 25126.80938156  .00002656  00000-0  14623-2 0  9993
2 61822  89.2484 328.9257 0133996  46.3881 314.8326 14.06901803 34234
CZ-6A DEB
1 61822U 24140ACN 25128.30293936  .00002569  00000-0  14142-2 0  9999
2 61822  89.2479 328.8008 0133863  41.7352 319.3948 14.06909261 34445
CZ-6A DEB
1 61822U 24140ACN 25129.29863923  .00002664  00000-0  14672-2 0  9991
2 61822  89.2468 328.7170 0133682  38.6307 322.4346 14.06914585 34583
CZ-6A DEB
1 61822U 24140ACN 25130.29433580  .00002631  00000-0  14491-2 0  9998
2 61822  89.2468 328.6339 0133603  35.5043 325.4940 14.06919160 34728
CZ-6A DEB
1 61822U 24140ACN 25130.29433580  .00002631  00000-0  14491-2 0  9998
2 61822  89.2468 328.6339 0133603  35.5043 325.4940 14.06919160 34728
CZ-6A DEB
1 61822U 24140ACN 25132.49907986  .00002186  00000-0  12027-2 0  9996
2 61822  89.2468 328.4494 0133320  28.5843 332.2564 14.06927710 35037
CZ-6A DEB
1 61822U 24140ACN 25132.49907986  .00002186  00000-0  12027-2 0  9996
2 61822  89.2468 328.4494 0133320  28.5843 332.2564 14.06927710 35037
CZ-6A DEB
1 61822U 24140ACN 25137.97530995  .00002483  00000-0  13684-2 0  9996
2 61822  89.2470 327.9902 0132366  11.2592 349.1501 14.06951032 35804
CZ-6A DEB
1 61822U 24140ACN 25138.25978694  .00002443  00000-0  13464-2 0  9992
2 61822  89.2471 327.9666 0132386  10.3166 350.0684 14.06951965 35843
CZ-6A DEB
1 61822U 24140ACN 25140.25111820  .00001896  00000-0  10438-2 0  9994
2 61822  89.2475 327.8001 0132073   3.9407 356.2782 14.06958601 36121
CZ-6A DEB
1 61822U 24140ACN 25140.25111820  .00001896  00000-0  10438-2 0  9994
2 61822  89.2475 327.8001 0132073   3.9407 356.2782 14.06958601 36121
CZ-6A DEB
1 61822U 24140ACN 25141.24677961  .00001769  00000-0  97325-3 0  9997
2 61822  89.2474 327.7168 0131924   0.7544 359.3813 14.06962229 36269
CZ-6A DEB
1 61822U 24140ACN 25143.23809559  .00001676  00000-0  92236-3 0  9991
2 61822  89.2473 327.5503 0131648 354.3593   5.6098 14.06969073 36545
CZ-6A DEB
1 61822U 24140ACN 25143.23809559  .00001676  00000-0  92236-3 0  9991
2 61822  89.2473 327.5503 0131648 354.3593   5.6098 14.06969073 36545
CZ-6A DEB
1 61822U 24140ACN 25144.23375003  .00001626  00000-0  89457-3 0  9990
2 61822  89.2471 327.4669 0131513 351.1480   8.7383 14.06972356 36680
CZ-6A DEB
1 61822U 24140ACN 25145.22940250  .00001567  00000-0  86183-3 0  9999
2 61822  89.2471 327.3832 0131468 347.9342  11.8699 14.06975105 36826
CZ-6A DEB
1 61822U 24140ACN 25145.22940250  .00001567  00000-0  86183-3 0  9999
2 61822  89.2471 327.3832 0131468 347.9342  11.8699 14.06975105 36826
CZ-6A DEB
1 61822U 24140ACN 25147.22070148  .00001509  00000-0  83013-3 0  9996
2 61822  89.2469 327.2160 0131253 341.5272  18.1168 14.06981375 37109
CZ-6A DEB
1 61822U 24140ACN 25147.22070148  .00001509  00000-0  83013-3 0  9996
2 61822  89.2469 327.2160 0131253 341.5272  18.1168 14.06981375 37109
CZ-6A DEB
1 61822U 24140ACN 25151.20327609  .00001588  00000-0  87426-3 0  9995
2 61822  89.2471 326.8809 0130907 328.7685  30.5765 14.06994828 37666
CZ-6A DEB
1 61822U 24140ACN 25151.77221306  .00001537  00000-0  84581-3 0  9997
2 61822  89.2476 326.8335 0130870 326.9519  32.3533 14.06996402 37742
CZ-6A DEB
1 61822U 24140ACN 25152.19891482  .00001791  00000-0  98651-3 0  9997
2 61822  89.2474 326.7978 0130806 325.5776  33.6983 14.06999279 37806
CZ-6A DEB
1 61822U 24140ACN 25153.19454985  .00001866  00000-0  10285-2 0  9990
2 61822  89.2473 326.7143 0130728 322.3653  36.8435 14.07003566 37949
CZ-6A DEB
1 61822U 24140ACN 25154.19018222  .00002041  00000-0  11256-2 0  9996
2 61822  89.2474 326.6309 0130662 319.1520  39.9924 14.07008618 38083
CZ-6A DEB
1 61822U 24140ACN 25155.75474531  .00001743  00000-0  96052-3 0  9994
2 61822  89.2462 326.4993 0130573 314.0945  44.9549 14.07012885 38308
CZ-6A DEB
1 61822U 24140ACN 25155.75474531  .00001743  00000-0  96052-3 0  9994
2 61822  89.2462 326.4993 0130573 314.0945  44.9549 14.07012885 38308
CZ-6A DEB
1 61822U 24140ACN 25159.73724994  .00001349  00000-0  74178-3 0  9994
2 61822  89.2466 326.1659 0130325 301.2177  57.6287 14.07024689 38864
CZ-6A DEB
1 61822U 24140ACN 25159.73724994  .00001349  00000-0  74178-3 0  9994
2 61822  89.2466 326.1659 0130325 301.2177  57.6287 14.07024689 38864
CZ-6A DEB
1 61822U 24140ACN 25161.15956852  .00001295  00000-0  71204-3 0  9990
2 61822  89.2473 326.0472 0130211 296.6458  62.1436 14.07028537 39063
CZ-6A DEB
1 61822U 24140ACN 25161.72849551  .00001241  00000-0  68219-3 0  9993
2 61822  89.2471 326.0002 0130104 294.7592  64.0098 14.07029806 39143
CZ-6A DEB
1 61822U 24140ACN 25162.15519031  .00001302  00000-0  71609-3 0  9993
2 61822  89.2469 325.9645 0130048 293.3750  65.3798 14.07031348 39201
CZ-6A DEB
1 61822U 24140ACN 25169.69341865  .00001687  00000-0  92969-3 0  9995
2 61822  89.2472 325.3334 0129584 268.9433  89.6902 14.07058155 40262
CZ-6A DEB
1 61822U 24140ACN 25169.69341865  .00001687  00000-0  92969-3 0  9995
2 61822  89.2472 325.3334 0129584 268.9433  89.6902 14.07058155 40262
CZ-6A DEB
1 61822U 24140ACN 25176.16485289  .00001441  00000-0  79286-3 0  9999
2 61822  89.2472 324.7907 0129457 247.9740 110.7650 14.07077445 41178
CZ-6A DEB
1 61822U 24140ACN 25176.16485289  .00001441  00000-0  79286-3 0  9999
2 61822  89.2472 324.7907 0129457 247.9740 110.7650 14.07077445 41178
CZ-6A DEB
1 61822U 24140ACN 25179.64945025  .00001359  00000-0  74680-3 0  9995
2 61822  89.2474 324.4989 0129649 236.6674 122.2043 14.07087196 41663
CZ-6A DEB
1 61822U 24140ACN 25179.64945025  .00001359  00000-0  74680-3 0  9995
2 61822  89.2474 324.4989 0129649 236.6674 122.2043 14.07087196 41663
CZ-6A DEB
1 61822U 24140ACN 25181.14284438  .00001369  00000-0  75192-3 0  9997
2 61822  89.2476 324.3736 0129898 231.8312 127.1112 14.07091540 41878
CZ-6A DEB
1 61822U 24140ACN 25181.14284438  .00001369  00000-0  75192-3 0  9997
2 61822  89.2476 324.3736 0129898 231.8312 127.1112 14.07091540 41878
CZ-6A DEB
1 61822U 24140ACN 25181.64064188  .00001435  00000-0  78856-3 0  9994
2 61822  89.2476 324.3323 0129877 230.2424 128.7261 14.07093350 41945
CZ-6A DEB
1 61822U 24140ACN 25182.63623510  .00001626  00000-0  89413-3 0  9997
2 61822  89.2478 324.2491 0129974 227.0433 131.9793 14.07097468 42080
CZ-6A DEB
1 61822U 24140ACN 25182.63623510  .00001626  00000-0  89413-3 0  9997
2 61822  89.2478 324.2491 0129974 227.0433 131.9793 14.07097468 42080
CZ-6A DEB
1 61822U 24140ACN 25183.13403163  .00001578  00000-0  86744-3 0  9993
2 61822  89.2481 324.2076 0130052 225.4490 133.6016 14.07098621 42154
CZ-6A DEB
1 61822U 24140ACN 25184.12962230  .00001694  00000-0  93167-3 0  9994
2 61822  89.2479 324.1242 0130194 222.2407 136.8691 14.07102474 42296
CZ-6A DEB
1 61822U 24140ACN 25184.62741764  .00001667  00000-0  91640-3 0  9990
2 61822  89.2476 324.0824 0130251 220.6334 138.5074 14.07103784 42360
CZ-6A DEB
1 61822U 24140ACN 25187.32972399  .00001805  00000-0  99218-3 0  9993
2 61822  89.2479 323.8564 0130638 211.9777 147.3431 14.07113687 42744
CZ-6A DEB
1 61822U 24140ACN 25187.32972399  .00001805  00000-0  99218-3 0  9993
2 61822  89.2479 323.8564 0130638 211.9777 147.3431 14.07113687 42744
CZ-6A DEB
1 61822U 24140ACN 25189.10755251  .00001619  00000-0  88852-3 0  9992
2 61822  89.2470 323.7074 0131013 206.3358 153.1126 14.07118007 42995
CZ-6A DEB
1 61822U 24140ACN 25189.10755251  .00001619  00000-0  88852-3 0  9992
2 61822  89.2470 323.7074 0131013 206.3358 153.1126 14.07118007 42995
CZ-6A DEB
1 61822U 24140ACN 25189.81868146  .00001603  00000-0  87935-3 0  9992
2 61822  89.2470 323.6477 0131157 204.0742 155.4276 14.07120308 43092
CZ-6A DEB
1 61822U 24140ACN 25191.09871179  .00001505  00000-0  82488-3 0  9994
2 61822  89.2469 323.5405 0131399 200.0272 159.5729 14.07123827 43279
CZ-6A DEB
1 61822U 24140ACN 25191.09871179  .00001505  00000-0  82488-3 0  9994
2 61822  89.2469 323.5405 0131399 200.0272 159.5729 14.07123827 43279
CZ-6A DEB
1 61822U 24140ACN 25192.80541412  .00001566  00000-0  85831-3 0  9990
2 61822  89.2473 323.3977 0131730 194.6340 165.1016 14.07129434 43518
CZ-6A DEB
1 61822U 24140ACN 25192.80541412  .00001566  00000-0  85831-3 0  9990
2 61822  89.2473 323.3977 0131730 194.6340 165.1016 14.07129434 43518
CZ-6A DEB
1 61822U 24140ACN 25193.08986418  .00001556  00000-0  85285-3 0  9992
2 61822  89.2473 323.3739 0131773 193.7394 166.0191 14.07130175 43552
CZ-6A DEB
1 61822U 24140ACN 25193.80098804  .00001709  00000-0  93671-3 0  9993
2 61822  89.2479 323.3147 0131859 191.4746 168.3425 14.07133247 43651
CZ-6A DEB
1 61822U 24140ACN 25195.08100866  .00001692  00000-0  92724-3 0  9996
2 61822  89.2477 323.2074 0132078 187.4579 172.4643 14.07137005 43834
CZ-6A DEB
1 61822U 24140ACN 25195.08100866  .00001692  00000-0  92724-3 0  9996
2 61822  89.2477 323.2074 0132078 187.4579 172.4643 14.07137005 43834
CZ-6A DEB
1 61822U 24140ACN 25195.79212949  .00001700  00000-0  93136-3 0  9998
2 61822  89.2477 323.1481 0132212 185.2436 174.7372 14.07139262 43935
CZ-6A DEB
1 61822U 24140ACN 25197.07214476  .00001767  00000-0  96788-3 0  9997
2 61822  89.2477 323.0403 0132346 181.1748 178.9144 14.07143717 44111
CZ-6A DEB
1 61822U 24140ACN 25197.07214476  .00001767  00000-0  96788-3 0  9997
2 61822  89.2477 323.0403 0132346 181.1748 178.9144 14.07143717 44111
CZ-6A DEB
1 61822U 24140ACN 25197.78326122  .00001817  00000-0  99520-3 0  9990
2 61822  89.2479 322.9816 0132529 179.0048 181.1426 14.07146551 44210
CZ-6A DEB
1 61822U 24140ACN 25198.77882312  .00001945  00000-0  10658-2 0  9994
2 61822  89.2479 322.8977 0132595 175.8336 184.3986 14.07150944 44356
CZ-6A DEB
1 61822U 24140ACN 25201.05438274  .00002012  00000-0  11020-2 0  9994
2 61822  89.2478 322.7078 0132929 168.7504 191.6704 14.07159640 44671
CZ-6A DEB
1 61822U 24140ACN 25201.05438274  .00002012  00000-0  11020-2 0  9994
2 61822  89.2478 322.7078 0132929 168.7504 191.6704 14.07159640 44671
CZ-6A DEB
1 61822U 24140ACN 25201.76549091  .00001934  00000-0  10586-2 0  9990
2 61822  89.2487 322.6491 0133093 166.6252 193.8516 14.07162105 44775
CZ-6A DEB
1 61822U 24140ACN 25202.61882087  .00002027  00000-0  11097-2 0  9992
2 61822  89.2486 322.5771 0133095 163.8708 196.6776 14.07165835 44896
CZ-6A DEB
1 61822U 24140ACN 25202.76104212  .00002018  00000-0  11050-2 0  9994
2 61822  89.2485 322.5652 0133117 163.4327 197.1270 14.07166356 44918
CZ-6A DEB
1 61822U 24140ACN 25202.76104212  .00002018  00000-0  11050-2 0  9994
2 61822  89.2485 322.5652 0133117 163.4327 197.1270 14.07166356 44918
CZ-6A DEB
1 61822U 24140ACN 25204.60991134  .00002337  00000-0  12800-2 0  9994
2 61822  89.2486 322.4108 0133304 157.6662 203.0402 14.07175836 45175
CZ-6A DEB
1 61822U 24140ACN 25204.60991134  .00002337  00000-0  12800-2 0  9994
2 61822  89.2486 322.4108 0133304 157.6662 203.0402 14.07175836 45175
CZ-6A DEB
1 61822U 24140ACN 25205.74767114  .00002240  00000-0  12265-2 0  9997
2 61822  89.2487 322.3155 0133385 154.1345 206.6588 14.07180276 45332
CZ-6A DEB
1 61822U 24140ACN 25205.74767114  .00002240  00000-0  12265-2 0  9997
2 61822  89.2487 322.3155 0133385 154.1345 206.6588 14.07180276 45332
CZ-6A DEB
1 61822U 24140ACN 25206.03210990  .00002280  00000-0  12485-2 0  9993
2 61822  89.2485 322.2917 0133414 153.2441 207.5708 14.07181878 45372
CZ-6A DEB
1 61822U 24140ACN 25207.02764509  .00002299  00000-0  12585-2 0  9994
2 61822  89.2484 322.2084 0133508 150.1216 210.7675 14.07186356 45517
CZ-6A DEB
1 61822U 24140ACN 25207.59652036  .00002309  00000-0  12637-2 0  9997
2 61822  89.2484 322.1610 0133566 148.3340 212.5967 14.07189063 45592
CZ-6A DEB
1 61822U 24140ACN 25208.59204872  .00002299  00000-0  12578-2 0  9991
2 61822  89.2486 322.0779 0133649 145.2284 215.7726 14.07193800 45732
CZ-6A DEB
1 61822U 24140ACN 25208.59204872  .00002299  00000-0  12578-2 0  9991
2 61822  89.2486 322.0779 0133649 145.2284 215.7726 14.07193800 45732
CZ-6A DEB
1 61822U 24140ACN 25210.58309465  .00002180  00000-0  11921-2 0  9997
2 61822  89.2487 321.9116 0133808 139.0065 222.1271 14.07202604 46013
CZ-6A DEB
1 61822U 24140ACN 25210.58309465  .00002180  00000-0  11921-2 0  9997
2 61822  89.2487 321.9116 0133808 139.0065 222.1271 14.07202604 46013
CZ-6A DEB
1 61822U 24140ACN 25215.56063938  .00001786  00000-0  97430-3 0  9993
2 61822  89.2485 321.4955 0134167 123.4238 237.9861 14.07225237 46718
CZ-6A DEB
1 61822U 24140ACN 25215.56063938  .00001786  00000-0  97430-3 0  9993
2 61822  89.2485 321.4955 0134167 123.4238 237.9861 14.07225237 46718
CZ-6A DEB
1 61822U 24140ACN 25218.54712201  .00001473  00000-0  80139-3 0  9999
2 61822  89.2488 321.2458 0134410 114.0726 247.4587 14.07236226 47134
CZ-6A DEB
1 61822U 24140ACN 25219.54261004  .00001505  00000-0  81918-3 0  9992
2 61822  89.2491 321.1629 0134464 110.9666 250.5966 14.07239652 47271
CZ-6A DEB
1 61822U 24140ACN 25220.04035321  .00001501  00000-0  81714-3 0  9990
2 61822  89.2492 321.1214 0134450 109.4195 252.1574 14.07241071 47346
CZ-6A DEB
1 61822U 24140ACN 25220.04035321  .00001501  00000-0  81714-3 0  9990
2 61822  89.2492 321.1214 0134450 109.4195 252.1574 14.07241071 47346
CZ-6A DEB
1 61822U 24140ACN 25221.53357706  .00001849  00000-0  10079-2 0  9999
2 61822  89.2493 320.9970 0134494 104.7671 256.8459 14.07246941 47555
CZ-6A DEB
1 61822U 24140ACN 25221.53357706  .00001849  00000-0  10079-2 0  9999
2 61822  89.2493 320.9970 0134494 104.7671 256.8459 14.07246941 47555
CZ-6A DEB
1 61822U 24140ACN 25223.02679274  .00001880  00000-0  10249-2 0  9996
2 61822  89.2493 320.8728 0134511 100.1000 261.5388 14.07252474 47766
CZ-6A DEB
1 61822U 24140ACN 25223.02679274  .00001880  00000-0  10249-2 0  9996
2 61822  89.2493 320.8728 0134511 100.1000 261.5388 14.07252474 47766
CZ-6A DEB
1 61822U 24140ACN 25223.52452966  .00001839  00000-0  10023-2 0  9992
2 61822  89.2494 320.8313 0134470  98.5518 263.0929 14.07254117 47837
CZ-6A DEB
1 61822U 24140ACN 25224.02226519  .00001639  00000-0  89259-3 0  9997
2 61822  89.2491 320.7898 0134483  97.0039 264.6461 14.07255670 47908
CZ-6A DEB
1 61822U 24140ACN 25227.22197750  .00001426  00000-0  77565-3 0  9997
2 61822  89.2484 320.5226 0134362  87.0414 274.6136 14.07265620 48351
CZ-6A DEB
1 61822U 24140ACN 25227.22197750  .00001426  00000-0  77565-3 0  9997
2 61822  89.2484 320.5226 0134362  87.0414 274.6136 14.07265620 48351
CZ-6A DEB
1 61822U 24140ACN 25228.50185378  .00001300  00000-0  70606-3 0  9992
2 61822  89.2484 320.4156 0134261  83.0580 278.5854 14.07268970 48531
CZ-6A DEB
1 61822U 24140ACN 25228.50185378  .00001300  00000-0  70606-3 0  9992
2 61822  89.2484 320.4156 0134261  83.0580 278.5854 14.07268970 48531
CZ-6A DEB
1 61822U 24140ACN 25229.49731046  .00001335  00000-0  72554-3 0  9992
2 61822  89.2488 320.3324 0134092  79.9244 281.7037 14.07271330 48672
CZ-6A DEB
1 61822U 24140ACN 25229.71062226  .00001316  00000-0  71534-3 0  9990
2 61822  89.2488 320.3146 0134052  79.2608 282.3634 14.07271806 48709
CZ-6A DEB
1 61822U 24140ACN 25229.71062226  .00001316  00000-0  71534-3 0  9990
2 61822  89.2488 320.3146 0134052  79.2608 282.3634 14.07271806 48709
CZ-6A DEB
1 61822U 24140ACN 25234.97227704  .00001174  00000-0  63802-3 0  9999
2 61822  89.2487 319.8753 0133264  62.7852 298.6839 14.07283706 49448
CZ-6A DEB
1 61822U 24140ACN 25236.67874532  .00001217  00000-0  66171-3 0  9995
2 61822  89.2487 319.7328 0132957  57.4100 303.9839 14.07287792 49685
CZ-6A DEB
1 61822U 24140ACN 25239.94945456  .00001596  00000-0  87103-3 0  9990
2 61822  89.2478 319.4589 0132185  47.0371 314.1806 14.07297801 50142
CZ-6A DEB
1 61822U 24140ACN 25243.93114221  .00002196  00000-0  12023-2 0  9997
2 61822  89.2479 319.1265 0131358  34.3370 326.6216 14.07314328 50709
CZ-6A DEB
1 61822U 24140ACN 25245.49536163  .00002483  00000-0  13605-2 0  9999
2 61822  89.2476 318.9954 0131143  29.3537 331.4930 14.07322230 50921
CZ-6A DEB
1 61822U 24140ACN 25245.92196500  .00002387  00000-0  13079-2 0  9992
2 61822  89.2476 318.9597 0131041  27.9830 332.8318 14.07323601 50985
CZ-6A DEB
1 61822U 24140ACN 25246.91737074  .00002152  00000-0  11787-2 0  9993
2 61822  89.2473 318.8763 0130869  24.7947 335.9448 14.07326758 51128
CZ-6A DEB
1 61822U 24140ACN 25250.89896554  .00001448  00000-0  79110-3 0  9996
2 61822  89.2469 318.5431 0130277  12.0385 348.3860 14.07339159 51687
CZ-6A DEB
1 61822U 24140ACN 25251.89435872  .00001157  00000-0  63114-3 0  9993
2 61822  89.2464 318.4594 0130088   8.8256 351.5170 14.07340759 51825
CZ-6A DEB
1 61822U 24140ACN 25257.44010618  .00000823  00000-0  44765-3 0  9997
2 61822  89.2440 317.9960 0129097 351.1915   8.7002 14.07349173 52605
CZ-6A DEB
1 61822U 24140ACN 25259.43088154  .00000928  00000-0  50591-3 0  9998
2 61822  89.2428 317.8275 0128850 344.7565  14.9750 14.07352022 52880
CZ-6A DEB
1 61822U 24140ACN 25260.42626825  .00000953  00000-0  51929-3 0  9996
2 61822  89.2447 317.7447 0128852 341.3957  18.2537 14.07353282 53027
CZ-6A DEB
1 61822U 24140ACN 25263.41242040  .00001249  00000-0  68325-3 0  9998
2 61822  89.2448 317.4938 0128550 331.8038  27.6224 14.07360211 53442
CZ-6A DEB
1 61822U 24140ACN 25269.38466012  .00002584  00000-0  14208-2 0  9990
2 61822  89.2448 316.9928 0127946 312.5734  46.4707 14.07389627 54282
CZ-6A DEB
1 61822U 24140ACN 25274.07704337  .00003187  00000-0  17536-2 0  9994
2 61822  89.2432 316.5970 0127670 297.4192  61.4052 14.07421154 54946
CZ-6A DEB
1 61822U 24140ACN 25274.07704337  .00003187  00000-0  17536-2 0  9994
2 61822  89.2432 316.5970 0127670 297.4192  61.4052 14.07421154 54946
CZ-6A DEB
1 61822U 24140ACN 25276.06771578  .00003584  00000-0  19718-2 0  9991
2 61822  89.2455 316.4317 0127777 290.9016  67.8527 14.07440526 55229
CZ-6A DEB
1 61822U 24140ACN 25278.84040981  .00002491  00000-0  13683-2 0  9997
2 61822  89.2418 316.1973 0127698 281.9042  76.7847 14.07457623 55617
CZ-6A DEB
1 61822U 24140ACN 25280.54667359  .00002310  00000-0  12678-2 0  9994
2 61822  89.2406 316.0513 0127906 276.3045  82.3583 14.07465791 55857
CZ-6A DEB
1 61822U 24140ACN 25280.54667359  .00002310  00000-0  12678-2 0  9994
2 61822  89.2406 316.0513 0127906 276.3045  82.3583 14.07465791 55857
CZ-6A DEB
1 61822U 24140ACN 25281.54199036  .00002364  00000-0  12975-2 0  9996
2 61822  89.2410 315.9680 0128014 273.0768  85.5774 14.07470975 55994
CZ-6A DEB
1 61822U 24140ACN 25281.54199036  .00002364  00000-0  12975-2 0  9996
2 61822  89.2410 315.9680 0128014 273.0768  85.5774 14.07470975 55994
CZ-6A DEB
1 61822U 24140ACN 25282.82168106  .00002041  00000-0  11191-2 0  9993
2 61822  89.2417 315.8621 0128056 268.9590  89.6920 14.07475907 56176
CZ-6A DEB
1 61822U 24140ACN 25282.82168107  .00002041  00000-0  11191-2 0  9994
2 61822  89.2417 315.8621 0128056 268.9590  89.6920 14.07475908 56177
CZ-6A DEB
1 61822U 24140ACN 25284.81230309  .00002292  00000-0  12569-2 0  9997
2 61822  89.2418 315.6940 0128316 262.5375  96.1214 14.07485686 56454
CZ-6A DEB
1 61822U 24140ACN 25285.52323632  .00002449  00000-0  13429-2 0  9998
2 61822  89.2419 315.6340 0128537 260.2524  98.4123 14.07489622 56554
CZ-6A DEB
1 61822U 24140ACN 25288.50914309  .00002512  00000-0  13764-2 0  9999
2 61822  89.2417 315.3819 0128845 250.6582 108.0633 14.07505161 56976
CZ-6A DEB
1 61822U 24140ACN 25288.50914310  .00002512  00000-0  13764-2 0  9991
2 61822  89.2417 315.3819 0128845 250.6582 108.0633 14.07505161 56976
CZ-6A DEB
1 61822U 24140ACN 25294.33869496  .00003194  00000-0  17499-2 0  9999
2 61822  89.2407 314.8911 0129306 231.8925 127.0543 14.07539930 57790
CZ-6A DEB
1 61822U 24140ACN 25295.33397146  .00002816  00000-0  15419-2 0  9998
2 61822  89.2395 314.8053 0129205 228.7159 130.2843 14.07545523 57935
CZ-6A DEB
1 61822U 24140ACN 25295.33397146  .00002816  00000-0  15419-2 0  9998
2 61822  89.2395 314.8053 0129205 228.7159 130.2843 14.07545523 57935
CZ-6A DEB
1 61822U 24140ACN 25297.32451475  .00002780  00000-0  15211-2 0  9995
2 61822  89.2396 314.6372 0129321 222.2945 136.8211 14.07557082 58215
CZ-6A DEB
1 61822U 24140ACN 25297.32451475  .00002780  00000-0  15211-2 0  9995
2 61822  89.2396 314.6372 0129321 222.2945 136.8211 14.07557082 58215
CZ-6A DEB
1 61822U 24140ACN 25298.31978192  .00002725  00000-0  14909-2 0  9997
2 61822  89.2398 314.5534 0129413 219.0836 140.0945 14.07562303 58359
CZ-6A DEB
1 61822U 24140ACN 25298.31978193  .00002725  00000-0  14909-2 0  9998
2 61822  89.2398 314.5534 0129413 219.0836 140.0945 14.07562303 58359
CZ-6A DEB
1 61822U 24140ACN 25305.28657167  .00002346  00000-0  12801-2 0  9996
2 61822  89.2367 313.9621 0130077 196.6556 163.0338 14.07595983 59332
CZ-6A DEB
1 61822U 24140ACN 25306.77943595  .00001911  00000-0  10417-2 0  9992
2 61822  89.2404 313.8400 0130135 191.9099 167.9001 14.07601650 59545
CZ-6A DEB
1 61822U 24140ACN 25311.25799280  .00002326  00000-0  12678-2 0  9993
2 61822  89.2396 313.4606 0130577 177.5229 182.6631 14.07621128 60170
CZ-6A DEB
1 61822U 24140ACN 25311.25799281  .00002326  00000-0  12678-2 0  9994
2 61822  89.2396 313.4606 0130577 177.5229 182.6631 14.07621128 60170
CZ-6A DEB
1 61822U 24140ACN 25312.25321860  .00002309  00000-0  12579-2 0  9990
2 61822  89.2396 313.3762 0130677 174.3501 185.9195 14.07625768 60312
CZ-6A DEB
1 61822U 24140ACN 25312.25321861  .00002309  00000-0  12579-2 0  9991
2 61822  89.2396 313.3762 0130677 174.3501 185.9195 14.07625768 60312
CZ-6A DEB
1 61822U 24140ACN 25314.45692161  .00002440  00000-0  13291-2 0  9997
2 61822  89.2399 313.1897 0130955 167.3455 193.1071 14.07636399 60621
CZ-6A DEB
1 61822U 24140ACN 25316.73169082  .00003552  00000-0  19370-2 0  9990
2 61822  89.2398 312.9972 0131202 160.1560 200.4796 14.07651666 60940
CZ-6A DEB
1 61822U 24140ACN 25316.73169083  .00003552  00000-0  19370-2 0  9991
2 61822  89.2398 312.9972 0131203 160.1560 200.4796 14.07651666 60941
CZ-6A DEB
1 61822U 24140ACN 25318.72208304  .00003334  00000-0  18167-2 0  9993
2 61822  89.2395 312.8298 0131203 153.8873 206.9008 14.07668753 61228
CZ-6A DEB
1 61822U 24140ACN 25318.72208305  .00003334  00000-0  18167-2 0  9994
2 61822  89.2395 312.8298 0131203 153.8873 206.9008 14.07668753 61228
CZ-6A DEB
1 61822U 24140ACN 25321.42329684  .00002779  00000-0  15125-2 0  9992
2 61822  89.2364 312.5987 0131459 145.5501 215.4293 14.07685951 61607
CZ-6A DEB
1 61822U 24140ACN 25321.42329685  .00002779  00000-0  15125-2 0  9993
2 61822  89.2364 312.5987 0131459 145.5501 215.4293 14.07685951 61607
CZ-6A DEB
1 61822U 24140ACN 25325.40398525  .00002206  00000-0  11983-2 0  9997
2 61822  89.2354 312.2583 0131577 133.0697 228.1592 14.07703196 62161
CZ-6A DEB
1 61822U 24140ACN 25326.39914779  .00002330  00000-0  12660-2 0  9992
2 61822  89.2360 312.1746 0131589 129.9794 231.3033 14.07707953 62300
CZ-6A DEB
1 61822U 24140ACN 25326.39914780  .00002330  00000-0  12660-2 0  9994
2 61822  89.2360 312.1746 0131589 129.9794 231.3033 14.07707953 62300
CZ-6A DEB
1 61822U 24140ACN 25329.24245263  .00002531  00000-0  13757-2 0  9995
2 61822  89.2380 311.9332 0131484 120.5959 240.8271 14.07721007 62703
CZ-6A DEB
1 61822U 24140ACN 25329.38461669  .00002552  00000-0  13864-2 0  9992
2 61822  89.2385 311.9242 0131753 120.3758 241.0528 14.07721253 62725
CZ-6A DEB
1 61822U 24140ACN 25329.38461669  .00002552  00000-0  13864-2 0  9992
2 61822  89.2385 311.9242 0131753 120.3758 241.0528 14.07721253 62725
CZ-6A DEB
1 61822U 24140ACN 25330.23760036  .00002414  00000-0  13110-2 0  9999
2 61822  89.2395 311.8523 0131828 117.6948 243.7684 14.07724678 62849
CZ-6A DEB
1 61822U 24140ACN 25330.23760036  .00002414  00000-0  13110-2 0  9999
2 61822  89.2395 311.8523 0131828 117.6948 243.7684 14.07724678 62849
CZ-6A DEB
1 61822U 24140ACN 25334.21815038  .00002239  00000-0  12146-2 0  9997
2 61822  89.2391 311.5155 0132047 105.1492 256.4340 14.07742843 63400
CZ-6A DEB
1 61822U 24140ACN 25334.21815039  .00002239  00000-0  12146-2 0  9998
2 61822  89.2391 311.5155 0132047 105.1492 256.4340 14.07742843 63400
CZ-6A DEB
1 61822U 24140ACN 25337.20351918  .00002892  00000-0  15701-2 0  9996
2 61822  89.2397 311.2628 0132296  95.7271 265.9013 14.07759031 63828
CZ-6A DEB
1 61822U 24140ACN 25337.20351918  .00002892  00000-0  15701-2 0  9996
2 61822  89.2397 311.2628 0132296  95.7271 265.9013 14.07759031 63828
CZ-6A DEB
1 61822U 24140ACN 25341.18392897  .00003594  00000-0  19508-2 0  9998
2 61822  89.2395 310.9263 0132744  83.2766 278.3504 14.07789366 64385
CZ-6A DEB
1 61822U 24140ACN 25344.16917591  .00003310  00000-0  17949-2 0  9996
2 61822  89.2406 310.6740 0132940  73.9137 287.6636 14.07808865 64803
CZ-6A DEB
1 61822U 24140ACN 25344.16917592  .00003310  00000-0  17949-2 0  9997
2 61822  89.2406 310.6740 0132940  73.9137 287.6636 14.07808865 64803
CZ-6A DEB
1 61822U 24140ACN 25344.66671220  .00003656  00000-0  19835-2 0  9996
2 61822  89.2404 310.6315 0132886  72.3527 289.2116 14.07813200 64871
CZ-6A DEB
1 61822U 24140ACN 25344.66671220  .00003656  00000-0  19835-2 0  9996
2 61822  89.2404 310.6315 0132886  72.3527 289.2116 14.07813200 64871
CZ-6A DEB
1 61822U 24140ACN 25345.87500811  .00003733  00000-0  20248-2 0  9993
2 61822  89.2401 310.5296 0132989  68.5674 292.9635 14.07821949 65045
CZ-6A DEB
1 61822U 24140ACN 25345.87500812  .00003733  00000-0  20248-2 0  9994
2 61822  89.2401 310.5296 0132989  68.5674 292.9635 14.07821949 65045
CZ-6A DEB
1 61822U 24140ACN 25346.65684102  .00003849  00000-0  20875-2 0  9990
2 61822  89.2399 310.4635 0133056  66.1446 295.3615 14.07828451 65156
CZ-6A DEB
1 61822U 24140ACN 25347.15436876  .00003789  00000-0  20548-2 0  9999
2 61822  89.2406 310.4213 0132973  64.5921 296.8957 14.07832319 65225
CZ-6A DEB
1 61822U 24140ACN 25347.65189539  .00003319  00000-0  17989-2 0  9999
2 61822  89.2404 310.3794 0133065  63.0615 298.4090 14.07835462 65298
CZ-6A DEB
1 61822U 24140ACN 25348.14942069  .00003054  00000-0  16547-2 0  9994
2 61822  89.2404 310.3374 0133070  61.5107 299.9404 14.07838440 65369
CZ-6A DEB
1 61822U 24140ACN 25352.12958888  .00002315  00000-0  12526-2 0  9995
2 61822  89.2407 310.0006 0132923  49.0580 312.2018 14.07856201 65920
CZ-6A DEB
1 61822U 24140ACN 25352.34281005  .00002350  00000-0  12716-2 0  9999
2 61822  89.2404 309.9824 0132906  48.3827 312.8651 14.07857603 65958
CZ-6A DEB
1 61822U 24140ACN 25354.61716339  .00002065  00000-0  11164-2 0  9993
2 61822  89.2408 309.7896 0132663  41.2386 319.8726 14.07866399 66279
CZ-6A DEB
1 61822U 24140ACN 25354.61716340  .00002065  00000-0  11164-2 0  9995
2 61822  89.2408 309.7896 0132663  41.2386 319.8726 14.07866399 66279
CZ-6A DEB
1 61822U 24140ACN 25356.32291486  .00002877  00000-0  15585-2 0  9996
2 61822  89.2412 309.6456 0132467  35.8589 325.1397 14.07876709 66518
CZ-6A DEB
1 61822U 24140ACN 25356.32291487  .00002877  00000-0  15585-2 0  9997
2 61822  89.2412 309.6456 0132467  35.8589 325.1397 14.07876709 66518
CZ-6A DEB
1 61822U 24140ACN 25358.31294114  .00003120  00000-0  16909-2 0  9991
2 61822  89.2414 309.4780 0132279  29.5551 331.3025 14.07888531 66791
CZ-6A DEB
1 61822U 24140ACN 25362.29292771  .00004149  00000-0  22511-2 0  9998
2 61822  89.2412 309.1424 0131817  16.9287 343.6232 14.07919889 67354
CZ-6A DEB
1 61822U 24140ACN 25362.29292771  .00004149  00000-0  22511-2 0  9998
2 61822  89.2412 309.1424 0131817  16.9287 343.6232 14.07919889 67354
CZ-6A DEB
1 61822U 24140ACN 25364.28288106  .00005297  00000-0  28758-2 0  9990
2 61822  89.2410 308.9743 0131393  10.5378 349.8510 14.07941322 67638
CZ-6A DEB
1 61822U 24140ACN 26002.55202554  .00005940  00000-0  32241-2 0  9990
2 61822  89.2428 308.6992 0131163   0.1822 359.9386 14.07978004 68095
CZ-6A DEB
1 61822U 24140ACN 26002.55202555  .00005940  00000-0  32241-2 0  9991
2 61822  89.2428 308.6992 0131163   0.1822 359.9386 14.07978004 68095
CZ-6A DEB
1 61822U 24140ACN 26004.11550214  .00005054  00000-0  27422-2 0  9994
2 61822  89.2441 308.5670 0131097 355.4131   4.5839 14.07991928 68318
CZ-6A DEB
1 61822U 24140ACN 26004.11550215  .00005054  00000-0  27422-2 0  9995
2 61822  89.2441 308.5670 0131097 355.4131   4.5839 14.07991928 68318
CZ-6A DEB
1 61822U 24140ACN 26007.10028168  .00003150  00000-0  17069-2 0  9995
2 61822  89.2420 308.3151 0130785 346.0153  13.7421 14.08011746 68737
CZ-6A DEB
1 61822U 24140ACN 26007.10028168  .00003150  00000-0  17069-2 0  9995
2 61822  89.2420 308.3151 0130785 346.0153  13.7421 14.08011746 68737
CZ-6A DEB
1 61822U 24140ACN 26008.09519961  .00002628  00000-0  14234-2 0  9990
2 61822  89.2406 308.2306 0130672 342.9079  16.7723 14.08016947 68870
CZ-6A DEB
1 61822U 24140ACN 26008.09519961  .00002628  00000-0  14234-2 0  9990
2 61822  89.2406 308.2306 0130672 342.9079  16.7723 14.08016947 68870
CZ-6A DEB
1 61822U 24140ACN 26014.06463888  .00001584  00000-0  85624-3 0  9992
2 61822  89.2426 307.7277 0129765 324.0408  35.2093 14.08044712 69712
CZ-6A DEB
1 61822U 24140ACN 26019.53655801  .00002343  00000-0  12702-2 0  9997
2 61822  89.2432 307.2648 0128984 306.6308  52.3069 14.08066034 70483
CZ-6A DEB
1 61822U 24140ACN 26022.23692675  .00004814  00000-0  26143-2 0  9997
2 61822  89.2426 307.0367 0128640 297.8874  60.9328 14.08100914 70861
CZ-6A DEB
1 61822U 24140ACN 26022.23692675  .00004814  00000-0  26143-2 0  9997
2 61822  89.2426 307.0367 0128640 297.8874  60.9328 14.08100914 70861
CZ-6A DEB
1 61822U 24140ACN 26028.06390886  .00003163  00000-0  17155-2 0  9992
2 61822  89.2421 306.5458 0128265 279.0526  79.6161 14.08144258 71682
CZ-6A DEB
1 61822U 24140ACN 26032.04323332  .00001924  00000-0  10408-2 0  9994
2 61822  89.2427 306.2096 0128155 266.1434  92.5090 14.08167428 72248
CZ-6A DEB
1 61822U 24140ACN 26032.18535129  .00001927  00000-0  10424-2 0  9999
2 61822  89.2427 306.1972 0128013 265.7014  92.9534 14.08168229 72261
CZ-6A DEB
1 61822U 24140ACN 26032.46958715  .00001955  00000-0  10578-2 0  9991
2 61822  89.2427 306.1729 0128018 264.8005  93.8559 14.08169545 72300
CZ-6A DEB
1 61822U 24140ACN 26034.17499842  .00002023  00000-0  10946-2 0  9998
2 61822  89.2410 306.0286 0127825 259.3207  99.3562 14.08177338 72547
CZ-6A DEB
1 61822U 24140ACN 26034.17499842  .00002023  00000-0  10946-2 0  9998
2 61822  89.2410 306.0286 0127825 259.3207  99.3562 14.08177338 72547
CZ-6A DEB
1 61822U 24140ACN 26035.16981798  .00002242  00000-0  12142-2 0  9997
2 61822  89.2409 305.9447 0127720 256.1026 102.5923 14.08182729 72683
CZ-6A DEB
1 61822U 24140ACN 26035.16981798  .00002242  00000-0  12142-2 0  9997
2 61822  89.2409 305.9447 0127720 256.1026 102.5923 14.08182729 72683
CZ-6A DEB
1 61822U 24140ACN 26039.00695005  .00002170  00000-0  11743-2 0  9993
2 61822  89.2411 305.6211 0127660 243.6540 115.1489 14.08202832 73223
CZ-6A DEB
1 61822U 24140ACN 26039.00695005  .00002170  00000-0  11743-2 0  9993
2 61822  89.2411 305.6211 0127660 243.6540 115.1489 14.08202832 73223
CZ-6A DEB
1 61822U 24140ACN 26042.98616451  .00001898  00000-0  10262-2 0  9993
2 61822  89.2412 305.2848 0127567 230.6887 128.2932 14.08218430 73782
CZ-6A DEB
1 61822U 24140ACN 26043.69673532  .00001716  00000-0  92678-3 0  9996
2 61822  89.2412 305.2248 0127541 228.3658 130.6547 14.08220636 73889
CZ-6A DEB
1 61822U 24140ACN 26043.69673532  .00001716  00000-0  92678-3 0  9996
2 61822  89.2412 305.2248 0127541 228.3658 130.6548 14.08220636 73880
CZ-6A DEB
1 61822U 24140ACN 26044.69153314  .00001652  00000-0  89230-3 0  9997
2 61822  89.2413 305.1408 0127524 225.1168 133.9607 14.08224025 74025
CZ-6A DEB
1 61822U 24140ACN 26045.47315868  .00001765  00000-0  95356-3 0  9999
2 61822  89.2414 305.0748 0127513 222.5687 136.5559 14.08227118 74130
CZ-6A DEB
1 61822U 24140ACN 26045.97055655  .00001435  00000-0  77400-3 0  9993
2 61822  89.2413 305.0328 0127488 220.9339 138.2221 14.08227666 74201
CZ-6A DEB
1 61822U 24140ACN 26045.97055656  .00001435  00000-0  77400-3 0  9994
2 61822  89.2413 305.0328 0127488 220.9339 138.2221 14.08227666 74201
CZ-6A DEB
1 61822U 24140ACN 26047.96014108  .00001910  00000-0  10318-2 0  9994
2 61822  89.2408 304.8647 0127482 214.4254 144.8625 14.08236522 74486
CZ-6A DEB
1 61822U 24140ACN 26047.96014108  .00001910  00000-0  10318-2 0  9994
2 61822  89.2408 304.8647 0127482 214.4254 144.8625 14.08236522 74486
CZ-6A DEB
1 61822U 24140ACN 26049.45232464  .00001504  00000-0  81085-3 0  9996
2 61822  89.2403 304.7384 0127498 209.5465 149.8473 14.08240633 74691
CZ-6A DEB
1 61822U 24140ACN 26049.45232465  .00001504  00000-0  81085-3 0  9997
2 61822  89.2403 304.7384 0127498 209.5465 149.8473 14.08240633 74691
CZ-6A DEB
1 61822U 24140ACN 26052.15245609  .00001386  00000-0  74631-3 0  9999
2 61822  89.2391 304.5097 0127739 200.7855 158.8109 14.08248786 75076
CZ-6A DEB
1 61822U 24140ACN 26052.15245610  .00001386  00000-0  74631-3 0  9991
2 61822  89.2391 304.5097 0127739 200.7855 158.8109 14.08248786 75076
CZ-6A DEB
1 61822U 24140ACN 26053.14723825  .00001316  00000-0  70836-3 0  9996
2 61822  89.2387 304.4256 0127874 197.5789 162.0950 14.08251419 75210
CZ-6A DEB
1 61822U 24140ACN 26053.14723825  .00001316  00000-0  70836-3 0  9996
2 61822  89.2387 304.4256 0127874 197.5789 162.0950 14.08251419 75210
CZ-6A DEB
1 61822U 24140ACN 26054.14201778  .00001585  00000-0  85395-3 0  9999
2 61822  89.2388 304.3410 0127988 194.4251 165.3267 14.08255639 75358
CZ-6A DEB
1 61822U 24140ACN 26054.14201778  .00001585  00000-0  85395-3 0  9999
2 61822  89.2388 304.3410 0127988 194.4251 165.3267 14.08255639 75358
CZ-6A DEB
1 61822U 24140ACN 26054.92362931  .00001521  00000-0  81900-3 0  9992
2 61822  89.2385 304.2751 0128115 191.9200 167.8945 14.08257641 75468
CZ-6A DEB
1 61822U 24140ACN 26055.13679597  .00001509  00000-0  81288-3 0  9990
2 61822  89.2385 304.2571 0128152 191.2422 168.5894 14.08258198 75490
CZ-6A DEB
1 61822U 24140ACN 26056.13157245  .00001497  00000-0  80564-3 0  9994
2 61822  89.2381 304.1726 0128299 188.0622 171.8503 14.08261040 75635
CZ-6A DEB
1 61822U 24140ACN 26056.13157246  .00001497  00000-0  80564-3 0  9995
2 61822  89.2381 304.1726 0128299 188.0622 171.8503 14.08261040 75635
CZ-6A DEB
1 61822U 24140ACN 26057.12634701  .00001563  00000-0  84175-3 0  9997
2 61822  89.2380 304.0882 0128432 184.8873 175.1068 14.08264325 75774
CZ-6A DEB
1 61822U 24140ACN 26057.12634701  .00001563  00000-0  84175-3 0  9997
2 61822  89.2380 304.0882 0128432 184.8873 175.1068 14.08264325 75774
CZ-6A DEB
1 61822U 24140ACN 26058.12111962  .00001680  00000-0  90477-3 0  9999
2 61822  89.2373 304.0036 0128554 181.6988 178.3777 14.08267922 75918
CZ-6A DEB
1 61822U 24140ACN 26058.12111962  .00001680  00000-0  90477-3 0  9999
2 61822  89.2373 304.0036 0128554 181.6989 178.3777 14.08267922 75919
CZ-6A DEB
1 61822U 24140ACN 26059.11588978  .00001763  00000-0  94981-3 0  9990
2 61822  89.2377 303.9193 0128666 178.5422 181.6164 14.08271436 76054
CZ-6A DEB
1 61822U 24140ACN 26059.11588979  .00001763  00000-0  94981-3 0  9991
2 61822  89.2377 303.9193 0128666 178.5422 181.6164 14.08271436 76054
CZ-6A DEB
1 61822U 24140ACN 26060.96331408  .00001955  00000-0  10533-2 0  9992
2 61822  89.2362 303.7618 0128894 172.5849 187.7283 14.08278390 76312
CZ-6A DEB
1 61822U 24140ACN 26061.10542340  .00001920  00000-0  10342-2 0  9998
2 61822  89.2373 303.7504 0128889 172.1949 188.1283 14.08278526 76337
CZ-6A DEB
1 61822U 24140ACN 26061.10542341  .00001920  00000-0  10342-2 0  9999
2 61822  89.2373 303.7504 0128889 172.1949 188.1283 14.08278526 76337
CZ-6A DEB
1 61822U 24140ACN 26063.09494545  .00002267  00000-0  12221-2 0  9994
2 61822  89.2383 303.5828 0129045 165.9025 194.5817 14.08287367 76613
CZ-6A DEB
1 61822U 24140ACN 26063.09494546  .00002267  00000-0  12221-2 0  9995
2 61822  89.2383 303.5828 0129045 165.9025 194.5818 14.08287367 76614
CZ-6A DEB
1 61822U 24140ACN 26068.92132538  .00002134  00000-0  11484-2 0  9995
2 61822  89.2372 303.0883 0129732 147.4231 213.5042 14.08311299 77439
CZ-6A DEB
1 61822U 24140ACN 26068.92132539  .00002134  00000-0  11484-2 0  9996
2 61822  89.2373 303.0883 0129732 147.4231 213.5042 14.08311299 77430
CZ-6A DEB
1 61822U 24140ACN 26070.41342741  .00002048  00000-0  11013-2 0  9993
2 61822  89.2377 302.9616 0129991 142.5901 218.4421 14.08317665 77644
CZ-6A DEB
1 61822U 24140ACN 26070.41342742  .00002048  00000-0  11013-2 0  9994
2 61822  89.2377 302.9616 0129991 142.5901 218.4421 14.08317665 77644
CZ-6A DEB
1 61822U 24140ACN 26072.61603943  .00002028  00000-0  10894-2 0  9995
2 61822  89.2367 302.7748 0130357 135.6008 225.5717 14.08327236 77952
CZ-6A DEB
1 61822U 24140ACN 26074.60548122  .00001676  00000-0  89875-3 0  9997
2 61822  89.2367 302.6058 0130644 129.2736 232.0124 14.08333626 78238
CZ-6A DEB
1 61822U 24140ACN 26077.37646889  .00001628  00000-0  87208-3 0  9998
2 61822  89.2357 302.3696 0131154 120.4860 240.9351 14.08343609 78625
CZ-6A DEB
1 61822U 24140ACN 26077.37646890  .00001628  00000-0  87208-3 0  9990
2 61822  89.2357 302.3696 0131154 120.4861 240.9351 14.08343609 78626
CZ-6A DEB
1 61822U 24140ACN 26078.37117684  .00001549  00000-0  82916-3 0  9998
2 61822  89.2363 302.2858 0131228 117.3207 244.1408 14.08346587 78765
CZ-6A DEB
1 61822U 24140ACN 26080.85793191  .00001662  00000-0  88971-3 0  9990
2 61822  89.2367 302.0743 0131252 109.5407 252.0005 14.08355226 79113
CZ-6A DEB
1 61822U 24140ACN 26081.35528041  .00001801  00000-0  96480-3 0  9995
2 61822  89.2350 302.0315 0131611 107.9345 253.6238 14.08357938 79186
CZ-6A DEB
1 61822U 24140ACN 26082.34997522  .00002016  00000-0  10800-2 0  9999
2 61822  89.2342 301.9465 0131885 104.8221 256.7615 14.08362128 79329
CZ-6A DEB
1 61822U 24140ACN 26082.84731912  .00001914  00000-0  10253-2 0  9991
2 61822  89.2357 301.9049 0131603 103.2419 258.3482 14.08364178 79397
CZ-6A DEB
1 61822U 24140ACN 26084.33935018  .00001778  00000-0  95168-3 0  9997
2 61822  89.2355 301.7777 0131788  98.5830 263.0312 14.08370263 79609
CZ-6A DEB
1 61822U 24140ACN 26085.04983831  .00001736  00000-0  92890-3 0  9995
2 61822  89.2355 301.7172 0131810  96.3691 265.2522 14.08372787 79706
CZ-6A DEB
1 61822U 24140ACN 26085.04983832  .00001736  00000-0  92890-3 0  9996
2 61822  89.2355 301.7172 0131810  96.3691 265.2522 14.08372787 79706
CZ-6A DEB
1 61822U 24140ACN 26086.32871277  .00001885  00000-0  10094-2 0  9997
2 61822  89.2345 301.6079 0131806  92.3946 269.2335 14.08377596 79882
CZ-6A DEB
1 61822U 24140ACN 26086.32871278  .00001885  00000-0  10094-2 0  9998
2 61822  89.2345 301.6079 0131806  92.3946 269.2335 14.08377596 79882
CZ-6A DEB
1 61822U 24140ACN 26087.03919583  .00001910  00000-0  10229-2 0  9998
2 61822  89.2347 301.5475 0131809  90.1664 271.4624 14.08380493 79986
CZ-6A DEB
1 61822U 24140ACN 26087.03919584  .00001910  00000-0  10229-2 0  9999
2 61822  89.2347 301.5475 0131809  90.1664 271.4624 14.08380493 79986
CZ-6A DEB
1 61822U 24140ACN 26089.02853824  .00002584  00000-0  13865-2 0  9991
2 61822  89.2354 301.3789 0131763  83.9553 277.6627 14.08390290 80266
CZ-6A DEB
1 61822U 24140ACN 26089.02853825  .00002584  00000-0  13865-2 0  9992
2 61822  89.2354 301.3789 0131763  83.9553 277.6627 14.08390290 80266
CZ-6A DEB
1 61822U 24140ACN 26090.02320243  .00002625  00000-0  14083-2 0  9996
2 61822  89.2352 301.2941 0131669  80.8535 280.7517 14.08395178 80403
CZ-6A DEB
1 61822U 24140ACN 26090.02320244  .00002625  00000-0  14083-2 0  9997
2 61822  89.2352 301.2941 0131669  80.8535 280.7517 14.08395178 80403
CZ-6A DEB
1 61822U 24140ACN 26091.01786340  .00002571  00000-0  13789-2 0  9992
2 61822  89.2338 301.2090 0131788  77.7354 283.8551 14.08399858 80544
CZ-6A DEB
1 61822U 24140ACN 26091.01786340  .00002571  00000-0  13789-2 0  9992
2 61822  89.2338 301.2090 0131788  77.7354 283.8551 14.08399858 80544
CZ-6A DEB
1 61822U 24140ACN 26092.29670518  .00002684  00000-0  14400-2 0  9998
2 61822  89.2342 301.1005 0131567  73.7250 287.8359 14.08406510 80724
CZ-6A DEB
1 61822U 24140ACN 26096.84363255  .00002005  00000-0  10743-2 0  9993
2 61822  89.2347 300.7132 0130955  59.4264 301.9763 14.08429989 81364
CZ-6A DEB
1 61822U 24140ACN 26097.83826220  .00001748  00000-0  93560-3 0  9991
2 61822  89.2342 300.6276 0131168  56.3459 305.0155 14.08433801 81500
CZ-6A DEB
1 61822U 24140ACN 26097.83826220  .00001748  00000-0  93560-3 0  9991
2 61822  89.2342 300.6276 0131168  56.3459 305.0155 14.08433801 81500
CZ-6A DEB
1 61822U 24140ACN 26098.26453103  .00001619  00000-0  86591-3 0  9998
2 61822  89.2341 300.5910 0131145  55.0046 306.3366 14.08435066 81565
CZ-6A DEB
1 61822U 24140ACN 26098.83288909  .00001489  00000-0  79596-3 0  9993
2 61822  89.2348 300.5426 0131126  53.2213 308.0921 14.08436536 81647
CZ-6A DEB
1 61822U 24140ACN 26100.53795713  .00001611  00000-0  86164-3 0  9996
2 61822  89.2348 300.3974 0131033  47.9009 313.3227 14.08442453 81882
CZ-6A DEB
1 61822U 24140ACN 26100.82213481  .00001598  00000-0  85488-3 0  9997
2 61822  89.2348 300.3732 0131015  47.0106 314.1971 14.08443013 81926
CZ-6A DEB
1 61822U 24140ACN 26102.81137088  .00001219  00000-0  65024-3 0  9990
2 61822  89.2341 300.2028 0130963  40.7977 320.2923 14.08447196 82206
CZ-6A DEB
1 61822U 24140ACN 26102.81137089  .00001219  00000-0  65024-3 0  9991
2 61822  89.2341 300.2028 0130963  40.7977 320.2923 14.08447196 82206
CZ-6A DEB
1 61822U 24140ACN 26106.50564541  .00001197  00000-0  63876-3 0  9996
2 61822  89.2328 299.8873 0130657  29.2752 331.5670 14.08455022 82723
CZ-6A DEB
1 61822U 24140ACN 26106.50564541  .00001197  00000-0  63876-3 0  9996
2 61822  89.2328 299.8873 0130657  29.2752 331.5671 14.08455022 82724
CZ-6A DEB
1 61822U 24140ACN 26107.28712310  .00001237  00000-0  66028-3 0  9998
2 61822  89.2327 299.8197 0130535  26.7456 334.0381 14.08457131 82831
CZ-6A DEB
1 61822U 24140ACN 26108.28172918  .00001259  00000-0  67242-3 0  9996
2 61822  89.2325 299.7348 0130408  23.6153 337.0942 14.08459403 82970
CZ-6A DEB
1 61822U 24140ACN 26109.77363402  .00001323  00000-0  70725-3 0  9993
2 61822  89.2324 299.6071 0130236  18.9296 341.6663 14.08463281 83189
CZ-6A DEB
1 61822U 24140ACN 26109.77363402  .00001323  00000-0  70725-3 0  9993
2 61822  89.2324 299.6071 0130236  18.9296 341.6663 14.08463281 83189
CZ-6A DEB
1 61822U 24140ACN 26110.27093525  .00001270  00000-0  67863-3 0  9996
2 61822  89.2325 299.5646 0130168  17.3545 343.2025 14.08463992 83258
CZ-6A DEB
1 61822U 24140ACN 26110.27093526  .00001270  00000-0  67863-3 0  9997
2 61822  89.2325 299.5646 0130168  17.3545 343.2025 14.08463992 83258
CZ-6A DEB
1 61822U 24140ACN 26110.27093526  .00001270  00000-0  67863-3 0  9997
2 61822  89.2325 299.5646 0130168  17.3545 343.2025 14.08463992 83258
CZ-6A DEB
1 61822U 24140ACN 26114.46244729  .00001410  00000-0  75468-3 0  9991
2 61822  89.2326 299.2062 0129560   4.0363 356.1833 14.08476017 83840
CZ-6A DEB
1 61822U 24140ACN 26114.74661601  .00001437  00000-0  76910-3 0  9996
2 61822  89.2327 299.1820 0129502   3.1286 357.0677 14.08477018 83884
CZ-6A DEB
1 61822U 24140ACN 26115.45703692  .00001553  00000-0  83198-3 0  9997
2 61822  89.2327 299.1212 0129413   0.8527 359.2852 14.08479866 83985
CZ-6A DEB
1 61822U 24140ACN 26115.45703693  .00001553  00000-0  83198-3 0  9998
2 61822  89.2327 299.1212 0129413   0.8527 359.2853 14.08479866 83986
CZ-6A DEB
1 61822U 24140ACN 26116.23849862  .00001672  00000-0  89658-3 0  9993
2 61822  89.2323 299.0538 0129232 358.3796   1.6950 14.08482971 84090
CZ-6A DEB
1 61822U 24140ACN 26116.23849863  .00001672  00000-0  89658-3 0  9994
2 61822  89.2323 299.0539 0129232 358.3796   1.6950 14.08482971 84091
CZ-6A DEB
1 61822U 24140ACN 26121.21140308  .00001727  00000-0  92672-3 0  9997
2 61822  89.2326 298.6287 0128596 342.3412  17.3320 14.08500234 84794
CZ-6A DEB
1 61822U 24140ACN 26121.21140308  .00001727  00000-0  92672-3 0  9997
2 61822  89.2326 298.6287 0128596 342.3412  17.3320 14.08500234 84794
CZ-6A DEB
1 61822U 24140ACN 26121.77973205  .00001635  00000-0  87707-3 0  9999
2 61822  89.2328 298.5802 0128563 340.5155  19.1138 14.08501562 84877
CZ-6A DEB
1 61822U 24140ACN 26121.77973206  .00001635  00000-0  87707-3 0  9990
2 61822  89.2328 298.5802 0128563 340.5155  19.1138 14.08501562 84877
CZ-6A DEB
1 61822U 24140ACN 26127.74714819  .00001298  00000-0  69563-3 0  9991
2 61822  89.2343 298.0713 0127850 321.2457  37.9607 14.08518479 85717
CZ-6A DEB
1 61822U 24140ACN 26127.74714820  .00001298  00000-0  69563-3 0  9993
2 61822  89.2343 298.0713 0127850 321.2457  37.9607 14.08518479 85717
CZ-6A DEB
1 61822U 24140ACN 26129.73627677  .00001140  00000-0  61012-3 0  9994
2 61822  89.2333 297.9005 0127689 314.8006  44.2849 14.08522742 85993
CZ-6A DEB
1 61822U 24140ACN 26129.73627678  .00001140  00000-0  61012-3 0  9995
2 61822  89.2333 297.9005 0127689 314.8006  44.2849 14.08522742 85993
CZ-6A DEB
1 61822U 24140ACN 26130.73083919  .00001125  00000-0  60236-3 0  9991
2 61822  89.2342 297.8175 0127440 311.4854  47.5444 14.08525166 86136
CZ-6A DEB
1 61822U 24140ACN 26130.73083920  .00001125  00000-0  60236-3 0  9993
2 61822  89.2342 297.8176 0127440 311.4854  47.5444 14.08525166 86137
CZ-6A DEB
1 61822U 24140ACN 26132.71996187  .00001127  00000-0  60367-3 0  9998
2 61822  89.2331 297.6454 0127313 305.0890  53.8408 14.08529866 86412
CZ-6A DEB
1 61822U 24140ACN 26132.71996188  .00001127  00000-0  60367-3 0  9999
2 61822  89.2331 297.6454 0127313 305.0890  53.8408 14.08529866 86412
CZ-6A DEB
1 61822U 24140ACN 26133.43036229  .00001105  00000-0  59176-3 0  9992
2 61822  89.2333 297.5852 0127229 302.7793  56.1184 14.08531289 86517
CZ-6A DEB
1 61822U 24140ACN 26133.43036230  .00001105  00000-0  59176-3 0  9994
2 61822  89.2333 297.5852 0127229 302.7793  56.1184 14.08531289 86517
CZ-6A DEB
1 61822U 24140ACN 26134.70908136  .00001183  00000-0  63385-3 0  9991
2 61822  89.2329 297.4749 0127158 298.6373  60.2070 14.08534645 86692
CZ-6A DEB
1 61822U 24140ACN 26136.41403800  .00001200  00000-0  64320-3 0  9999
2 61822  89.2328 297.3290 0127012 293.1126  65.6713 14.08538670 86938
CZ-6A DEB
1 61822U 24140ACN 26136.69819699  .00001206  00000-0  64640-3 0  9997
2 61822  89.2331 297.3051 0126991 292.1789  66.5960 14.08539408 86974
CZ-6A DEB
1 61822U 24140ACN 26136.69819700  .00001206  00000-0  64640-3 0  9990
2 61822  89.2331 297.3051 0126991 292.1789  66.5960 14.08539408 86974
CZ-6A DEB
1 61822U 24140ACN 26137.40859490  .00001173  00000-0  62859-3 0  9993
2 61822  89.2331 297.2444 0126948 289.8697  68.8842 14.08540841 87071
CZ-6A DEB
1 61822U 24140ACN 26137.40859490  .00001173  00000-0  62859-3 0  9993
2 61822  89.2331 297.2444 0126948 289.8697  68.8842 14.08540841 87071
CZ-6A DEB
1 61822U 24140ACN 26138.40315100  .00001170  00000-0  62675-3 0  9992
2 61822  89.2331 297.1593 0126898 286.6385  72.0898 14.08543147 87214
CZ-6A DEB
1 61822U 24140ACN 26138.40315100  .00001170  00000-0  62675-3 0  9992
2 61822  89.2331 297.1593 0126898 286.6385  72.0898 14.08543147 87214
CZ-6A DEB
1 61822U 24140ACN 26139.18458693  .00001159  00000-0  62077-3 0  9996
2 61822  89.2330 297.0921 0126863 284.0930  74.6181 14.08545029 87323
CZ-6A DEB
1 61822U 24140ACN 26139.18458694  .00001159  00000-0  62077-3 0  9997
2 61822  89.2330 297.0921 0126863 284.0930  74.6181 14.08545029 87323
CZ-6A DEB
1 61822U 24140ACN 26139.39770579  .00001159  00000-0  62116-3 0  9993
2 61822  89.2328 297.0736 0126848 283.3836  75.3233 14.08545533 87353
CZ-6A DEB
1 61822U 24140ACN 26139.39770579  .00001159  00000-0  62116-3 0  9993
2 61822  89.2328 297.0736 0126848 283.3836  75.3233 14.08545533 87353
CZ-6A DEB
1 61822U 24140ACN 26140.39225910  .00001249  00000-0  66980-3 0  9992
2 61822  89.2330 296.9888 0126897 280.1413  78.5477 14.08548698 87497
CZ-6A DEB
1 61822U 24140ACN 26140.39225910  .00001249  00000-0  66980-3 0  9992
2 61822  89.2330 296.9888 0126897 280.1413  78.5477 14.08548698 87497
CZ-6A DEB
1 61822U 24140ACN 26141.38681177  .00001283  00000-0  68803-3 0  9997
2 61822  89.2331 296.9038 0126911 276.9051  81.7709 14.08551486 87632
CZ-6A DEB
1 61822U 24140ACN 26141.38681178  .00001283  00000-0  68803-3 0  9998
2 61822  89.2331 296.9038 0126912 276.9051  81.7709 14.08551486 87633
CZ-6A DEB
1 61822U 24140ACN 26142.66552043  .00001347  00000-0  72223-3 0  9990
2 61822  89.2333 296.7947 0126952 272.7282  85.9377 14.08555321 87815
CZ-6A DEB
1 61822U 24140ACN 26143.16279545  .00001438  00000-0  77170-3 0  9996
2 61822  89.2333 296.7523 0126915 271.1317  87.5329 14.08557247 87887
CZ-6A DEB
1 61822U 24140ACN 26145.15189225  .00001665  00000-0  89449-3 0  9996
2 61822  89.2334 296.5824 0127047 264.6621  94.0057 14.08564304 88167
CZ-6A DEB
1 61822U 24140ACN 26145.15189225  .00001665  00000-0  89449-3 0  9996
2 61822  89.2334 296.5824 0127047 264.6621  94.0057 14.08564304 88167
CZ-6A DEB
1 61822U 24140ACN 26146.14643796  .00001911  00000-0  10269-2 0  9991
2 61822  89.2332 296.4973 0127119 261.4293  97.2470 14.08568860 88300
CZ-6A DEB
1 61822U 24140ACN 26151.82951657  .00002443  00000-0  13126-2 0  9996
2 61822  89.2339 296.0122 0127779 243.0098 115.7992 14.08594373 89102
CZ-6A DEB
1 61822U 24140ACN 26151.82951658  .00002443  00000-0  13126-2 0  9997
2 61822  89.2339 296.0122 0127779 243.0098 115.7992 14.08594373 89102
CZ-6A DEB
1 61822U 24140ACN 26156.09177256  .00002539  00000-0  13635-2 0  9996
2 61822  89.2344 295.6484 0128258 229.2602 129.7390 14.08614925 89703
CZ-6A DEB
1 61822U 24140ACN 26156.09177256  .00002539  00000-0  13635-2 0  9996
2 61822  89.2344 295.6484 0128258 229.2602 129.7390 14.08614925 89703
CZ-6A DEB
1 61822U 24140ACN 26157.65458742  .00002491  00000-0  13366-2 0  9999
2 61822  89.2353 295.5159 0128537 224.2156 134.8701 14.08622063 89929
CZ-6A DEB
1 61822U 24140ACN 26157.65458742  .00002491  00000-0  13366-2 0  9999
2 61822  89.2353 295.5159 0128537 224.2156 134.8701 14.08622063 89929
CZ-6A DEB
1 61822U 24140ACN 26157.65458742  .00002491  00000-0  13366-2 0  9999
2 61822  89.2353 295.5159 0128537 224.2156 134.8701 14.08622063 89929
CZ-6A DEB
1 61822U 24140ACN 26158.64910380  .00002687  00000-0  14422-2 0  9991
2 61822  89.2347 295.4306 0128643 221.0055 138.1403 14.08626739 90063
CZ-6A DEB
1 61822U 24140ACN 26158.64910380  .00002687  00000-0  14422-2 0  9991
2 61822  89.2347 295.4306 0128643 221.0055 138.1403 14.08626739 90063
CZ-6A DEB
1 61822U 24140ACN 26159.64361657  .00002483  00000-0  13317-2 0  9995
2 61822  89.2347 295.3459 0128769 217.7920 141.4170 14.08630880 90209
CZ-6A DEB
1 61822U 24140ACN 26159.64361658  .00002483  00000-0  13317-2 0  9996
2 61822  89.2347 295.3459 0128769 217.7920 141.4170 14.08630880 90209
CZ-6A DEB
1 61822U 24140ACN 26162.62714226  .00001967  00000-0  10529-2 0  9999
2 61822  89.2348 295.0915 0129129 208.1599 151.2562 14.08641709 90623
CZ-6A DEB
1 61822U 24140ACN 26162.62714226  .00001967  00000-0  10529-2 0  9999
2 61822  89.2348 295.0915 0129129 208.1599 151.2562 14.08641709 90623
CZ-6A DEB
1 61822U 24140ACN 26163.12439451  .00001866  00000-0  99832-3 0  9992
2 61822  89.2345 295.0487 0129213 206.5581 152.8946 14.08643400 90691
CZ-6A DEB
1 61822U 24140ACN 26164.61614742  .00002082  00000-0  11142-2 0  9993
2 61822  89.2345 294.9211 0129418 201.7672 157.7984 14.08650147 90905
CZ-6A DEB
1 61822U 24140ACN 26164.61614742  .00002082  00000-0  11142-2 0  9993
2 61822  89.2345 294.9211 0129418 201.7672 157.7984 14.08650146 90904
CZ-6A DEB
1 61822U 24140ACN 26165.11339708  .00002035  00000-0  10885-2 0  9996
2 61822  89.2350 294.8790 0129477 200.1606 159.4440 14.08652075 90972
CZ-6A DEB
1 61822U 24140ACN 26165.11339709  .00002035  00000-0  10885-2 0  9997
2 61822  89.2350 294.8790 0129477 200.1606 159.4440 14.08652075 90972
CZ-6A DEB
1 61822U 24140ACN 26165.61064646  .00001866  00000-0  99774-3 0  9993
2 61822  89.2350 294.8365 0129551 198.5592 161.0845 14.08653470 91044
CZ-6A DEB
1 61822U 24140ACN 26165.61064646  .00001866  00000-0  99774-3 0  9993
2 61822  89.2350 294.8365 0129551 198.5592 161.0845 14.08653470 91044
CZ-6A DEB
1 61822U 24140ACN 26169.09137804  .00001584  00000-0  84468-3 0  9997
2 61822  89.2352 294.5400 0130148 187.4482 172.4773 14.08664004 91537
CZ-6A DEB
1 61822U 24140ACN 26170.29897391  .00001516  00000-0  80807-3 0  9993
2 61822  89.2349 294.4374 0130279 183.6659 176.3584 14.08667192 91704
CZ-6A DEB
1 61822U 24140ACN 26172.78519250  .00001406  00000-0  74808-3 0  9996
2 61822  89.2349 294.2254 0130675 175.8339 184.3967 14.08673332 92053
CZ-6A DEB
1 61822U 24140ACN 26174.06381387  .00001603  00000-0  85353-3 0  9993
2 61822  89.2346 294.1163 0130880 171.8271 188.5089 14.08677926 92231
CZ-6A DEB
1 61822U 24140ACN 26175.05829380  .00001801  00000-0  95961-3 0  9999
2 61822  89.2347 294.0315 0131034 168.7241 191.6930 14.08682066 92370
CZ-6A DEB
1 61822U 24140ACN 26176.76310816  .00002235  00000-0  11924-2 0  9995
2 61822  89.2347 293.8860 0131225 163.3851 197.1696 14.08690824 92610
CZ-6A DEB
1 61822U 24140ACN 26177.11827683  .00002225  00000-0  11870-2 0  9999
2 61822  89.2347 293.8557 0131264 162.2743 198.3087 14.08692143 92662
CZ-6A DEB
1 61822U 24140ACN 26177.11827683  .00002225  00000-0  11870-2 0  9999
2 61822  89.2347 293.8557 0131264 162.2743 198.3086 14.08692142 92660
CZ-6A DEB
1 61822U 24140ACN 26178.75204627  .00002283  00000-0  12173-2 0  9998
2 61822  89.2350 293.7167 0131436 157.1931 203.5166 14.08699327 92898
CZ-6A DEB
1 61822U 24140ACN 26178.75204628  .00002283  00000-0  12173-2 0  9999
2 61822  89.2350 293.7167 0131436 157.1931 203.5166 14.08699327 92898
CZ-6A DEB
1 61822U 24140ACN 26180.59890456  .00002372  00000-0  12650-2 0  9993
2 61822  89.2352 293.5591 0131581 151.3900 209.4587 14.08708209 93154
CZ-6A DEB
1 61822U 24140ACN 26180.59890456  .00002372  00000-0  12650-2 0  9993
2 61822  89.2352 293.5591 0131581 151.3900 209.4587 14.08708209 93154
CZ-6A DEB
1 61822U 24140ACN 26184.57671071  .00002508  00000-0  13366-2 0  9991
2 61822  89.2353 293.2204 0131912 139.0333 222.0854 14.08726664 93719
CZ-6A DEB
1 61822U 24140ACN 26184.57671071  .00002508  00000-0  13366-2 0  9991
2 61822  89.2353 293.2204 0131912 139.0333 222.0854 14.08726664 93719
CZ-6A DEB
1 61822U 24140ACN 26185.57115122  .00003636  00000-0  19406-2 0  9996
2 61822  89.2354 293.1360 0131983 135.9677 225.2111 14.08735124 93853
CZ-6A DEB
1 61822U 24140ACN 26188.55444907  .00001526  00000-0  80938-3 0  9998
2 61822  89.2356 292.8819 0132287 126.5388 234.8061 14.08744352 94273
CZ-6A DEB
1 61822U 24140ACN 26188.55444908  .00001526  00000-0  80938-3 0  9999
2 61822  89.2356 292.8819 0132287 126.5388 234.8061 14.08744352 94273
CZ-6A DEB
1 61822U 24140ACN 26191.25360389  .00000932  00000-0  49104-3 0  9990
2 61822  89.2358 292.6506 0132356 118.1487 243.3144 14.08749165 94656
CZ-6A DEB
1 61822U 24140ACN 26192.24802727  .00000765  00000-0  40161-3 0  9995
2 61822  89.2357 292.5663 0132477 115.0136 246.4873 14.08749699 94799
CZ-6A DEB
1 61822U 24140ACN 26192.24802727  .00000765  00000-0  40161-3 0  9995
2 61822  89.2357 292.5663 0132477 115.0136 246.4873 14.08749699 94799
CZ-6A DEB
1 61822U 24140ACN 26192.24802727  .00000765  00000-0  40161-3 0  9995
2 61822  89.2357 292.5663 0132477 115.0136 246.4873 14.08749699 94799
CZ-6A DEB
1 61822U 24140ACN 26195.51539920  .00000784  00000-0  41164-3 0  9995
2 61822  89.2358 292.2885 0132395 104.8358 256.7534 14.08755348 95252
CZ-6A DEB
1 61822U 24140ACN 26196.22569419  .00000850  00000-0  44695-3 0  9996
2 61822  89.2359 292.2287 0132485 102.5776 259.0262 14.08757154 95350
CZ-6A DEB
1 61822U 24140ACN 26196.22569420  .00000850  00000-0  44695-3 0  9998
2 61822  89.2359 292.2287 0132485 102.5776 259.0262 14.08757154 95350
CZ-6A DEB
1 61822U 24140ACN 26198.56965772  .00000904  00000-0  47604-3 0  9990
2 61822  89.2360 292.0286 0132281  95.2883 266.3410 14.08762419 95682
CZ-6A DEB
1 61822U 24140ACN 26198.71171569  .00000899  00000-0  47328-3 0  9996
2 61822  89.2358 292.0169 0132280  94.8316 266.7986 14.08762762 95700
CZ-6A DEB
1 61822U 24140ACN 26198.71171570  .00000899  00000-0  47328-3 0  9998
2 61822  89.2358 292.0169 0132280  94.8316 266.7987 14.08762762 95701
CZ-6A DEB
1 61822U 24140ACN 26199.99023722  .00000795  00000-0  41813-3 0  9992
2 61822  89.2369 291.9083 0131989  90.8815 270.7494 14.08764269 95882
CZ-6A DEB
1 61822U 24140ACN 26201.97904532  .00000785  00000-0  41253-3 0  9998
2 61822  89.2353 291.7377 0131871  84.6728 276.9485 14.08766304 96165
CZ-6A DEB
1 61822U 24140ACN 26203.68372753  .00001160  00000-0  61396-3 0  9990
2 61822  89.2348 291.5922 0131557  79.3488 282.2480 14.08771290 96400
CZ-6A DEB
1 61822U 24140ACN 26204.67812181  .00001391  00000-0  73755-3 0  9992
2 61822  89.2349 291.5078 0131411  76.2250 285.3519 14.08774692 96546
CZ-6A DEB
1 61822U 24140ACN 26204.67812181  .00001391  00000-0  73755-3 0  9992
2 61822  89.2349 291.5078 0131411  76.2250 285.3519 14.08774692 96546
CZ-6A DEB
1 61822U 24140ACN 26206.66689876  .00001749  00000-0  92987-3 0  9991
2 61822  89.2348 291.3382 0131017  69.9873 291.5362 14.08782722 96822
CZ-6A DEB
1 61822U 24140ACN 26207.66128263  .00001821  00000-0  96884-3 0  9991
2 61822  89.2348 291.2536 0130873  66.8535 294.6376 14.08786572 96963
CZ-6A DEB
1 61822U 24140ACN 26209.50798807  .00001537  00000-0  81674-3 0  9998
2 61822  89.2349 291.0964 0130686  61.0278 300.3934 14.08791352 97227
CZ-6A DEB
1 61822U 24140ACN 26210.00517600  .00001512  00000-0  80291-3 0  9992
2 61822  89.2348 291.0540 0130601  59.4603 301.9394 14.08792880 97297
CZ-6A DEB
1 61822U 24140ACN 26210.00517600  .00001512  00000-0  80291-3 0  9992
2 61822  89.2348 291.0540 0130601  59.4603 301.9394 14.08792879 97295
CZ-6A DEB
1 61822U 24140ACN 26211.49673752  .00001347  00000-0  71513-3 0  9990
2 61822  89.2347 290.9266 0130419  54.7694 306.5616 14.08796218 97505
CZ-6A DEB
1 61822U 24140ACN 26213.48547775  .00001241  00000-0  65801-3 0  9992
2 61822  89.2344 290.7569 0130130  48.5047 312.7219 14.08800713 97783
CZ-6A DEB
1 61822U 24140ACN 26214.19573970  .00001076  00000-0  56992-3 0  9994
2 61822  89.2343 290.6965 0129961  46.2611 314.9245 14.08801604 97887
CZ-6A DEB
1 61822U 24140ACN 26214.19573971  .00001076  00000-0  56992-3 0  9995
2 61822  89.2343 290.6965 0129961  46.2611 314.9245 14.08801604 97887
CZ-6A DEB
1 61822U 24140ACN 26214.97702677  .00001148  00000-0  60875-3 0  9993
2 61822  89.2344 290.6299 0129875  43.7770 317.3622 14.08803860 97994
CZ-6A DEB
1 61822U 24140ACN 26216.18446922  .00001022  00000-0  54119-3 0  9991
2 61822  89.2341 290.5268 0129742  39.9908 321.0742 14.08805610 98169
CZ-6A DEB
1 61822U 24140ACN 26217.96011567  .00000843  00000-0  44526-3 0  9992
2 61822  89.2339 290.3753 0129589  34.4010 326.5478 14.08807806 98419
CZ-6A DEB
1 61822U 24140ACN 26218.45729552  .00000829  00000-0  43795-3 0  9998
2 61822  89.2339 290.3328 0129501  32.8257 328.0887 14.08808601 98488
CZ-6A DEB
1 61822U 24140ACN 26222.15062238  .00000729  00000-0  38436-3 0  9996
2 61822  89.2335 290.0176 0128929  21.1116 339.5320 14.08813457 99003
CZ-6A DEB
1 61822U 24140ACN 26222.15062239  .00000729  00000-0  38436-3 0  9997
2 61822  89.2335 290.0176 0128929  21.1116 339.5320 14.08813457 99003
CZ-6A DEB
1 61822U 24140ACN 26223.14497631  .00000756  00000-0  39915-3 0  9998
2 61822  89.2334 289.9326 0128769  17.9424 342.6243 14.08814999 99149
CZ-6A DEB
1 61822U 24140ACN 26223.14497631  .00000756  00000-0  39915-3 0  9998
2 61822  89.2334 289.9326 0128769  17.9424 342.6243 14.08814999 99149
CZ-6A DEB
1 61822U 24140ACN 26224.92060397  .00000780  00000-0  41202-3 0  9999
2 61822  89.2332 289.7808 0128471  12.2635 348.1624 14.08818012 99393
CZ-6A DEB
1 61822U 24140ACN 26224.92060398  .00000780  00000-0  41202-3 0  9990
2 61822  89.2332 289.7808 0128471  12.2635 348.1624 14.08818012 99393
CZ-6A DEB
1 61822U 24140ACN 26227.61955263  .00000726  00000-0  38317-3 0  9996
2 61822  89.2323 289.5495 0128037   3.6187 356.5892 14.08821647 99777
CZ-6A DEB
1 61822U 24140ACN 26227.61955263  .00000726  00000-0  38317-3 0  9996
2 61822  89.2323 289.5495 0128037   3.6187 356.5892 14.08821647 99777
CZ-6A DEB
1 61822U 24140ACN 26229.60824589  .00000798  00000-0  42250-3 0  9993
2 61822  89.2319 289.3795 0127763 357.1981   2.8472 14.08825027100052
CZ-6A DEB
1 61822U 24140ACN 26229.60824589  .00000798  00000-0  42250-3 0  9993
2 61822  89.2319 289.3795 0127763 357.1981   2.8472 14.08825027100052
CZ-6A DEB
1 61822U 24140ACN 26232.59127371  .00001057  00000-0  56179-3 0  9994
2 61822  89.2317 289.1249 0127396 347.5162  12.2873 14.08832323100471
CZ-6A DEB
1 61822U 24140ACN 26238.41524730  .00001150  00000-0  61248-3 0  9998
2 61822  89.2300 288.6264 0126890 328.5311  30.8324 14.08845448101297
CZ-6A DEB
1 61822U 24140ACN 26238.41524731  .00001150  00000-0  61248-3 0  9999
2 61822  89.2300 288.6264 0126890 328.5311  30.8324 14.08845448101297
CZ-6A DEB
1 61822U 24140ACN 26242.88974139  .00001131  00000-0  60266-3 0  9994
2 61822  89.2324 288.2469 0126439 313.9126  45.1673 14.08854403101924
CZ-6A DEB
1 61822U 24140ACN 26242.88974139  .00001131  00000-0  60266-3 0  9994
2 61822  89.2324 288.2469 0126439 313.9126  45.1673 14.08854403101924
