CZ-6A DEB
1 61839U 24140ADF 24310.35565620  .00015342  00000-0  60267-2 0  9998
2 61839  88.9477 340.1907 0024687 208.9319 151.0509 14.29052744 12119
CZ-6A DEB
1 61839U 24140ADF 24331.28868427  .00012085  00000-0  47050-2 0  9990
2 61839  88.9416 337.6509 0027935 141.6346 218.6843 14.29473322 15105
CZ-6A DEB
1 61839U 24140ADF 24331.28868427  .00012085  00000-0  47050-2 0  9990
2 61839  88.9416 337.6509 0027935 141.6346 218.6843 14.29473322 15105
CZ-6A DEB
1 61839U 24140ADF 24333.31867544  .00012662  00000-0  49246-2 0  9995
2 61839  88.9444 337.4038 0027753 134.3242 226.0235 14.29523429 15396
CZ-6A DEB
1 61839U 24140ADF 24333.31867544  .00012662  00000-0  49246-2 0  9995
2 61839  88.9444 337.4038 0027753 134.3242 226.0235 14.29523429 15396
CZ-6A DEB
1 61839U 24140ADF 24334.29864452  .00012832  00000-0  49885-2 0  9996
2 61839  88.9437 337.2842 0027817 131.2864 229.0733 14.29548242 15538
CZ-6A DEB
1 61839U 24140ADF 24339.26821475  .00011447  00000-0  44388-2 0  9990
2 61839  88.9438 336.6779 0028151 115.7306 244.6800 14.29673074 16240
CZ-6A DEB
1 61839U 24140ADF 24339.26821475  .00011447  00000-0  44388-2 0  9990
2 61839  88.9438 336.6779 0028151 115.7306 244.6800 14.29673074 16240
CZ-6A DEB
1 61839U 24140ADF 24343.25757530  .00010424  00000-0  40347-2 0  9999
2 61839  88.9445 336.1920 0028421 104.1508 256.2848 14.29761099 16816
CZ-6A DEB
1 61839U 24140ADF 24343.25757530  .00010424  00000-0  40347-2 0  9999
2 61839  88.9445 336.1920 0028421 104.1508 256.2848 14.29761099 16816
CZ-6A DEB
1 61839U 24140ADF 24344.72727797  .00010924  00000-0  42250-2 0  9994
2 61839  88.9460 336.0163 0028865  99.6581 260.7877 14.29793241 17022
CZ-6A DEB
1 61839U 24140ADF 24344.72727797  .00010924  00000-0  42250-2 0  9994
2 61839  88.9460 336.0163 0028865  99.6581 260.7877 14.29793241 17022
CZ-6A DEB
1 61839U 24140ADF 24345.42712450  .00011424  00000-0  44172-2 0  9993
2 61839  88.9461 335.9319 0028889  97.5513 262.8965 14.29809571 17128
CZ-6A DEB
1 61839U 24140ADF 24346.68683007  .00008736  00000-0  33765-2 0  9995
2 61839  88.9462 335.7775 0028734  93.9211 266.5270 14.29832039 17302
CZ-6A DEB
1 61839U 24140ADF 24346.68683007  .00008736  00000-0  33765-2 0  9995
2 61839  88.9462 335.7775 0028734  93.9211 266.5270 14.29832039 17302
CZ-6A DEB
1 61839U 24140ADF 24348.71631786  .00007622  00000-0  29433-2 0  9998
2 61839  88.9448 335.5293 0028977  87.9811 272.4702 14.29863979 17591
CZ-6A DEB
1 61839U 24140ADF 24348.71631786  .00007622  00000-0  29433-2 0  9998
2 61839  88.9448 335.5293 0028977  87.9811 272.4702 14.29863979 17591
CZ-6A DEB
1 61839U 24140ADF 24351.23561170  .00008989  00000-0  34690-2 0  9996
2 61839  88.9462 335.2227 0028649  80.3659 280.0772 14.29910449 17951
CZ-6A DEB
1 61839U 24140ADF 24351.23561170  .00008989  00000-0  34690-2 0  9996
2 61839  88.9462 335.2227 0028649  80.3659 280.0772 14.29910449 17951
CZ-6A DEB
1 61839U 24140ADF 24353.68484106  .00009800  00000-0  37780-2 0  9996
2 61839  88.9460 334.9239 0028842  73.3125 287.1233 14.29961322 18309
CZ-6A DEB
1 61839U 24140ADF 24353.68484106  .00009800  00000-0  37780-2 0  9996
2 61839  88.9460 334.9239 0028842  73.3125 287.1233 14.29961322 18309
CZ-6A DEB
1 61839U 24140ADF 24359.21277948  .00013709  00000-0  52715-2 0  9993
2 61839  88.9437 334.2488 0028600  56.8255 303.5677 14.30086527 19093
CZ-6A DEB
1 61839U 24140ADF 24359.21277948  .00013709  00000-0  52715-2 0  9993
2 61839  88.9437 334.2488 0028600  56.8255 303.5677 14.30086527 19093
CZ-6A DEB
1 61839U 24140ADF 24360.19235745  .00014027  00000-0  53911-2 0  9994
2 61839  88.9484 334.1383 0028471  54.0247 306.3583 14.30114499 19238
CZ-6A DEB
1 61839U 24140ADF 24362.64121289  .00014722  00000-0  56498-2 0  9998
2 61839  88.9430 333.8346 0028479  47.0913 313.2666 14.30187390 19581
CZ-6A DEB
1 61839U 24140ADF 24362.64121289  .00014722  00000-0  56498-2 0  9998
2 61839  88.9430 333.8346 0028479  47.0913 313.2666 14.30187390 19581
CZ-6A DEB
1 61839U 24140ADF 24364.18042583  .00016108  00000-0  61760-2 0  9996
2 61839  88.9465 333.6468 0027909  42.1951 318.1386 14.30237911 19800
CZ-6A DEB
1 61839U 24140ADF 24364.18042583  .00016108  00000-0  61760-2 0  9996
2 61839  88.9465 333.6468 0027909  42.1951 318.1386 14.30237911 19800
CZ-6A DEB
1 61839U 24140ADF 24366.20929968  .00018015  00000-0  68959-2 0  9998
2 61839  88.9465 333.3998 0027603  35.9780 324.3267 14.30315173 20093
CZ-6A DEB
1 61839U 24140ADF 24366.20929968  .00018015  00000-0  68959-2 0  9998
2 61839  88.9465 333.3998 0027603  35.9780 324.3267 14.30315173 20093
CZ-6A DEB
1 61839U 24140ADF 25001.18871620  .00023465  00000-0  89693-2 0  9996
2 61839  88.9451 333.2785 0027495  33.4026 326.8897 14.30358808 20230
CZ-6A DEB
1 61839U 24140ADF 25001.18871620  .00023465  00000-0  89693-2 0  9996
2 61839  88.9451 333.2785 0027495  33.4026 326.8897 14.30358808 20230
CZ-6A DEB
1 61839U 24140ADF 25003.63710908  .00016532  00000-0  63115-2 0  9997
2 61839  88.9469 332.9854 0026781  26.2161 334.0384 14.30469313 20583
CZ-6A DEB
1 61839U 24140ADF 25003.63710908  .00016532  00000-0  63115-2 0  9997
2 61839  88.9469 332.9854 0026781  26.2161 334.0384 14.30469313 20583
CZ-6A DEB
1 61839U 24140ADF 25008.18374134  .00011966  00000-0  45587-2 0  9998
2 61839  88.9465 332.4311 0026078  12.2443 347.9381 14.30605049 21230
CZ-6A DEB
1 61839U 24140ADF 25008.18374134  .00011966  00000-0  45587-2 0  9998
2 61839  88.9465 332.4311 0026078  12.2443 347.9381 14.30605049 21230
CZ-6A DEB
1 61839U 24140ADF 25017.13616332  .00010902  00000-0  41403-2 0  9994
2 61839  88.9484 331.3410 0024718 343.3496  16.6885 14.30787192 22515
CZ-6A DEB
1 61839U 24140ADF 25017.13616332  .00010902  00000-0  41403-2 0  9994
2 61839  88.9484 331.3410 0024718 343.3496  16.6885 14.30787192 22515
CZ-6A DEB
1 61839U 24140ADF 25018.60480329  .00013094  00000-0  49681-2 0  9993
2 61839  88.9513 331.1670 0024808 338.0950  21.9183 14.30828095 22721
CZ-6A DEB
1 61839U 24140ADF 25018.60480329  .00013094  00000-0  49681-2 0  9993
2 61839  88.9513 331.1670 0024808 338.0950  21.9183 14.30828095 22721
CZ-6A DEB
1 61839U 24140ADF 25019.30414211  .00012517  00000-0  47475-2 0  9996
2 61839  88.9512 331.0822 0024774 335.7718  24.2311 14.30845945 22829
CZ-6A DEB
1 61839U 24140ADF 25021.12238236  .00015887  00000-0  60199-2 0  9991
2 61839  88.9466 330.8547 0023529 330.1347  29.8505 14.30900111 23084
CZ-6A DEB
1 61839U 24140ADF 25021.61189548  .00014799  00000-0  56069-2 0  9998
2 61839  88.9467 330.7955 0023469 328.2643  31.7137 14.30913665 23156
CZ-6A DEB
1 61839U 24140ADF 25021.61189548  .00014799  00000-0  56069-2 0  9998
2 61839  88.9467 330.7955 0023469 328.2643  31.7137 14.30913665 23156
CZ-6A DEB
1 61839U 24140ADF 25025.10827102  .00013707  00000-0  51836-2 0  9996
2 61839  88.9466 330.3686 0022773 316.2335  43.7056 14.31019108 23652
CZ-6A DEB
1 61839U 24140ADF 25025.10827102  .00013707  00000-0  51836-2 0  9996
2 61839  88.9466 330.3686 0022773 316.2335  43.7056 14.31019108 23652
CZ-6A DEB
1 61839U 24140ADF 25031.26134043  .00011878  00000-0  44793-2 0  9996
2 61839  88.9482 329.6229 0022022 293.3022  66.5856 14.31174949 24533
CZ-6A DEB
1 61839U 24140ADF 25031.26134043  .00011878  00000-0  44793-2 0  9996
2 61839  88.9482 329.6229 0022022 293.3022  66.5856 14.31174949 24533
CZ-6A DEB
1 61839U 24140ADF 25033.07917040  .00015127  00000-0  56989-2 0  9994
2 61839  88.9470 329.3958 0021591 287.2241  72.6592 14.31221694 24794
CZ-6A DEB
1 61839U 24140ADF 25033.07917040  .00015127  00000-0  56989-2 0  9994
2 61839  88.9470 329.3958 0021591 287.2241  72.6592 14.31221694 24794
CZ-6A DEB
1 61839U 24140ADF 25041.04903705  .00010766  00000-0  40443-2 0  9995
2 61839  88.9476 328.4296 0021472 256.5644 103.3159 14.31381680 25939
CZ-6A DEB
1 61839U 24140ADF 25041.04903705  .00010766  00000-0  40443-2 0  9995
2 61839  88.9476 328.4296 0021472 256.5644 103.3159 14.31381680 25939
CZ-6A DEB
1 61839U 24140ADF 25042.51708001  .00008599  00000-0  32283-2 0  9994
2 61839  88.9468 328.2498 0021630 251.0851 108.8001 14.31408591 26149
CZ-6A DEB
1 61839U 24140ADF 25042.51708001  .00008599  00000-0  32283-2 0  9994
2 61839  88.9468 328.2498 0021630 251.0851 108.8001 14.31408591 26149
CZ-6A DEB
1 61839U 24140ADF 25043.21614141  .00007915  00000-0  29711-2 0  9996
2 61839  88.9486 328.1661 0021367 248.3954 111.4966 14.31418312 26243
CZ-6A DEB
1 61839U 24140ADF 25043.21614141  .00007915  00000-0  29711-2 0  9996
2 61839  88.9486 328.1661 0021367 248.3954 111.4966 14.31418312 26243
CZ-6A DEB
1 61839U 24140ADF 25047.06087294  .00010457  00000-0  39201-2 0  9996
2 61839  88.9485 327.7001 0021458 233.8946 126.0264 14.31487715 26792
CZ-6A DEB
1 61839U 24140ADF 25047.20067737  .00010158  00000-0  38078-2 0  9991
2 61839  88.9469 327.6808 0021454 233.3755 126.5469 14.31490066 26815
CZ-6A DEB
1 61839U 24140ADF 25047.48028592  .00010297  00000-0  38595-2 0  9995
2 61839  88.9471 327.6473 0021478 232.3488 127.5760 14.31495901 26856
CZ-6A DEB
1 61839U 24140ADF 25052.02376174  .00007747  00000-0  28978-2 0  9993
2 61839  88.9463 327.0939 0021911 215.6741 144.2993 14.31588411 27502
CZ-6A DEB
1 61839U 24140ADF 25052.02376174  .00007747  00000-0  28978-2 0  9993
2 61839  88.9463 327.0939 0021911 215.6741 144.2993 14.31588411 27502
CZ-6A DEB
1 61839U 24140ADF 25054.05075955  .00008833  00000-0  33014-2 0  9995
2 61839  88.9467 326.8476 0022216 208.1685 151.8311 14.31627849 27790
CZ-6A DEB
1 61839U 24140ADF 25054.05075955  .00008833  00000-0  33014-2 0  9995
2 61839  88.9467 326.8476 0022216 208.1685 151.8311 14.31627849 27790
CZ-6A DEB
1 61839U 24140ADF 25055.51854983  .00010537  00000-0  39356-2 0  9992
2 61839  88.9464 326.6675 0022350 202.6662 157.3550 14.31660528 28001
CZ-6A DEB
1 61839U 24140ADF 25056.49705605  .00012942  00000-0  48307-2 0  9994
2 61839  88.9466 326.5492 0022558 199.4678 160.5660 14.31687422 28144
CZ-6A DEB
1 61839U 24140ADF 25056.49705605  .00012942  00000-0  48307-2 0  9994
2 61839  88.9466 326.5492 0022558 199.4678 160.5660 14.31687422 28144
CZ-6A DEB
1 61839U 24140ADF 25058.03467888  .00011924  00000-0  44478-2 0  9998
2 61839  88.9462 326.3616 0022746 193.9116 166.1457 14.31721585 28360
CZ-6A DEB
1 61839U 24140ADF 25058.03467888  .00011924  00000-0  44478-2 0  9998
2 61839  88.9462 326.3616 0022746 193.9116 166.1457 14.31721585 28360
CZ-6A DEB
1 61839U 24140ADF 25060.48081691  .00008847  00000-0  32960-2 0  9997
2 61839  88.9461 326.0638 0023076 185.3713 174.7240 14.31775287 28717
CZ-6A DEB
1 61839U 24140ADF 25060.48081691  .00008847  00000-0  32960-2 0  9997
2 61839  88.9461 326.0638 0023076 185.3713 174.7240 14.31775287 28717
CZ-6A DEB
1 61839U 24140ADF 25063.97518224  .00006008  00000-0  22351-2 0  9991
2 61839  88.9446 325.6366 0023734 173.2642 186.8879 14.31819531 29210
CZ-6A DEB
1 61839U 24140ADF 25063.97518224  .00006008  00000-0  22351-2 0  9991
2 61839  88.9446 325.6366 0023734 173.2642 186.8879 14.31819531 29210
CZ-6A DEB
1 61839U 24140ADF 25067.46944657  .00005569  00000-0  20698-2 0  9995
2 61839  88.9451 325.2098 0024110 162.3164 197.8878 14.31860208 29714
CZ-6A DEB
1 61839U 24140ADF 25067.46944657  .00005569  00000-0  20698-2 0  9995
2 61839  88.9451 325.2098 0024110 162.3164 197.8878 14.31860208 29714
CZ-6A DEB
1 61839U 24140ADF 25068.44782151  .00008669  00000-0  32224-2 0  9995
2 61839  88.9454 325.0914 0024245 159.0707 201.1488 14.31877617 29850
CZ-6A DEB
1 61839U 24140ADF 25068.44782151  .00008669  00000-0  32224-2 0  9995
2 61839  88.9454 325.0914 0024245 159.0707 201.1488 14.31877617 29850
CZ-6A DEB
1 61839U 24140ADF 25069.98524714  .00006646  00000-0  24687-2 0  9991
2 61839  88.9454 324.9037 0024478 154.1448 206.0978 14.31897115 30079
CZ-6A DEB
1 61839U 24140ADF 25069.98524714  .00006646  00000-0  24687-2 0  9991
2 61839  88.9454 324.9037 0024478 154.1448 206.0978 14.31897115 30079
CZ-6A DEB
1 61839U 24140ADF 25075.64552488  .00008851  00000-0  32808-2 0  9994
2 61839  88.9429 324.2114 0025268 135.9814 224.3400 14.32002784 30885
CZ-6A DEB
1 61839U 24140ADF 25075.64552488  .00008851  00000-0  32808-2 0  9994
2 61839  88.9429 324.2114 0025268 135.9814 224.3400 14.32002784 30885
CZ-6A DEB
1 61839U 24140ADF 25076.97317689  .00011091  00000-0  41084-2 0  9999
2 61839  88.9422 324.0495 0025416 132.1777 228.1584 14.32034437 31077
CZ-6A DEB
1 61839U 24140ADF 25076.97317689  .00011091  00000-0  41084-2 0  9999
2 61839  88.9422 324.0495 0025416 132.1777 228.1584 14.32034437 31077
CZ-6A DEB
1 61839U 24140ADF 25080.95595335  .00010779  00000-0  39847-2 0  9994
2 61839  88.9426 323.5624 0025935 119.6882 240.6901 14.32130745 31646
CZ-6A DEB
1 61839U 24140ADF 25080.95595335  .00010779  00000-0  39847-2 0  9994
2 61839  88.9426 323.5624 0025935 119.6882 240.6901 14.32130745 31646
CZ-6A DEB
1 61839U 24140ADF 25083.40136859  .00009901  00000-0  36549-2 0  9990
2 61839  88.9420 323.2625 0026299 112.1863 248.2128 14.32200250 31991
CZ-6A DEB
1 61839U 24140ADF 25083.40136859  .00009901  00000-0  36549-2 0  9990
2 61839  88.9420 323.2625 0026299 112.1863 248.2128 14.32200250 31991
CZ-6A DEB
1 61839U 24140ADF 25089.89874040  .00006207  00000-0  22848-2 0  9993
2 61839  88.9411 322.4679 0026551  92.5914 267.8323 14.32321784 32924
CZ-6A DEB
1 61839U 24140ADF 25089.89874040  .00006207  00000-0  22848-2 0  9993
2 61839  88.9411 322.4679 0026551  92.5914 267.8323 14.32321784 32924
CZ-6A DEB
1 61839U 24140ADF 25091.36582522  .00006392  00000-0  23521-2 0  9993
2 61839  88.9404 322.2870 0026249  88.4526 271.9677 14.32339835 33132
CZ-6A DEB
1 61839U 24140ADF 25091.36582522  .00006392  00000-0  23521-2 0  9993
2 61839  88.9404 322.2870 0026249  88.4526 271.9677 14.32339835 33132
CZ-6A DEB
1 61839U 24140ADF 25092.90275200  .00007097  00000-0  26109-2 0  9994
2 61839  88.9408 322.0991 0026506  83.7597 276.6618 14.32360003 33352
CZ-6A DEB
1 61839U 24140ADF 25099.32959394  .00008330  00000-0  30585-2 0  9994
2 61839  88.9401 321.3096 0026377  64.5489 295.8433 14.32466122 34275
CZ-6A DEB
1 61839U 24140ADF 25100.86637862  .00007441  00000-0  27303-2 0  9995
2 61839  88.9416 321.1188 0026510  59.4145 300.9662 14.32490545 34494
CZ-6A DEB
1 61839U 24140ADF 25100.86637862  .00007441  00000-0  27303-2 0  9995
2 61839  88.9416 321.1188 0026510  59.4145 300.9662 14.32490545 34494
CZ-6A DEB
1 61839U 24140ADF 25110.85488347  .00005532  00000-0  20243-2 0  9992
2 61839  88.9401 319.8929 0025485  29.0954 331.1657 14.32628094 35927
CZ-6A DEB
1 61839U 24140ADF 25110.85488347  .00005532  00000-0  20243-2 0  9992
2 61839  88.9401 319.8929 0025485  29.0954 331.1657 14.32628094 35927
CZ-6A DEB
1 61839U 24140ADF 25113.85822798  .00006533  00000-0  23889-2 0  9998
2 61839  88.9383 319.5166 0025430  20.8253 339.3973 14.32674666 36352
CZ-6A DEB
1 61839U 24140ADF 25123.28670396  .00006859  00000-0  25024-2 0  9995
2 61839  88.9362 318.3566 0023552 348.4365  11.6288 14.32817415 37706
CZ-6A DEB
1 61839U 24140ADF 25123.28670396  .00006859  00000-0  25024-2 0  9995
2 61839  88.9362 318.3566 0023552 348.4365  11.6288 14.32817415 37706
CZ-6A DEB
1 61839U 24140ADF 25124.26441981  .00005943  00000-0  21675-2 0  9991
2 61839  88.9368 318.2382 0023558 344.8277  15.2211 14.32830706 37844
CZ-6A DEB
1 61839U 24140ADF 25124.82311174  .00005164  00000-0  18825-2 0  9991
2 61839  88.9365 318.1694 0023506 342.9424  17.0980 14.32835804 37928
CZ-6A DEB
1 61839U 24140ADF 25124.82311174  .00005164  00000-0  18825-2 0  9991
2 61839  88.9365 318.1694 0023506 342.9424  17.0980 14.32835804 37928
CZ-6A DEB
1 61839U 24140ADF 25132.78422172  .00004600  00000-0  16744-2 0  9998
2 61839  88.9347 317.1867 0022607 315.2251  44.7121 14.32916287 39067
CZ-6A DEB
1 61839U 24140ADF 25132.78422172  .00004600  00000-0  16744-2 0  9998
2 61839  88.9347 317.1867 0022607 315.2251  44.7121 14.32916287 39067
CZ-6A DEB
1 61839U 24140ADF 25133.76187303  .00004329  00000-0  15750-2 0  9995
2 61839  88.9348 317.0657 0022536 311.7371  48.1898 14.32925557 39204
CZ-6A DEB
1 61839U 24140ADF 25138.23105949  .00005950  00000-0  21648-2 0  9992
2 61839  88.9356 316.5131 0022261 295.5796  64.3101 14.32970234 39848
CZ-6A DEB
1 61839U 24140ADF 25138.23105949  .00005950  00000-0  21648-2 0  9992
2 61839  88.9356 316.5131 0022261 295.5796  64.3101 14.32970234 39848
CZ-6A DEB
1 61839U 24140ADF 25139.20867611  .00004832  00000-0  17569-2 0  9996
2 61839  88.9355 316.3927 0022203 292.0610  67.8229 14.32978221 39989
CZ-6A DEB
1 61839U 24140ADF 25139.20867611  .00004832  00000-0  17569-2 0  9996
2 61839  88.9355 316.3927 0022203 292.0610  67.8229 14.32978221 39989
CZ-6A DEB
1 61839U 24140ADF 25143.74753505  .00004010  00000-0  14561-2 0  9993
2 61839  88.9357 315.8325 0022086 275.5511  84.3167 14.33017082 40631
CZ-6A DEB
1 61839U 24140ADF 25143.74753505  .00004010  00000-0  14561-2 0  9993
2 61839  88.9357 315.8325 0022086 275.5511  84.3167 14.33017082 40631
CZ-6A DEB
1 61839U 24140ADF 25144.44581044  .00004021  00000-0  14600-2 0  9994
2 61839  88.9352 315.7462 0022075 273.0061  86.8610 14.33023110 40738
CZ-6A DEB
1 61839U 24140ADF 25147.72766701  .00004253  00000-0  15436-2 0  9998
2 61839  88.9351 315.3407 0022155 260.9065  98.9625 14.33051418 41205
CZ-6A DEB
1 61839U 24140ADF 25147.72766701  .00004253  00000-0  15436-2 0  9998
2 61839  88.9351 315.3407 0022155 260.9065  98.9625 14.33051418 41205
CZ-6A DEB
1 61839U 24140ADF 25149.19400658  .00005094  00000-0  18493-2 0  9997
2 61839  88.9358 315.1596 0022223 255.5822 104.2909 14.33067092 41410
CZ-6A DEB
1 61839U 24140ADF 25149.19400658  .00005094  00000-0  18493-2 0  9997
2 61839  88.9358 315.1596 0022223 255.5822 104.2909 14.33067092 41410
CZ-6A DEB
1 61839U 24140ADF 25150.17155713  .00005960  00000-0  21636-2 0  9991
2 61839  88.9360 315.0388 0022228 252.0247 107.8527 14.33079682 41557
CZ-6A DEB
1 61839U 24140ADF 25150.73015439  .00005217  00000-0  18933-2 0  9994
2 61839  88.9362 314.9699 0022273 249.9661 109.9138 14.33084123 41633
CZ-6A DEB
1 61839U 24140ADF 25150.73015439  .00005217  00000-0  18933-2 0  9994
2 61839  88.9362 314.9699 0022273 249.9661 109.9138 14.33084123 41633
CZ-6A DEB
1 61839U 24140ADF 25151.70769364  .00004781  00000-0  17344-2 0  9995
2 61839  88.9361 314.8493 0022326 246.4183 113.4670 14.33094107 41772
CZ-6A DEB
1 61839U 24140ADF 25151.70769364  .00004781  00000-0  17344-2 0  9995
2 61839  88.9361 314.8493 0022326 246.4183 113.4670 14.33094107 41772
CZ-6A DEB
1 61839U 24140ADF 25158.68987533  .00004333  00000-0  15687-2 0  9990
2 61839  88.9355 313.9878 0022960 221.5170 138.4284 14.33174894 42777
CZ-6A DEB
1 61839U 24140ADF 25158.68987533  .00004333  00000-0  15687-2 0  9990
2 61839  88.9355 313.9878 0022960 221.5170 138.4284 14.33174894 42777
CZ-6A DEB
1 61839U 24140ADF 25161.69211534  .00003646  00000-0  13182-2 0  9990
2 61839  88.9357 313.6168 0023291 211.0078 148.9746 14.33200586 43203
CZ-6A DEB
1 61839U 24140ADF 25161.69211534  .00003646  00000-0  13182-2 0  9990
2 61839  88.9357 313.6168 0023291 211.0078 148.9746 14.33200586 43203
CZ-6A DEB
1 61839U 24140ADF 25164.13576025  .00004714  00000-0  17050-2 0  9996
2 61839  88.9368 313.3152 0023582 202.5761 157.4401 14.33223303 43555
CZ-6A DEB
1 61839U 24140ADF 25164.13576025  .00004714  00000-0  17050-2 0  9996
2 61839  88.9368 313.3152 0023582 202.5761 157.4401 14.33223303 43555
CZ-6A DEB
1 61839U 24140ADF 25169.37198758  .00004532  00000-0  16366-2 0  9997
2 61839  88.9356 312.6687 0024325 185.4982 174.5953 14.33278218 44308
CZ-6A DEB
1 61839U 24140ADF 25169.37198758  .00004532  00000-0  16366-2 0  9997
2 61839  88.9356 312.6687 0024325 185.4982 174.5953 14.33278218 44308
CZ-6A DEB
1 61839U 24140ADF 25169.65124824  .00004399  00000-0  15885-2 0  9997
2 61839  88.9358 312.6349 0024427 184.5562 175.5417 14.33280309 44346
CZ-6A DEB
1 61839U 24140ADF 25171.11735974  .00004482  00000-0  16181-2 0  9998
2 61839  88.9362 312.4544 0024600 179.7172 180.4044 14.33293121 44552
CZ-6A DEB
1 61839U 24140ADF 25171.11735974  .00004482  00000-0  16181-2 0  9998
2 61839  88.9362 312.4544 0024600 179.7172 180.4044 14.33293121 44552
CZ-6A DEB
1 61839U 24140ADF 25171.67587521  .00004125  00000-0  14887-2 0  9997
2 61839  88.9362 312.3855 0024691 177.8911 182.2395 14.33296914 44637
CZ-6A DEB
1 61839U 24140ADF 25171.67587521  .00004125  00000-0  14887-2 0  9997
2 61839  88.9362 312.3855 0024691 177.8911 182.2395 14.33296914 44637
CZ-6A DEB
1 61839U 24140ADF 25176.35338105  .00003516  00000-0  12672-2 0  9992
2 61839  88.9372 311.8080 0025337 162.9407 197.2648 14.33329712 45300
CZ-6A DEB
1 61839U 24140ADF 25176.35338105  .00003516  00000-0  12672-2 0  9992
2 61839  88.9372 311.8080 0025337 162.9407 197.2648 14.33329712 45300
CZ-6A DEB
1 61839U 24140ADF 25177.33075697  .00003958  00000-0  14267-2 0  9997
2 61839  88.9378 311.6879 0025454 159.8747 200.3460 14.33337442 45444
CZ-6A DEB
1 61839U 24140ADF 25179.63455173  .00003509  00000-0  12638-2 0  9995
2 61839  88.9381 311.4039 0025707 152.5107 207.7457 14.33353680 45770
CZ-6A DEB
1 61839U 24140ADF 25179.63455173  .00003509  00000-0  12638-2 0  9995
2 61839  88.9381 311.4039 0025707 152.5107 207.7457 14.33353680 45770
CZ-6A DEB
1 61839U 24140ADF 25183.33452338  .00003981  00000-0  14333-2 0  9995
2 61839  88.9374 310.9480 0026052 141.1301 219.1776 14.33383972 46308
CZ-6A DEB
1 61839U 24140ADF 25183.61376338  .00004277  00000-0  15403-2 0  9999
2 61839  88.9374 310.9135 0026073 140.2236 220.0880 14.33386833 46345
CZ-6A DEB
1 61839U 24140ADF 25186.61556152  .00004400  00000-0  15837-2 0  9995
2 61839  88.9372 310.5433 0026326 130.8927 229.4557 14.33413123 46777
CZ-6A DEB
1 61839U 24140ADF 25186.61556152  .00004400  00000-0  15837-2 0  9995
2 61839  88.9372 310.5433 0026326 130.8927 229.4557 14.33413123 46777
CZ-6A DEB
1 61839U 24140ADF 25188.08153531  .00003846  00000-0  13834-2 0  9990
2 61839  88.9373 310.3623 0026375 126.4625 233.9009 14.33424928 46987
CZ-6A DEB
1 61839U 24140ADF 25188.08153531  .00003846  00000-0  13834-2 0  9990
2 61839  88.9373 310.3623 0026375 126.4625 233.9009 14.33424928 46987
CZ-6A DEB
1 61839U 24140ADF 25193.59628714  .00003523  00000-0  12658-2 0  9997
2 61839  88.9385 309.6828 0026616 109.7460 250.6612 14.33463894 47776
CZ-6A DEB
1 61839U 24140ADF 25193.59628714  .00003523  00000-0  12658-2 0  9997
2 61839  88.9385 309.6828 0026616 109.7460 250.6612 14.33463894 47776
CZ-6A DEB
1 61839U 24140ADF 25197.57519110  .00003603  00000-0  12940-2 0  9991
2 61839  88.9379 309.1933 0026628  97.8265 262.5957 14.33492575 48340
CZ-6A DEB
1 61839U 24140ADF 25200.57676334  .00003679  00000-0  13206-2 0  9997
2 61839  88.9365 308.8231 0026702  88.7799 271.6457 14.33516084 48771
CZ-6A DEB
1 61839U 24140ADF 25201.55400825  .00003583  00000-0  12858-2 0  9992
2 61839  88.9376 308.7030 0026500  85.8710 274.5515 14.33523572 48919
CZ-6A DEB
1 61839U 24140ADF 25206.71934672  .00004524  00000-0  16236-2 0  9997
2 61839  88.9385 308.0666 0026167  70.1514 290.2501 14.33572155 49658
CZ-6A DEB
1 61839U 24140ADF 25206.71934672  .00004524  00000-0  16236-2 0  9997
2 61839  88.9385 308.0666 0026167  70.1514 290.2501 14.33572155 49658
CZ-6A DEB
1 61839U 24140ADF 25207.55695153  .00004580  00000-0  16432-2 0  9998
2 61839  88.9382 307.9635 0026102  67.5364 292.8593 14.33580403 49778
CZ-6A DEB
1 61839U 24140ADF 25212.23349514  .00004715  00000-0  16908-2 0  9994
2 61839  88.9375 307.3881 0025637  53.0423 307.3117 14.33623182 50447
CZ-6A DEB
1 61839U 24140ADF 25212.23349514  .00004715  00000-0  16908-2 0  9994
2 61839  88.9375 307.3881 0025637  53.0423 307.3117 14.33623182 50447
CZ-6A DEB
1 61839U 24140ADF 25215.51396954  .00003786  00000-0  13561-2 0  9997
2 61839  88.9373 306.9834 0025268  42.7526 317.5631 14.33651578 50913
CZ-6A DEB
1 61839U 24140ADF 25215.51396954  .00003786  00000-0  13561-2 0  9997
2 61839  88.9373 306.9834 0025268  42.7526 317.5631 14.33651578 50913
CZ-6A DEB
1 61839U 24140ADF 25217.53806217  .00003640  00000-0  13033-2 0  9992
2 61839  88.9373 306.7334 0025020  36.3807 323.9085 14.33666506 51207
CZ-6A DEB
1 61839U 24140ADF 25217.53806217  .00003640  00000-0  13033-2 0  9992
2 61839  88.9373 306.7334 0025020  36.3807 323.9085 14.33666506 51207
CZ-6A DEB
1 61839U 24140ADF 25219.49233951  .00003377  00000-0  12088-2 0  9994
2 61839  88.9377 306.4929 0024727  30.0331 330.2279 14.33679482 51487
CZ-6A DEB
1 61839U 24140ADF 25219.49233951  .00003377  00000-0  12088-2 0  9994
2 61839  88.9377 306.4929 0024727  30.0331 330.2279 14.33679482 51487
CZ-6A DEB
1 61839U 24140ADF 25221.51639392  .00004716  00000-0  16891-2 0  9993
2 61839  88.9376 306.2437 0024473  23.5784 336.6529 14.33695920 51770
CZ-6A DEB
1 61839U 24140ADF 25221.51639392  .00004716  00000-0  16891-2 0  9993
2 61839  88.9376 306.2437 0024473  23.5784 336.6529 14.33695920 51770
CZ-6A DEB
1 61839U 24140ADF 25222.49351474  .00004421  00000-0  15831-2 0  9999
2 61839  88.9374 306.1234 0024304  20.2870 339.9287 14.33703321 51913
CZ-6A DEB
1 61839U 24140ADF 25225.49463608  .00003997  00000-0  14303-2 0  9995
2 61839  88.9364 305.7535 0023878  10.4048 349.7639 14.33727487 52341
CZ-6A DEB
1 61839U 24140ADF 25225.49463608  .00003997  00000-0  14303-2 0  9995
2 61839  88.9364 305.7535 0023878  10.4048 349.7639 14.33727487 52341
CZ-6A DEB
1 61839U 24140ADF 25229.47279992  .00002998  00000-0  10712-2 0  9998
2 61839  88.9360 305.2621 0023295 357.0057   3.0997 14.33752121 52914
CZ-6A DEB
1 61839U 24140ADF 25229.47279992  .00002998  00000-0  10712-2 0  9998
2 61839  88.9360 305.2621 0023295 357.0057   3.0997 14.33752121 52914
CZ-6A DEB
1 61839U 24140ADF 25237.91745898  .00003557  00000-0  12710-2 0  9991
2 61839  88.9349 304.2203 0022234 327.5536  32.4293 14.33802375 54129
CZ-6A DEB
1 61839U 24140ADF 25239.45281833  .00004065  00000-0  14529-2 0  9991
2 61839  88.9347 304.0312 0022110 321.9297  38.0337 14.33814900 54343
CZ-6A DEB
1 61839U 24140ADF 25240.42985774  .00004579  00000-0  16369-2 0  9999
2 61839  88.9349 303.9103 0022034 318.4367  41.5154 14.33824368 54485
CZ-6A DEB
1 61839U 24140ADF 25240.91837481  .00005084  00000-0  18177-2 0  9995
2 61839  88.9345 303.8497 0021982 316.6630  43.2839 14.33830345 54559
CZ-6A DEB
1 61839U 24140ADF 25246.43150453  .00009192  00000-0  32844-2 0  9996
2 61839  88.9345 303.1678 0021628 296.5720  63.3261 14.33905726 55342
CZ-6A DEB
1 61839U 24140ADF 25247.12934883  .00006628  00000-0  23672-2 0  9990
2 61839  88.9346 303.0816 0021611 293.9517  65.9418 14.33910687 55448
CZ-6A DEB
1 61839U 24140ADF 25251.87459315  .00003284  00000-0  11699-2 0  9990
2 61839  88.9346 302.4955 0021696 276.4457  83.4270 14.33954866 56121
CZ-6A DEB
1 61839U 24140ADF 25253.40979373  .00003344  00000-0  11909-2 0  9993
2 61839  88.9327 302.3050 0021603 270.7281  89.1441 14.33965201 56347
CZ-6A DEB
1 61839U 24140ADF 25254.38673452  .00002710  00000-0  96419-3 0  9996
2 61839  88.9320 302.1837 0021565 267.1416  92.7314 14.33970051 56481
CZ-6A DEB
1 61839U 24140ADF 25257.38731720  .00002706  00000-0  96240-3 0  9999
2 61839  88.9322 301.8115 0021673 256.0674 103.8113 14.33986188 56918
CZ-6A DEB
1 61839U 24140ADF 25262.55101609  .00003294  00000-0  11718-2 0  9990
2 61839  88.9315 301.1714 0022041 237.2595 122.6478 14.34023258 57657
CZ-6A DEB
1 61839U 24140ADF 25263.38836032  .00004051  00000-0  14419-2 0  9990
2 61839  88.9318 301.0686 0022151 234.2868 125.6269 14.34031282 57779
CZ-6A DEB
1 61839U 24140ADF 25267.36567524  .00007491  00000-0  26663-2 0  9994
2 61839  88.9298 300.5741 0022549 220.0573 139.8963 14.34081749 58344
CZ-6A DEB
1 61839U 24140ADF 25268.34253523  .00007450  00000-0  26508-2 0  9997
2 61839  88.9303 300.4534 0022745 216.8316 143.1320 14.34096624 58484
CZ-6A DEB
1 61839U 24140ADF 25271.34283327  .00007611  00000-0  27056-2 0  9994
2 61839  88.9300 300.0803 0023117 206.3881 153.6142 14.34139525 58915
CZ-6A DEB
1 61839U 24140ADF 25274.34301890  .00011445  00000-0  40628-2 0  9993
2 61839  88.9301 299.7075 0023515 196.0399 164.0057 14.34206903 59346
CZ-6A DEB
1 61839U 24140ADF 25274.34301891  .00011445  00000-0  40628-2 0  9994
2 61839  88.9301 299.7075 0023515 196.0400 164.0057 14.34206903 59349
CZ-6A DEB
1 61839U 24140ADF 25275.31978875  .00010420  00000-0  36970-2 0  9991
2 61839  88.9300 299.5863 0023697 193.3010 166.7567 14.34231524 59486
CZ-6A DEB
1 61839U 24140ADF 25275.31978876  .00010420  00000-0  36970-2 0  9992
2 61839  88.9300 299.5863 0023697 193.3010 166.7567 14.34231524 59486
CZ-6A DEB
1 61839U 24140ADF 25278.04072928  .00007085  00000-0  25108-2 0  9992
2 61839  88.9305 299.2493 0024037 183.0471 177.0584 14.34275375 59872
CZ-6A DEB
1 61839U 24140ADF 25278.04072929  .00007085  00000-0  25108-2 0  9993
2 61839  88.9305 299.2493 0024037 183.0472 177.0584 14.34275375 59873
CZ-6A DEB
1 61839U 24140ADF 25282.01737075  .00006030  00000-0  21341-2 0  9999
2 61839  88.9322 298.7576 0024428 171.1338 189.0297 14.34321700 60444
CZ-6A DEB
1 61839U 24140ADF 25282.01737076  .00006030  00000-0  21341-2 0  9990
2 61839  88.9322 298.7576 0024428 171.1338 189.0297 14.34321700 60444
CZ-6A DEB
1 61839U 24140ADF 25286.48221820  .00006851  00000-0  24225-2 0  9995
2 61839  88.9291 298.1977 0024827 157.0973 203.1339 14.34376480 61080
CZ-6A DEB
1 61839U 24140ADF 25288.29601251  .00005566  00000-0  19666-2 0  9991
2 61839  88.9276 297.9696 0025025 151.5821 208.6748 14.34396281 61344
CZ-6A DEB
1 61839U 24140ADF 25291.29568769  .00007331  00000-0  25885-2 0  9993
2 61839  88.9250 297.5960 0025747 140.7880 219.5190 14.34436020 61777
CZ-6A DEB
1 61839U 24140ADF 25295.27183288  .00007066  00000-0  24912-2 0  9999
2 61839  88.9252 297.1001 0025938 128.4799 231.8732 14.34507440 62343
CZ-6A DEB
1 61839U 24140ADF 25295.27183289  .00007066  00000-0  24912-2 0  9990
2 61839  88.9252 297.1001 0025938 128.4799 231.8732 14.34507440 62343
CZ-6A DEB
1 61839U 24140ADF 25296.45766434  .00007448  00000-0  26249-2 0  9999
2 61839  88.9284 296.9557 0025839 125.5333 234.8280 14.34528273 62510
CZ-6A DEB
1 61839U 24140ADF 25296.45766435  .00007448  00000-0  26249-2 0  9990
2 61839  88.9284 296.9557 0025839 125.5333 234.8280 14.34528273 62510
CZ-6A DEB
1 61839U 24140ADF 25297.43422274  .00007642  00000-0  26926-2 0  9997
2 61839  88.9285 296.8332 0026012 121.9740 238.3992 14.34541644 62658
CZ-6A DEB
1 61839U 24140ADF 25297.43422275  .00007642  00000-0  26926-2 0  9998
2 61839  88.9285 296.8332 0026012 121.9740 238.3992 14.34541645 62659
CZ-6A DEB
1 61839U 24140ADF 25298.27126473  .00007475  00000-0  26327-2 0  9991
2 61839  88.9259 296.7285 0026390 119.4364 240.9472 14.34553038 62773
CZ-6A DEB
1 61839U 24140ADF 25298.27126474  .00007475  00000-0  26327-2 0  9992
2 61839  88.9259 296.7285 0026390 119.4364 240.9473 14.34553038 62774
CZ-6A DEB
1 61839U 24140ADF 25301.27060782  .00007238  00000-0  25468-2 0  9998
2 61839  88.9278 296.3543 0026823 110.6143 249.7936 14.34593289 63209
CZ-6A DEB
1 61839U 24140ADF 25302.24711737  .00008010  00000-0  28175-2 0  9996
2 61839  88.9286 296.2329 0026886 107.6488 252.7650 14.34609062 63345
CZ-6A DEB
1 61839U 24140ADF 25302.24711738  .00008010  00000-0  28175-2 0  9997
2 61839  88.9286 296.2329 0026886 107.6488 252.7650 14.34609062 63345
CZ-6A DEB
1 61839U 24140ADF 25307.40849713  .00006073  00000-0  21321-2 0  9998
2 61839  88.9244 295.5872 0027152  92.1296 268.3012 14.34684924 64083
CZ-6A DEB
1 61839U 24140ADF 25309.22189154  .00006549  00000-0  22985-2 0  9991
2 61839  88.9241 295.3601 0027145  86.5280 273.9023 14.34710854 64345
CZ-6A DEB
1 61839U 24140ADF 25314.38286509  .00009357  00000-0  32781-2 0  9991
2 61839  88.9313 294.7213 0027223  71.2289 289.1859 14.34810436 65089
CZ-6A DEB
1 61839U 24140ADF 25317.38160998  .00019467  00000-0  68026-2 0  9991
2 61839  88.9274 294.3462 0026983  62.5225 297.8712 14.34912536 65518
CZ-6A DEB
1 61839U 24140ADF 25317.38160998  .00019467  00000-0  68026-2 0  9991
2 61839  88.9274 294.3462 0026983  62.5225 297.8712 14.34912536 65518
CZ-6A DEB
1 61839U 24140ADF 25320.65907532  .00011149  00000-0  38930-2 0  9998
2 61839  88.9244 293.9358 0026470  52.7546 307.6061 14.34990598 65984
CZ-6A DEB
1 61839U 24140ADF 25320.65907533  .00011149  00000-0  38930-2 0  9999
2 61839  88.9244 293.9358 0026470  52.7547 307.6061 14.34990599 65986
CZ-6A DEB
1 61839U 24140ADF 25329.16589697  .00009331  00000-0  32498-2 0  9994
2 61839  88.9299 292.8764 0025613  26.7317 333.5195 14.35134315 67209
CZ-6A DEB
1 61839U 24140ADF 25329.16589697  .00009331  00000-0  32498-2 0  9994
2 61839  88.9299 292.8764 0025613  26.7317 333.5195 14.35134315 67209
CZ-6A DEB
1 61839U 24140ADF 25334.32537257  .00008837  00000-0  30732-2 0  9992
2 61839  88.9282 292.2337 0024902  10.5659 349.6057 14.35217250 67947
CZ-6A DEB
1 61839U 24140ADF 25334.32537257  .00008837  00000-0  30732-2 0  9992
2 61839  88.9282 292.2337 0024902  10.5659 349.6057 14.35217250 67947
CZ-6A DEB
1 61839U 24140ADF 25336.62611762  .00010132  00000-0  35210-2 0  9998
2 61839  88.9302 291.9485 0024466   3.0769 357.0575 14.35260196 68276
CZ-6A DEB
1 61839U 24140ADF 25336.62611762  .00010132  00000-0  35210-2 0  9998
2 61839  88.9302 291.9485 0024466   3.0769 357.0576 14.35260196 68277
CZ-6A DEB
1 61839U 24140ADF 25337.32329880  .00010866  00000-0  37750-2 0  9998
2 61839  88.9301 291.8616 0024371   0.8313 359.2922 14.35275827 68373
CZ-6A DEB
1 61839U 24140ADF 25337.32329880  .00010866  00000-0  37750-2 0  9998
2 61839  88.9301 291.8616 0024371   0.8313 359.2922 14.35275827 68373
CZ-6A DEB
1 61839U 24140ADF 25339.13592413  .00016059  00000-0  55715-2 0  9994
2 61839  88.9303 291.6349 0024114 355.3624   4.7347 14.35333642 68636
CZ-6A DEB
1 61839U 24140ADF 25339.13592414  .00016059  00000-0  55715-2 0  9995
2 61839  88.9303 291.6349 0024114 355.3624   4.7347 14.35333642 68636
CZ-6A DEB
1 61839U 24140ADF 25340.59991855  .00013248  00000-0  45941-2 0  9996
2 61839  88.9316 291.4523 0023894 351.0044   9.0723 14.35371015 68840
CZ-6A DEB
1 61839U 24140ADF 25341.29704564  .00012339  00000-0  42777-2 0  9997
2 61839  88.9311 291.3658 0023709 348.6515  11.4146 14.35387553 68944
CZ-6A DEB
1 61839U 24140ADF 25347.29202096  .00013027  00000-0  45048-2 0  9995
2 61839  88.9293 290.6205 0022552 328.6478  31.3374 14.35530128 69802
CZ-6A DEB
1 61839U 24140ADF 25349.10434987  .00004614  00000-0  15938-2 0  9990
2 61839  88.9297 290.3943 0022231 321.4260  38.5349 14.35548115 70062
CZ-6A DEB
1 61839U 24140ADF 25350.28932184  .00005314  00000-0  18355-2 0  9997
2 61839  88.9316 290.2467 0022127 317.5157  42.4329 14.35561915 70233
CZ-6A DEB
1 61839U 24140ADF 25351.26517343  .00005564  00000-0  19218-2 0  9998
2 61839  88.9296 290.1249 0021903 314.0831  45.8564 14.35572366 70374
CZ-6A DEB
1 61839U 24140ADF 25356.07463113  .00006697  00000-0  23119-2 0  9990
2 61839  88.9322 289.5271 0021433 296.5611  63.3390 14.35622199 71068
CZ-6A DEB
1 61839U 24140ADF 25356.07463114  .00006697  00000-0  23119-2 0  9991
2 61839  88.9322 289.5271 0021433 296.5611  63.3390 14.35622199 71068
CZ-6A DEB
1 61839U 24140ADF 25357.25954194  .00006770  00000-0  23363-2 0  9998
2 61839  88.9317 289.3799 0021227 292.3324  67.5625 14.35638638 71232
CZ-6A DEB
1 61839U 24140ADF 25357.25954195  .00006770  00000-0  23363-2 0  9999
2 61839  88.9317 289.3799 0021227 292.3324  67.5625 14.35638638 71232
CZ-6A DEB
1 61839U 24140ADF 25359.07173130  .00007038  00000-0  24279-2 0  9998
2 61839  88.9310 289.1544 0021099 285.5595  74.3275 14.35665318 71492
CZ-6A DEB
1 61839U 24140ADF 25359.07173130  .00007038  00000-0  24279-2 0  9998
2 61839  88.9310 289.1544 0021099 285.5595  74.3275 14.35665318 71492
CZ-6A DEB
1 61839U 24140ADF 25364.22929518  .00011112  00000-0  38265-2 0  9998
2 61839  88.9312 288.5132 0020793 266.1728  93.7093 14.35763247 72239
CZ-6A DEB
1 61839U 24140ADF 26001.52916384  .00012579  00000-0  43267-2 0  9993
2 61839  88.9323 288.2270 0020704 257.3596 102.5288 14.35818952 72563
CZ-6A DEB
1 61839U 24140ADF 26001.52916385  .00012579  00000-0  43267-2 0  9994
2 61839  88.9323 288.2270 0020704 257.3596 102.5288 14.35818952 72563
CZ-6A DEB
1 61839U 24140ADF 26007.03460710  .00006092  00000-0  20908-2 0  9992
2 61839  88.9321 287.5430 0020855 236.5531 123.3675 14.35913190 73355
CZ-6A DEB
1 61839U 24140ADF 26007.03460710  .00006092  00000-0  20908-2 0  9992
2 61839  88.9321 287.5430 0020855 236.5531 123.3675 14.35913190 73355
CZ-6A DEB
1 61839U 24140ADF 26008.21928189  .00006369  00000-0  21854-2 0  9990
2 61839  88.9312 287.3951 0020933 232.1343 127.7962 14.35928556 73529
CZ-6A DEB
1 61839U 24140ADF 26008.21928189  .00006369  00000-0  21854-2 0  9990
2 61839  88.9312 287.3951 0020933 232.1344 127.7962 14.35928556 73520
CZ-6A DEB
1 61839U 24140ADF 26010.03111682  .00005106  00000-0  17506-2 0  9992
2 61839  88.9289 287.1692 0020988 225.2859 134.6631 14.35947528 73785
CZ-6A DEB
1 61839U 24140ADF 26011.49450457  .00005313  00000-0  18211-2 0  9993
2 61839  88.9313 286.9872 0021106 219.9612 140.0035 14.35962700 73991
CZ-6A DEB
1 61839U 24140ADF 26013.72440127  .00002879  00000-0  98434-3 0  9994
2 61839  88.9312 286.7098 0021370 211.8784 148.1123 14.35980274 74312
CZ-6A DEB
1 61839U 24140ADF 26013.72440128  .00002879  00000-0  98434-3 0  9995
2 61839  88.9312 286.7098 0021370 211.8784 148.1123 14.35980275 74313
CZ-6A DEB
1 61839U 24140ADF 26015.18776009  .00002939  00000-0  10047-2 0  9997
2 61839  88.9315 286.5276 0021490 206.6392 153.3705 14.35988647 74520
CZ-6A DEB
1 61839U 24140ADF 26015.18776010  .00002939  00000-0  10047-2 0  9999
2 61839  88.9315 286.5276 0021490 206.6392 153.3705 14.35988647 74520
CZ-6A DEB
1 61839U 24140ADF 26019.50808934  .00005255  00000-0  17984-2 0  9991
2 61839  88.9313 285.9900 0022009 191.4268 168.6434 14.36026760 75142
CZ-6A DEB
1 61839U 24140ADF 26022.15590274  .00011302  00000-0  38633-2 0  9995
2 61839  88.9305 285.6609 0022530 182.6704 177.4378 14.36108848 75527
CZ-6A DEB
1 61839U 24140ADF 26023.47977106  .00007764  00000-0  26530-2 0  9994
2 61839  88.9302 285.4942 0022063 175.7889 184.3500 14.36130550 75710
CZ-6A DEB
1 61839U 24140ADF 26026.96353608  .00008097  00000-0  27630-2 0  9998
2 61839  88.9318 285.0604 0022917 165.5885 194.5973 14.36186193 76216
CZ-6A DEB
1 61839U 24140ADF 26031.14388775  .00004774  00000-0  16256-2 0  9997
2 61839  88.9323 284.5407 0023529 151.7139 208.5343 14.36242928 76818
CZ-6A DEB
1 61839U 24140ADF 26031.14388776  .00004774  00000-0  16256-2 0  9998
2 61839  88.9323 284.5407 0023529 151.7139 208.5343 14.36242928 76818
CZ-6A DEB
1 61839U 24140ADF 26032.11928110  .00004179  00000-0  14221-2 0  9997
2 61839  88.9312 284.4192 0023751 148.5367 211.7258 14.36252014 76953
CZ-6A DEB
1 61839U 24140ADF 26032.95532735  .00004122  00000-0  14025-2 0  9993
2 61839  88.9300 284.3154 0023906 146.1006 214.1727 14.36259481 77070
CZ-6A DEB
1 61839U 24140ADF 26043.40545447  .00004957  00000-0  16828-2 0  9998
2 61839  88.9283 283.0108 0025074 113.1346 247.2499 14.36370031 78578
CZ-6A DEB
1 61839U 24140ADF 26043.40545447  .00004957  00000-0  16828-2 0  9998
2 61839  88.9283 283.0108 0025074 113.1346 247.2499 14.36370031 78578
CZ-6A DEB
1 61839U 24140ADF 26047.09765934  .00004540  00000-0  15400-2 0  9995
2 61839  88.9286 282.5516 0025006 102.3134 258.0867 14.36399808 79100
CZ-6A DEB
1 61839U 24140ADF 26047.09765935  .00004540  00000-0  15400-2 0  9996
2 61839  88.9286 282.5516 0025006 102.3134 258.0867 14.36399808 79100
CZ-6A DEB
1 61839U 24140ADF 26048.07294546  .00004930  00000-0  16725-2 0  9994
2 61839  88.9274 282.4291 0025162  99.5231 260.8814 14.36409130 79242
CZ-6A DEB
1 61839U 24140ADF 26048.07294546  .00004930  00000-0  16725-2 0  9994
2 61839  88.9274 282.4291 0025162  99.5231 260.8814 14.36409130 79242
CZ-6A DEB
1 61839U 24140ADF 26048.90890085  .00003956  00000-0  13411-2 0  9992
2 61839  88.9261 282.3250 0025362  96.8097 263.5989 14.36414105 79368
CZ-6A DEB
1 61839U 24140ADF 26048.90890085  .00003956  00000-0  13411-2 0  9992
2 61839  88.9261 282.3250 0025362  96.8097 263.5989 14.36414105 79368
CZ-6A DEB
1 61839U 24140ADF 26050.09316352  .00003650  00000-0  12365-2 0  9993
2 61839  88.9258 282.1767 0025409  93.0705 267.3402 14.36423284 79531
CZ-6A DEB
1 61839U 24140ADF 26050.09316353  .00003650  00000-0  12365-2 0  9994
2 61839  88.9258 282.1768 0025409  93.0705 267.3402 14.36423284 79532
CZ-6A DEB
1 61839U 24140ADF 26052.39200608  .00003838  00000-0  13001-2 0  9990
2 61839  88.9256 281.8889 0025545  86.1322 274.2798 14.36440223 79862
CZ-6A DEB
1 61839U 24140ADF 26052.60099050  .00003536  00000-0  11974-2 0  9993
2 61839  88.9254 281.8627 0025554  85.5662 274.8456 14.36441023 79899
CZ-6A DEB
1 61839U 24140ADF 26052.60099050  .00003536  00000-0  11974-2 0  9993
2 61839  88.9254 281.8627 0025554  85.5662 274.8456 14.36441023 79899
CZ-6A DEB
1 61839U 24140ADF 26056.36266042  .00003837  00000-0  12989-2 0  9998
2 61839  88.9255 281.3913 0025619  74.2160 286.1862 14.36473709 80438
CZ-6A DEB
1 61839U 24140ADF 26056.36266043  .00003837  00000-0  12989-2 0  9999
2 61839  88.9255 281.3913 0025619  74.2160 286.1862 14.36473709 80438
CZ-6A DEB
1 61839U 24140ADF 26058.87039148  .00004436  00000-0  15017-2 0  9992
2 61839  88.9254 281.0778 0025462  66.6954 293.6921 14.36496411 80798
CZ-6A DEB
1 61839U 24140ADF 26058.87039149  .00004436  00000-0  15017-2 0  9993
2 61839  88.9254 281.0778 0025462  66.6954 293.6921 14.36496411 80798
CZ-6A DEB
1 61839U 24140ADF 26061.02979449  .00004638  00000-0  15698-2 0  9999
2 61839  88.9247 280.8076 0025373  60.1284 300.2431 14.36516387 81106
CZ-6A DEB
1 61839U 24140ADF 26061.02979449  .00004638  00000-0  15698-2 0  9999
2 61839  88.9247 280.8076 0025373  60.1284 300.2431 14.36516387 81106
CZ-6A DEB
1 61839U 24140ADF 26065.34849614  .00005356  00000-0  18116-2 0  9994
2 61839  88.9246 280.2672 0025155  46.7525 313.5768 14.36564081 81729
CZ-6A DEB
1 61839U 24140ADF 26066.32366639  .00005924  00000-0  20037-2 0  9990
2 61839  88.9247 280.1447 0025063  43.6616 316.6560 14.36576036 81866
CZ-6A DEB
1 61839U 24140ADF 26066.32366639  .00005924  00000-0  20037-2 0  9990
2 61839  88.9247 280.1447 0025063  43.6616 316.6560 14.36576036 81866
CZ-6A DEB
1 61839U 24140ADF 26071.54766410  .00004843  00000-0  16360-2 0  9994
2 61839  88.9260 279.4901 0024491  27.0675 333.1795 14.36631340 82610
CZ-6A DEB
1 61839U 24140ADF 26071.54766410  .00004843  00000-0  16360-2 0  9994
2 61839  88.9260 279.4901 0024491  27.0675 333.1795 14.36631340 82610
CZ-6A DEB
1 61839U 24140ADF 26077.32867010  .00003540  00000-0  11937-2 0  9992
2 61839  88.9235 278.7656 0023704   8.7347 351.4260 14.36681375 83444
CZ-6A DEB
1 61839U 24140ADF 26077.32867010  .00003540  00000-0  11937-2 0  9992
2 61839  88.9235 278.7656 0023704   8.7347 351.4260 14.36681375 83444
CZ-6A DEB
1 61839U 24140ADF 26077.81621659  .00003707  00000-0  12501-2 0  9996
2 61839  88.9236 278.7045 0023632   6.9416 353.2106 14.36684708 83514
CZ-6A DEB
1 61839U 24140ADF 26077.81621659  .00003707  00000-0  12501-2 0  9996
2 61839  88.9236 278.7045 0023632   6.9416 353.2106 14.36684708 83514
CZ-6A DEB
1 61839U 24140ADF 26078.30376227  .00003533  00000-0  11912-2 0  9991
2 61839  88.9234 278.6433 0023567   5.4015 354.7434 14.36687666 83581
CZ-6A DEB
1 61839U 24140ADF 26080.81111985  .00005452  00000-0  18398-2 0  9995
2 61839  88.9236 278.3284 0023234 357.0391   3.0667 14.36710273 83941
CZ-6A DEB
1 61839U 24140ADF 26081.50759996  .00005344  00000-0  18033-2 0  9998
2 61839  88.9235 278.2411 0023133 354.8022   5.2933 14.36717333 84041
CZ-6A DEB
1 61839U 24140ADF 26085.26852638  .00004322  00000-0  14566-2 0  9994
2 61839  88.9240 277.7688 0022609 341.9535  18.0860 14.36755633 84585
CZ-6A DEB
1 61839U 24140ADF 26085.26852638  .00004322  00000-0  14566-2 0  9994
2 61839  88.9240 277.7688 0022609 341.9535  18.0860 14.36755633 84585
CZ-6A DEB
1 61839U 24140ADF 26087.49718019  .00005174  00000-0  17439-2 0  9993
2 61839  88.9233 277.4894 0022325 334.2710  25.7377 14.36778982 84904
CZ-6A DEB
1 61839U 24140ADF 26087.49718019  .00005174  00000-0  17439-2 0  9993
2 61839  88.9233 277.4894 0022325 334.2710  25.7377 14.36778982 84904
CZ-6A DEB
1 61839U 24140ADF 26090.77043934  .00006730  00000-0  22678-2 0  9995
2 61839  88.9220 277.0778 0021928 322.9287  37.0397 14.36823103 85374
CZ-6A DEB
1 61839U 24140ADF 26090.77043935  .00006730  00000-0  22678-2 0  9996
2 61839  88.9220 277.0778 0021928 322.9287  37.0397 14.36823103 85374
CZ-6A DEB
1 61839U 24140ADF 26095.78458479  .00006495  00000-0  21852-2 0  9996
2 61839  88.9236 276.4485 0021462 304.9826  54.9358 14.36899807 86090
CZ-6A DEB
1 61839U 24140ADF 26095.78458479  .00006495  00000-0  21852-2 0  9996
2 61839  88.9236 276.4485 0021462 304.9826  54.9358 14.36899807 86090
CZ-6A DEB
1 61839U 24140ADF 26096.75952792  .00006273  00000-0  21099-2 0  9998
2 61839  88.9243 276.3261 0021380 301.4203  58.4906 14.36911856 86232
CZ-6A DEB
1 61839U 24140ADF 26100.45032797  .00005058  00000-0  16994-2 0  9993
2 61839  88.9238 275.8628 0021326 287.6570  72.2300 14.36946160 86765
CZ-6A DEB
1 61839U 24140ADF 26100.45032798  .00005058  00000-0  16994-2 0  9994
2 61839  88.9238 275.8628 0021326 287.6570  72.2301 14.36946160 86766
CZ-6A DEB
1 61839U 24140ADF 26101.21633310  .00003996  00000-0  13418-2 0  9993
2 61839  88.9233 275.7662 0021360 284.7958  75.0875 14.36950545 86875
CZ-6A DEB
1 61839U 24140ADF 26101.21633311  .00003996  00000-0  13418-2 0  9994
2 61839  88.9233 275.7662 0021360 284.7958  75.0875 14.36950545 86875
CZ-6A DEB
1 61839U 24140ADF 26104.41959698  .00002919  00000-0  97858-3 0  9993
2 61839  88.9233 275.3646 0021361 272.9285  86.9470 14.36971289 87338
CZ-6A DEB
1 61839U 24140ADF 26104.41959698  .00002919  00000-0  97858-3 0  9993
2 61839  88.9233 275.3646 0021361 272.9285  86.9470 14.36971289 87338
CZ-6A DEB
1 61839U 24140ADF 26106.23012007  .00003001  00000-0  10059-2 0  9999
2 61839  88.9234 275.1373 0021391 266.1991  93.6762 14.36981595 87594
CZ-6A DEB
1 61839U 24140ADF 26106.23012007  .00003001  00000-0  10059-2 0  9999
2 61839  88.9234 275.1373 0021391 266.1991  93.6762 14.36981596 87595
CZ-6A DEB
1 61839U 24140ADF 26109.71185705  .00004431  00000-0  14863-2 0  9996
2 61839  88.9243 274.6997 0021505 253.3314 106.5524 14.37007022 88095
CZ-6A DEB
1 61839U 24140ADF 26109.71185705  .00004431  00000-0  14863-2 0  9996
2 61839  88.9243 274.6997 0021505 253.3314 106.5524 14.37007022 88095
CZ-6A DEB
1 61839U 24140ADF 26110.40819743  .00003683  00000-0  12345-2 0  9991
2 61839  88.9246 274.6122 0021572 250.7193 109.1673 14.37010509 88197
CZ-6A DEB
1 61839U 24140ADF 26110.40819744  .00003683  00000-0  12345-2 0  9992
2 61839  88.9246 274.6122 0021572 250.7193 109.1673 14.37010509 88197
CZ-6A DEB
1 61839U 24140ADF 26112.70609833  .00003806  00000-0  12756-2 0  9996
2 61839  88.9249 274.3241 0021729 242.3282 117.5712 14.37030409 88524
CZ-6A DEB
1 61839U 24140ADF 26112.70609834  .00003806  00000-0  12756-2 0  9997
2 61839  88.9249 274.3241 0021729 242.3282 117.5712 14.37030409 88524
CZ-6A DEB
1 61839U 24140ADF 26112.70609834  .00003806  00000-0  12756-2 0  9997
2 61839  88.9249 274.3241 0021729 242.3282 117.5712 14.37030409 88524
CZ-6A DEB
1 61839U 24140ADF 26115.70028411  .00005415  00000-0  18151-2 0  9999
2 61839  88.9249 273.9484 0021871 231.3449 128.5794 14.37061707 88953
CZ-6A DEB
1 61839U 24140ADF 26115.70028412  .00005415  00000-0  18151-2 0  9990
2 61839  88.9249 273.9484 0021871 231.3449 128.5794 14.37061707 88953
CZ-6A DEB
1 61839U 24140ADF 26116.67511965  .00006850  00000-0  22963-2 0  9997
2 61839  88.9247 273.8269 0022036 228.0791 131.8530 14.37076666 89099
CZ-6A DEB
1 61839U 24140ADF 26116.67511966  .00006850  00000-0  22963-2 0  9998
2 61839  88.9247 273.8269 0022036 228.0791 131.8531 14.37076666 89090
CZ-6A DEB
1 61839U 24140ADF 26118.13735755  .00006147  00000-0  20594-2 0  9992
2 61839  88.9248 273.6435 0022197 222.9144 137.0325 14.37093745 89307
CZ-6A DEB
1 61839U 24140ADF 26118.13735755  .00006147  00000-0  20594-2 0  9992
2 61839  88.9248 273.6435 0022197 222.9144 137.0325 14.37093744 89306
CZ-6A DEB
1 61839U 24140ADF 26121.68842992  .00006939  00000-0  23230-2 0  9997
2 61839  88.9252 273.1977 0022636 210.6821 149.3057 14.37140025 89810
CZ-6A DEB
1 61839U 24140ADF 26121.68842993  .00006939  00000-0  23230-2 0  9998
2 61839  88.9252 273.1977 0022636 210.6821 149.3057 14.37140025 89810
CZ-6A DEB
1 61839U 24140ADF 26123.15060264  .00006714  00000-0  22464-2 0  9994
2 61839  88.9259 273.0143 0022834 205.6862 154.3205 14.37159762 90024
CZ-6A DEB
1 61839U 24140ADF 26123.15060265  .00006714  00000-0  22464-2 0  9995
2 61839  88.9259 273.0143 0022834 205.6863 154.3205 14.37159762 90025
CZ-6A DEB
1 61839U 24140ADF 26125.65713955  .00006484  00000-0  21678-2 0  9993
2 61839  88.9267 272.7004 0023165 197.2169 162.8248 14.37192065 90382
CZ-6A DEB
1 61839U 24140ADF 26125.65713955  .00006484  00000-0  21678-2 0  9993
2 61839  88.9267 272.7004 0023165 197.2169 162.8248 14.37192065 90382
CZ-6A DEB
1 61839U 24140ADF 26129.13836066  .00004701  00000-0  15692-2 0  9998
2 61839  88.9244 272.2625 0023939 186.2727 173.8176 14.37225146 90882
CZ-6A DEB
1 61839U 24140ADF 26129.13836066  .00004701  00000-0  15692-2 0  9998
2 61839  88.9244 272.2625 0023939 186.2727 173.8176 14.37225146 90882
CZ-6A DEB
1 61839U 24140ADF 26130.67007703  .00003907  00000-0  13032-2 0  9990
2 61839  88.9266 272.0729 0023825 180.3923 179.7262 14.37236470 91105
CZ-6A DEB
1 61839U 24140ADF 26130.67007703  .00003907  00000-0  13032-2 0  9990
2 61839  88.9266 272.0729 0023825 180.3923 179.7262 14.37236470 91105
CZ-6A DEB
1 61839U 24140ADF 26131.15743843  .00003636  00000-0  12123-2 0  9995
2 61839  88.9262 272.0118 0023919 178.9703 181.1551 14.37239384 91178
CZ-6A DEB
1 61839U 24140ADF 26131.15743843  .00003636  00000-0  12123-2 0  9995
2 61839  88.9262 272.0118 0023919 178.9703 181.1551 14.37239384 91178
CZ-6A DEB
1 61839U 24140ADF 26131.64479858  .00003658  00000-0  12197-2 0  9996
2 61839  88.9260 271.9508 0023990 177.3971 182.7358 14.37243019 91246
CZ-6A DEB
1 61839U 24140ADF 26131.64479858  .00003658  00000-0  12197-2 0  9996
2 61839  88.9260 271.9508 0023990 177.3971 182.7358 14.37243019 91246
CZ-6A DEB
1 61839U 24140ADF 26132.34102561  .00003605  00000-0  12016-2 0  9990
2 61839  88.9259 271.8637 0024088 175.1730 184.9706 14.37247760 91343
CZ-6A DEB
1 61839U 24140ADF 26132.34102562  .00003605  00000-0  12016-2 0  9991
2 61839  88.9259 271.8637 0024088 175.1731 184.9706 14.37247760 91344
CZ-6A DEB
1 61839U 24140ADF 26135.33477846  .00003347  00000-0  11148-2 0  9991
2 61839  88.9267 271.4886 0024469 165.5306 194.6600 14.37266048 91777
CZ-6A DEB
1 61839U 24140ADF 26136.65758556  .00004242  00000-0  14137-2 0  9993
2 61839  88.9272 271.3229 0024636 161.2741 198.9371 14.37277280 91968
CZ-6A DEB
1 61839U 24140ADF 26136.65758556  .00004242  00000-0  14137-2 0  9993
2 61839  88.9272 271.3228 0024636 161.2740 198.9371 14.37277280 91966
CZ-6A DEB
1 61839U 24140ADF 26139.09431132  .00003697  00000-0  12311-2 0  9997
2 61839  88.9280 271.0179 0024932 153.6568 206.5905 14.37294528 92312
CZ-6A DEB
1 61839U 24140ADF 26139.09431133  .00003697  00000-0  12311-2 0  9998
2 61839  88.9280 271.0179 0024932 153.6568 206.5906 14.37294528 92313
CZ-6A DEB
1 61839U 24140ADF 26140.62595152  .00003727  00000-0  12408-2 0  9992
2 61839  88.9281 270.8264 0025100 148.8479 211.4215 14.37305878 92534
CZ-6A DEB
1 61839U 24140ADF 26142.08795911  .00004115  00000-0  13699-2 0  9994
2 61839  88.9279 270.6436 0025253 144.2609 216.0287 14.37318592 92744
CZ-6A DEB
1 61839U 24140ADF 26142.78414815  .00004287  00000-0  14271-2 0  9999
2 61839  88.9274 270.5561 0025305 142.1387 218.1598 14.37325199 92845
CZ-6A DEB
1 61839U 24140ADF 26144.31575382  .00004545  00000-0  15129-2 0  9997
2 61839  88.9273 270.3647 0025429 137.3933 222.9246 14.37339367 93067
CZ-6A DEB
1 61839U 24140ADF 26147.30929356  .00007229  00000-0  24061-2 0  9990
2 61839  88.9276 269.9901 0025621 128.1388 232.2127 14.37378298 93498
CZ-6A DEB
1 61839U 24140ADF 26147.30929357  .00007229  00000-0  24061-2 0  9991
2 61839  88.9276 269.9901 0025621 128.1388 232.2127 14.37378298 93498
CZ-6A DEB
1 61839U 24140ADF 26147.30929357  .00007229  00000-0  24061-2 0  9991
2 61839  88.9276 269.9901 0025621 128.1388 232.2127 14.37378298 93498
CZ-6A DEB
1 61839U 24140ADF 26150.09390304  .00008313  00000-0  27648-2 0  9994
2 61839  88.9285 269.6416 0025735 119.5949 240.7820 14.37420546 93891
CZ-6A DEB
1 61839U 24140ADF 26150.30274529  .00008279  00000-0  27534-2 0  9993
2 61839  88.9287 269.6153 0025748 118.9437 241.4349 14.37423733 93929
CZ-6A DEB
1 61839U 24140ADF 26150.58120104  .00007534  00000-0  25052-2 0  9998
2 61839  88.9286 269.5807 0025753 118.1642 242.2164 14.37426481 93960
CZ-6A DEB
1 61839U 24140ADF 26150.58120105  .00007534  00000-0  25052-2 0  9999
2 61839  88.9286 269.5807 0025753 118.1642 242.2164 14.37426481 93960
CZ-6A DEB
1 61839U 24140ADF 26152.04307884  .00006740  00000-0  22401-2 0  9996
2 61839  88.9292 269.3979 0025750 113.6756 246.7151 14.37447758 94177
CZ-6A DEB
1 61839U 24140ADF 26152.04307885  .00006740  00000-0  22401-2 0  9997
2 61839  88.9292 269.3979 0025750 113.6756 246.7151 14.37447758 94177
CZ-6A DEB
1 61839U 24140ADF 26152.59997941  .00006150  00000-0  20434-2 0  9994
2 61839  88.9295 269.3282 0025770 111.9186 248.4758 14.37454837 94254
CZ-6A DEB
1 61839U 24140ADF 26152.59997941  .00006150  00000-0  20434-2 0  9994
2 61839  88.9295 269.3282 0025770 111.9186 248.4758 14.37454837 94254
CZ-6A DEB
1 61839U 24140ADF 26153.57454822  .00006005  00000-0  19946-2 0  9994
2 61839  88.9295 269.2065 0025761 109.0334 251.3660 14.37467396 94399
CZ-6A DEB
1 61839U 24140ADF 26153.57454822  .00006005  00000-0  19946-2 0  9994
2 61839  88.9295 269.2065 0025761 109.0334 251.3660 14.37467396 94399
CZ-6A DEB
1 61839U 24140ADF 26156.56781676  .00005862  00000-0  19457-2 0  9993
2 61839  88.9293 268.8328 0025757  99.9246 260.4862 14.37502897 94827
CZ-6A DEB
1 61839U 24140ADF 26156.56781677  .00005862  00000-0  19457-2 0  9994
2 61839  88.9293 268.8328 0025757  99.9246 260.4863 14.37502897 94828
CZ-6A DEB
1 61839U 24140ADF 26159.56101170  .00005170  00000-0  17145-2 0  9995
2 61839  88.9287 268.4591 0025712  90.8524 269.5622 14.37535657 95250
CZ-6A DEB
1 61839U 24140ADF 26159.56101171  .00005170  00000-0  17145-2 0  9996
2 61839  88.9287 268.4591 0025712  90.8524 269.5622 14.37535657 95250
CZ-6A DEB
1 61839U 24140ADF 26160.04827023  .00004188  00000-0  13878-2 0  9999
2 61839  88.9286 268.3979 0025662  89.4203 270.9937 14.37538396 95326
CZ-6A DEB
1 61839U 24140ADF 26160.04827024  .00004188  00000-0  13878-2 0  9990
2 61839  88.9286 268.3979 0025662  89.4203 270.9937 14.37538396 95326
CZ-6A DEB
1 61839U 24140ADF 26162.55414725  .00004537  00000-0  15034-2 0  9992
2 61839  88.9290 268.0849 0025563  81.7135 278.6962 14.37561627 95688
CZ-6A DEB
1 61839U 24140ADF 26162.55414725  .00004537  00000-0  15034-2 0  9992
2 61839  88.9290 268.0849 0025563  81.7135 278.6962 14.37561627 95688
CZ-6A DEB
1 61839U 24140ADF 26165.05998201  .00005021  00000-0  16634-2 0  9992
2 61839  88.9298 267.7719 0025406  74.0374 286.3622 14.37586503 96044
CZ-6A DEB
1 61839U 24140ADF 26165.05998202  .00005021  00000-0  16634-2 0  9993
2 61839  88.9298 267.7719 0025406  74.0374 286.3622 14.37586503 96044
CZ-6A DEB
1 61839U 24140ADF 26165.54722238  .00004490  00000-0  14869-2 0  9998
2 61839  88.9299 267.7110 0025333  72.5792 287.8174 14.37590355 96112
CZ-6A DEB
1 61839U 24140ADF 26165.54722239  .00004490  00000-0  14869-2 0  9999
2 61839  88.9299 267.7110 0025333  72.5792 287.8175 14.37590355 96113
CZ-6A DEB
1 61839U 24140ADF 26167.56577661  .00003868  00000-0  12801-2 0  9992
2 61839  88.9302 267.4589 0025136  66.3925 293.9911 14.37605771 96402
CZ-6A DEB
1 61839U 24140ADF 26167.56577662  .00003868  00000-0  12801-2 0  9993
2 61839  88.9302 267.4589 0025136  66.3925 293.9911 14.37605771 96402
CZ-6A DEB
1 61839U 24140ADF 26169.23628874  .00003539  00000-0  11707-2 0  9990
2 61839  88.9300 267.2505 0024997  61.2846 299.0861 14.37616955 96649
CZ-6A DEB
1 61839U 24140ADF 26169.23628875  .00003539  00000-0  11707-2 0  9991
2 61839  88.9300 267.2505 0024997  61.2846 299.0862 14.37616955 96640
CZ-6A DEB
1 61839U 24140ADF 26172.99489226  .00003204  00000-0  10589-2 0  9999
2 61839  88.9294 266.7814 0024627  49.6404 310.6941 14.37641476 97183
CZ-6A DEB
1 61839U 24140ADF 26174.52615614  .00003301  00000-0  10910-2 0  9998
2 61839  88.9295 266.5901 0024460  44.8512 315.4659 14.37651696 97400
CZ-6A DEB
1 61839U 24140ADF 26178.00624852  .00004579  00000-0  15143-2 0  9990
2 61839  88.9298 266.1547 0024053  33.7671 326.5055 14.37684438 97904
CZ-6A DEB
1 61839U 24140ADF 26178.00624853  .00004579  00000-0  15143-2 0  9991
2 61839  88.9298 266.1547 0024053  33.7671 326.5055 14.37684438 97904
CZ-6A DEB
1 61839U 24140ADF 26178.49345626  .00004169  00000-0  13783-2 0  9995
2 61839  88.9298 266.0939 0023993  32.2001 328.0658 14.37687473 97976
CZ-6A DEB
1 61839U 24140ADF 26178.49345627  .00004169  00000-0  13783-2 0  9996
2 61839  88.9298 266.0939 0023993  32.2001 328.0658 14.37687473 97976
CZ-6A DEB
1 61839U 24140ADF 26183.22615375  .00007473  00000-0  24696-2 0  9999
2 61839  88.9280 265.5007 0023255  16.5245 343.6707 14.37771524 98658
CZ-6A DEB
1 61839U 24140ADF 26183.22615375  .00007473  00000-0  24696-2 0  9999
2 61839  88.9280 265.5006 0023255  16.5245 343.6707 14.37771524 98657
CZ-6A DEB
1 61839U 24140ADF 26205.91442901  .00004087  00000-0  13475-2 0  9994
2 61839  88.9303 262.6652 0020819 297.2288  62.6791 14.37858696101917
CZ-6A DEB
1 61839U 24140ADF 26206.88872463  .00003718  00000-0  12255-2 0  9996
2 61839  88.9282 262.5438 0020604 292.6789  67.2233 14.37865015102052
CZ-6A DEB
1 61839U 24140ADF 26212.10809531  .00003228  00000-0  10627-2 0  9991
2 61839  88.9271 261.8900 0020462 273.0417  86.8442 14.37899958102804
CZ-6A DEB
1 61839U 24140ADF 26213.91744904  .00003189  00000-0  10494-2 0  9991
2 61839  88.9263 261.6639 0020557 266.3062  93.5787 14.37911551103068
CZ-6A DEB
1 61839U 24140ADF 26213.91744904  .00003189  00000-0  10494-2 0  9991
2 61839  88.9263 261.6639 0020557 266.3062  93.5787 14.37911551103068
CZ-6A DEB
1 61839U 24140ADF 26214.40458067  .00002860  00000-0  94072-3 0  9998
2 61839  88.9265 261.6031 0020592 264.4855  95.3996 14.37913415103135
CZ-6A DEB
1 61839U 24140ADF 26216.56186517  .00003003  00000-0  98767-3 0  9990
2 61839  88.9264 261.3329 0020681 256.3304 103.5594 14.37927316103444
CZ-6A DEB
1 61839U 24140ADF 26217.88406354  .00002075  00000-0  68107-3 0  9993
2 61839  88.9264 261.1669 0020741 251.4169 108.4778 14.37932644103630
CZ-6A DEB
1 61839U 24140ADF 26218.37118832  .00002098  00000-0  68846-3 0  9994
2 61839  88.9265 261.1057 0020776 249.6807 110.2161 14.37934406103701
CZ-6A DEB
1 61839U 24140ADF 26227.06974530  .00002018  00000-0  66130-3 0  9991
2 61839  88.9251 260.0158 0021596 217.9618 142.0061 14.37966886104952
CZ-6A DEB
1 61839U 24140ADF 26227.06974531  .00002018  00000-0  66130-3 0  9992
2 61839  88.9251 260.0158 0021596 217.9618 142.0061 14.37966886104952
CZ-6A DEB
1 61839U 24140ADF 26227.83520999  .00002128  00000-0  69762-3 0  9998
2 61839  88.9246 259.9193 0021647 215.1966 144.7806 14.37969872105062
CZ-6A DEB
1 61839U 24140ADF 26227.83520999  .00002128  00000-0  69762-3 0  9998
2 61839  88.9246 259.9193 0021647 215.1966 144.7806 14.37969872105062
CZ-6A DEB
1 61839U 24140ADF 26228.53108528  .00002141  00000-0  70190-3 0  9998
2 61839  88.9248 259.8323 0021732 212.7785 147.2068 14.37972609105166
CZ-6A DEB
1 61839U 24140ADF 26236.32476009  .00003034  00000-0  99552-3 0  9991
2 61839  88.9239 258.8534 0023149 186.1189 173.9732 14.38018641106281
CZ-6A DEB
1 61839U 24140ADF 26236.32476010  .00003034  00000-0  99552-3 0  9993
2 61839  88.9239 258.8534 0023149 186.1189 173.9732 14.38018641106281
CZ-6A DEB
1 61839U 24140ADF 26242.30901819  .00003376  00000-0  11070-2 0  9995
2 61839  88.9237 258.1029 0023777 166.2750 193.9102 14.38056079107147
CZ-6A DEB
1 61839U 24140ADF 26242.30901820  .00003376  00000-0  11070-2 0  9997
2 61839  88.9237 258.1029 0023777 166.2750 193.9102 14.38056079107147
CZ-6A DEB
1 61839U 24140ADF 26243.00485197  .00003051  00000-0  99973-3 0  9998
2 61839  88.9237 258.0156 0023888 164.1040 196.0915 14.38059624107245
CZ-6A DEB
1 61839U 24140ADF 26243.00485197  .00003051  00000-0  99973-3 0  9998
2 61839  88.9237 258.0156 0023888 164.1040 196.0915 14.38059624107245
