CZ-6A DEB
1 62338U 22151AJD 26190.05691060  .00002296  00000-0  77524-3 0  9995
2 62338  98.7389 225.2570 0026949 237.0821 122.7772 14.37716229171946
CZ-6A DEB
1 62338U 22151AJD 26196.04199160  .00002082  00000-0  70380-3 0  9990
2 62338  98.7389 231.3425 0027737 218.6940 141.2259 14.37745182172808
CZ-6A DEB
1 62338U 22151AJD 26196.04199160  .00002082  00000-0  70380-3 0  9990
2 62338  98.7389 231.3425 0027737 218.6940 141.2260 14.37745182172800
CZ-6A DEB
1 62338U 22151AJD 26197.57304148  .00001995  00000-0  67513-3 0  9999
2 62338  98.7384 232.8977 0027980 213.5800 146.3614 14.37751663173027
CZ-6A DEB
1 62338U 22151AJD 26197.57304149  .00001995  00000-0  67513-3 0  9990
2 62338  98.7384 232.8977 0027980 213.5800 146.3614 14.37751663173027
CZ-6A DEB
1 62338U 22151AJD 26198.54734106  .00001963  00000-0  66435-3 0  9995
2 62338  98.7381 233.8878 0028207 211.0248 148.9274 14.37756462173164
CZ-6A DEB
1 62338U 22151AJD 26198.54734107  .00001963  00000-0  66435-3 0  9996
2 62338  98.7381 233.8878 0028207 211.0248 148.9274 14.37756462173164
CZ-6A DEB
1 62338U 22151AJD 26199.03449003  .00002043  00000-0  69067-3 0  9993
2 62338  98.7378 234.3825 0028301 209.7064 150.2516 14.37758954173234
CZ-6A DEB
1 62338U 22151AJD 26200.07837920  .00002110  00000-0  71282-3 0  9996
2 62338  98.7379 235.4442 0028303 206.4132 153.5613 14.37763898173387
CZ-6A DEB
1 62338U 22151AJD 26200.56552622  .00002043  00000-0  69055-3 0  9993
2 62338  98.7378 235.9392 0028344 204.9775 155.0041 14.37765871173459
CZ-6A DEB
1 62338U 22151AJD 26200.56552622  .00002043  00000-0  69055-3 0  9993
2 62338  98.7378 235.9392 0028344 204.9775 155.0041 14.37765871173459
CZ-6A DEB
1 62338U 22151AJD 26201.05267233  .00002137  00000-0  72172-3 0  9997
2 62338  98.7379 236.4344 0028428 203.5464 156.4422 14.37768299173529
CZ-6A DEB
1 62338U 22151AJD 26202.02696190  .00002833  00000-0  95133-3 0  9998
2 62338  98.7378 237.4246 0028586 200.7291 159.2738 14.37775043173663
CZ-6A DEB
1 62338U 22151AJD 26203.55797868  .00003769  00000-0  12600-2 0  9997
2 62338  98.7388 238.9812 0028831 196.2522 163.7742 14.37787167173887
CZ-6A DEB
1 62338U 22151AJD 26204.04511757  .00003987  00000-0  13319-2 0  9993
2 62338  98.7389 239.4765 0028922 194.8231 165.2110 14.37791329173952
CZ-6A DEB
1 62338U 22151AJD 26204.53225565  .00003963  00000-0  13238-2 0  9990
2 62338  98.7383 239.9712 0029005 193.5409 166.5003 14.37794787174024
CZ-6A DEB
1 62338U 22151AJD 26204.53225565  .00003963  00000-0  13238-2 0  9990
2 62338  98.7383 239.9712 0029005 193.5409 166.5003 14.37794787174024
CZ-6A DEB
1 62338U 22151AJD 26205.57611758  .00004472  00000-0  14915-2 0  9997
2 62338  98.7390 241.0330 0029129 190.4555 169.6029 14.37804791174172
CZ-6A DEB
1 62338U 22151AJD 26206.55038298  .00004091  00000-0  13653-2 0  9993
2 62338  98.7389 242.0233 0029346 187.7565 172.3171 14.37811694174319
CZ-6A DEB
1 62338U 22151AJD 26207.03751366  .00004173  00000-0  13925-2 0  9998
2 62338  98.7388 242.5186 0029386 186.3913 173.6903 14.37816010174387
CZ-6A DEB
1 62338U 22151AJD 26207.52464310  .00004288  00000-0  14302-2 0  9999
2 62338  98.7385 243.0138 0029424 185.0183 175.0712 14.37820232174458
CZ-6A DEB
1 62338U 22151AJD 26208.56848753  .00004337  00000-0  14459-2 0  9999
2 62338  98.7384 244.0751 0029574 182.0535 178.0535 14.37828474174602
CZ-6A DEB
1 62338U 22151AJD 26209.54273640  .00004188  00000-0  13965-2 0  9990
2 62338  98.7383 245.0658 0029713 179.3516 180.7713 14.37836172174748
CZ-6A DEB
1 62338U 22151AJD 26211.07368776  .00004142  00000-0  13810-2 0  9995
2 62338  98.7383 246.6226 0029894 175.0619 185.0867 14.37848949174960
CZ-6A DEB
1 62338U 22151AJD 26212.53503831  .00003971  00000-0  13243-2 0  9999
2 62338  98.7380 248.1085 0030019 170.9659 189.2073 14.37860586175176
CZ-6A DEB
1 62338U 22151AJD 26212.53503832  .00003971  00000-0  13243-2 0  9990
2 62338  98.7380 248.1085 0030019 170.9659 189.2074 14.37860586175177
CZ-6A DEB
1 62338U 22151AJD 26214.06596499  .00003841  00000-0  12810-2 0  9996
2 62338  98.7379 249.6651 0030157 166.7000 193.4988 14.37871795175395
CZ-6A DEB
1 62338U 22151AJD 26214.06596499  .00003841  00000-0  12810-2 0  9996
2 62338  98.7379 249.6651 0030157 166.7000 193.4988 14.37871795175395
CZ-6A DEB
1 62338U 22151AJD 26214.55307574  .00003575  00000-0  11934-2 0  9994
2 62338  98.7380 250.1604 0030215 165.3194 194.8876 14.37874707175461
CZ-6A DEB
1 62338U 22151AJD 26215.04018434  .00004070  00000-0  13563-2 0  9994
2 62338  98.7380 250.6556 0030272 164.0206 196.1942 14.37879808175539
CZ-6A DEB
1 62338U 22151AJD 26217.05819504  .00003091  00000-0  10333-2 0  9998
2 62338  98.7386 252.7073 0030486 158.5887 201.6582 14.37892606175827
CZ-6A DEB
1 62338U 22151AJD 26217.54529819  .00002740  00000-0  91766-3 0  9999
2 62338  98.7389 253.2027 0030529 157.2707 202.9838 14.37895367175892
CZ-6A DEB
1 62338U 22151AJD 26218.03240070  .00002422  00000-0  81311-3 0  9995
2 62338  98.7390 253.6979 0030556 155.9076 204.3547 14.37897590175969
CZ-6A DEB
1 62338U 22151AJD 26218.58908807  .00002340  00000-0  78597-3 0  9995
2 62338  98.7395 254.2642 0030572 154.3148 205.9565 14.37900775176046
CZ-6A DEB
1 62338U 22151AJD 26218.58908807  .00002340  00000-0  78597-3 0  9995
2 62338  98.7395 254.2642 0030572 154.3148 205.9565 14.37900775176046
CZ-6A DEB
1 62338U 22151AJD 26219.07618867  .00002260  00000-0  75961-3 0  9997
2 62338  98.7398 254.7596 0030623 153.0133 207.2654 14.37902999176111
CZ-6A DEB
1 62338U 22151AJD 26219.56328876  .00002199  00000-0  73939-3 0  9993
2 62338  98.7396 255.2546 0030626 151.6205 208.6657 14.37905142176185
CZ-6A DEB
1 62338U 22151AJD 26219.56328877  .00002199  00000-0  73939-3 0  9994
2 62338  98.7396 255.2546 0030626 151.6205 208.6657 14.37905142176185
CZ-6A DEB
1 62338U 22151AJD 26220.05038816  .00002189  00000-0  73606-3 0  9991
2 62338  98.7396 255.7500 0030640 150.2861 210.0073 14.37907104176256
CZ-6A DEB
1 62338U 22151AJD 26220.05038816  .00002189  00000-0  73606-3 0  9991
2 62338  98.7396 255.7500 0030640 150.2861 210.0073 14.37907104176256
CZ-6A DEB
1 62338U 22151AJD 26221.02458358  .00002367  00000-0  79469-3 0  9997
2 62338  98.7399 256.7407 0030732 147.7724 212.5349 14.37912304176393
CZ-6A DEB
1 62338U 22151AJD 26221.02458358  .00002367  00000-0  79469-3 0  9997
2 62338  98.7399 256.7407 0030732 147.7724 212.5349 14.37912304176393
CZ-6A DEB
1 62338U 22151AJD 26221.58126529  .00002415  00000-0  81039-3 0  9990
2 62338  98.7395 257.3066 0030785 146.1837 214.1321 14.37915259176472
CZ-6A DEB
1 62338U 22151AJD 26222.06836090  .00002435  00000-0  81675-3 0  9993
2 62338  98.7397 257.8021 0030811 144.7895 215.5335 14.37917719176549
CZ-6A DEB
1 62338U 22151AJD 26222.55545588  .00002377  00000-0  79783-3 0  9998
2 62338  98.7397 258.2976 0030839 143.4416 216.8883 14.37919885176614
CZ-6A DEB
1 62338U 22151AJD 26222.55545589  .00002377  00000-0  79783-3 0  9999
2 62338  98.7397 258.2976 0030839 143.4416 216.8883 14.37919885176614
CZ-6A DEB
1 62338U 22151AJD 26223.04255000  .00002271  00000-0  76282-3 0  9994
2 62338  98.7396 258.7929 0030858 142.1066 218.2300 14.37921899176689
CZ-6A DEB
1 62338U 22151AJD 26223.04255001  .00002271  00000-0  76282-3 0  9995
2 62338  98.7396 258.7929 0030858 142.1066 218.2300 14.37921899176689
CZ-6A DEB
1 62338U 22151AJD 26223.52964329  .00002234  00000-0  75043-3 0  9991
2 62338  98.7393 259.2881 0030878 140.8149 219.5281 14.37924213176751
CZ-6A DEB
1 62338U 22151AJD 26223.52964329  .00002234  00000-0  75043-3 0  9991
2 62338  98.7393 259.2881 0030878 140.8149 219.5281 14.37924213176751
CZ-6A DEB
1 62338U 22151AJD 26224.57341158  .00002072  00000-0  69716-3 0  9996
2 62338  98.7389 260.3494 0030913 137.9893 222.3672 14.37928910176903
CZ-6A DEB
1 62338U 22151AJD 26225.06050242  .00002036  00000-0  68528-3 0  9992
2 62338  98.7388 260.8448 0030927 136.6911 223.6714 14.37930919176978
CZ-6A DEB
1 62338U 22151AJD 26225.06050243  .00002036  00000-0  68528-3 0  9993
2 62338  98.7388 260.8448 0030927 136.6911 223.6714 14.37930919176978
CZ-6A DEB
1 62338U 22151AJD 26226.03468226  .00002299  00000-0  77183-3 0  9993
2 62338  98.7386 261.8355 0030955 134.0741 226.3001 14.37935725177114
CZ-6A DEB
1 62338U 22151AJD 26226.03468226  .00002299  00000-0  77183-3 0  9993
2 62338  98.7386 261.8355 0030955 134.0741 226.3001 14.37935725177114
CZ-6A DEB
1 62338U 22151AJD 26226.59135498  .00002364  00000-0  79302-3 0  9994
2 62338  98.7387 262.4017 0030973 132.5321 227.8488 14.37938401177191
CZ-6A DEB
1 62338U 22151AJD 26226.59135498  .00002364  00000-0  79302-3 0  9994
2 62338  98.7387 262.4017 0030973 132.5321 227.8488 14.37938401177191
CZ-6A DEB
1 62338U 22151AJD 26228.05261566  .00002654  00000-0  88846-3 0  9998
2 62338  98.7385 263.8876 0030993 128.6231 231.7738 14.37945881177401
CZ-6A DEB
1 62338U 22151AJD 26228.05261567  .00002654  00000-0  88846-3 0  9999
2 62338  98.7385 263.8876 0030993 128.6231 231.7738 14.37945881177401
CZ-6A DEB
1 62338U 22151AJD 26228.53970085  .00002722  00000-0  91067-3 0  9999
2 62338  98.7386 264.3829 0031000 127.3224 233.0794 14.37948453177476
CZ-6A DEB
1 62338U 22151AJD 26229.02678539  .00002901  00000-0  96964-3 0  9993
2 62338  98.7384 264.8782 0031002 125.9608 234.4461 14.37951277177541
CZ-6A DEB
1 62338U 22151AJD 26229.58345195  .00002821  00000-0  94307-3 0  9993
2 62338  98.7385 265.4442 0031000 124.4693 235.9429 14.37953954177621
CZ-6A DEB
1 62338U 22151AJD 26230.07053387  .00003272  00000-0  10915-2 0  9991
2 62338  98.7386 265.9395 0030985 123.1405 237.2761 14.37958057177692
CZ-6A DEB
1 62338U 22151AJD 26230.55761457  .00003699  00000-0  12317-2 0  9999
2 62338  98.7386 266.4348 0030985 121.8499 238.5710 14.37962253177763
CZ-6A DEB
1 62338U 22151AJD 26231.04469468  .00003772  00000-0  12555-2 0  9997
2 62338  98.7385 266.9302 0030958 120.4611 239.9639 14.37965259177830
CZ-6A DEB
1 62338U 22151AJD 26231.04469468  .00003772  00000-0  12555-2 0  9997
2 62338  98.7385 266.9302 0030958 120.4611 239.9639 14.37965259177830
CZ-6A DEB
1 62338U 22151AJD 26232.57550873  .00003663  00000-0  12195-2 0  9996
2 62338  98.7389 268.4868 0030923 116.2892 244.1477 14.37975298178051
CZ-6A DEB
1 62338U 22151AJD 26233.06258305  .00003914  00000-0  13018-2 0  9990
2 62338  98.7389 268.9821 0030917 114.9556 245.4847 14.37979696178129
CZ-6A DEB
1 62338U 22151AJD 26233.54965646  .00003676  00000-0  12236-2 0  9992
2 62338  98.7389 269.4773 0030891 113.6275 246.8160 14.37982524178190
CZ-6A DEB
1 62338U 22151AJD 26234.03672858  .00003697  00000-0  12305-2 0  9997
2 62338  98.7388 269.9727 0030877 112.2558 248.1908 14.37986143178260
CZ-6A DEB
1 62338U 22151AJD 26234.52379940  .00003547  00000-0  11810-2 0  9991
2 62338  98.7389 270.4680 0030837 110.9759 249.4731 14.37989243178330
CZ-6A DEB
1 62338U 22151AJD 26234.52379940  .00003547  00000-0  11810-2 0  9991
2 62338  98.7389 270.4680 0030837 110.9759 249.4731 14.37989243178330
CZ-6A DEB
1 62338U 22151AJD 26235.08045038  .00003479  00000-0  11588-2 0  9997
2 62338  98.7389 271.0341 0030813 109.4834 250.9686 14.37992961178418
CZ-6A DEB
1 62338U 22151AJD 26235.56751887  .00003397  00000-0  11317-2 0  9995
2 62338  98.7390 271.5295 0030808 108.1206 252.3340 14.37996093178486
CZ-6A DEB
1 62338U 22151AJD 26236.05458629  .00003428  00000-0  11418-2 0  9995
2 62338  98.7390 272.0249 0030798 106.7469 253.7101 14.37999448178559
CZ-6A DEB
1 62338U 22151AJD 26236.54165239  .00003412  00000-0  11363-2 0  9993
2 62338  98.7391 272.5203 0030778 105.4001 255.0589 14.38002840178626
CZ-6A DEB
1 62338U 22151AJD 26237.58536132  .00003504  00000-0  11665-2 0  9999
2 62338  98.7389 273.5819 0030734 102.5276 257.9352 14.38010319178776
CZ-6A DEB
1 62338U 22151AJD 26237.58536132  .00003504  00000-0  11665-2 0  9999
2 62338  98.7389 273.5818 0030734 102.5276 257.9351 14.38010319178774
CZ-6A DEB
1 62338U 22151AJD 26238.55948499  .00003883  00000-0  12908-2 0  9991
2 62338  98.7387 274.5726 0030682  99.8268 260.6385 14.38017821178911
CZ-6A DEB
1 62338U 22151AJD 26238.55948499  .00003883  00000-0  12908-2 0  9991
2 62338  98.7387 274.5726 0030682  99.8268 260.6385 14.38017821178911
CZ-6A DEB
1 62338U 22151AJD 26239.04654449  .00003645  00000-0  12126-2 0  9993
2 62338  98.7385 275.0680 0030627  98.5355 261.9304 14.38020861178986
CZ-6A DEB
1 62338U 22151AJD 26239.04654450  .00003645  00000-0  12126-2 0  9995
2 62338  98.7385 275.0680 0030627  98.5355 261.9304 14.38020861178986
CZ-6A DEB
1 62338U 22151AJD 26241.55140685  .00004023  00000-0  13364-2 0  9990
2 62338  98.7380 277.6156 0030441  91.6444 268.8229 14.38038310179345
CZ-6A DEB
1 62338U 22151AJD 26241.55140686  .00004023  00000-0  13364-2 0  9991
2 62338  98.7380 277.6156 0030441  91.6444 268.8230 14.38038311179348
CZ-6A DEB
1 62338U 22151AJD 26242.59508940  .00003610  00000-0  12007-2 0  9991
2 62338  98.7379 278.6771 0030331  88.7417 271.7244 14.38045261179491
CZ-6A DEB
1 62338U 22151AJD 26242.59508940  .00003610  00000-0  12007-2 0  9991
2 62338  98.7379 278.6771 0030331  88.7417 271.7244 14.38045262179492
CZ-6A DEB
1 62338U 22151AJD 26243.56918850  .00003179  00000-0  10589-2 0  9997
2 62338  98.7378 279.6677 0030288  85.9764 274.4884 14.38051510179631
CZ-6A DEB
1 62338U 22151AJD 26243.56918850  .00003179  00000-0  10589-2 0  9997
2 62338  98.7378 279.6677 0030288  85.9764 274.4884 14.38051510179631
CZ-6A DEB
1 62338U 22151AJD 26244.05623606  .00002804  00000-0  93587-3 0  9998
2 62338  98.7384 280.1631 0030230  84.6392 275.8243 14.38054103179708
CZ-6A DEB
1 62338U 22151AJD 26244.05623607  .00002804  00000-0  93587-3 0  9999
2 62338  98.7384 280.1631 0030230  84.6392 275.8243 14.38054103179708
CZ-6A DEB
1 62338U 22151AJD 26244.54328292  .00002580  00000-0  86237-3 0  9990
2 62338  98.7381 280.6582 0030164  83.3068 277.1550 14.38056731179779
