DMSP 5D-2 F14 DEB
1 63154U 97012U   25063.94177096  .00004647  00000-0  20917-2 0  9999
2 63154  98.8053 113.6437 0035285 327.5677  32.3332 14.22430290  2071
DMSP 5D-2 F14 DEB
1 63154U 97012U   25114.39188071  .00004477  00000-0  19510-2 0  9998
2 63154  98.7968 164.1170 0038128 184.4590 175.6254 14.24072895  9473
DMSP 5D-2 F14 DEB
1 63154U 97012U   25115.86735179  .00005586  00000-0  24281-2 0  9991
2 63154  98.7961 165.5936 0038261 180.3168 179.7993 14.24091599  9685
DMSP 5D-2 F14 DEB
1 63154U 97012U   25118.95875624  .00005131  00000-0  22304-2 0  9994
2 63154  98.7953 168.6881 0038544 171.8992 188.2816 14.24127373 10123
DMSP 5D-2 F14 DEB
1 63154U 97012U   25120.36391637  .00005136  00000-0  22315-2 0  9996
2 63154  98.7949 170.0945 0038634 167.9790 192.2319 14.24142002 10329
DMSP 5D-2 F14 DEB
1 63154U 97012U   25122.40137344  .00005699  00000-0  24727-2 0  9999
2 63154  98.7950 172.1338 0038776 162.3907 197.8625 14.24164011 10613
DMSP 5D-2 F14 DEB
1 63154U 97012U   25123.38496088  .00005804  00000-0  25173-2 0  9994
2 63154  98.7950 173.1187 0038843 159.7601 200.5128 14.24175848 10757
DMSP 5D-2 F14 DEB
1 63154U 97012U   25124.57930835  .00004255  00000-0  18507-2 0  9991
2 63154  98.7952 174.3142 0038907 156.4738 203.8231 14.24185482 10924
DMSP 5D-2 F14 DEB
1 63154U 97012U   25125.91415623  .00004240  00000-0  18437-2 0  9999
2 63154  98.7953 175.6501 0038984 152.8608 207.4619 14.24197547 11116
DMSP 5D-2 F14 DEB
1 63154U 97012U   25127.95153669  .00003178  00000-0  13865-2 0  9993
2 63154  98.7954 177.6892 0039064 147.3351 213.0255 14.24211832 11401
DMSP 5D-2 F14 DEB
1 63154U 97012U   25128.37306142  .00003743  00000-0  16293-2 0  9992
2 63154  98.7952 178.1111 0039072 146.0886 214.2802 14.24215849 11466
DMSP 5D-2 F14 DEB
1 63154U 97012U   25129.07560009  .00003873  00000-0  16848-2 0  9994
2 63154  98.7951 178.8142 0039096 144.1568 216.2245 14.24221090 11567
DMSP 5D-2 F14 DEB
1 63154U 97012U   25129.98889637  .00003608  00000-0  15709-2 0  9996
2 63154  98.7950 179.7283 0039125 141.6748 218.7222 14.24226995 11692
DMSP 5D-2 F14 DEB
1 63154U 97012U   25130.97244132  .00003366  00000-0  14665-2 0  9993
2 63154  98.7948 180.7127 0039155 138.9932 221.4202 14.24233688 11837
DMSP 5D-2 F14 DEB
1 63154U 97012U   25133.08002101  .00003296  00000-0  14360-2 0  9990
2 63154  98.7944 182.8222 0039178 133.2840 227.1618 14.24248529 12131
DMSP 5D-2 F14 DEB
1 63154U 97012U   25136.87361108  .00003138  00000-0  13676-2 0  9999
2 63154  98.7938 186.6194 0039207 122.9513 237.5445 14.24273264 12675
DMSP 5D-2 F14 DEB
1 63154U 97012U   25138.34887637  .00004276  00000-0  18559-2 0  9992
2 63154  98.7940 188.0962 0039184 118.9200 241.5918 14.24286251 12882
DMSP 5D-2 F14 DEB
1 63154U 97012U   25140.38612949  .00002960  00000-0  12904-2 0  9997
2 63154  98.7943 190.1355 0039129 113.3685 247.1617 14.24297612 13174
DMSP 5D-2 F14 DEB
1 63154U 97012U   25140.94812726  .00002988  00000-0  13024-2 0  9998
2 63154  98.7943 190.6981 0039101 111.8507 248.6838 14.24301011 13259
DMSP 5D-2 F14 DEB
1 63154U 97012U   25142.35311561  .00003060  00000-0  13330-2 0  9998
2 63154  98.7945 192.1045 0039069 107.9957 252.5486 14.24309396 13456
DMSP 5D-2 F14 DEB
1 63154U 97012U   25143.40685111  .00002731  00000-0  11920-2 0  9997
2 63154  98.7945 193.1591 0039041 105.1360 255.4142 14.24315028 13608
DMSP 5D-2 F14 DEB
1 63154U 97012U   25144.95232174  .00002682  00000-0  11706-2 0  9992
2 63154  98.7943 194.7062 0038972 100.8845 259.6723 14.24323625 13825
DMSP 5D-2 F14 DEB
1 63154U 97012U   25145.58455680  .00002719  00000-0  11864-2 0  9997
2 63154  98.7943 195.3390 0038943  99.1597 261.3990 14.24327398 13915
DMSP 5D-2 F14 DEB
1 63154U 97012U   25147.90273808  .00002852  00000-0  12433-2 0  9996
2 63154  98.7939 197.6595 0038819  92.8195 267.7428 14.24340654 14241
DMSP 5D-2 F14 DEB
1 63154U 97012U   25152.39852749  .00003702  00000-0  16070-2 0  9998
2 63154  98.7940 202.1605 0038446  80.4398 280.1122 14.24374018 14882
DMSP 5D-2 F14 DEB
1 63154U 97012U   25154.85710762  .00004234  00000-0  18347-2 0  9999
2 63154  98.7943 204.6218 0038206  73.6399 286.8976 14.24397959 15230
DMSP 5D-2 F14 DEB
1 63154U 97012U   25156.40248492  .00002936  00000-0  12780-2 0  9990
2 63154  98.7946 206.1691 0038081  69.3968 291.1289 14.24406977 15451
DMSP 5D-2 F14 DEB
1 63154U 97012U   25158.08834002  .00002335  00000-0  10203-2 0  9995
2 63154  98.7941 207.8562 0037913  64.6348 295.8749 14.24415054 15698
DMSP 5D-2 F14 DEB
1 63154U 97012U   25158.86102007  .00002604  00000-0  11357-2 0  9994
2 63154  98.7941 208.6297 0037853  62.4661 298.0356 14.24419490 15809
DMSP 5D-2 F14 DEB
1 63154U 97012U   25161.10880227  .00002434  00000-0  10626-2 0  9991
2 63154  98.7946 210.8805 0037539  56.1845 304.2898 14.24431628 16123
DMSP 5D-2 F14 DEB
1 63154U 97012U   25161.95171582  .00002180  00000-0  95387-3 0  9997
2 63154  98.7940 211.7240 0037518  53.7651 306.6986 14.24435533 16241
DMSP 5D-2 F14 DEB
1 63154U 97012U   25165.39358009  .00003182  00000-0  13828-2 0  9992
2 63154  98.7935 215.1702 0037066  44.0266 316.3854 14.24458054 16738
DMSP 5D-2 F14 DEB
1 63154U 97012U   25166.86864709  .00002571  00000-0  11207-2 0  9994
2 63154  98.7934 216.6471 0036888  39.7748 320.6124 14.24466963 16942
DMSP 5D-2 F14 DEB
1 63154U 97012U   25167.36033457  .00002439  00000-0  10643-2 0  9994
2 63154  98.7935 217.1395 0036823  38.3740 322.0048 14.24468846 17012
DMSP 5D-2 F14 DEB
1 63154U 97012U   25168.41394696  .00002465  00000-0  10755-2 0  9999
2 63154  98.7937 218.1944 0036696  35.3295 325.0305 14.24474786 17160
DMSP 5D-2 F14 DEB
1 63154U 97012U   25169.39731540  .00002456  00000-0  10714-2 0  9995
2 63154  98.7940 219.1788 0036581  32.4899 327.8521 14.24479534 17304
DMSP 5D-2 F14 DEB
1 63154U 97012U   25171.36404265  .00002304  00000-0  10064-2 0  9996
2 63154  98.7943 221.1478 0036352  26.8027 333.5020 14.24488354 17580
DMSP 5D-2 F14 DEB
1 63154U 97012U   25174.38435138  .00001984  00000-0  86912-3 0  9993
2 63154  98.7945 224.1718 0035988  17.9718 342.2724 14.24500100 18015
DMSP 5D-2 F14 DEB
1 63154U 97012U   25175.57842002  .00002000  00000-0  87590-3 0  9990
2 63154  98.7944 225.3675 0035849  14.4607 345.7589 14.24504816 18187
DMSP 5D-2 F14 DEB
1 63154U 97012U   25177.40463516  .00002023  00000-0  88589-3 0  9997
2 63154  98.7941 227.1962 0035642   9.0623 351.1192 14.24511708 18440
DMSP 5D-2 F14 DEB
1 63154U 97012U   25178.10702286  .00002067  00000-0  90488-3 0  9994
2 63154  98.7940 227.8996 0035568   6.9659 353.2006 14.24514747 18549
DMSP 5D-2 F14 DEB
1 63154U 97012U   25179.58203272  .00001831  00000-0  80351-3 0  9994
2 63154  98.7939 229.3767 0035405   2.5825 357.5530 14.24520152 18756
DMSP 5D-2 F14 DEB
1 63154U 97012U   25182.11060614  .00001916  00000-0  83973-3 0  9995
2 63154  98.7940 231.9087 0035154 355.0023   5.0800 14.24530845 19115
DMSP 5D-2 F14 DEB
1 63154U 97012U   25183.09393528  .00002213  00000-0  96703-3 0  9992
2 63154  98.7941 232.8933 0035053 352.0325   8.0293 14.24535823 19251
DMSP 5D-2 F14 DEB
1 63154U 97012U   25183.86654875  .00002251  00000-0  98324-3 0  9995
2 63154  98.7942 233.6670 0034985 349.6997  10.3461 14.24539326 19366
DMSP 5D-2 F14 DEB
1 63154U 97012U   25185.41177039  .00002210  00000-0  96567-3 0  9992
2 63154  98.7945 235.2142 0034854 345.0410  14.9735 14.24545976 19582
DMSP 5D-2 F14 DEB
1 63154U 97012U   25186.11414131  .00002180  00000-0  95285-3 0  9999
2 63154  98.7945 235.9175 0034799 342.9041  17.0963 14.24549091 19689
DMSP 5D-2 F14 DEB
1 63154U 97012U   25187.37840475  .00002235  00000-0  97623-3 0  9991
2 63154  98.7947 237.1834 0034691 339.0390  20.9364 14.24555257 19861
DMSP 5D-2 F14 DEB
1 63154U 97012U   25187.94029804  .00002038  00000-0  89186-3 0  9995
2 63154  98.7946 237.7460 0034648 337.3265  22.6381 14.24557304 19947
DMSP 5D-2 F14 DEB
1 63154U 97012U   25188.08077124  .00002011  00000-0  88025-3 0  9991
2 63154  98.7947 237.8867 0034642 336.8960  23.0659 14.24557883 19967
DMSP 5D-2 F14 DEB
1 63154U 97012U   25191.10093053  .00001693  00000-0  74410-3 0  9995
2 63154  98.7945 240.9112 0034458 327.6296  32.2768 14.24570170 20394
DMSP 5D-2 F14 DEB
1 63154U 97012U   25192.08423339  .00001586  00000-0  69839-3 0  9997
2 63154  98.7944 241.8960 0034414 324.6088  35.2807 14.24573553 20533
DMSP 5D-2 F14 DEB
1 63154U 97012U   25192.92706234  .00001746  00000-0  76659-3 0  9994
2 63154  98.7943 242.7400 0034366 322.0200  37.8556 14.24577144 20657
DMSP 5D-2 F14 DEB
1 63154U 97012U   25193.06753368  .00001744  00000-0  76575-3 0  9995
2 63154  98.7942 242.8807 0034364 321.5942  38.2791 14.24577674 20679
DMSP 5D-2 F14 DEB
1 63154U 97012U   25195.38530303  .00001875  00000-0  82193-3 0  9992
2 63154  98.7940 245.2018 0034275 314.4449  45.3927 14.24587019 21004
DMSP 5D-2 F14 DEB
1 63154U 97012U   25196.36859455  .00001965  00000-0  86046-3 0  9994
2 63154  98.7940 246.1865 0034243 311.3892  48.4344 14.24591413 21142
DMSP 5D-2 F14 DEB
1 63154U 97012U   25197.91376197  .00001870  00000-0  81933-3 0  9998
2 63154  98.7941 247.7337 0034218 306.6043  53.1990 14.24597272 21364
DMSP 5D-2 F14 DEB
1 63154U 97012U   25199.38868821  .00001977  00000-0  86504-3 0  9998
2 63154  98.7944 249.2107 0034204 302.0551  57.7307 14.24603736 21576
DMSP 5D-2 F14 DEB
1 63154U 97012U   25200.58267138  .00001987  00000-0  86955-3 0  9998
2 63154  98.7946 250.4064 0034217 298.3773  61.3957 14.24609046 21742
DMSP 5D-2 F14 DEB
1 63154U 97012U   25201.35524654  .00001990  00000-0  87067-3 0  9992
2 63154  98.7948 251.1802 0034228 296.0031  63.7624 14.24612377 21856
DMSP 5D-2 F14 DEB
1 63154U 97012U   25205.35856046  .00002848  00000-0  12369-2 0  9994
2 63154  98.7947 255.1895 0034324 283.6654  76.0704 14.24633850 22420
DMSP 5D-2 F14 DEB
1 63154U 97012U   25208.37856585  .00002475  00000-0  10772-2 0  9999
2 63154  98.7941 258.2143 0034457 274.3897  85.3345 14.24649457 22858
DMSP 5D-2 F14 DEB
1 63154U 97012U   25208.87019159  .00002528  00000-0  10997-2 0  9990
2 63154  98.7944 258.7068 0034519 272.9013  86.8216 14.24652209 22925
DMSP 5D-2 F14 DEB
1 63154U 97012U   25209.36181662  .00002389  00000-0  10404-2 0  9992
2 63154  98.7944 259.1992 0034555 271.4097  88.3123 14.24654292 22997
DMSP 5D-2 F14 DEB
1 63154U 97012U   25211.39853992  .00002590  00000-0  11260-2 0  9995
2 63154  98.7944 261.2390 0034702 265.1877  94.5339 14.24665255 23285
DMSP 5D-2 F14 DEB
1 63154U 97012U   25212.38178019  .00002676  00000-0  11623-2 0  9993
2 63154  98.7944 262.2239 0034786 262.1809  97.5420 14.24670789 23420
DMSP 5D-2 F14 DEB
1 63154U 97012U   25216.87654902  .00002326  00000-0  10124-2 0  9998
2 63154  98.7949 266.7253 0035197 248.6164 111.1258 14.24693875 24064
DMSP 5D-2 F14 DEB
1 63154U 97012U   25217.85977121  .00002286  00000-0  99526-3 0  9997
2 63154  98.7946 267.7097 0035275 245.6906 114.0587 14.24698397 24203
DMSP 5D-2 F14 DEB
1 63154U 97012U   25220.38804440  .00002080  00000-0  90681-3 0  9997
2 63154  98.7942 270.2421 0035489 238.1578 121.6144 14.24708964 24562
DMSP 5D-2 F14 DEB
1 63154U 97012U   25221.09033875  .00002720  00000-0  11799-2 0  9995
2 63154  98.7940 270.9454 0035544 236.0881 123.6916 14.24714237 24669
DMSP 5D-2 F14 DEB
1 63154U 97012U   25222.56515064  .00002830  00000-0  12265-2 0  9994
2 63154  98.7939 272.4227 0035700 231.7158 128.0808 14.24722248 24878
DMSP 5D-2 F14 DEB
1 63154U 97012U   25223.40789665  .00002893  00000-0  12532-2 0  9994
2 63154  98.7938 273.2668 0035775 229.2145 130.5928 14.24727102 24993
DMSP 5D-2 F14 DEB
1 63154U 97012U   25225.86589110  .00002406  00000-0  10453-2 0  9999
2 63154  98.7936 275.7287 0036069 222.0210 137.8201 14.24739192 25342
DMSP 5D-2 F14 DEB
1 63154U 97012U   25226.35748777  .00002506  00000-0  10879-2 0  9993
2 63154  98.7937 276.2211 0036127 220.5888 139.2596 14.24741883 25416
DMSP 5D-2 F14 DEB
1 63154U 97012U   25226.91931142  .00002435  00000-0  10573-2 0  9997
2 63154  98.7937 276.7836 0036188 218.9780 140.8789 14.24744409 25490
DMSP 5D-2 F14 DEB
1 63154U 97012U   25228.60477669  .00002207  00000-0  95999-3 0  9997
2 63154  98.7940 278.4715 0036377 214.1043 145.7799 14.24751820 25736
DMSP 5D-2 F14 DEB
1 63154U 97012U   25229.58796090  .00002213  00000-0  96254-3 0  9999
2 63154  98.7942 279.4561 0036489 211.2784 148.6224 14.24756285 25872
DMSP 5D-2 F14 DEB
1 63154U 97012U   25232.39704242  .00002550  00000-0  11054-2 0  9998
2 63154  98.7944 282.2697 0036789 203.2444 156.7072 14.24769671 26272
DMSP 5D-2 F14 DEB
1 63154U 97012U   25234.36338504  .00002148  00000-0  93416-3 0  9997
2 63154  98.7942 284.2393 0037007 197.6734 162.3160 14.24777535 26557
DMSP 5D-2 F14 DEB
1 63154U 97012U   25236.39994218  .00002198  00000-0  95510-3 0  9994
2 63154  98.7937 286.2792 0037213 191.9190 168.1112 14.24786448 26844
DMSP 5D-2 F14 DEB
1 63154U 97012U   25237.10220015  .00002362  00000-0  10248-2 0  9998
2 63154  98.7935 286.9826 0037266 189.9285 170.1161 14.24790119 26945
DMSP 5D-2 F14 DEB
1 63154U 97012U   25238.99828752  .00002911  00000-0  12581-2 0  9990
2 63154  98.7929 288.8813 0037424 184.5482 175.5362 14.24801147 27218
DMSP 5D-2 F14 DEB
1 63154U 97012U   25241.38592911  .00003739  00000-0  16096-2 0  9996
2 63154  98.7928 291.2724 0037600 177.8871 182.2473 14.24819042 27557
DMSP 5D-2 F14 DEB
1 63154U 97012U   25242.08817059  .00003779  00000-0  16263-2 0  9997
2 63154  98.7929 291.9756 0037651 175.9585 184.1905 14.24824500 27654
DMSP 5D-2 F14 DEB
1 63154U 97012U   25242.86063266  .00004532  00000-0  19461-2 0  9997
2 63154  98.7932 292.7492 0037698 173.8604 186.3045 14.24832911 27760
DMSP 5D-2 F14 DEB
1 63154U 97012U   25243.42242096  .00004558  00000-0  19571-2 0  9990
2 63154  98.7932 293.3120 0037708 172.3062 187.8703 14.24837724 27842
DMSP 5D-2 F14 DEB
1 63154U 97012U   25246.09088453  .00006497  00000-0  27789-2 0  9995
2 63154  98.7934 295.9844 0037878 164.9366 195.2950 14.24867918 28225
DMSP 5D-2 F14 DEB
1 63154U 97012U   25246.37177102  .00007001  00000-0  29927-2 0  9994
2 63154  98.7935 296.2658 0037890 164.2085 196.0285 14.24872867 28261
DMSP 5D-2 F14 DEB
1 63154U 97012U   25248.89973349  .00004029  00000-0  17303-2 0  9992
2 63154  98.7931 298.7981 0038009 157.3053 202.9816 14.24892377 28629
DMSP 5D-2 F14 DEB
1 63154U 97012U   25249.88281938  .00004732  00000-0  20281-2 0  9998
2 63154  98.7927 299.7829 0038068 154.6434 205.6623 14.24902175 28763
DMSP 5D-2 F14 DEB
1 63154U 97012U   25250.09347987  .00004769  00000-0  20437-2 0  9993
2 63154  98.7926 299.9940 0038076 154.0433 206.2666 14.24904131 28791
DMSP 5D-2 F14 DEB
1 63154U 97012U   25250.37436084  .00003769  00000-0  16197-2 0  9998
2 63154  98.7926 300.2754 0038084 153.2605 207.0549 14.24903692 28836
DMSP 5D-2 F14 DEB
1 63154U 97012U   25251.35743987  .00003269  00000-0  14068-2 0  9990
2 63154  98.7922 301.2602 0038109 150.5436 209.7901 14.24909859 28972
DMSP 5D-2 F14 DEB
1 63154U 97012U   25255.92168893  .00001985  00000-0  86168-3 0  9998
2 63154  98.7919 305.8310 0038140 138.0214 222.3900 14.24930610 29626
DMSP 5D-2 F14 DEB
1 63154U 97012U   25256.97496766  .00002176  00000-0  94264-3 0  9996
2 63154  98.7919 306.8859 0038142 135.1426 225.2846 14.24935758 29775
DMSP 5D-2 F14 DEB
1 63154U 97012U   25258.09846078  .00002288  00000-0  98997-3 0  9997
2 63154  98.7919 308.0111 0038138 132.0886 228.3547 14.24941142 29935
DMSP 5D-2 F14 DEB
1 63154U 97012U   25258.94107647  .00002799  00000-0  12068-2 0  9994
2 63154  98.7920 308.8550 0038126 129.7850 230.6696 14.24947200 30050
DMSP 5D-2 F14 DEB
1 63154U 97012U   25261.96042638  .00002717  00000-0  11716-2 0  9997
2 63154  98.7920 311.8791 0038049 121.5122 238.9783 14.24964122 30484
DMSP 5D-2 F14 DEB
1 63154U 97012U   25262.38172810  .00002653  00000-0  11445-2 0  9998
2 63154  98.7920 312.3011 0038034 120.3662 240.1286 14.24966259 30548
DMSP 5D-2 F14 DEB
1 63154U 97012U   25262.87324575  .00002866  00000-0  12347-2 0  9997
2 63154  98.7919 312.7934 0037999 119.0113 241.4883 14.24969607 30614
DMSP 5D-2 F14 DEB
1 63154U 97012U   25263.36476241  .00003189  00000-0  13715-2 0  9999
2 63154  98.7918 313.2857 0037984 117.6530 242.8513 14.24973293 30682
DMSP 5D-2 F14 DEB
1 63154U 97012U   25269.61389989  .00005204  00000-0  22230-2 0  9997
2 63154  98.7901 319.5444 0037590 100.4040 260.1379 14.25037273 31576
DMSP 5D-2 F14 DEB
1 63154U 97012U   25271.36922119  .00005720  00000-0  24406-2 0  9990
2 63154  98.7904 321.3021 0037394  95.4474 265.0972 14.25056431 31825
DMSP 5D-2 F14 DEB
1 63154U 97012U   25279.86451317  .00004070  00000-0  17390-2 0  9991
2 63154  98.7912 329.8101 0036669  71.1784 289.3366 14.25170447 33030
DMSP 5D-2 F14 DEB
1 63154U 97012U   25280.07513309  .00004104  00000-0  17537-2 0  9997
2 63154  98.7923 330.0227 0036631  70.8483 289.6656 14.25171285 33065
DMSP 5D-2 F14 DEB
1 63154U 97012U   25280.35595889  .00003891  00000-0  16635-2 0  9991
2 63154  98.7895 330.3038 0036579  69.9822 290.5290 14.25173388 33109
DMSP 5D-2 F14 DEB
1 63154U 97012U   25285.90218117  .00004453  00000-0  18998-2 0  9992
2 63154  98.7887 335.8583 0036087  54.0548 306.3970 14.25217503 33894
DMSP 5D-2 F14 DEB
1 63154U 97012U   25286.88503577  .00004210  00000-0  17967-2 0  9993
2 63154  98.7890 336.8427 0035932  51.1128 309.3247 14.25226561 34037
DMSP 5D-2 F14 DEB
1 63154U 97012U   25289.41235330  .00003753  00000-0  16036-2 0  9991
2 63154  98.7893 339.3741 0035693  43.7289 316.6708 14.25245542 34398
DMSP 5D-2 F14 DEB
1 63154U 97012U   25290.88660642  .00004797  00000-0  20436-2 0  9990
2 63154  98.7894 340.8511 0035512  39.3262 321.0486 14.25258549 34601
DMSP 5D-2 F14 DEB
1 63154U 97012U   25291.09721262  .00004935  00000-0  21018-2 0  9991
2 63154  98.7896 341.0623 0035489  38.6404 321.7304 14.25260798 34631
DMSP 5D-2 F14 DEB
1 63154U 97012U   25291.93963570  .00005544  00000-0  23584-2 0  9991
2 63154  98.7891 341.9061 0035445  36.2782 324.0790 14.25269351 34758
DMSP 5D-2 F14 DEB
1 63154U 97012U   25292.08003877  .00005649  00000-0  24026-2 0  9991
2 63154  98.7892 342.0466 0035434  35.8433 324.5114 14.25271116 34775
DMSP 5D-2 F14 DEB
1 63154U 97012U   25294.39666543  .00004996  00000-0  21264-2 0  9997
2 63154  98.7884 344.3672 0035234  29.0478 331.2652 14.25297001 35103
DMSP 5D-2 F14 DEB
1 63154U 97012U   25295.09866620  .00004407  00000-0  18779-2 0  9997
2 63154  98.7882 345.0704 0035172  26.9356 333.3639 14.25302695 35202
DMSP 5D-2 F14 DEB
1 63154U 97012U   25295.59006503  .00004093  00000-0  17453-2 0  9997
2 63154  98.7881 345.5627 0035111  25.3595 334.9298 14.25306421 35277
DMSP 5D-2 F14 DEB
1 63154U 97012U   25296.57285853  .00004053  00000-0  17282-2 0  9999
2 63154  98.7878 346.5473 0035020  22.3263 337.9431 14.25314539 35418
DMSP 5D-2 F14 DEB
1 63154U 97012U   25298.11723702  .00003967  00000-0  16918-2 0  9999
2 63154  98.7875 348.0942 0034913  17.7447 342.4943 14.25327366 35630
DMSP 5D-2 F14 DEB
1 63154U 97012U   25298.39803154  .00004166  00000-0  17757-2 0  9993
2 63154  98.7875 348.3753 0034907  16.9728 343.2610 14.25330069 35677
DMSP 5D-2 F14 DEB
1 63154U 97012U   25299.10001625  .00003819  00000-0  16292-2 0  9993
2 63154  98.7875 349.0784 0034868  14.8618 345.3578 14.25334931 35779
DMSP 5D-2 F14 DEB
1 63154U 97012U   25299.87219649  .00003886  00000-0  16571-2 0  9998
2 63154  98.7876 349.8519 0034826  12.5477 347.6561 14.25340856 35888
DMSP 5D-2 F14 DEB
1 63154U 97012U   25300.08279049  .00003945  00000-0  16822-2 0  9999
2 63154  98.7875 350.0628 0034813  11.9009 348.2985 14.25342654 35911
DMSP 5D-2 F14 DEB
1 63154U 97012U   25300.92516461  .00004048  00000-0  17253-2 0  9998
2 63154  98.7869 350.9060 0034767   9.3913 350.7909 14.25348838 36034
DMSP 5D-2 F14 DEB
1 63154U 97012U   25302.89068873  .00004084  00000-0  17400-2 0  9999
2 63154  98.7873 352.8748 0034662   3.4088 356.7321 14.25363969 36312
DMSP 5D-2 F14 DEB
1 63154U 97012U   25303.38206572  .00004358  00000-0  18550-2 0  9995
2 63154  98.7877 353.3670 0034649   1.8735 358.2568 14.25369015 36387
DMSP 5D-2 F14 DEB
1 63154U 97012U   25304.85618710  .00004304  00000-0  18322-2 0  9997
2 63154  98.7880 354.8440 0034614 357.4207   2.6788 14.25382907 36590
DMSP 5D-2 F14 DEB
1 63154U 97012U   25307.10244362  .00003417  00000-0  14580-2 0  9992
2 63154  98.7876 357.0944 0034533 350.5738   9.4789 14.25399776 36916
DMSP 5D-2 F14 DEB
1 63154U 97012U   25308.43614628  .00003459  00000-0  14757-2 0  9997
2 63154  98.7869 358.4304 0034540 346.4014  13.6231 14.25409497 37105
DMSP 5D-2 F14 DEB
1 63154U 97012U   25308.92750793  .00003399  00000-0  14504-2 0  9998
2 63154  98.7871 358.9227 0034494 345.0757  14.9401 14.25413181 37179
DMSP 5D-2 F14 DEB
1 63154U 97012U   25309.41886839  .00003592  00000-0  15314-2 0  9999
2 63154  98.7869 359.4149 0034480 343.5837  16.4223 14.25417388 37242
DMSP 5D-2 F14 DEB
1 63154U 97012U   25314.40256830  .00004990  00000-0  21173-2 0  9999
2 63154  98.7858   4.4062 0034341 328.6983  31.2151 14.25470022 37950
DMSP 5D-2 F14 DEB
1 63154U 97012U   25320.57921866  .00005141  00000-0  21767-2 0  9990
2 63154  98.7871  10.5943 0034536 309.6580  50.1554 14.25564181 38834
DMSP 5D-2 F14 DEB
1 63154U 97012U   25321.42146156  .00005289  00000-0  22385-2 0  9996
2 63154  98.7882  11.4389 0034802 307.0242  52.7755 14.25572959 38959
DMSP 5D-2 F14 DEB
1 63154U 97012U   25323.10593436  .00003454  00000-0  14684-2 0  9995
2 63154  98.7858  13.1261 0034704 302.1039  57.6773 14.25586182 39195
DMSP 5D-2 F14 DEB
1 63154U 97012U   25326.40465074  .00004004  00000-0  16982-2 0  9992
2 63154  98.7848  16.4307 0034776 292.2334  67.5158 14.25613052 39663
DMSP 5D-2 F14 DEB
1 63154U 97012U   25327.10649804  .00003354  00000-0  14254-2 0  9992
2 63154  98.7847  17.1337 0034849 290.1248  69.6183 14.25616952 39769
DMSP 5D-2 F14 DEB
1 63154U 97012U   25328.08907948  .00003773  00000-0  16006-2 0  9998
2 63154  98.7848  18.1181 0034948 287.1783  72.5571 14.25625609 39907
DMSP 5D-2 F14 DEB
1 63154U 97012U   25328.36981621  .00003609  00000-0  15319-2 0  9993
2 63154  98.7845  18.3995 0034937 286.2796  73.4541 14.25627190 39949
DMSP 5D-2 F14 DEB
1 63154U 97012U   25328.93128823  .00004399  00000-0  18627-2 0  9995
2 63154  98.7845  18.9619 0034993 284.6287  75.1014 14.25633230 40024
DMSP 5D-2 F14 DEB
1 63154U 97012U   25330.40514296  .00004095  00000-0  17352-2 0  9990
2 63154  98.7848  20.4381 0035129 280.2655  79.4565 14.25645237 40235
DMSP 5D-2 F14 DEB
1 63154U 97012U   25330.96660791  .00004119  00000-0  17449-2 0  9997
2 63154  98.7851  21.0009 0035180 278.6179  81.1016 14.25650402 40312
DMSP 5D-2 F14 DEB
1 63154U 97012U   25331.10697394  .00004096  00000-0  17350-2 0  9998
2 63154  98.7852  21.1415 0035184 278.2043  81.5146 14.25651600 40336
DMSP 5D-2 F14 DEB
1 63154U 97012U   25332.93172306  .00003878  00000-0  16432-2 0  9998
2 63154  98.7855  22.9701 0035323 272.8435  86.8702 14.25665451 40599
DMSP 5D-2 F14 DEB
1 63154U 97012U   25334.40554544  .00003824  00000-0  16201-2 0  9995
2 63154  98.7857  24.4471 0035439 268.4829  91.2291 14.25677355 40801
DMSP 5D-2 F14 DEB
1 63154U 97012U   25335.10736168  .00003858  00000-0  16342-2 0  9990
2 63154  98.7857  25.1504 0035493 266.4196  93.2924 14.25683072 40900
DMSP 5D-2 F14 DEB
1 63154U 97012U   25336.08989938  .00004177  00000-0  17673-2 0  9996
2 63154  98.7857  26.1350 0035557 263.5576  96.1554 14.25691948 41049
DMSP 5D-2 F14 DEB
1 63154U 97012U   25336.93206963  .00004840  00000-0  20443-2 0  9996
2 63154  98.7856  26.9789 0035622 261.0941  98.6205 14.25700765 41165
DMSP 5D-2 F14 DEB
1 63154U 97012U   25337.91459516  .00007125  00000-0  29988-2 0  9991
2 63154  98.7851  27.9634 0035682 258.2034 101.5142 14.25715479 41305
DMSP 5D-2 F14 DEB
1 63154U 97012U   25338.40585330  .00008073  00000-0  33941-2 0  9997
2 63154  98.7848  28.4557 0035723 256.7501 102.9693 14.25724237 41374
DMSP 5D-2 F14 DEB
1 63154U 97012U   25338.96728933  .00007743  00000-0  32557-2 0  9991
2 63154  98.7847  29.0182 0035765 255.1264 104.5953 14.25730755 41457
DMSP 5D-2 F14 DEB
1 63154U 97012U   25339.94979492  .00006103  00000-0  25700-2 0  9999
2 63154  98.7844  30.0025 0035832 252.2803 107.4464 14.25741299 41593
DMSP 5D-2 F14 DEB
1 63154U 97012U   25340.37086598  .00006583  00000-0  27704-2 0  9992
2 63154  98.7842  30.4243 0035848 251.0613 108.6679 14.25747851 41658
DMSP 5D-2 F14 DEB
1 63154U 97012U   25343.10779744  .00004310  00000-0  18196-2 0  9999
2 63154  98.7838  33.1663 0036040 243.1324 116.6169 14.25773981 42045
DMSP 5D-2 F14 DEB
1 63154U 97012U   25343.59903669  .00005539  00000-0  23328-2 0  9994
2 63154  98.7838  33.6585 0036067 241.7228 118.0310 14.25780559 42110
DMSP 5D-2 F14 DEB
1 63154U 97012U   25344.09027372  .00004989  00000-0  21027-2 0  9990
2 63154  98.7839  34.1507 0036094 240.3019 119.4566 14.25784470 42185
DMSP 5D-2 F14 DEB
1 63154U 97012U   25346.40608016  .00005637  00000-0  23718-2 0  9997
2 63154  98.7843  36.4714 0036276 233.6934 126.0894 14.25812034 42511
DMSP 5D-2 F14 DEB
1 63154U 97012U   25347.10783117  .00005221  00000-0  21979-2 0  9997
2 63154  98.7844  37.1746 0036318 231.6660 128.1253 14.25819698 42612
DMSP 5D-2 F14 DEB
1 63154U 97012U   25347.59905454  .00004525  00000-0  19075-2 0  9990
2 63154  98.7844  37.6668 0036349 230.2675 129.5300 14.25823928 42681
DMSP 5D-2 F14 DEB
1 63154U 97012U   25347.94992787  .00004240  00000-0  17887-2 0  9997
2 63154  98.7847  38.0186 0036350 229.2423 130.5600 14.25826674 42737
DMSP 5D-2 F14 DEB
1 63154U 97012U   25348.93236903  .00002927  00000-0  12403-2 0  9997
2 63154  98.7851  39.0037 0036487 226.5893 133.2247 14.25832921 42874
DMSP 5D-2 F14 DEB
1 63154U 97012U   25349.42358863  .00002778  00000-0  11784-2 0  9997
2 63154  98.7849  39.4957 0036484 225.1127 134.7089 14.25835874 42946
DMSP 5D-2 F14 DEB
1 63154U 97012U   25350.96741459  .00002848  00000-0  12074-2 0  9996
2 63154  98.7847  41.0429 0036590 220.7479 139.0963 14.25845497 43162
DMSP 5D-2 F14 DEB
1 63154U 97012U   25351.10776213  .00002826  00000-0  11981-2 0  9991
2 63154  98.7845  41.1836 0036598 220.2920 139.5546 14.25846238 43185
DMSP 5D-2 F14 DEB
1 63154U 97012U   25351.59897725  .00002834  00000-0  12014-2 0  9993
2 63154  98.7844  41.6758 0036616 218.8712 140.9833 14.25849227 43259
DMSP 5D-2 F14 DEB
1 63154U 97012U   25352.09019164  .00002873  00000-0  12175-2 0  9993
2 63154  98.7842  42.1681 0036641 217.4579 142.4046 14.25852009 43325
DMSP 5D-2 F14 DEB
1 63154U 97012U   25353.98486597  .00002495  00000-0  10594-2 0  9993
2 63154  98.7836  44.0667 0036755 212.0670 147.8274 14.25862302 43590
DMSP 5D-2 F14 DEB
1 63154U 97012U   25354.40590275  .00002536  00000-0  10767-2 0  9998
2 63154  98.7838  44.4886 0036774 211.0137 148.8871 14.25864534 43657
DMSP 5D-2 F14 DEB
1 63154U 97012U   25355.38831993  .00002796  00000-0  11849-2 0  9991
2 63154  98.7835  45.4730 0036826 208.2098 151.7087 14.25870714 43799
DMSP 5D-2 F14 DEB
1 63154U 97012U   25363.38781140  .00005205  00000-0  21856-2 0  9995
2 63154  98.7832  53.4897 0037114 185.6643 174.4122 14.25939101 44939
DMSP 5D-2 F14 DEB
1 63154U 97012U   25363.94916411  .00005603  00000-0  23507-2 0  9995
2 63154  98.7836  54.0530 0037124 184.3237 175.7627 14.25945093 45011
DMSP 5D-2 F14 DEB
1 63154U 97012U   25364.37017725  .00005713  00000-0  23961-2 0  9999
2 63154  98.7835  54.4749 0037133 183.0400 177.0559 14.25949469 45070
DMSP 5D-2 F14 DEB
1 63154U 97012U   26001.61555376  .00006552  00000-0  27435-2 0  9996
2 63154  98.7833  56.7255 0037117 176.8541 183.2879 14.25977626 45398
DMSP 5D-2 F14 DEB
1 63154U 97012U   26002.59789291  .00006162  00000-0  25810-2 0  9991
2 63154  98.7828  57.7095 0037189 174.2160 185.9456 14.25988110 45539
DMSP 5D-2 F14 DEB
1 63154U 97012U   26005.40453483  .00004223  00000-0  17742-2 0  9996
2 63154  98.7821  60.5221 0037141 166.4869 193.7314 14.26014846 45933
DMSP 5D-2 F14 DEB
1 63154U 97012U   26006.10618724  .00003839  00000-0  16145-2 0  9993
2 63154  98.7819  61.2250 0037234 164.2174 196.0175 14.26021113 46036
DMSP 5D-2 F14 DEB
1 63154U 97012U   26006.59734256  .00003679  00000-0  15480-2 0  9998
2 63154  98.7819  61.7172 0037215 162.8655 197.3790 14.26024640 46104
DMSP 5D-2 F14 DEB
1 63154U 97012U   26007.08849658  .00003392  00000-0  14285-2 0  9990
2 63154  98.7820  62.2093 0037206 161.4947 198.7596 14.26027940 46175
DMSP 5D-2 F14 DEB
1 63154U 97012U   26007.36915549  .00003110  00000-0  13114-2 0  9992
2 63154  98.7820  62.4905 0037199 160.7333 199.5262 14.26029332 46212
DMSP 5D-2 F14 DEB
1 63154U 97012U   26011.08785034  .00003242  00000-0  13657-2 0  9998
2 63154  98.7824  66.2180 0037171 150.3483 209.9815 14.26054950 46746
DMSP 5D-2 F14 DEB
1 63154U 97012U   26011.57899360  .00003194  00000-0  13456-2 0  9993
2 63154  98.7825  66.7104 0037122 149.0342 211.3037 14.26058263 46815
DMSP 5D-2 F14 DEB
1 63154U 97012U   26013.40323097  .00002528  00000-0  10685-2 0  9997
2 63154  98.7827  68.5391 0037022 144.0402 216.3279 14.26068530 47076
DMSP 5D-2 F14 DEB
1 63154U 97012U   26014.10485780  .00002031  00000-0  86220-3 0  9991
2 63154  98.7826  69.2423 0037016 142.0529 218.3270 14.26071139 47173
DMSP 5D-2 F14 DEB
1 63154U 97012U   26015.36778249  .00002037  00000-0  86449-3 0  9994
2 63154  98.7826  70.5081 0037055 138.4619 221.9386 14.26076537 47355
DMSP 5D-2 F14 DEB
1 63154U 97012U   26015.92908092  .00002055  00000-0  87199-3 0  9990
2 63154  98.7824  71.0707 0037019 136.9093 223.4995 14.26078832 47435
DMSP 5D-2 F14 DEB
1 63154U 97012U   26017.96377708  .00003018  00000-0  12716-2 0  9992
2 63154  98.7817  73.1099 0036955 131.2193 229.2182 14.26091263 47728
DMSP 5D-2 F14 DEB
1 63154U 97012U   26018.38474652  .00003029  00000-0  12761-2 0  9997
2 63154  98.7816  73.5318 0036943 130.0348 230.4082 14.26093628 47787
DMSP 5D-2 F14 DEB
1 63154U 97012U   26018.94603782  .00002975  00000-0  12537-2 0  9997
2 63154  98.7816  74.0943 0036889 128.4867 231.9631 14.26096657 47863
DMSP 5D-2 F14 DEB
1 63154U 97012U   26019.99845456  .00004110  00000-0  17242-2 0  9990
2 63154  98.7815  75.1491 0036796 125.5299 234.9321 14.26106688 48019
DMSP 5D-2 F14 DEB
1 63154U 97012U   26020.98069091  .00008955  00000-0  37308-2 0  9990
2 63154  98.7811  76.1334 0036761 122.7592 237.7139 14.26133551 48151
DMSP 5D-2 F14 DEB
1 63154U 97012U   26021.40164500  .00008436  00000-0  35152-2 0  9998
2 63154  98.7808  76.5555 0036746 121.6180 238.8593 14.26141074 48212
DMSP 5D-2 F14 DEB
1 63154U 97012U   26022.94512899  .00004317  00000-0  18084-2 0  9995
2 63154  98.7806  78.1026 0036647 117.2764 243.2156 14.26161619 48436
DMSP 5D-2 F14 DEB
1 63154U 97012U   26023.36607661  .00005010  00000-0  20951-2 0  9991
2 63154  98.7805  78.5244 0036643 116.0787 244.4172 14.26166980 48492
DMSP 5D-2 F14 DEB
1 63154U 97012U   26026.59330263  .00004718  00000-0  19732-2 0  9999
2 63154  98.7810  81.7597 0036416 106.9817 253.5359 14.26196878 48953
DMSP 5D-2 F14 DEB
1 63154U 97012U   26030.10107552  .00004609  00000-0  19273-2 0  9993
2 63154  98.7808  85.2761 0036214  97.0306 263.4994 14.26229988 49451
DMSP 5D-2 F14 DEB
1 63154U 97012U   26033.39831378  .00002823  00000-0  11875-2 0  9993
2 63154  98.7795  88.5809 0036000  87.7101 272.8200 14.26251737 49920
DMSP 5D-2 F14 DEB
1 63154U 97012U   26034.09984683  .00003055  00000-0  12835-2 0  9994
2 63154  98.7793  89.2840 0035895  85.6614 274.8666 14.26257096 50023
DMSP 5D-2 F14 DEB
1 63154U 97012U   26035.36260000  .00003491  00000-0  14634-2 0  9998
2 63154  98.7790  90.5496 0035796  82.0406 278.4834 14.26266932 50208
DMSP 5D-2 F14 DEB
1 63154U 97012U   26037.95822886  .00003987  00000-0  16680-2 0  9994
2 63154  98.7788  93.1513 0035602  74.6307 285.8802 14.26289220 50579
DMSP 5D-2 F14 DEB
1 63154U 97012U   26038.09853182  .00004005  00000-0  16756-2 0  9999
2 63154  98.7789  93.2920 0035556  74.1878 286.3217 14.26290548 50592
DMSP 5D-2 F14 DEB
1 63154U 97012U   26038.37913776  .00004011  00000-0  16782-2 0  9992
2 63154  98.7790  93.5733 0035517  73.3703 287.1372 14.26292786 50636
DMSP 5D-2 F14 DEB
1 63154U 97012U   26038.94034902  .00003382  00000-0  14177-2 0  9996
2 63154  98.7790  94.1360 0035465  71.7464 288.7570 14.26295232 50712
DMSP 5D-2 F14 DEB
1 63154U 97012U   26041.39562998  .00002955  00000-0  12412-2 0  9995
2 63154  98.7792  96.5973 0035235  64.6592 295.8230 14.26310510 51066
DMSP 5D-2 F14 DEB
1 63154U 97012U   26042.37773456  .00003342  00000-0  14008-2 0  9991
2 63154  98.7793  97.5818 0035151  61.8050 298.6673 14.26317606 51202
DMSP 5D-2 F14 DEB
1 63154U 97012U   26043.07923542  .00003300  00000-0  13835-2 0  9993
2 63154  98.7794  98.2850 0035104  59.7290 300.7356 14.26321798 51308
DMSP 5D-2 F14 DEB
1 63154U 97012U   26043.35983467  .00003370  00000-0  14124-2 0  9995
2 63154  98.7795  98.5663 0035055  58.8890 301.5721 14.26323961 51348
DMSP 5D-2 F14 DEB
1 63154U 97012U   26045.11357415  .00002905  00000-0  12200-2 0  9995
2 63154  98.7792 100.3244 0034875  53.7622 306.6772 14.26333966 51593
DMSP 5D-2 F14 DEB
1 63154U 97012U   26046.09566304  .00002581  00000-0  10861-2 0  9993
2 63154  98.7790 101.3087 0034811  50.9015 309.5252 14.26338474 51732
DMSP 5D-2 F14 DEB
1 63154U 97012U   26049.39264353  .00002820  00000-0  11844-2 0  9996
2 63154  98.7780 104.6134 0034533  41.2476 319.1303 14.26358889 52204
DMSP 5D-2 F14 DEB
1 63154U 97012U   26050.09412298  .00002583  00000-0  10863-2 0  9994
2 63154  98.7776 105.3164 0034469  39.1886 321.1780 14.26362252 52301
DMSP 5D-2 F14 DEB
1 63154U 97012U   26052.61943413  .00002499  00000-0  10517-2 0  9994
2 63154  98.7773 107.8477 0034249  31.7002 328.6230 14.26375391 52665
DMSP 5D-2 F14 DEB
1 63154U 97012U   26053.95222652  .00003148  00000-0  13196-2 0  9995
2 63154  98.7775 109.1840 0034132  27.6412 332.6573 14.26384809 52856
DMSP 5D-2 F14 DEB
1 63154U 97012U   26054.37310655  .00003109  00000-0  13032-2 0  9999
2 63154  98.7775 109.6060 0034112  26.3813 333.9095 14.26387323 52918
DMSP 5D-2 F14 DEB
1 63154U 97012U   26056.61778786  .00002683  00000-0  11274-2 0  9993
2 63154  98.7773 111.8563 0033950  19.6784 340.5698 14.26399842 53238
DMSP 5D-2 F14 DEB
1 63154U 97012U   26057.10880904  .00002701  00000-0  11347-2 0  9996
2 63154  98.7774 112.3483 0033918  18.2238 342.0149 14.26402851 53300
DMSP 5D-2 F14 DEB
1 63154U 97012U   26057.59982882  .00002864  00000-0  12018-2 0  9993
2 63154  98.7774 112.8405 0033873  16.7591 343.4700 14.26406511 53376
DMSP 5D-2 F14 DEB
1 63154U 97012U   26057.95055701  .00002931  00000-0  12295-2 0  9996
2 63154  98.7772 113.1921 0033857  15.6967 344.5255 14.26408639 53424
DMSP 5D-2 F14 DEB
1 63154U 97012U   26058.09084801  .00002924  00000-0  12265-2 0  9994
2 63154  98.7772 113.3328 0033841  15.2730 344.9463 14.26409502 53441
DMSP 5D-2 F14 DEB
1 63154U 97012U   26058.09084801  .00002924  00000-0  12265-2 0  9994
2 63154  98.7772 113.3328 0033841  15.2730 344.9464 14.26409502 53442
DMSP 5D-2 F14 DEB
1 63154U 97012U   26058.58186597  .00002898  00000-0  12157-2 0  9993
2 63154  98.7772 113.8250 0033802  13.7837 346.4258 14.26412394 53518
DMSP 5D-2 F14 DEB
1 63154U 97012U   26058.58186598  .00002898  00000-0  12157-2 0  9994
2 63154  98.7772 113.8250 0033802  13.7837 346.4258 14.26412394 53518
DMSP 5D-2 F14 DEB
1 63154U 97012U   26060.61607182  .00003298  00000-0  13807-2 0  9996
2 63154  98.7769 115.8639 0033671   7.6113 352.5571 14.26426212 53802
DMSP 5D-2 F14 DEB
1 63154U 97012U   26060.61607183  .00003298  00000-0  13807-2 0  9997
2 63154  98.7769 115.8639 0033671   7.6113 352.5571 14.26426212 53802
DMSP 5D-2 F14 DEB
1 63154U 97012U   26061.10708424  .00003195  00000-0  13379-2 0  9992
2 63154  98.7768 116.3560 0033642   6.1209 354.0375 14.26429007 53879
DMSP 5D-2 F14 DEB
1 63154U 97012U   26061.38766237  .00003440  00000-0  14394-2 0  9999
2 63154  98.7766 116.6373 0033620   5.2808 354.8720 14.26431458 53913
DMSP 5D-2 F14 DEB
1 63154U 97012U   26061.59809565  .00003340  00000-0  13978-2 0  9990
2 63154  98.7764 116.8481 0033600   4.6878 355.4610 14.26432563 53947
DMSP 5D-2 F14 DEB
1 63154U 97012U   26061.59809566  .00003340  00000-0  13978-2 0  9991
2 63154  98.7764 116.8481 0033600   4.6878 355.4610 14.26432563 53947
DMSP 5D-2 F14 DEB
1 63154U 97012U   26061.94881712  .00003273  00000-0  13703-2 0  9994
2 63154  98.7763 117.1996 0033572   3.5991 356.5424 14.26434659 53991
DMSP 5D-2 F14 DEB
1 63154U 97012U   26061.94881712  .00003273  00000-0  13703-2 0  9994
2 63154  98.7763 117.1996 0033572   3.5991 356.5424 14.26434659 53991
DMSP 5D-2 F14 DEB
1 63154U 97012U   26064.61428032  .00003765  00000-0  15726-2 0  9996
2 63154  98.7753 119.8711 0033400 355.4930   4.5944 14.26455084 54371
DMSP 5D-2 F14 DEB
1 63154U 97012U   26064.61428033  .00003765  00000-0  15726-2 0  9997
2 63154  98.7753 119.8711 0033400 355.4930   4.5944 14.26455084 54371
DMSP 5D-2 F14 DEB
1 63154U 97012U   26065.59628407  .00003670  00000-0  15332-2 0  9990
2 63154  98.7751 120.8555 0033358 352.4959   7.5718 14.26461928 54519
DMSP 5D-2 F14 DEB
1 63154U 97012U   26066.36785529  .00003898  00000-0  16271-2 0  9990
2 63154  98.7750 121.6289 0033329 350.1583   9.8940 14.26467579 54629
DMSP 5D-2 F14 DEB
1 63154U 97012U   26066.36785529  .00003898  00000-0  16271-2 0  9990
2 63154  98.7750 121.6289 0033329 350.1583   9.8940 14.26467579 54629
DMSP 5D-2 F14 DEB
1 63154U 97012U   26068.12141341  .00003825  00000-0  15967-2 0  9995
2 63154  98.7748 123.3866 0033250 344.8006  15.2172 14.26481094 54872
DMSP 5D-2 F14 DEB
1 63154U 97012U   26068.96311576  .00003388  00000-0  14164-2 0  9998
2 63154  98.7749 124.2304 0033218 342.2384  17.7632 14.26486587 54998
DMSP 5D-2 F14 DEB
1 63154U 97012U   26069.10339904  .00003376  00000-0  14114-2 0  9992
2 63154  98.7749 124.3710 0033223 341.7909  18.2079 14.26487715 55012
DMSP 5D-2 F14 DEB
1 63154U 97012U   26069.10339904  .00003376  00000-0  14114-2 0  9992
2 63154  98.7749 124.3710 0033223 341.7909  18.2079 14.26487715 55012
DMSP 5D-2 F14 DEB
1 63154U 97012U   26069.59438992  .00003276  00000-0  13702-2 0  9993
2 63154  98.7749 124.8632 0033200 340.2939  19.6956 14.26491238 55083
DMSP 5D-2 F14 DEB
1 63154U 97012U   26069.59438992  .00003276  00000-0  13702-2 0  9993
2 63154  98.7749 124.8632 0033200 340.2939  19.6956 14.26491238 55083
DMSP 5D-2 F14 DEB
1 63154U 97012U   26070.99721534  .00002934  00000-0  12290-2 0  9997
2 63154  98.7750 126.2694 0033155 335.9907  23.9726 14.26499880 55280
DMSP 5D-2 F14 DEB
1 63154U 97012U   26070.99721534  .00002934  00000-0  12290-2 0  9997
2 63154  98.7750 126.2694 0033155 335.9907  23.9726 14.26499880 55280
DMSP 5D-2 F14 DEB
1 63154U 97012U   26072.40003274  .00002980  00000-0  12478-2 0  9998
2 63154  98.7750 127.6755 0033111 331.7238  28.2144 14.26508785 55485
DMSP 5D-2 F14 DEB
1 63154U 97012U   26072.96115726  .00003075  00000-0  12867-2 0  9993
2 63154  98.7751 128.2380 0033118 329.8828  30.0447 14.26512309 55560
DMSP 5D-2 F14 DEB
1 63154U 97012U   26077.37996840  .00002385  00000-0  10018-2 0  9996
2 63154  98.7742 132.6668 0033101 316.2974  43.5586 14.26536490 56192
DMSP 5D-2 F14 DEB
1 63154U 97012U   26077.59038663  .00002441  00000-0  10250-2 0  9991
2 63154  98.7742 132.8776 0033107 315.6570  44.1959 14.26537633 56220
DMSP 5D-2 F14 DEB
1 63154U 97012U   26077.59038664  .00002441  00000-0  10250-2 0  9992
2 63154  98.7742 132.8776 0033107 315.6570  44.1959 14.26537633 56220
DMSP 5D-2 F14 DEB
1 63154U 97012U   26078.36191873  .00002331  00000-0  97938-3 0  9997
2 63154  98.7740 133.6510 0033116 313.2717  46.5701 14.26540372 56337
DMSP 5D-2 F14 DEB
1 63154U 97012U   26079.62442231  .00002627  00000-0  11013-2 0  9991
2 63154  98.7737 134.9165 0033140 309.3721  50.4524 14.26546354 56514
DMSP 5D-2 F14 DEB
1 63154U 97012U   26080.60636463  .00003137  00000-0  13114-2 0  9994
2 63154  98.7735 135.9008 0033167 306.3355  53.4764 14.26552949 56659
DMSP 5D-2 F14 DEB
1 63154U 97012U   26081.37788749  .00003211  00000-0  13418-2 0  9994
2 63154  98.7734 136.6743 0033180 303.9615  55.8412 14.26557798 56764
DMSP 5D-2 F14 DEB
1 63154U 97012U   26083.90284858  .00002870  00000-0  12008-2 0  9991
2 63154  98.7730 139.2052 0033138 296.2458  63.5318 14.26575532 57122
DMSP 5D-2 F14 DEB
1 63154U 97012U   26085.37573079  .00002755  00000-0  11534-2 0  9995
2 63154  98.7741 140.6823 0033191 291.9617  67.8036 14.26584709 57337
DMSP 5D-2 F14 DEB
1 63154U 97012U   26085.37573079  .00002755  00000-0  11534-2 0  9995
2 63154  98.7741 140.6823 0033191 291.9617  67.8036 14.26584710 57339
DMSP 5D-2 F14 DEB
1 63154U 97012U   26086.42778439  .00002771  00000-0  11599-2 0  9998
2 63154  98.7739 141.7367 0033204 288.7030  71.0547 14.26590834 57483
DMSP 5D-2 F14 DEB
1 63154U 97012U   26086.42778439  .00002771  00000-0  11599-2 0  9998
2 63154  98.7739 141.7367 0033204 288.7030  71.0547 14.26590834 57483
DMSP 5D-2 F14 DEB
1 63154U 97012U   26087.62010715  .00003056  00000-0  12767-2 0  9992
2 63154  98.7732 142.9314 0033363 284.8000  74.9484 14.26598198 57653
DMSP 5D-2 F14 DEB
1 63154U 97012U   26088.11106206  .00003219  00000-0  13436-2 0  9993
2 63154  98.7735 143.4233 0033424 283.3123  76.4330 14.26601479 57722
DMSP 5D-2 F14 DEB
1 63154U 97012U   26088.95269580  .00003702  00000-0  15422-2 0  9994
2 63154  98.7724 144.2666 0033425 280.7140  79.0277 14.26608417 57841
DMSP 5D-2 F14 DEB
1 63154U 97012U   26088.95269581  .00003702  00000-0  15422-2 0  9995
2 63154  98.7724 144.2666 0033425 280.7140  79.0277 14.26608417 57841
DMSP 5D-2 F14 DEB
1 63154U 97012U   26090.42554585  .00003716  00000-0  15473-2 0  9992
2 63154  98.7726 145.7429 0033627 276.2201  83.5148 14.26618869 58051
DMSP 5D-2 F14 DEB
1 63154U 97012U   26090.42554585  .00003716  00000-0  15473-2 0  9992
2 63154  98.7726 145.7430 0033627 276.2202  83.5148 14.26618869 58054
DMSP 5D-2 F14 DEB
1 63154U 97012U   26091.12689913  .00003662  00000-0  15253-2 0  9990
2 63154  98.7723 146.4459 0033693 274.0689  85.6640 14.26623958 58154
DMSP 5D-2 F14 DEB
1 63154U 97012U   26091.12689914  .00003662  00000-0  15253-2 0  9991
2 63154  98.7723 146.4459 0033693 274.0689  85.6640 14.26623958 58154
DMSP 5D-2 F14 DEB
1 63154U 97012U   26092.10879048  .00003105  00000-0  12958-2 0  9990
2 63154  98.7721 147.4299 0033737 271.1185  88.6129 14.26629187 58293
DMSP 5D-2 F14 DEB
1 63154U 97012U   26092.10879048  .00003105  00000-0  12958-2 0  9990
2 63154  98.7721 147.4299 0033737 271.1186  88.6129 14.26629187 58294
DMSP 5D-2 F14 DEB
1 63154U 97012U   26093.09067467  .00004501  00000-0  18695-2 0  9998
2 63154  98.7718 148.4140 0033764 268.1511  91.5801 14.26641628 58434
DMSP 5D-2 F14 DEB
1 63154U 97012U   26093.37121245  .00005023  00000-0  20839-2 0  9997
2 63154  98.7716 148.6952 0033791 267.2870  92.4442 14.26644453 58477
DMSP 5D-2 F14 DEB
1 63154U 97012U   26093.37121247  .00005023  00000-0  20839-2 0  9999
2 63154  98.7716 148.6952 0033791 267.2870  92.4442 14.26644454 58478
DMSP 5D-2 F14 DEB
1 63154U 97012U   26095.40509115  .00003945  00000-0  16401-2 0  9990
2 63154  98.7709 150.7336 0033946 261.1114  98.6222 14.26662686 58769
DMSP 5D-2 F14 DEB
1 63154U 97012U   26095.40509115  .00003945  00000-0  16401-2 0  9990
2 63154  98.7709 150.7336 0033946 261.1114  98.6222 14.26662686 58769
DMSP 5D-2 F14 DEB
1 63154U 97012U   26095.61549112  .00003777  00000-0  15708-2 0  9996
2 63154  98.7711 150.9447 0033991 260.4855  99.2483 14.26664268 58798
DMSP 5D-2 F14 DEB
1 63154U 97012U   26096.59735514  .00003357  00000-0  13981-2 0  9992
2 63154  98.7709 151.9287 0034077 257.5219 102.2148 14.26670864 58933
DMSP 5D-2 F14 DEB
1 63154U 97012U   26097.08828586  .00003121  00000-0  13013-2 0  9994
2 63154  98.7709 152.4208 0034087 256.0561 103.6827 14.26673411 59006
DMSP 5D-2 F14 DEB
1 63154U 97012U   26097.08828587  .00003121  00000-0  13013-2 0  9995
2 63154  98.7709 152.4208 0034087 256.0561 103.6827 14.26673411 59006
DMSP 5D-2 F14 DEB
1 63154U 97012U   26097.57921587  .00002770  00000-0  11570-2 0  9998
2 63154  98.7710 152.9129 0034165 254.5853 105.1552 14.26675461 59075
DMSP 5D-2 F14 DEB
1 63154U 97012U   26097.57921588  .00002770  00000-0  11570-2 0  9999
2 63154  98.7710 152.9129 0034165 254.5853 105.1552 14.26675461 59075
DMSP 5D-2 F14 DEB
1 63154U 97012U   26099.40266252  .00002531  00000-0  10586-2 0  9994
2 63154  98.7708 154.7407 0034351 249.1547 110.5953 14.26684803 59332
DMSP 5D-2 F14 DEB
1 63154U 97012U   26100.10398525  .00002603  00000-0  10880-2 0  9990
2 63154  98.7709 155.4436 0034429 247.0674 112.6871 14.26688517 59436
DMSP 5D-2 F14 DEB
1 63154U 97012U   26100.10398526  .00002603  00000-0  10880-2 0  9991
2 63154  98.7709 155.4436 0034429 247.0674 112.6871 14.26688517 59436
DMSP 5D-2 F14 DEB
1 63154U 97012U   26100.59491009  .00002622  00000-0  10958-2 0  9991
2 63154  98.7709 155.9356 0034487 245.6000 114.1580 14.26691073 59506
DMSP 5D-2 F14 DEB
1 63154U 97012U   26101.57675765  .00002400  00000-0  10045-2 0  9994
2 63154  98.7714 156.9196 0034575 242.6598 117.1061 14.26695325 59648
DMSP 5D-2 F14 DEB
1 63154U 97012U   26101.57675766  .00002400  00000-0  10045-2 0  9995
2 63154  98.7714 156.9196 0034575 242.6598 117.1061 14.26695325 59648
DMSP 5D-2 F14 DEB
1 63154U 97012U   26102.90926132  .00001942  00000-0  81610-3 0  9996
2 63154  98.7715 158.2552 0034720 238.7354 121.0424 14.26699740 59831
DMSP 5D-2 F14 DEB
1 63154U 97012U   26102.90926132  .00001942  00000-0  81610-3 0  9996
2 63154  98.7715 158.2552 0034720 238.7354 121.0424 14.26699740 59831
DMSP 5D-2 F14 DEB
1 63154U 97012U   26103.61057718  .00001794  00000-0  75544-3 0  9994
2 63154  98.7717 158.9582 0034811 236.6594 123.1252 14.26702257 59938
DMSP 5D-2 F14 DEB
1 63154U 97012U   26104.10149766  .00001784  00000-0  75112-3 0  9994
2 63154  98.7716 159.4502 0034861 235.2278 124.5619 14.26704089 60001
DMSP 5D-2 F14 DEB
1 63154U 97012U   26104.10149767  .00001784  00000-0  75112-3 0  9995
2 63154  98.7716 159.4502 0034861 235.2278 124.5619 14.26704089 60001
DMSP 5D-2 F14 DEB
1 63154U 97012U   26104.38202355  .00001729  00000-0  72847-3 0  9999
2 63154  98.7716 159.7314 0034857 234.3875 125.4056 14.26704935 60042
DMSP 5D-2 F14 DEB
1 63154U 97012U   26104.38202356  .00001729  00000-0  72847-3 0  9990
2 63154  98.7716 159.7314 0034857 234.3875 125.4056 14.26704935 60042
DMSP 5D-2 F14 DEB
1 63154U 97012U   26107.11714097  .00001901  00000-0  79880-3 0  9990
2 63154  98.7710 162.4728 0035123 226.3451 133.4816 14.26714762 60439
DMSP 5D-2 F14 DEB
1 63154U 97012U   26108.09897393  .00002060  00000-0  86406-3 0  9998
2 63154  98.7706 163.4566 0035214 223.4818 136.3585 14.26718594 60578
DMSP 5D-2 F14 DEB
1 63154U 97012U   26108.37949702  .00001990  00000-0  83550-3 0  9999
2 63154  98.7706 163.7377 0035276 222.6611 137.1829 14.26719395 60616
DMSP 5D-2 F14 DEB
1 63154U 97012U   26109.08080376  .00002118  00000-0  88788-3 0  9992
2 63154  98.7704 164.4407 0035340 220.6221 139.2322 14.26722586 60711
DMSP 5D-2 F14 DEB
1 63154U 97012U   26109.08080377  .00002118  00000-0  88788-3 0  9993
2 63154  98.7704 164.4407 0035340 220.6221 139.2322 14.26722586 60711
DMSP 5D-2 F14 DEB
1 63154U 97012U   26110.41328267  .00002074  00000-0  86946-3 0  9990
2 63154  98.7696 165.7758 0035519 216.7713 143.1030 14.26728047 60903
DMSP 5D-2 F14 DEB
1 63154U 97012U   26110.41328268  .00002074  00000-0  86946-3 0  9991
2 63154  98.7696 165.7758 0035519 216.7713 143.1030 14.26728047 60903
DMSP 5D-2 F14 DEB
1 63154U 97012U   26111.39510515  .00002353  00000-0  98397-3 0  9990
2 63154  98.7700 166.7603 0035622 213.9174 145.9728 14.26733671 61043
DMSP 5D-2 F14 DEB
1 63154U 97012U   26111.39510516  .00002353  00000-0  98397-3 0  9991
2 63154  98.7700 166.7604 0035622 213.9174 145.9728 14.26733671 61044
DMSP 5D-2 F14 DEB
1 63154U 97012U   26112.09640532  .00002204  00000-0  92291-3 0  9993
2 63154  98.7699 167.4632 0035702 211.9043 147.9975 14.26736571 61141
DMSP 5D-2 F14 DEB
1 63154U 97012U   26112.09640533  .00002204  00000-0  92291-3 0  9994
2 63154  98.7699 167.4632 0035702 211.9043 147.9975 14.26736571 61141
DMSP 5D-2 F14 DEB
1 63154U 97012U   26112.86783389  .00002122  00000-0  88913-3 0  9991
2 63154  98.7699 168.2365 0035773 209.6243 150.2911 14.26739808 61252
DMSP 5D-2 F14 DEB
1 63154U 97012U   26112.86783390  .00002122  00000-0  88913-3 0  9993
2 63154  98.7699 168.2365 0035773 209.6243 150.2911 14.26739808 61252
DMSP 5D-2 F14 DEB
1 63154U 97012U   26112.86783390  .00002122  00000-0  88913-3 0  9993
2 63154  98.7699 168.2365 0035773 209.6243 150.2911 14.26739808 61252
DMSP 5D-2 F14 DEB
1 63154U 97012U   26114.41068536  .00002206  00000-0  92321-3 0  9995
2 63154  98.7700 169.7828 0035944 205.2367 154.7058 14.26747079 61478
DMSP 5D-2 F14 DEB
1 63154U 97012U   26114.41068536  .00002206  00000-0  92321-3 0  9995
2 63154  98.7700 169.7828 0035944 205.2367 154.7058 14.26747079 61478
DMSP 5D-2 F14 DEB
1 63154U 97012U   26115.11197904  .00002365  00000-0  98832-3 0  9994
2 63154  98.7699 170.4856 0036009 203.2334 156.7220 14.26750778 61574
DMSP 5D-2 F14 DEB
1 63154U 97012U   26116.44443045  .00003118  00000-0  12968-2 0  9993
2 63154  98.7701 171.8212 0036176 199.4031 160.5774 14.26760321 61767
DMSP 5D-2 F14 DEB
1 63154U 97012U   26116.44443046  .00003118  00000-0  12968-2 0  9994
2 63154  98.7701 171.8212 0036176 199.4031 160.5774 14.26760321 61767
DMSP 5D-2 F14 DEB
1 63154U 97012U   26118.61841494  .00003007  00000-0  12508-2 0  9991
2 63154  98.7701 174.0001 0036416 193.2557 166.7670 14.26772882 62073
DMSP 5D-2 F14 DEB
1 63154U 97012U   26118.61841495  .00003007  00000-0  12508-2 0  9992
2 63154  98.7701 174.0001 0036416 193.2557 166.7670 14.26772882 62073
DMSP 5D-2 F14 DEB
1 63154U 97012U   26119.10931193  .00002950  00000-0  12273-2 0  9997
2 63154  98.7701 174.4921 0036464 191.8798 168.1525 14.26775667 62149
DMSP 5D-2 F14 DEB
1 63154U 97012U   26119.10931194  .00002950  00000-0  12273-2 0  9998
2 63154  98.7701 174.4921 0036464 191.8798 168.1525 14.26775668 62140
DMSP 5D-2 F14 DEB
1 63154U 97012U   26119.38982431  .00002891  00000-0  12031-2 0  9994
2 63154  98.7700 174.7732 0036492 191.0820 168.9560 14.26777033 62180
DMSP 5D-2 F14 DEB
1 63154U 97012U   26119.38982431  .00002891  00000-0  12031-2 0  9994
2 63154  98.7700 174.7732 0036492 191.0820 168.9560 14.26777033 62180
DMSP 5D-2 F14 DEB
1 63154U 97012U   26120.09110308  .00003023  00000-0  12572-2 0  9998
2 63154  98.7697 175.4758 0036551 189.1244 170.9277 14.26781747 62281
DMSP 5D-2 F14 DEB
1 63154U 97012U   26120.09110309  .00003023  00000-0  12572-2 0  9999
2 63154  98.7697 175.4758 0036551 189.1244 170.9277 14.26781747 62281
DMSP 5D-2 F14 DEB
1 63154U 97012U   26123.10657728  .00003020  00000-0  12551-2 0  9999
2 63154  98.7689 178.4977 0036842 180.6790 179.4346 14.26800593 62713
DMSP 5D-2 F14 DEB
1 63154U 97012U   26123.10657729  .00003020  00000-0  12551-2 0  9990
2 63154  98.7689 178.4977 0036842 180.6790 179.4346 14.26800593 62713
DMSP 5D-2 F14 DEB
1 63154U 97012U   26123.87797111  .00002925  00000-0  12162-2 0  9995
2 63154  98.7690 179.2709 0036877 178.5349 181.5946 14.26805386 62828
DMSP 5D-2 F14 DEB
1 63154U 97012U   26124.08835100  .00002878  00000-0  11969-2 0  9991
2 63154  98.7691 179.4819 0036890 177.8861 182.2482 14.26806538 62855
DMSP 5D-2 F14 DEB
1 63154U 97012U   26124.08835100  .00002878  00000-0  11969-2 0  9991
2 63154  98.7691 179.4819 0036890 177.8861 182.2482 14.26806538 62855
DMSP 5D-2 F14 DEB
1 63154U 97012U   26126.61289265  .00002846  00000-0  11834-2 0  9993
2 63154  98.7687 182.0121 0037082 170.8306 189.3559 14.26822084 63215
DMSP 5D-2 F14 DEB
1 63154U 97012U   26126.61289266  .00002846  00000-0  11834-2 0  9994
2 63154  98.7687 182.0121 0037082 170.8306 189.3559 14.26822084 63215
DMSP 5D-2 F14 DEB
1 63154U 97012U   26127.59465191  .00002486  00000-0  10357-2 0  9994
2 63154  98.7688 182.9963 0037184 168.2111 191.9948 14.26826621 63354
DMSP 5D-2 F14 DEB
1 63154U 97012U   26127.59465192  .00002486  00000-0  10357-2 0  9995
2 63154  98.7688 182.9963 0037184 168.2111 191.9948 14.26826621 63354
DMSP 5D-2 F14 DEB
1 63154U 97012U   26128.08553019  .00002407  00000-0  10034-2 0  9991
2 63154  98.7687 183.4882 0037219 166.8780 193.3377 14.26829069 63423
DMSP 5D-2 F14 DEB
1 63154U 97012U   26128.08553019  .00002407  00000-0  10034-2 0  9991
2 63154  98.7687 183.4882 0037219 166.8780 193.3377 14.26829070 63425
DMSP 5D-2 F14 DEB
1 63154U 97012U   26128.36603186  .00002337  00000-0  97492-3 0  9999
2 63154  98.7688 183.7693 0037240 166.0826 194.1389 14.26830295 63463
DMSP 5D-2 F14 DEB
1 63154U 97012U   26128.36603187  .00002337  00000-0  97492-3 0  9990
2 63154  98.7688 183.7693 0037240 166.0826 194.1389 14.26830295 63463
DMSP 5D-2 F14 DEB
1 63154U 97012U   26128.99715955  .00002366  00000-0  98678-3 0  9995
2 63154  98.7689 184.4020 0037285 164.3484 195.8858 14.26833507 63554
DMSP 5D-2 F14 DEB
1 63154U 97012U   26128.99715956  .00002366  00000-0  98678-3 0  9996
2 63154  98.7689 184.4020 0037285 164.3484 195.8858 14.26833507 63554
DMSP 5D-2 F14 DEB
1 63154U 97012U   26129.41791094  .00002215  00000-0  92488-3 0  9997
2 63154  98.7690 184.8236 0037306 163.1743 197.0683 14.26834905 63618
DMSP 5D-2 F14 DEB
1 63154U 97012U   26129.41791094  .00002215  00000-0  92488-3 0  9997
2 63154  98.7690 184.8236 0037306 163.1743 197.0683 14.26834905 63618
DMSP 5D-2 F14 DEB
1 63154U 97012U   26130.11916197  .00002070  00000-0  86539-3 0  9998
2 63154  98.7690 185.5265 0037351 161.2401 199.0165 14.26837559 63714
DMSP 5D-2 F14 DEB
1 63154U 97012U   26130.11916197  .00002070  00000-0  86539-3 0  9998
2 63154  98.7690 185.5265 0037351 161.2401 199.0165 14.26837559 63714
DMSP 5D-2 F14 DEB
1 63154U 97012U   26130.39966212  .00001982  00000-0  82921-3 0  9993
2 63154  98.7690 185.8076 0037377 160.4575 199.8047 14.26838411 63757
DMSP 5D-2 F14 DEB
1 63154U 97012U   26130.39966212  .00001982  00000-0  82921-3 0  9993
2 63154  98.7690 185.8076 0037377 160.4575 199.8047 14.26838411 63757
DMSP 5D-2 F14 DEB
1 63154U 97012U   26131.38141020  .00001913  00000-0  80098-3 0  9992
2 63154  98.7691 186.7916 0037439 157.7546 202.5269 14.26842465 63894
DMSP 5D-2 F14 DEB
1 63154U 97012U   26131.38141020  .00001913  00000-0  80098-3 0  9992
2 63154  98.7691 186.7916 0037439 157.7546 202.5269 14.26842465 63894
DMSP 5D-2 F14 DEB
1 63154U 97012U   26132.08265728  .00001861  00000-0  77989-3 0  9999
2 63154  98.7691 187.4943 0037474 155.8083 204.4867 14.26845171 63999
DMSP 5D-2 F14 DEB
1 63154U 97012U   26132.08265729  .00001861  00000-0  77989-3 0  9990
2 63154  98.7691 187.4943 0037474 155.8083 204.4867 14.26845171 63999
DMSP 5D-2 F14 DEB
1 63154U 97012U   26134.11626703  .00001988  00000-0  83169-3 0  9996
2 63154  98.7691 189.5325 0037580 150.2404 210.0924 14.26852965 64289
DMSP 5D-2 F14 DEB
1 63154U 97012U   26134.11626703  .00001988  00000-0  83169-3 0  9996
2 63154  98.7691 189.5325 0037580 150.2404 210.0924 14.26852965 64289
DMSP 5D-2 F14 DEB
1 63154U 97012U   26134.39676412  .00002057  00000-0  85968-3 0  9995
2 63154  98.7691 189.8136 0037595 149.4576 210.8805 14.26854144 64320
DMSP 5D-2 F14 DEB
1 63154U 97012U   26135.09800582  .00002011  00000-0  84096-3 0  9991
2 63154  98.7690 190.5164 0037622 147.5373 212.8132 14.26856570 64425
DMSP 5D-2 F14 DEB
1 63154U 97012U   26135.93949419  .00002021  00000-0  84494-3 0  9990
2 63154  98.7689 191.3598 0037655 145.1976 215.1678 14.26859589 64549
DMSP 5D-2 F14 DEB
1 63154U 97012U   26137.41209317  .00002059  00000-0  86015-3 0  9993
2 63154  98.7687 192.8358 0037705 141.1674 219.2226 14.26865591 64751
DMSP 5D-2 F14 DEB
1 63154U 97012U   26137.41209318  .00002059  00000-0  86015-3 0  9994
2 63154  98.7687 192.8358 0037705 141.1674 219.2227 14.26865591 64752
DMSP 5D-2 F14 DEB
1 63154U 97012U   26137.62246395  .00002018  00000-0  84341-3 0  9998
2 63154  98.7687 193.0467 0037712 140.6027 219.7906 14.26866379 64787
DMSP 5D-2 F14 DEB
1 63154U 97012U   26137.62246395  .00002018  00000-0  84341-3 0  9998
2 63154  98.7687 193.0467 0037712 140.6027 219.7906 14.26866379 64787
DMSP 5D-2 F14 DEB
1 63154U 97012U   26138.11332838  .00002085  00000-0  87092-3 0  9991
2 63154  98.7686 193.5387 0037724 139.2616 221.1396 14.26868685 64853
DMSP 5D-2 F14 DEB
1 63154U 97012U   26138.39382229  .00001943  00000-0  81279-3 0  9993
2 63154  98.7686 193.8198 0037735 138.4912 221.9145 14.26869321 64890
DMSP 5D-2 F14 DEB
1 63154U 97012U   26138.95480882  .00002002  00000-0  83701-3 0  9998
2 63154  98.7685 194.3822 0037750 136.9639 223.4504 14.26871972 64975
DMSP 5D-2 F14 DEB
1 63154U 97012U   26138.95480882  .00002002  00000-0  83701-3 0  9998
2 63154  98.7685 194.3822 0037750 136.9639 223.4504 14.26871972 64975
DMSP 5D-2 F14 DEB
1 63154U 97012U   26139.93653303  .00001971  00000-0  82390-3 0  9994
2 63154  98.7684 195.3662 0037768 134.2869 226.1419 14.26876050 65116
DMSP 5D-2 F14 DEB
1 63154U 97012U   26139.93653304  .00001971  00000-0  82390-3 0  9995
2 63154  98.7684 195.3662 0037768 134.2869 226.1419 14.26876051 65117
DMSP 5D-2 F14 DEB
1 63154U 97012U   26141.40911403  .00001965  00000-0  82142-3 0  9995
2 63154  98.7692 196.8421 0037758 130.2175 230.2319 14.26881935 65325
DMSP 5D-2 F14 DEB
1 63154U 97012U   26141.40911403  .00001965  00000-0  82142-3 0  9995
2 63154  98.7692 196.8421 0037758 130.2175 230.2319 14.26881935 65325
DMSP 5D-2 F14 DEB
1 63154U 97012U   26142.11034073  .00002103  00000-0  87796-3 0  9998
2 63154  98.7684 197.5452 0037792 128.3504 232.1083 14.26885478 65426
DMSP 5D-2 F14 DEB
1 63154U 97012U   26143.09205495  .00002161  00000-0  90159-3 0  9995
2 63154  98.7685 198.5291 0037795 125.6755 234.7953 14.26890110 65568
DMSP 5D-2 F14 DEB
1 63154U 97012U   26144.42437599  .00002333  00000-0  97167-3 0  9992
2 63154  98.7687 199.8646 0037789 122.0319 238.4541 14.26896772 65753
DMSP 5D-2 F14 DEB
1 63154U 97012U   26145.12559475  .00002528  00000-0  10512-2 0  9992
2 63154  98.7687 200.5674 0037779 120.0994 240.3940 14.26900903 65858
DMSP 5D-2 F14 DEB
1 63154U 97012U   26145.12559475  .00002528  00000-0  10512-2 0  9992
2 63154  98.7687 200.5674 0037779 120.0994 240.3940 14.26900903 65858
DMSP 5D-2 F14 DEB
1 63154U 97012U   26146.38778288  .00003123  00000-0  12940-2 0  9995
2 63154  98.7688 201.8326 0037750 116.6790 243.8263 14.26909720 66034
DMSP 5D-2 F14 DEB
1 63154U 97012U   26146.94875326  .00003186  00000-0  13197-2 0  9992
2 63154  98.7688 202.3948 0037736 115.1413 245.3689 14.26913113 66119
DMSP 5D-2 F14 DEB
1 63154U 97012U   26146.94875327  .00003186  00000-0  13197-2 0  9993
2 63154  98.7688 202.3948 0037736 115.1413 245.3689 14.26913113 66119
DMSP 5D-2 F14 DEB
1 63154U 97012U   26147.93044698  .00003417  00000-0  14137-2 0  9994
2 63154  98.7688 203.3787 0037708 112.4661 248.0519 14.26920149 66259
DMSP 5D-2 F14 DEB
1 63154U 97012U   26147.93044699  .00003417  00000-0  14137-2 0  9995
2 63154  98.7688 203.3787 0037708 112.4661 248.0519 14.26920149 66259
DMSP 5D-2 F14 DEB
1 63154U 97012U   26149.12249670  .00003615  00000-0  14944-2 0  9990
2 63154  98.7688 204.5735 0037666 109.1984 251.3278 14.26929173 66423
DMSP 5D-2 F14 DEB
1 63154U 97012U   26149.40297786  .00003699  00000-0  15287-2 0  9995
2 63154  98.7688 204.8546 0037655 108.4379 252.0901 14.26931468 66469
DMSP 5D-2 F14 DEB
1 63154U 97012U   26149.40297786  .00003699  00000-0  15287-2 0  9995
2 63154  98.7688 204.8546 0037655 108.4379 252.0901 14.26931468 66469
DMSP 5D-2 F14 DEB
1 63154U 97012U   26149.61333850  .00003663  00000-0  15139-2 0  9998
2 63154  98.7687 205.0655 0037650 107.8552 252.6740 14.26932947 66496
DMSP 5D-2 F14 DEB
1 63154U 97012U   26151.92728666  .00003544  00000-0  14649-2 0  9991
2 63154  98.7684 207.3848 0037537 101.5271 259.0127 14.26950995 66825
DMSP 5D-2 F14 DEB
1 63154U 97012U   26151.92728666  .00003544  00000-0  14649-2 0  9991
2 63154  98.7684 207.3848 0037537 101.5271 259.0127 14.26950995 66825
DMSP 5D-2 F14 DEB
1 63154U 97012U   26153.39978404  .00003132  00000-0  12966-2 0  9994
2 63154  98.7680 208.8609 0037443  97.5211 263.0225 14.26961485 67030
DMSP 5D-2 F14 DEB
1 63154U 97012U   26153.96073274  .00003097  00000-0  12820-2 0  9997
2 63154  98.7680 209.4232 0037413  95.9541 264.5905 14.26965217 67111
DMSP 5D-2 F14 DEB
1 63154U 97012U   26153.96073275  .00003097  00000-0  12820-2 0  9998
2 63154  98.7680 209.4232 0037413  95.9541 264.5905 14.26965218 67112
DMSP 5D-2 F14 DEB
1 63154U 97012U   26153.96073275  .00003097  00000-0  12820-2 0  9998
2 63154  98.7680 209.4232 0037413  95.9541 264.5905 14.26965218 67112
DMSP 5D-2 F14 DEB
1 63154U 97012U   26154.94238918  .00003221  00000-0  13327-2 0  9996
2 63154  98.7679 210.4072 0037358  93.2479 267.2976 14.26972025 67250
DMSP 5D-2 F14 DEB
1 63154U 97012U   26154.94238918  .00003221  00000-0  13327-2 0  9996
2 63154  98.7679 210.4072 0037358  93.2479 267.2976 14.26972025 67250
DMSP 5D-2 F14 DEB
1 63154U 97012U   26155.99415912  .00003544  00000-0  14644-2 0  9994
2 63154  98.7679 211.4615 0037275  90.3350 270.2102 14.26979487 67409
DMSP 5D-2 F14 DEB
1 63154U 97012U   26155.99415913  .00003544  00000-0  14644-2 0  9995
2 63154  98.7679 211.4615 0037275  90.3350 270.2102 14.26979487 67409
DMSP 5D-2 F14 DEB
1 63154U 97012U   26156.41486580  .00002999  00000-0  12419-2 0  9992
2 63154  98.7679 211.8832 0037257  89.1556 271.3893 14.26980879 67460
DMSP 5D-2 F14 DEB
1 63154U 97012U   26156.41486581  .00002999  00000-0  12419-2 0  9993
2 63154  98.7679 211.8832 0037257  89.1556 271.3893 14.26980879 67460
DMSP 5D-2 F14 DEB
1 63154U 97012U   26157.95744869  .00003211  00000-0  13281-2 0  9995
2 63154  98.7681 213.4296 0037133  84.8887 275.6530 14.26991553 67687
DMSP 5D-2 F14 DEB
1 63154U 97012U   26157.95744870  .00003211  00000-0  13281-2 0  9997
2 63154  98.7681 213.4296 0037133  84.8887 275.6530 14.26991553 67687
DMSP 5D-2 F14 DEB
1 63154U 97012U   26157.95744870  .00003211  00000-0  13281-2 0  9997
2 63154  98.7681 213.4296 0037133  84.8887 275.6530 14.26991553 67687
DMSP 5D-2 F14 DEB
1 63154U 97012U   26158.93908736  .00003289  00000-0  13600-2 0  9999
2 63154  98.7682 214.4136 0037067  82.1590 278.3795 14.26997585 67820
DMSP 5D-2 F14 DEB
1 63154U 97012U   26158.93908737  .00003289  00000-0  13600-2 0  9990
2 63154  98.7682 214.4136 0037067  82.1590 278.3795 14.26997585 67820
DMSP 5D-2 F14 DEB
1 63154U 97012U   26159.42990513  .00002777  00000-0  11508-2 0  9994
2 63154  98.7684 214.9055 0037025  80.8158 279.7208 14.26999346 67894
DMSP 5D-2 F14 DEB
1 63154U 97012U   26159.42990513  .00002777  00000-0  11508-2 0  9994
2 63154  98.7684 214.9055 0037025  80.8158 279.7208 14.26999346 67894
DMSP 5D-2 F14 DEB
1 63154U 97012U   26160.41153767  .00002411  00000-0  10017-2 0  9996
2 63154  98.7686 215.8894 0036934  78.0928 282.4390 14.27004029 68035
DMSP 5D-2 F14 DEB
1 63154U 97012U   26160.41153768  .00002411  00000-0  10017-2 0  9997
2 63154  98.7686 215.8894 0036934  78.0928 282.4390 14.27004029 68035
DMSP 5D-2 F14 DEB
1 63154U 97012U   26162.93571985  .00002427  00000-0  10079-2 0  9996
2 63154  98.7689 218.4197 0036690  71.0417 289.4734 14.27016832 68391
DMSP 5D-2 F14 DEB
1 63154U 97012U   26164.40814770  .00002737  00000-0  11345-2 0  9993
2 63154  98.7689 219.8958 0036552  66.9008 293.6018 14.27025646 68606
DMSP 5D-2 F14 DEB
1 63154U 97012U   26164.40814770  .00002737  00000-0  11345-2 0  9993
2 63154  98.7689 219.8958 0036552  66.9008 293.6018 14.27025646 68606
DMSP 5D-2 F14 DEB
1 63154U 97012U   26165.88056646  .00002574  00000-0  10679-2 0  9994
2 63154  98.7688 221.3720 0036382  62.7728 297.7152 14.27033450 68813
DMSP 5D-2 F14 DEB
1 63154U 97012U   26165.88056646  .00002574  00000-0  10679-2 0  9994
2 63154  98.7688 221.3720 0036382  62.7728 297.7152 14.27033450 68813
DMSP 5D-2 F14 DEB
1 63154U 97012U   26166.93228948  .00002393  00000-0  99406-3 0  9992
2 63154  98.7687 222.4264 0036264  59.8007 300.6757 14.27038387 68968
DMSP 5D-2 F14 DEB
1 63154U 97012U   26166.93228948  .00002393  00000-0  99406-3 0  9992
2 63154  98.7687 222.4264 0036264  59.8007 300.6757 14.27038386 68967
DMSP 5D-2 F14 DEB
1 63154U 97012U   26168.40469586  .00002179  00000-0  90661-3 0  9997
2 63154  98.7684 223.9029 0036118  55.6295 304.8293 14.27044616 69178
DMSP 5D-2 F14 DEB
1 63154U 97012U   26168.40469586  .00002179  00000-0  90661-3 0  9997
2 63154  98.7684 223.9029 0036118  55.6295 304.8293 14.27044616 69178
DMSP 5D-2 F14 DEB
1 63154U 97012U   26169.94720974  .00002094  00000-0  87220-3 0  9991
2 63154  98.7682 225.4494 0035940  51.2590 309.1793 14.27050893 69392
DMSP 5D-2 F14 DEB
1 63154U 97012U   26170.08743791  .00002096  00000-0  87297-3 0  9996
2 63154  98.7682 225.5900 0035922  50.8553 309.5811 14.27051505 69418
DMSP 5D-2 F14 DEB
1 63154U 97012U   26170.08743791  .00002096  00000-0  87297-3 0  9996
2 63154  98.7682 225.5900 0035922  50.8553 309.5811 14.27051505 69418
DMSP 5D-2 F14 DEB
1 63154U 97012U   26172.61153530  .00001922  00000-0  80182-3 0  9996
2 63154  98.7684 228.1204 0035640  43.6483 316.7507 14.27061272 69778
DMSP 5D-2 F14 DEB
1 63154U 97012U   26173.94369014  .00002013  00000-0  83890-3 0  9990
2 63154  98.7686 229.4560 0035491  39.8027 320.5747 14.27066970 69964
DMSP 5D-2 F14 DEB
1 63154U 97012U   26175.41606531  .00002302  00000-0  95654-3 0  9994
2 63154  98.7688 230.9320 0035325  35.5473 324.8050 14.27073986 70175
DMSP 5D-2 F14 DEB
1 63154U 97012U   26176.60798111  .00002910  00000-0  12043-2 0  9997
2 63154  98.7689 232.1268 0035166  32.0825 328.2486 14.27082040 70348
DMSP 5D-2 F14 DEB
1 63154U 97012U   26176.60798112  .00002910  00000-0  12043-2 0  9998
2 63154  98.7689 232.1268 0035166  32.0825 328.2486 14.27082040 70348
DMSP 5D-2 F14 DEB
1 63154U 97012U   26177.44933029  .00002817  00000-0  11663-2 0  9992
2 63154  98.7689 232.9703 0035077  29.6407 330.6751 14.27086299 70464
DMSP 5D-2 F14 DEB
1 63154U 97012U   26177.44933029  .00002817  00000-0  11663-2 0  9992
2 63154  98.7689 232.9703 0035077  29.6407 330.6751 14.27086299 70464
DMSP 5D-2 F14 DEB
1 63154U 97012U   26178.01022809  .00002767  00000-0  11459-2 0  9998
2 63154  98.7691 233.5328 0035004  27.9549 332.3502 14.27089289 70549
DMSP 5D-2 F14 DEB
1 63154U 97012U   26178.01022810  .00002767  00000-0  11459-2 0  9990
2 63154  98.7691 233.5328 0035004  27.9549 332.3502 14.27089289 70549
DMSP 5D-2 F14 DEB
1 63154U 97012U   26178.43090047  .00002784  00000-0  11527-2 0  9998
2 63154  98.7691 233.9546 0034957  26.7219 333.5753 14.27091800 70602
DMSP 5D-2 F14 DEB
1 63154U 97012U   26178.43090048  .00002784  00000-0  11527-2 0  9999
2 63154  98.7691 233.9546 0034957  26.7219 333.5753 14.27091800 70602
DMSP 5D-2 F14 DEB
1 63154U 97012U   26179.62280249  .00002440  00000-0  10128-2 0  9990
2 63154  98.7690 235.1497 0034808  23.2235 337.0509 14.27097352 70779
DMSP 5D-2 F14 DEB
1 63154U 97012U   26179.62280249  .00002440  00000-0  10128-2 0  9990
2 63154  98.7690 235.1497 0034808  23.2235 337.0509 14.27097352 70779
DMSP 5D-2 F14 DEB
1 63154U 97012U   26181.58592455  .00002578  00000-0  10689-2 0  9997
2 63154  98.7688 237.1180 0034579  17.4197 342.8161 14.27107471 71058
DMSP 5D-2 F14 DEB
1 63154U 97012U   26181.58592455  .00002578  00000-0  10689-2 0  9997
2 63154  98.7688 237.1180 0034579  17.4197 342.8161 14.27107471 71058
DMSP 5D-2 F14 DEB
1 63154U 97012U   26181.58592455  .00002578  00000-0  10689-2 0  9997
2 63154  98.7688 237.1180 0034579  17.4197 342.8161 14.27107471 71058
DMSP 5D-2 F14 DEB
1 63154U 97012U   26183.61914289  .00003122  00000-0  12900-2 0  9990
2 63154  98.7685 239.1567 0034359  11.3808 348.8141 14.27119514 71341
DMSP 5D-2 F14 DEB
1 63154U 97012U   26183.61914290  .00003122  00000-0  12900-2 0  9992
2 63154  98.7685 239.1567 0034359  11.3808 348.8141 14.27119514 71341
DMSP 5D-2 F14 DEB
1 63154U 97012U   26183.61914290  .00003122  00000-0  12900-2 0  9992
2 63154  98.7685 239.1567 0034359  11.3808 348.8141 14.27119514 71341
DMSP 5D-2 F14 DEB
1 63154U 97012U   26184.88113228  .00003137  00000-0  12961-2 0  9997
2 63154  98.7683 240.4221 0034196   7.5901 352.5790 14.27126453 71523
DMSP 5D-2 F14 DEB
1 63154U 97012U   26184.88113229  .00003137  00000-0  12961-2 0  9998
2 63154  98.7683 240.4221 0034196   7.5901 352.5790 14.27126453 71523
DMSP 5D-2 F14 DEB
1 63154U 97012U   26188.10618263  .00002104  00000-0  87551-3 0  9996
2 63154  98.7684 243.6556 0033842 357.8475   2.2554 14.27143710 71986
DMSP 5D-2 F14 DEB
1 63154U 97012U   26188.10618263  .00002104  00000-0  87551-3 0  9996
2 63154  98.7684 243.6557 0033842 357.8475   2.2554 14.27143710 71987
DMSP 5D-2 F14 DEB
1 63154U 97012U   26189.08771296  .00001564  00000-0  65531-3 0  9993
2 63154  98.7686 244.6397 0033740 354.8669   5.2160 14.27147036 72129
DMSP 5D-2 F14 DEB
1 63154U 97012U   26189.43825917  .00001567  00000-0  65681-3 0  9991
2 63154  98.7685 244.9910 0033717 353.8118   6.2641 14.27148387 72174
DMSP 5D-2 F14 DEB
1 63154U 97012U   26189.43825917  .00001567  00000-0  65681-3 0  9991
2 63154  98.7685 244.9911 0033717 353.8119   6.2641 14.27148387 72176
DMSP 5D-2 F14 DEB
1 63154U 97012U   26189.43825917  .00001567  00000-0  65681-3 0  9991
2 63154  98.7685 244.9911 0033717 353.8119   6.2641 14.27148387 72176
DMSP 5D-2 F14 DEB
1 63154U 97012U   26189.99913229  .00001548  00000-0  64904-3 0  9992
2 63154  98.7688 245.5535 0033666 352.1190   7.9457 14.27150390 72251
DMSP 5D-2 F14 DEB
1 63154U 97012U   26192.38283544  .00001493  00000-0  62667-3 0  9992
2 63154  98.7692 247.9435 0033465 344.8316  15.1858 14.27158261 72594
DMSP 5D-2 F14 DEB
1 63154U 97012U   26192.38283544  .00001493  00000-0  62667-3 0  9992
2 63154  98.7692 247.9435 0033465 344.8316  15.1858 14.27158261 72594
DMSP 5D-2 F14 DEB
1 63154U 97012U   26192.38283544  .00001493  00000-0  62667-3 0  9992
2 63154  98.7692 247.9435 0033465 344.8316  15.1858 14.27158261 72594
DMSP 5D-2 F14 DEB
1 63154U 97012U   26195.39750179  .00001403  00000-0  58974-3 0  9996
2 63154  98.7689 250.9665 0033237 335.5728  24.3875 14.27167353 73022
DMSP 5D-2 F14 DEB
1 63154U 97012U   26196.09858434  .00001362  00000-0  57295-3 0  9996
2 63154  98.7687 251.6696 0033203 333.4506  26.4973 14.27169383 73124
DMSP 5D-2 F14 DEB
1 63154U 97012U   26196.09858435  .00001362  00000-0  57295-3 0  9997
2 63154  98.7687 251.6696 0033203 333.4506  26.4973 14.27169383 73124
DMSP 5D-2 F14 DEB
1 63154U 97012U   26199.11322907  .00001294  00000-0  54545-3 0  9992
2 63154  98.7682 254.6926 0033037 324.1535  35.7428 14.27177806 73556
DMSP 5D-2 F14 DEB
1 63154U 97012U   26199.39366023  .00001284  00000-0  54109-3 0  9994
2 63154  98.7690 254.9735 0033063 323.2886  36.6030 14.27178370 73594
DMSP 5D-2 F14 DEB
1 63154U 97012U   26200.37516844  .00001300  00000-0  54773-3 0  9999
2 63154  98.7689 255.9576 0033023 320.2373  39.6388 14.27181201 73732
DMSP 5D-2 F14 DEB
1 63154U 97012U   26202.12785656  .00001684  00000-0  70385-3 0  9995
2 63154  98.7689 257.7153 0032997 314.8260  45.0240 14.27188343 73985
DMSP 5D-2 F14 DEB
1 63154U 97012U   26202.96914314  .00002049  00000-0  85246-3 0  9990
2 63154  98.7688 258.5588 0032957 312.2315  47.6070 14.27193246 74106
DMSP 5D-2 F14 DEB
1 63154U 97012U   26205.42288513  .00002424  00000-0  10050-2 0  9996
2 63154  98.7689 261.0192 0032921 304.6612  55.1466 14.27204753 74450
DMSP 5D-2 F14 DEB
1 63154U 97012U   26206.12395109  .00002469  00000-0  10233-2 0  9996
2 63154  98.7689 261.7221 0032921 302.4362  57.3635 14.27207969 74553
DMSP 5D-2 F14 DEB
1 63154U 97012U   26207.10544073  .00002464  00000-0  10208-2 0  9998
2 63154  98.7689 262.7063 0032919 299.3904  60.3991 14.27212328 74690
DMSP 5D-2 F14 DEB
1 63154U 97012U   26209.62925514  .00002471  00000-0  10236-2 0  9999
2 63154  98.7688 265.2371 0032961 291.5319  68.2349 14.27224748 75054
DMSP 5D-2 F14 DEB
1 63154U 97012U   26210.89115441  .00002471  00000-0  10233-2 0  9997
2 63154  98.7685 266.5027 0033005 287.4819  72.2755 14.27230697 75238
DMSP 5D-2 F14 DEB
1 63154U 97012U   26211.10147045  .00002471  00000-0  10236-2 0  9990
2 63154  98.7686 266.7135 0033026 286.8496  72.9063 14.27231809 75266
DMSP 5D-2 F14 DEB
1 63154U 97012U   26211.38189179  .00002410  00000-0  99878-3 0  9997
2 63154  98.7685 266.9948 0033027 285.9951  73.7592 14.27232906 75306
DMSP 5D-2 F14 DEB
1 63154U 97012U   26212.99430875  .00002256  00000-0  93567-3 0  9994
2 63154  98.7681 268.6117 0033098 280.9992  78.7466 14.27240308 75532
DMSP 5D-2 F14 DEB
1 63154U 97012U   26213.62525286  .00002437  00000-0  10094-2 0  9990
2 63154  98.7680 269.2444 0033128 279.0659  80.6773 14.27243634 75622
DMSP 5D-2 F14 DEB
1 63154U 97012U   26214.11598606  .00002248  00000-0  93262-3 0  9990
2 63154  98.7679 269.7366 0033154 277.5591  82.1824 14.27245299 75695
DMSP 5D-2 F14 DEB
1 63154U 97012U   26214.11598607  .00002248  00000-0  93262-3 0  9991
2 63154  98.7679 269.7366 0033154 277.5591  82.1824 14.27245299 75695
DMSP 5D-2 F14 DEB
1 63154U 97012U   26214.39640491  .00002042  00000-0  84877-3 0  9994
2 63154  98.7679 270.0178 0033166 276.6866  83.0540 14.27245849 75730
DMSP 5D-2 F14 DEB
1 63154U 97012U   26214.95724144  .00002263  00000-0  93841-3 0  9990
2 63154  98.7678 270.5802 0033200 274.9650  84.7741 14.27249127 75812
DMSP 5D-2 F14 DEB
1 63154U 97012U   26215.09745043  .00002257  00000-0  93588-3 0  9998
2 63154  98.7678 270.7208 0033209 274.5313  85.2074 14.27249783 75830
DMSP 5D-2 F14 DEB
1 63154U 97012U   26215.93870375  .00002063  00000-0  85727-3 0  9999
2 63154  98.7678 271.5644 0033267 271.9394  87.7976 14.27252735 75959
DMSP 5D-2 F14 DEB
1 63154U 97012U   26216.99026756  .00001840  00000-0  76652-3 0  9991
2 63154  98.7679 272.6188 0033330 268.7253  91.0109 14.27256556 76103
DMSP 5D-2 F14 DEB
1 63154U 97012U   26217.41089237  .00001772  00000-0  73876-3 0  9991
2 63154  98.7679 273.0405 0033356 267.4354  92.3008 14.27258075 76162
DMSP 5D-2 F14 DEB
1 63154U 97012U   26217.97172480  .00001592  00000-0  66540-3 0  9995
2 63154  98.7679 273.6028 0033393 265.7174  94.0190 14.27259779 76243
DMSP 5D-2 F14 DEB
1 63154U 97012U   26218.39234867  .00001521  00000-0  63669-3 0  9991
2 63154  98.7680 274.0246 0033427 264.4352  95.3015 14.27261196 76307
DMSP 5D-2 F14 DEB
1 63154U 97012U   26218.95318001  .00001415  00000-0  59339-3 0  9997
2 63154  98.7681 274.5869 0033465 262.7219  97.0157 14.27262861 76383
DMSP 5D-2 F14 DEB
1 63154U 97012U   26219.09338775  .00001406  00000-0  58982-3 0  9996
2 63154  98.7681 274.7275 0033477 262.3013  97.4365 14.27263328 76404
DMSP 5D-2 F14 DEB
1 63154U 97012U   26220.00473757  .00001309  00000-0  55028-3 0  9999
2 63154  98.7682 275.6413 0033551 259.5231 100.2168 14.27265657 76537
DMSP 5D-2 F14 DEB
1 63154U 97012U   26220.00473758  .00001309  00000-0  55028-3 0  9990
2 63154  98.7682 275.6413 0033551 259.5231 100.2168 14.27265657 76537
DMSP 5D-2 F14 DEB
1 63154U 97012U   26222.10784632  .00001382  00000-0  58002-3 0  9995
2 63154  98.7682 277.7503 0033716 253.2237 106.5243 14.27271990 76833
DMSP 5D-2 F14 DEB
1 63154U 97012U   26222.38825993  .00001415  00000-0  59352-3 0  9997
2 63154  98.7683 278.0315 0033765 252.3540 107.3952 14.27273056 76875
DMSP 5D-2 F14 DEB
1 63154U 97012U   26222.59857034  .00001391  00000-0  58379-3 0  9992
2 63154  98.7683 278.2424 0033776 251.7191 108.0313 14.27273548 76904
DMSP 5D-2 F14 DEB
1 63154U 97012U   26222.59857034  .00001391  00000-0  58379-3 0  9992
2 63154  98.7683 278.2424 0033776 251.7191 108.0313 14.27273548 76904
DMSP 5D-2 F14 DEB
1 63154U 97012U   26224.00063678  .00001414  00000-0  59268-3 0  9997
2 63154  98.7682 279.6483 0033890 247.4955 112.2636 14.27277815 77109
DMSP 5D-2 F14 DEB
1 63154U 97012U   26224.00063679  .00001414  00000-0  59268-3 0  9998
2 63154  98.7682 279.6483 0033890 247.4955 112.2636 14.27277815 77109
DMSP 5D-2 F14 DEB
1 63154U 97012U   26225.40269992  .00001385  00000-0  58096-3 0  9994
2 63154  98.7681 281.0542 0034043 243.2803 116.4891 14.27281725 77304
DMSP 5D-2 F14 DEB
1 63154U 97012U   26225.40269993  .00001385  00000-0  58096-3 0  9995
2 63154  98.7681 281.0542 0034043 243.2803 116.4891 14.27281726 77305
DMSP 5D-2 F14 DEB
1 63154U 97012U   26226.10373022  .00001394  00000-0  58455-3 0  9991
2 63154  98.7681 281.7571 0034122 241.1822 118.5930 14.27283792 77403
DMSP 5D-2 F14 DEB
1 63154U 97012U   26226.10373022  .00001394  00000-0  58455-3 0  9991
2 63154  98.7681 281.7571 0034122 241.1823 118.5930 14.27283792 77404
DMSP 5D-2 F14 DEB
1 63154U 97012U   26228.41712386  .00001544  00000-0  64534-3 0  9999
2 63154  98.7678 284.0768 0034359 234.2952 125.5029 14.27291109 77736
DMSP 5D-2 F14 DEB
1 63154U 97012U   26229.11815009  .00001616  00000-0  67469-3 0  9993
2 63154  98.7677 284.7797 0034435 232.2214 127.5846 14.27293538 77836
DMSP 5D-2 F14 DEB
1 63154U 97012U   26229.39856047  .00001636  00000-0  68265-3 0  9997
2 63154  98.7677 285.0609 0034462 231.3882 128.4212 14.27294407 77870
DMSP 5D-2 F14 DEB
1 63154U 97012U   26229.88927767  .00001740  00000-0  72501-3 0  9993
2 63154  98.7677 285.5530 0034513 229.9490 129.8661 14.27296505 77945
DMSP 5D-2 F14 DEB
1 63154U 97012U   26230.59030117  .00001932  00000-0  80271-3 0  9993
2 63154  98.7676 286.2559 0034578 227.8801 131.9439 14.27299855 78047
DMSP 5D-2 F14 DEB
1 63154U 97012U   26233.11397592  .00002105  00000-0  87278-3 0  9994
2 63154  98.7675 288.7864 0034856 220.4998 139.3588 14.27309796 78400
DMSP 5D-2 F14 DEB
1 63154U 97012U   26239.42308499  .00002315  00000-0  95688-3 0  9999
2 63154  98.7673 295.1124 0035517 202.2975 157.6663 14.27336693 79300
DMSP 5D-2 F14 DEB
1 63154U 97012U   26239.42308500  .00002315  00000-0  95688-3 0  9992
2 63154  98.7673 295.1124 0035517 202.2975 157.6663 14.27336693 79300
DMSP 5D-2 F14 DEB
1 63154U 97012U   26240.61479387  .00002178  00000-0  90147-3 0  9999
2 63154  98.7671 296.3073 0035626 198.8933 161.0928 14.27340689 79470
DMSP 5D-2 F14 DEB
1 63154U 97012U   26240.61479387  .00002178  00000-0  90147-3 0  9999
2 63154  98.7671 296.3073 0035626 198.8933 161.0928 14.27340689 79470
DMSP 5D-2 F14 DEB
1 63154U 97012U   26241.38589597  .00002213  00000-0  91560-3 0  9999
2 63154  98.7670 297.0805 0035706 196.7089 163.2918 14.27344366 79589
DMSP 5D-2 F14 DEB
1 63154U 97012U   26241.38589598  .00002213  00000-0  91560-3 0  9990
2 63154  98.7670 297.0805 0035706 196.7089 163.2918 14.27344366 79589
DMSP 5D-2 F14 DEB
1 63154U 97012U   26243.41879630  .00001922  00000-0  79736-3 0  9992
2 63154  98.7668 299.1187 0035889 191.0036 169.0363 14.27351148 79870
DMSP 5D-2 F14 DEB
1 63154U 97012U   26243.41879630  .00001922  00000-0  79736-3 0  9992
2 63154  98.7668 299.1187 0035889 191.0036 169.0363 14.27351148 79870
DMSP 5D-2 F14 DEB
1 63154U 97012U   26243.62909552  .00001934  00000-0  80230-3 0  9996
2 63154  98.7669 299.3297 0035912 190.4048 169.6393 14.27352135 79908
DMSP 5D-2 F14 DEB
1 63154U 97012U   26243.62909553  .00001934  00000-0  80230-3 0  9997
2 63154  98.7669 299.3297 0035912 190.4048 169.6393 14.27352135 79908
