DMSP 5D-2 F14 DEB
1 63155U 97012V   25064.37203874  .00004701  00000-0  21244-2 0  9997
2 63155  98.8080 114.0842 0034415 329.2152  30.7007 14.22235302  2199
DMSP 5D-2 F14 DEB
1 63155U 97012V   25105.58068473  .00005771  00000-0  25806-2 0  9996
2 63155  98.8683 156.0165 0035229 195.9861 164.0207 14.22672019  8044
DMSP 5D-2 F14 DEB
1 63155U 97012V   25132.09226800  .00003325  00000-0  14865-2 0  9998
2 63155  98.8656 182.7058 0036889 124.5535 235.9133 14.22953512 11815
DMSP 5D-2 F14 DEB
1 63155U 97012V   25134.41268385  .00003480  00000-0  15545-2 0  9998
2 63155  98.8658 185.0416 0036617 118.3955 242.0922 14.22970042 12146
DMSP 5D-2 F14 DEB
1 63155U 97012V   25141.86595107  .00003173  00000-0  14180-2 0  9993
2 63155  98.8649 192.5456 0036436  98.2545 262.2767 14.23022040 13209
DMSP 5D-2 F14 DEB
1 63155U 97012V   25142.35813841  .00003021  00000-0  13512-2 0  9996
2 63155  98.8666 193.0435 0036422  97.0441 263.4881 14.23024731 13274
DMSP 5D-2 F14 DEB
1 63155U 97012V   25144.60812406  .00002709  00000-0  12133-2 0  9992
2 63155  98.8662 195.3089 0036270  90.9274 269.6059 14.23038089 13598
DMSP 5D-2 F14 DEB
1 63155U 97012V   25145.38155156  .00002655  00000-0  11894-2 0  9993
2 63155  98.8662 196.0877 0036211  88.8119 271.7207 14.23042446 13704
DMSP 5D-2 F14 DEB
1 63155U 97012V   25146.08466527  .00002828  00000-0  12657-2 0  9998
2 63155  98.8659 196.7957 0036152  86.8786 273.6527 14.23046933 13800
DMSP 5D-2 F14 DEB
1 63155U 97012V   25150.37360661  .00003819  00000-0  17011-2 0  9997
2 63155  98.8654 201.1149 0035782  75.0979 285.4156 14.23077969 14411
DMSP 5D-2 F14 DEB
1 63155U 97012V   25153.39689568  .00004556  00000-0  20245-2 0  9994
2 63155  98.8654 204.1599 0035495  66.7686 293.7223 14.23104453 14849
DMSP 5D-2 F14 DEB
1 63155U 97012V   25155.08428403  .00004320  00000-0  19202-2 0  9991
2 63155  98.8657 205.8594 0035229  62.1249 298.3490 14.23121079 15082
DMSP 5D-2 F14 DEB
1 63155U 97012V   25157.89656886  .00002548  00000-0  11411-2 0  9994
2 63155  98.8653 208.6906 0034844  54.2379 306.2030 14.23135926 15483
DMSP 5D-2 F14 DEB
1 63155U 97012V   25158.59963495  .00002620  00000-0  11725-2 0  9998
2 63155  98.8653 209.3986 0034748  52.2525 308.1792 14.23140094 15582
DMSP 5D-2 F14 DEB
1 63155U 97012V   25163.38043024  .00002691  00000-0  12036-2 0  9992
2 63155  98.8652 214.2135 0034127  38.6613 321.6998 14.23166973 16267
DMSP 5D-2 F14 DEB
1 63155U 97012V   25166.40352606  .00002913  00000-0  13009-2 0  9995
2 63155  98.8654 217.2584 0033751  29.9184 330.3914 14.23187902 16695
DMSP 5D-2 F14 DEB
1 63155U 97012V   25168.37203119  .00002589  00000-0  11584-2 0  9992
2 63155  98.8657 219.2410 0033529  24.1973 336.0770 14.23199560 16971
DMSP 5D-2 F14 DEB
1 63155U 97012V   25171.39506658  .00002452  00000-0  10977-2 0  9996
2 63155  98.8667 222.2854 0033116  15.1980 345.0185 14.23214262 17404
DMSP 5D-2 F14 DEB
1 63155U 97012V   25172.37930452  .00002132  00000-0  95735-3 0  9999
2 63155  98.8664 223.2770 0032996  12.3636 347.8344 14.23217755 17543
DMSP 5D-2 F14 DEB
1 63155U 97012V   25173.36353909  .00002187  00000-0  98136-3 0  9993
2 63155  98.8663 224.2683 0032889   9.5505 350.6291 14.23222417 17689
DMSP 5D-2 F14 DEB
1 63155U 97012V   25175.40230247  .00002072  00000-0  93085-3 0  9990
2 63155  98.8660 226.3220 0032665   3.4994 356.6406 14.23230472 17979
DMSP 5D-2 F14 DEB
1 63155U 97012V   25176.10532134  .00002149  00000-0  96452-3 0  9994
2 63155  98.8659 227.0300 0032573   1.4312 358.6953 14.23233716 18079
DMSP 5D-2 F14 DEB
1 63155U 97012V   25177.58165654  .00002128  00000-0  95538-3 0  9997
2 63155  98.8661 228.5177 0032387 356.9844   3.1134 14.23239750 18281
DMSP 5D-2 F14 DEB
1 63155U 97012V   25177.93316391  .00002184  00000-0  97964-3 0  9999
2 63155  98.8657 228.8716 0032390 355.8436   4.2468 14.23241366 18331
DMSP 5D-2 F14 DEB
1 63155U 97012V   25180.11250124  .00001925  00000-0  86616-3 0  9998
2 63155  98.8655 231.0669 0032170 349.2320  10.8165 14.23250208 18643
DMSP 5D-2 F14 DEB
1 63155U 97012V   25180.67490839  .00001824  00000-0  82143-3 0  9997
2 63155  98.8656 231.6335 0032104 347.5033  12.5345 14.23252523 18729
DMSP 5D-2 F14 DEB
1 63155U 97012V   25181.09671319  .00001891  00000-0  85107-3 0  9995
2 63155  98.8656 232.0584 0032066 346.2094  13.8205 14.23254579 18788
DMSP 5D-2 F14 DEB
1 63155U 97012V   25183.41663000  .00002172  00000-0  97419-3 0  9993
2 63155  98.8659 234.3953 0031879 339.1274  20.8600 14.23265507 19116
DMSP 5D-2 F14 DEB
1 63155U 97012V   25186.36922496  .00002567  00000-0  11477-2 0  9994
2 63155  98.8663 237.3693 0031687 330.0662  29.8703 14.23281138 19530
DMSP 5D-2 F14 DEB
1 63155U 97012V   25186.93162077  .00002301  00000-0  10307-2 0  9995
2 63155  98.8664 237.9359 0031651 328.2767  31.6503 14.23283034 19617
DMSP 5D-2 F14 DEB
1 63155U 97012V   25187.35341690  .00002386  00000-0  10682-2 0  9991
2 63155  98.8664 238.3608 0031636 327.0187  32.9017 14.23285375 19675
DMSP 5D-2 F14 DEB
1 63155U 97012V   25189.39208962  .00002105  00000-0  94461-3 0  9998
2 63155  98.8664 240.4145 0031540 320.6786  39.2102 14.23294693 19963
DMSP 5D-2 F14 DEB
1 63155U 97012V   25189.88418117  .00001976  00000-0  88789-3 0  9998
2 63155  98.8664 240.9102 0031526 319.1537  40.7278 14.23296625 20030
DMSP 5D-2 F14 DEB
1 63155U 97012V   25190.09507735  .00001951  00000-0  87682-3 0  9992
2 63155  98.8664 241.1226 0031523 318.5069  41.3716 14.23297540 20064
DMSP 5D-2 F14 DEB
1 63155U 97012V   25190.86836216  .00001858  00000-0  83599-3 0  9995
2 63155  98.8663 241.9018 0031501 316.1196  43.7480 14.23300708 20178
DMSP 5D-2 F14 DEB
1 63155U 97012V   25191.07925781  .00001833  00000-0  82489-3 0  9995
2 63155  98.8662 242.1143 0031497 315.4765  44.3883 14.23301527 20205
DMSP 5D-2 F14 DEB
1 63155U 97012V   25193.39910212  .00002083  00000-0  93446-3 0  9998
2 63155  98.8658 244.4516 0031453 308.2915  51.5435 14.23311494 20531
DMSP 5D-2 F14 DEB
1 63155U 97012V   25194.87535874  .00002044  00000-0  91756-3 0  9998
2 63155  98.8657 245.9389 0031449 303.6718  56.1462 14.23317507 20744
DMSP 5D-2 F14 DEB
1 63155U 97012V   25195.08625204  .00002033  00000-0  91258-3 0  9994
2 63155  98.8657 246.1513 0031449 303.0227  56.7930 14.23318400 20777
DMSP 5D-2 F14 DEB
1 63155U 97012V   25196.91398857  .00002006  00000-0  90039-3 0  9994
2 63155  98.8658 247.9926 0031443 297.3471  62.4507 14.23326185 21038
DMSP 5D-2 F14 DEB
1 63155U 97012V   25197.61696148  .00002052  00000-0  92052-3 0  9994
2 63155  98.8659 248.7008 0031454 295.1596  64.6320 14.23329503 21130
DMSP 5D-2 F14 DEB
1 63155U 97012V   25198.60112105  .00002122  00000-0  95139-3 0  9997
2 63155  98.8661 249.6922 0031476 292.1033  67.6804 14.23334132 21274
DMSP 5D-2 F14 DEB
1 63155U 97012V   25199.09319976  .00002141  00000-0  95941-3 0  9998
2 63155  98.8662 250.1879 0031485 290.6184  69.1618 14.23336392 21341
DMSP 5D-2 F14 DEB
1 63155U 97012V   25199.93676156  .00002269  00000-0  10155-2 0  9991
2 63155  98.8663 251.0377 0031512 287.9988  71.7757 14.23340552 21466
DMSP 5D-2 F14 DEB
1 63155U 97012V   25202.39713724  .00002183  00000-0  97754-3 0  9995
2 63155  98.8666 253.5164 0031626 280.3493  79.4120 14.23351734 21816
DMSP 5D-2 F14 DEB
1 63155U 97012V   25203.10009868  .00002202  00000-0  98600-3 0  9995
2 63155  98.8666 254.2247 0031677 278.1352  81.6233 14.23354887 21914
DMSP 5D-2 F14 DEB
1 63155U 97012V   25207.38811881  .00002791  00000-0  12433-2 0  9997
2 63155  98.8661 258.5451 0031973 264.9772  94.7755 14.23380996 22523
DMSP 5D-2 F14 DEB
1 63155U 97012V   25211.39489385  .00002768  00000-0  12326-2 0  9998
2 63155  98.8659 262.5821 0032330 252.8258 106.9379 14.23403146 23093
DMSP 5D-2 F14 DEB
1 63155U 97012V   25213.36311166  .00002911  00000-0  12947-2 0  9997
2 63155  98.8660 264.5648 0032538 246.8911 112.8837 14.23415015 23377
DMSP 5D-2 F14 DEB
1 63155U 97012V   25216.94804260  .00002474  00000-0  11030-2 0  9992
2 63155  98.8665 268.1768 0032907 236.2516 123.5526 14.23433841 23886
DMSP 5D-2 F14 DEB
1 63155U 97012V   25217.36979604  .00002493  00000-0  11113-2 0  9997
2 63155  98.8665 268.6016 0032972 234.9882 124.8200 14.23436167 23944
DMSP 5D-2 F14 DEB
1 63155U 97012V   25222.57137651  .00003013  00000-0  13378-2 0  9998
2 63155  98.8659 273.8434 0033593 219.8642 140.0068 14.23463790 24681
DMSP 5D-2 F14 DEB
1 63155U 97012V   25223.41486596  .00003092  00000-0  13720-2 0  9995
2 63155  98.8657 274.6935 0033706 217.4664 142.4164 14.23469078 24800
DMSP 5D-2 F14 DEB
1 63155U 97012V   25224.11777157  .00002764  00000-0  12288-2 0  9992
2 63155  98.8656 275.4017 0033815 215.4400 144.4531 14.23472498 24907
DMSP 5D-2 F14 DEB
1 63155U 97012V   25224.89096614  .00002457  00000-0  10942-2 0  9993
2 63155  98.8654 276.1807 0033912 213.2145 146.6905 14.23476005 25010
DMSP 5D-2 F14 DEB
1 63155U 97012V   25225.94531849  .00002564  00000-0  11407-2 0  9990
2 63155  98.8654 277.2430 0034032 210.2042 149.7174 14.23482217 25161
DMSP 5D-2 F14 DEB
1 63155U 97012V   25226.08589856  .00002541  00000-0  11307-2 0  9991
2 63155  98.8654 277.3846 0034044 209.7993 150.1247 14.23482912 25185
DMSP 5D-2 F14 DEB
1 63155U 97012V   25229.60037853  .00002338  00000-0  10417-2 0  9992
2 63155  98.8659 280.9255 0034460 199.8583 160.1256 14.23499875 25682
DMSP 5D-2 F14 DEB
1 63155U 97012V   25234.09885430  .00002310  00000-0  10287-2 0  9998
2 63155  98.8659 285.4583 0034940 187.3308 172.7363 14.23521105 26328
DMSP 5D-2 F14 DEB
1 63155U 97012V   25238.10525285  .00002797  00000-0  12404-2 0  9995
2 63155  98.8651 289.4954 0035300 176.3222 183.8222 14.23541463 26898
DMSP 5D-2 F14 DEB
1 63155U 97012V   25238.87841018  .00003026  00000-0  13402-2 0  9999
2 63155  98.8643 290.2740 0035372 174.3784 185.7798 14.23546355 27000
DMSP 5D-2 F14 DEB
1 63155U 97012V   25239.08927102  .00003051  00000-0  13513-2 0  9993
2 63155  98.8643 290.4865 0035373 173.7594 186.4032 14.23547668 27033
DMSP 5D-2 F14 DEB
1 63155U 97012V   25239.37041869  .00003242  00000-0  14345-2 0  9998
2 63155  98.8638 290.7694 0035390 172.8759 187.2930 14.23549733 27077
DMSP 5D-2 F14 DEB
1 63155U 97012V   25240.07328531  .00003484  00000-0  15398-2 0  9998
2 63155  98.8642 291.4780 0035446 171.0715 189.1101 14.23554484 27172
DMSP 5D-2 F14 DEB
1 63155U 97012V   25243.37671581  .00004887  00000-0  21500-2 0  9990
2 63155  98.8636 294.8050 0035602 161.9551 198.2900 14.23586054 27640
DMSP 5D-2 F14 DEB
1 63155U 97012V   25246.11780103  .00006561  00000-0  28773-2 0  9996
2 63155  98.8642 297.5667 0035662 154.4177 205.8775 14.23619136 28035
DMSP 5D-2 F14 DEB
1 63155U 97012V   25247.38289939  .00004880  00000-0  21453-2 0  9997
2 63155  98.8650 298.8430 0035739 151.2049 209.1111 14.23628045 28214
DMSP 5D-2 F14 DEB
1 63155U 97012V   25248.08572559  .00004712  00000-0  20716-2 0  9993
2 63155  98.8649 299.5512 0035744 149.2781 211.0500 14.23635462 28313
DMSP 5D-2 F14 DEB
1 63155U 97012V   25251.10784608  .00003403  00000-0  15012-2 0  9999
2 63155  98.8649 302.5973 0035813 141.1250 219.2514 14.23658506 28744
DMSP 5D-2 F14 DEB
1 63155U 97012V   25251.38897105  .00003245  00000-0  14326-2 0  9997
2 63155  98.8642 302.8801 0035851 140.3276 220.0535 14.23660278 28787
DMSP 5D-2 F14 DEB
1 63155U 97012V   25252.09178238  .00002685  00000-0  11886-2 0  9990
2 63155  98.8638 303.5881 0035924 138.3604 222.0319 14.23663769 28882
DMSP 5D-2 F14 DEB
1 63155U 97012V   25252.37290604  .00002725  00000-0  12060-2 0  9993
2 63155  98.8640 303.8716 0035850 137.6626 222.7329 14.23665842 28926
DMSP 5D-2 F14 DEB
1 63155U 97012V   25253.84880218  .00002227  00000-0  98933-3 0  9993
2 63155  98.8638 305.3590 0035788 133.7000 226.7152 14.23672548 29136
DMSP 5D-2 F14 DEB
1 63155U 97012V   25256.09777075  .00002061  00000-0  91659-3 0  9993
2 63155  98.8636 307.6248 0035707 127.6584 232.7842 14.23683760 29455
DMSP 5D-2 F14 DEB
1 63155U 97012V   25256.37889067  .00002190  00000-0  97290-3 0  9999
2 63155  98.8637 307.9080 0035699 126.9129 233.5328 14.23685267 29496
DMSP 5D-2 F14 DEB
1 63155U 97012V   25257.99532518  .00002477  00000-0  10974-2 0  9995
2 63155  98.8641 309.5367 0035614 122.6270 237.8353 14.23693032 29724
DMSP 5D-2 F14 DEB
1 63155U 97012V   25260.10370014  .00002933  00000-0  12957-2 0  9993
2 63155  98.8644 311.6612 0035496 116.8860 243.5953 14.23706695 30027
DMSP 5D-2 F14 DEB
1 63155U 97012V   25260.94704477  .00002886  00000-0  12750-2 0  9997
2 63155  98.8645 312.5110 0035454 114.5949 245.8930 14.23711666 30145
DMSP 5D-2 F14 DEB
1 63155U 97012V   25261.08760198  .00002867  00000-0  12669-2 0  9993
2 63155  98.8644 312.6526 0035459 114.1766 246.3125 14.23712491 30165
DMSP 5D-2 F14 DEB
1 63155U 97012V   25263.40678247  .00003390  00000-0  14938-2 0  9997
2 63155  98.8641 314.9897 0035329 107.7970 252.7068 14.23727779 30497
DMSP 5D-2 F14 DEB
1 63155U 97012V   25263.96900441  .00003725  00000-0  16393-2 0  9991
2 63155  98.8640 315.5563 0035266 106.2805 254.2256 14.23732106 30579
DMSP 5D-2 F14 DEB
1 63155U 97012V   25264.39066973  .00003967  00000-0  17446-2 0  9990
2 63155  98.8638 315.9812 0035240 105.1321 255.3760 14.23735542 30636
DMSP 5D-2 F14 DEB
1 63155U 97012V   25267.41256247  .00005999  00000-0  26257-2 0  9998
2 63155  98.8630 319.0262 0034982  96.7977 263.7184 14.23769781 31069
DMSP 5D-2 F14 DEB
1 63155U 97012V   25269.59108677  .00005576  00000-0  24409-2 0  9990
2 63155  98.8625 321.2214 0034731  90.7585 269.7573 14.23795318 31373
DMSP 5D-2 F14 DEB
1 63155U 97012V   25273.59665546  .00008061  00000-0  35159-2 0  9994
2 63155  98.8629 325.2573 0034233  79.5170 280.9863 14.23850336 31943
DMSP 5D-2 F14 DEB
1 63155U 97012V   25276.12638390  .00006747  00000-0  29438-2 0  9995
2 63155  98.8629 327.8066 0034164  72.3522 288.1383 14.23897352 32300
DMSP 5D-2 F14 DEB
1 63155U 97012V   25276.40745890  .00007734  00000-0  33711-2 0  9996
2 63155  98.8634 328.0900 0033953  71.5351 288.9513 14.23903676 32346
DMSP 5D-2 F14 DEB
1 63155U 97012V   25278.58578037  .00004745  00000-0  20761-2 0  9994
2 63155  98.8631 330.2856 0033668  65.2840 295.1837 14.23924451 32651
DMSP 5D-2 F14 DEB
1 63155U 97012V   25281.60727280  .00004315  00000-0  18892-2 0  9992
2 63155  98.8620 333.3308 0033207  56.4590 303.9753 14.23949492 33083
DMSP 5D-2 F14 DEB
1 63155U 97012V   25283.08286747  .00003327  00000-0  14613-2 0  9993
2 63155  98.8616 334.8177 0033162  52.2382 308.1792 14.23958486 33297
DMSP 5D-2 F14 DEB
1 63155U 97012V   25283.57472982  .00003434  00000-0  15072-2 0  9994
2 63155  98.8610 335.3128 0033129  50.8481 309.5633 14.23962417 33366
DMSP 5D-2 F14 DEB
1 63155U 97012V   25285.12057531  .00003689  00000-0  16176-2 0  9994
2 63155  98.8609 336.8704 0033016  46.4170 313.9740 14.23973553 33586
DMSP 5D-2 F14 DEB
1 63155U 97012V   25286.59613868  .00004334  00000-0  18964-2 0  9992
2 63155  98.8630 338.3579 0032849  42.1187 318.2507 14.23988598 33798
DMSP 5D-2 F14 DEB
1 63155U 97012V   25287.57984137  .00003698  00000-0  16207-2 0  9991
2 63155  98.8632 339.3494 0032792  39.3053 321.0497 14.23995466 33932
DMSP 5D-2 F14 DEB
1 63155U 97012V   25290.60117778  .00004516  00000-0  19740-2 0  9993
2 63155  98.8635 342.3951 0032404  29.9954 330.3072 14.24021155 34368
DMSP 5D-2 F14 DEB
1 63155U 97012V   25291.09301813  .00005141  00000-0  22440-2 0  9998
2 63155  98.8634 342.8910 0032399  28.5954 331.6993 14.24026806 34437
DMSP 5D-2 F14 DEB
1 63155U 97012V   25291.93616871  .00005862  00000-0  25555-2 0  9994
2 63155  98.8621 343.7399 0032286  25.9275 334.3513 14.24036070 34551
DMSP 5D-2 F14 DEB
1 63155U 97012V   25292.42800366  .00006662  00000-0  29008-2 0  9999
2 63155  98.8616 344.2353 0032284  24.6009 335.6701 14.24043491 34626
DMSP 5D-2 F14 DEB
1 63155U 97012V   25294.60610498  .00004899  00000-0  21381-2 0  9992
2 63155  98.8608 346.4306 0032134  18.0782 342.1532 14.24065706 34930
DMSP 5D-2 F14 DEB
1 63155U 97012V   25295.09792964  .00004635  00000-0  20238-2 0  9993
2 63155  98.8607 346.9264 0032105  16.4967 343.7249 14.24070009 35005
DMSP 5D-2 F14 DEB
1 63155U 97012V   25295.58975292  .00004322  00000-0  18887-2 0  9994
2 63155  98.8607 347.4220 0032076  15.1100 345.1029 14.24074098 35076
DMSP 5D-2 F14 DEB
1 63155U 97012V   25296.36261440  .00004466  00000-0  19503-2 0  9999
2 63155  98.8604 348.2009 0032025  12.7334 347.4646 14.24081712 35186
DMSP 5D-2 F14 DEB
1 63155U 97012V   25296.92469332  .00004378  00000-0  19123-2 0  9991
2 63155  98.8601 348.7672 0031987  10.9971 349.1900 14.24086551 35264
DMSP 5D-2 F14 DEB
1 63155U 97012V   25298.61091717  .00004351  00000-0  19001-2 0  9993
2 63155  98.8597 350.4666 0031869   5.7862 354.3678 14.24102432 35505
DMSP 5D-2 F14 DEB
1 63155U 97012V   25299.10272965  .00004014  00000-0  17546-2 0  9992
2 63155  98.8598 350.9621 0031847   4.2864 355.8581 14.24105798 35578
DMSP 5D-2 F14 DEB
1 63155U 97012V   25299.59454078  .00004088  00000-0  17862-2 0  9994
2 63155  98.8600 351.4577 0031838   2.6520 357.4822 14.24109705 35645
DMSP 5D-2 F14 DEB
1 63155U 97012V   25300.36738497  .00004060  00000-0  17741-2 0  9998
2 63155  98.8599 352.2367 0031813   0.4359 359.6842 14.24115116 35758
DMSP 5D-2 F14 DEB
1 63155U 97012V   25302.40486555  .00004373  00000-0  19086-2 0  9991
2 63155  98.8599 354.2902 0031731 354.2091   5.8717 14.24131953 36048
DMSP 5D-2 F14 DEB
1 63155U 97012V   25303.38846748  .00004599  00000-0  20058-2 0  9994
2 63155  98.8603 355.2819 0031736 351.1049   8.9564 14.24141245 36180
DMSP 5D-2 F14 DEB
1 63155U 97012V   25304.58283186  .00004615  00000-0  20123-2 0  9990
2 63155  98.8606 356.4857 0031666 347.7478  12.2927 14.24153223 36356
DMSP 5D-2 F14 DEB
1 63155U 97012V   25305.84744365  .00003846  00000-0  16804-2 0  9997
2 63155  98.8611 357.7609 0031623 343.9971  16.0205 14.24163238 36538
DMSP 5D-2 F14 DEB
1 63155U 97012V   25307.60383072  .00003626  00000-0  15850-2 0  9993
2 63155  98.8604 359.5309 0031708 338.0919  21.8902 14.24178272 36787
DMSP 5D-2 F14 DEB
1 63155U 97012V   25310.97604714  .00004480  00000-0  19522-2 0  9995
2 63155  98.8598   2.9300 0031789 327.6755  32.2475 14.24208741 37260
DMSP 5D-2 F14 DEB
1 63155U 97012V   25311.60832809  .00005497  00000-0  23900-2 0  9998
2 63155  98.8598   3.5673 0031852 325.7220  34.1902 14.24218273 37354
DMSP 5D-2 F14 DEB
1 63155U 97012V   25313.08363828  .00005489  00000-0  23854-2 0  9991
2 63155  98.8595   5.0539 0031887 321.4402  38.4499 14.24235459 37568
DMSP 5D-2 F14 DEB
1 63155U 97012V   25315.61270465  .00006012  00000-0  26092-2 0  9996
2 63155  98.8596   7.6029 0031926 313.7259  46.1277 14.24263296 37929
DMSP 5D-2 F14 DEB
1 63155U 97012V   25316.59621262  .00008583  00000-0  37143-2 0  9993
2 63155  98.8597   8.5942 0031876 310.8270  49.0145 14.24283337 38069
DMSP 5D-2 F14 DEB
1 63155U 97012V   25319.61688870  .00004977  00000-0  21607-2 0  9998
2 63155  98.8602  11.6392 0032173 301.4834  58.3202 14.24339293 38490
DMSP 5D-2 F14 DEB
1 63155U 97012V   25320.60034842  .00005332  00000-0  23125-2 0  9996
2 63155  98.8604  12.6306 0032292 298.4152  61.3774 14.24350071 38639
DMSP 5D-2 F14 DEB
1 63155U 97012V   25320.88133624  .00005766  00000-0  24990-2 0  9996
2 63155  98.8598  12.9141 0032191 297.8188  61.9729 14.24353593 38673
DMSP 5D-2 F14 DEB
1 63155U 97012V   25323.62093336  .00003456  00000-0  15055-2 0  9992
2 63155  98.8595  15.6762 0032360 289.6979  70.0709 14.24378000 39067
DMSP 5D-2 F14 DEB
1 63155U 97012V   25324.60436880  .00003434  00000-0  14955-2 0  9990
2 63155  98.8588  16.6676 0032447 286.7643  72.9976 14.24385046 39207
DMSP 5D-2 F14 DEB
1 63155U 97012V   25328.11659117  .00003762  00000-0  16356-2 0  9991
2 63155  98.8569  20.2080 0032755 276.3909  83.3539 14.24415295 39704
DMSP 5D-2 F14 DEB
1 63155U 97012V   25331.97995071  .00004292  00000-0  18613-2 0  9998
2 63155  98.8585  24.1028 0033029 265.1692  94.5715 14.24450609 40257
DMSP 5D-2 F14 DEB
1 63155U 97012V   25332.40140259  .00003982  00000-0  17283-2 0  9994
2 63155  98.8583  24.5277 0033018 263.8316  95.9101 14.24453702 40319
DMSP 5D-2 F14 DEB
1 63155U 97012V   25333.10382071  .00004035  00000-0  17510-2 0  9995
2 63155  98.8584  25.2360 0033085 261.7973  97.9453 14.24459482 40415
DMSP 5D-2 F14 DEB
1 63155U 97012V   25334.36816554  .00004139  00000-0  17953-2 0  9998
2 63155  98.8586  26.5110 0033186 258.1497 101.5959 14.24470434 40599
DMSP 5D-2 F14 DEB
1 63155U 97012V   25336.40514521  .00004787  00000-0  20721-2 0  9990
2 63155  98.8585  28.5651 0033258 252.1411 107.6139 14.24490111 40883
DMSP 5D-2 F14 DEB
1 63155U 97012V   25338.09089904  .00007784  00000-0  33540-2 0  9992
2 63155  98.8580  30.2649 0033433 247.4040 112.3600 14.24514071 41121
DMSP 5D-2 F14 DEB
1 63155U 97012V   25338.93376389  .00008384  00000-0  36093-2 0  9994
2 63155  98.8577  31.1149 0033578 245.1057 114.6630 14.24527413 41240
DMSP 5D-2 F14 DEB
1 63155U 97012V   25340.61947209  .00006632  00000-0  28583-2 0  9996
2 63155  98.8575  32.8149 0033840 240.4550 119.3254 14.24549667 41489
DMSP 5D-2 F14 DEB
1 63155U 97012V   25341.11113363  .00006048  00000-0  26084-2 0  9993
2 63155  98.8568  33.3097 0033715 238.8054 120.9819 14.24554548 41557
DMSP 5D-2 F14 DEB
1 63155U 97012V   25341.88373923  .00005299  00000-0  22878-2 0  9991
2 63155  98.8570  34.0885 0033798 236.6853 123.1088 14.24562178 41660
DMSP 5D-2 F14 DEB
1 63155U 97012V   25342.09444928  .00005234  00000-0  22600-2 0  9991
2 63155  98.8569  34.3010 0033792 236.0585 123.7380 14.24564471 41693
DMSP 5D-2 F14 DEB
1 63155U 97012V   25342.37539566  .00005778  00000-0  24925-2 0  9990
2 63155  98.8569  34.5842 0033828 235.2763 124.5228 14.24568054 41733
DMSP 5D-2 F14 DEB
1 63155U 97012V   25344.41223768  .00005607  00000-0  24181-2 0  9996
2 63155  98.8571  36.6377 0033974 229.5139 130.3077 14.24589467 42028
DMSP 5D-2 F14 DEB
1 63155U 97012V   25345.11458981  .00005598  00000-0  24137-2 0  9991
2 63155  98.8573  37.3458 0034029 227.5374 132.2927 14.24597374 42121
DMSP 5D-2 F14 DEB
1 63155U 97012V   25345.60623306  .00005761  00000-0  24831-2 0  9993
2 63155  98.8576  37.8415 0034054 226.1775 133.6587 14.24603976 42190
DMSP 5D-2 F14 DEB
1 63155U 97012V   25346.09787452  .00005988  00000-0  25799-2 0  9995
2 63155  98.8577  38.3373 0034086 224.7919 135.0507 14.24610624 42263
DMSP 5D-2 F14 DEB
1 63155U 97012V   25346.37881119  .00006132  00000-0  26409-2 0  9992
2 63155  98.8577  38.6206 0034116 224.0601 135.7858 14.24614588 42300
DMSP 5D-2 F14 DEB
1 63155U 97012V   25347.64301849  .00005203  00000-0  22437-2 0  9995
2 63155  98.8600  39.8977 0034114 220.2075 139.6579 14.24629579 42484
DMSP 5D-2 F14 DEB
1 63155U 97012V   25348.41558582  .00004125  00000-0  17828-2 0  9999
2 63155  98.8608  40.6777 0034101 217.7984 142.0799 14.24634872 42592
DMSP 5D-2 F14 DEB
1 63155U 97012V   25351.08443198  .00003209  00000-0  13910-2 0  9992
2 63155  98.8611  43.3708 0034208 209.9806 149.9414 14.24651849 42979
DMSP 5D-2 F14 DEB
1 63155U 97012V   25351.36536126  .00003147  00000-0  13642-2 0  9990
2 63155  98.8602  43.6529 0034328 209.8789 150.0430 14.24653330 43019
DMSP 5D-2 F14 DEB
1 63155U 97012V   25353.89371033  .00002615  00000-0  11365-2 0  9993
2 63155  98.8587  46.2018 0034500 203.2204 156.7417 14.24668147 43374
DMSP 5D-2 F14 DEB
1 63155U 97012V   25354.94718233  .00002671  00000-0  11602-2 0  9993
2 63155  98.8563  47.2625 0034581 200.1606 159.8209 14.24674103 43523
DMSP 5D-2 F14 DEB
1 63155U 97012V   25358.10756360  .00003843  00000-0  16596-2 0  9997
2 63155  98.8559  50.4491 0034687 191.5460 168.4926 14.24699180 43976
DMSP 5D-2 F14 DEB
1 63155U 97012V   25362.60222697  .00004702  00000-0  20246-2 0  9990
2 63155  98.8567  54.9815 0034791 179.1776 180.9465 14.24739855 44615
DMSP 5D-2 F14 DEB
1 63155U 97012V   25365.13041095  .00006870  00000-0  29462-2 0  9999
2 63155  98.8565  57.5313 0034814 171.9916 188.1826 14.24772891 44974
DMSP 5D-2 F14 DEB
1 63155U 97012V   26001.11357827  .00006164  00000-0  26452-2 0  9990
2 63155  98.8571  58.5231 0034792 169.3785 190.8137 14.24783509 45111
DMSP 5D-2 F14 DEB
1 63155U 97012V   26001.39448190  .00006233  00000-0  26746-2 0  9997
2 63155  98.8573  58.8064 0034773 168.6092 191.5882 14.24786927 45158
DMSP 5D-2 F14 DEB
1 63155U 97012V   26002.93943761  .00006655  00000-0  28532-2 0  9995
2 63155  98.8572  60.3653 0034653 164.5626 195.6618 14.24807360 45375
DMSP 5D-2 F14 DEB
1 63155U 97012V   26006.09951532  .00004160  00000-0  17904-2 0  9991
2 63155  98.8558  63.5519 0034628 155.8541 204.4270 14.24837497 45823
DMSP 5D-2 F14 DEB
1 63155U 97012V   26006.38040806  .00003924  00000-0  16897-2 0  9993
2 63155  98.8558  63.8352 0034606 155.1017 205.1841 14.24839295 45862
DMSP 5D-2 F14 DEB
1 63155U 97012V   26008.41686725  .00003696  00000-0  15922-2 0  9999
2 63155  98.8554  65.8889 0034667 149.3312 210.9902 14.24855492 46157
DMSP 5D-2 F14 DEB
1 63155U 97012V   26009.39997760  .00003852  00000-0  16584-2 0  9990
2 63155  98.8556  66.8806 0034646 146.6050 213.7323 14.24863148 46295
DMSP 5D-2 F14 DEB
1 63155U 97012V   26013.12170951  .00002403  00000-0  10413-2 0  9997
2 63155  98.8568  70.6353 0034758 136.0527 224.3425 14.24886729 46824
DMSP 5D-2 F14 DEB
1 63155U 97012V   26016.63272723  .00002448  00000-0  10604-2 0  9997
2 63155  98.8564  74.1768 0034442 126.4459 233.9903 14.24903169 47327
DMSP 5D-2 F14 DEB
1 63155U 97012V   26018.10734015  .00003223  00000-0  13898-2 0  9998
2 63155  98.8568  75.6648 0034108 122.4984 237.9499 14.24913443 47535
DMSP 5D-2 F14 DEB
1 63155U 97012V   26019.93303702  .00004299  00000-0  18465-2 0  9994
2 63155  98.8552  77.5051 0034014 117.4653 242.9991 14.24928230 47791
DMSP 5D-2 F14 DEB
1 63155U 97012V   26023.58428885  .00005383  00000-0  23041-2 0  9991
2 63155  98.8545  81.1881 0033618 107.1623 253.3241 14.24997141 48317
DMSP 5D-2 F14 DEB
1 63155U 97012V   26026.95458200  .00005425  00000-0  23206-2 0  9999
2 63155  98.8543  84.5880 0033429  97.7135 262.7842 14.25030849 48790
DMSP 5D-2 F14 DEB
1 63155U 97012V   26027.58650341  .00005211  00000-0  22294-2 0  9998
2 63155  98.8541  85.2248 0033523  95.9379 264.5622 14.25036391 48883
DMSP 5D-2 F14 DEB
1 63155U 97012V   26030.11415660  .00004892  00000-0  20934-2 0  9997
2 63155  98.8537  87.7743 0033383  88.8427 271.6576 14.25062110 49240
DMSP 5D-2 F14 DEB
1 63155U 97012V   26030.60563815  .00004193  00000-0  17973-2 0  9990
2 63155  98.8543  88.2702 0033118  87.3063 273.1906 14.25066272 49319
DMSP 5D-2 F14 DEB
1 63155U 97012V   26031.09711955  .00003509  00000-0  15072-2 0  9992
2 63155  98.8543  88.7663 0033054  85.8938 274.6017 14.25069367 49387
DMSP 5D-2 F14 DEB
1 63155U 97012V   26031.86944445  .00003089  00000-0  13289-2 0  9990
2 63155  98.8538  89.5456 0033035  83.7171 276.7769 14.25075055 49495
DMSP 5D-2 F14 DEB
1 63155U 97012V   26034.11619220  .00003231  00000-0  13888-2 0  9995
2 63155  98.8538  91.8122 0033000  77.4592 283.0275 14.25091116 49815
DMSP 5D-2 F14 DEB
1 63155U 97012V   26034.60766414  .00003620  00000-0  15535-2 0  9990
2 63155  98.8534  92.3078 0032846  75.9381 284.5445 14.25095528 49886
DMSP 5D-2 F14 DEB
1 63155U 97012V   26038.39897043  .00004215  00000-0  18050-2 0  9999
2 63155  98.8538  96.1332 0032382  64.8450 295.6082 14.25129034 50426
DMSP 5D-2 F14 DEB
1 63155U 97012V   26039.10105533  .00003579  00000-0  15354-2 0  9991
2 63155  98.8537  96.8416 0032322  62.7960 297.6507 14.25132904 50527
DMSP 5D-2 F14 DEB
1 63155U 97012V   26042.11999208  .00003225  00000-0  13852-2 0  9995
2 63155  98.8532  99.8870 0031938  53.8719 306.5408 14.25152805 50953
DMSP 5D-2 F14 DEB
1 63155U 97012V   26043.59433982  .00003205  00000-0  13765-2 0  9991
2 63155  98.8530 101.3738 0031863  49.6122 310.7830 14.25163161 51168
DMSP 5D-2 F14 DEB
1 63155U 97012V   26046.40259478  .00003773  00000-0  16165-2 0  9997
2 63155  98.8525 104.2069 0031630  41.4074 318.9494 14.25182166 51565
DMSP 5D-2 F14 DEB
1 63155U 97012V   26052.37002142  .00002924  00000-0  12567-2 0  9993
2 63155  98.8513 110.2273 0031099  23.5554 336.7041 14.25215856 52413
DMSP 5D-2 F14 DEB
1 63155U 97012V   26055.10796653  .00003074  00000-0  13200-2 0  9996
2 63155  98.8515 112.9897 0030876  15.2385 344.9717 14.25233193 52806
DMSP 5D-2 F14 DEB
1 63155U 97012V   26055.59938879  .00003061  00000-0  13142-2 0  9998
2 63155  98.8516 113.4858 0030834  13.7426 346.4586 14.25236452 52872
DMSP 5D-2 F14 DEB
1 63155U 97012V   26058.12668627  .00003110  00000-0  13348-2 0  9994
2 63155  98.8509 116.0343 0030684   6.0798 354.0748 14.25252897 53239
DMSP 5D-2 F14 DEB
1 63155U 97012V   26058.12668628  .00003110  00000-0  13348-2 0  9995
2 63155  98.8509 116.0343 0030684   6.0798 354.0748 14.25252897 53239
DMSP 5D-2 F14 DEB
1 63155U 97012V   26058.61810189  .00003100  00000-0  13301-2 0  9998
2 63155  98.8508 116.5301 0030661   4.5849 355.5605 14.25256060 53304
DMSP 5D-2 F14 DEB
1 63155U 97012V   26058.89890998  .00003283  00000-0  14074-2 0  9994
2 63155  98.8510 116.8133 0030634   3.6021 356.5373 14.25258435 53340
DMSP 5D-2 F14 DEB
1 63155U 97012V   26059.10951615  .00003269  00000-0  14018-2 0  9995
2 63155  98.8509 117.0258 0030634   3.0155 357.1203 14.25259809 53379
DMSP 5D-2 F14 DEB
1 63155U 97012V   26059.10951615  .00003269  00000-0  14018-2 0  9995
2 63155  98.8509 117.0258 0030634   3.0155 357.1203 14.25259809 53379
DMSP 5D-2 F14 DEB
1 63155U 97012V   26059.95193846  .00003310  00000-0  14190-2 0  9990
2 63155  98.8507 117.8755 0030583   0.4345 359.6855 14.25265345 53497
DMSP 5D-2 F14 DEB
1 63155U 97012V   26059.95193847  .00003310  00000-0  14190-2 0  9991
2 63155  98.8507 117.8755 0030583   0.4345 359.6856 14.25265345 53498
DMSP 5D-2 F14 DEB
1 63155U 97012V   26060.37314840  .00003514  00000-0  15050-2 0  9999
2 63155  98.8506 118.3004 0030560 359.1525   0.9597 14.25268704 53556
DMSP 5D-2 F14 DEB
1 63155U 97012V   26060.37314841  .00003514  00000-0  15050-2 0  9990
2 63155  98.8506 118.3004 0030560 359.1526   0.9597 14.25268704 53557
DMSP 5D-2 F14 DEB
1 63155U 97012V   26061.00496136  .00003383  00000-0  14496-2 0  9996
2 63155  98.8503 118.9378 0030529 357.2250   2.8755 14.25272637 53649
DMSP 5D-2 F14 DEB
1 63155U 97012V   26061.00496136  .00003383  00000-0  14496-2 0  9996
2 63155  98.8504 118.9378 0030529 357.2250   2.8755 14.25272637 53640
DMSP 5D-2 F14 DEB
1 63155U 97012V   26061.98777786  .00003483  00000-0  14917-2 0  9995
2 63155  98.8501 119.9293 0030481 354.1737   5.9084 14.25279587 53782
DMSP 5D-2 F14 DEB
1 63155U 97012V   26061.98777787  .00003483  00000-0  14917-2 0  9996
2 63155  98.8501 119.9293 0030481 354.1737   5.9084 14.25279587 53782
DMSP 5D-2 F14 DEB
1 63155U 97012V   26063.11099047  .00004174  00000-0  17834-2 0  9998
2 63155  98.8497 121.0623 0030430 350.6758   9.3853 14.25289358 53942
DMSP 5D-2 F14 DEB
1 63155U 97012V   26063.39179232  .00004428  00000-0  18905-2 0  9995
2 63155  98.8495 121.3456 0030423 349.8460  10.2101 14.25292218 53989
DMSP 5D-2 F14 DEB
1 63155U 97012V   26063.39179232  .00004428  00000-0  18905-2 0  9995
2 63155  98.8495 121.3457 0030423 349.8460  10.2101 14.25292218 53980
DMSP 5D-2 F14 DEB
1 63155U 97012V   26066.62098617  .00003998  00000-0  17083-2 0  9998
2 63155  98.8488 124.6032 0030313 339.8971  20.1012 14.25315778 54441
DMSP 5D-2 F14 DEB
1 63155U 97012V   26066.62098617  .00003998  00000-0  17083-2 0  9998
2 63155  98.8488 124.6032 0030313 339.8971  20.1012 14.25315778 54441
DMSP 5D-2 F14 DEB
1 63155U 97012V   26068.37595779  .00003710  00000-0  15861-2 0  9997
2 63155  98.8487 126.3739 0030294 334.4042  25.5635 14.25329617 54695
DMSP 5D-2 F14 DEB
1 63155U 97012V   26068.37595780  .00003710  00000-0  15861-2 0  9999
2 63155  98.8487 126.3739 0030294 334.4043  25.5635 14.25329617 54696
DMSP 5D-2 F14 DEB
1 63155U 97012V   26070.62229711  .00003363  00000-0  14391-2 0  9999
2 63155  98.8487 128.6403 0030277 327.3540  32.5767 14.25346799 55014
DMSP 5D-2 F14 DEB
1 63155U 97012V   26070.62229711  .00003363  00000-0  14391-2 0  9999
2 63155  98.8487 128.6403 0030277 327.3540  32.5767 14.25346799 55014
DMSP 5D-2 F14 DEB
1 63155U 97012V   26071.39447139  .00003341  00000-0  14298-2 0  9992
2 63155  98.8487 129.4195 0030243 325.1097  34.8099 14.25351763 55129
DMSP 5D-2 F14 DEB
1 63155U 97012V   26071.39447140  .00003341  00000-0  14298-2 0  9994
2 63155  98.8487 129.4195 0030243 325.1097  34.8099 14.25351763 55129
DMSP 5D-2 F14 DEB
1 63155U 97012V   26071.95605088  .00003347  00000-0  14321-2 0  9996
2 63155  98.8488 129.9858 0030264 323.2925  36.6181 14.25355290 55203
DMSP 5D-2 F14 DEB
1 63155U 97012V   26071.95605089  .00003347  00000-0  14321-2 0  9997
2 63155  98.8488 129.9858 0030264 323.2925  36.6181 14.25355290 55203
DMSP 5D-2 F14 DEB
1 63155U 97012V   26072.37723466  .00003204  00000-0  13720-2 0  9998
2 63155  98.8488 130.4106 0030258 321.9946  37.9098 14.25357624 55267
DMSP 5D-2 F14 DEB
1 63155U 97012V   26074.62353250  .00002880  00000-0  12345-2 0  9999
2 63155  98.8487 132.6766 0030316 315.0143  44.8581 14.25372812 55585
DMSP 5D-2 F14 DEB
1 63155U 97012V   26074.90431805  .00002816  00000-0  12077-2 0  9994
2 63155  98.8489 132.9595 0030322 314.1111  45.7574 14.25374562 55623
DMSP 5D-2 F14 DEB
1 63155U 97012V   26075.60628114  .00002676  00000-0  11487-2 0  9991
2 63155  98.8487 133.6677 0030324 311.9637  47.8959 14.25378680 55726
DMSP 5D-2 F14 DEB
1 63155U 97012V   26075.88706579  .00002586  00000-0  11107-2 0  9992
2 63155  98.8485 133.9511 0030337 311.1140  48.7420 14.25380029 55766
DMSP 5D-2 F14 DEB
1 63155U 97012V   26075.88706579  .00002586  00000-0  11107-2 0  9992
2 63155  98.8485 133.9511 0030337 311.1141  48.7420 14.25380029 55767
DMSP 5D-2 F14 DEB
1 63155U 97012V   26076.58902660  .00002398  00000-0  10313-2 0  9998
2 63155  98.8483 134.6592 0030356 308.9372  50.9102 14.25383279 55866
DMSP 5D-2 F14 DEB
1 63155U 97012V   26078.62470523  .00002466  00000-0  10598-2 0  9994
2 63155  98.8477 136.7128 0030433 302.6442  57.1801 14.25392587 56152
DMSP 5D-2 F14 DEB
1 63155U 97012V   26078.62470524  .00002466  00000-0  10598-2 0  9995
2 63155  98.8477 136.7128 0030433 302.6442  57.1801 14.25392587 56152
DMSP 5D-2 F14 DEB
1 63155U 97012V   26079.39685655  .00002421  00000-0  10404-2 0  9990
2 63155  98.8476 137.4917 0030462 300.2540  59.5625 14.25395452 56266
DMSP 5D-2 F14 DEB
1 63155U 97012V   26079.39685656  .00002421  00000-0  10404-2 0  9991
2 63155  98.8476 137.4917 0030462 300.2540  59.5625 14.25395452 56266
DMSP 5D-2 F14 DEB
1 63155U 97012V   26079.60744256  .00002753  00000-0  11805-2 0  9991
2 63155  98.8475 137.7041 0030472 299.6056  60.2088 14.25397561 56298
DMSP 5D-2 F14 DEB
1 63155U 97012V   26080.37958945  .00003307  00000-0  14139-2 0  9998
2 63155  98.8473 138.4831 0030520 297.2007  62.6062 14.25403466 56408
DMSP 5D-2 F14 DEB
1 63155U 97012V   26081.01134423  .00003431  00000-0  14662-2 0  9996
2 63155  98.8471 139.1202 0030501 295.3390  64.4631 14.25407621 56497
DMSP 5D-2 F14 DEB
1 63155U 97012V   26082.13445810  .00003748  00000-0  15996-2 0  9997
2 63155  98.8469 140.2534 0030538 291.9262  67.8671 14.25416612 56654
DMSP 5D-2 F14 DEB
1 63155U 97012V   26082.41523458  .00003689  00000-0  15745-2 0  9999
2 63155  98.8469 140.5369 0030614 290.8960  68.8943 14.25418925 56697
DMSP 5D-2 F14 DEB
1 63155U 97012V   26082.90659344  .00003534  00000-0  15089-2 0  9997
2 63155  98.8469 141.0326 0030627 289.4392  70.3478 14.25422675 56769
DMSP 5D-2 F14 DEB
1 63155U 97012V   26083.60853305  .00003189  00000-0  13633-2 0  9997
2 63155  98.8470 141.7405 0030677 287.2706  72.5117 14.25427327 56860
DMSP 5D-2 F14 DEB
1 63155U 97012V   26085.43356713  .00002960  00000-0  12665-2 0  9991
2 63155  98.8469 143.5817 0030699 281.7200  78.0535 14.25438885 57123
DMSP 5D-2 F14 DEB
1 63155U 97012V   26085.43356713  .00002960  00000-0  12665-2 0  9991
2 63155  98.8469 143.5817 0030699 281.7200  78.0535 14.25438885 57123
DMSP 5D-2 F14 DEB
1 63155U 97012V   26086.41627268  .00002917  00000-0  12484-2 0  9997
2 63155  98.8470 144.5728 0030789 278.6910  81.0782 14.25444416 57260
DMSP 5D-2 F14 DEB
1 63155U 97012V   26086.62685189  .00002868  00000-0  12277-2 0  9991
2 63155  98.8471 144.7853 0030897 278.0004  81.7669 14.25445473 57298
DMSP 5D-2 F14 DEB
1 63155U 97012V   26086.62685189  .00002868  00000-0  12277-2 0  9991
2 63155  98.8471 144.7853 0030897 278.0004  81.7669 14.25445473 57298
DMSP 5D-2 F14 DEB
1 63155U 97012V   26087.11820274  .00002960  00000-0  12663-2 0  9994
2 63155  98.8471 145.2812 0030964 276.5160  83.2494 14.25448534 57362
DMSP 5D-2 F14 DEB
1 63155U 97012V   26087.11820275  .00002960  00000-0  12663-2 0  9995
2 63155  98.8471 145.2812 0030964 276.5160  83.2494 14.25448534 57362
DMSP 5D-2 F14 DEB
1 63155U 97012V   26088.10090095  .00003413  00000-0  14570-2 0  9997
2 63155  98.8471 146.2725 0031055 273.5301  86.2327 14.25455792 57500
DMSP 5D-2 F14 DEB
1 63155U 97012V   26088.94320943  .00004042  00000-0  17213-2 0  9993
2 63155  98.8471 147.1222 0031160 270.9781  88.7828 14.25463265 57622
DMSP 5D-2 F14 DEB
1 63155U 97012V   26088.94320944  .00004042  00000-0  17213-2 0  9994
2 63155  98.8471 147.1222 0031160 270.9781  88.7828 14.25463265 57622
DMSP 5D-2 F14 DEB
1 63155U 97012V   26095.12001203  .00004107  00000-0  17464-2 0  9996
2 63155  98.8455 153.3531 0031714 252.4415 107.3299 14.25518235 58506
DMSP 5D-2 F14 DEB
1 63155U 97012V   26095.61133775  .00003993  00000-0  16985-2 0  9999
2 63155  98.8454 153.8487 0031786 250.9651 108.8084 14.25522943 58570
DMSP 5D-2 F14 DEB
1 63155U 97012V   26096.10266249  .00003758  00000-0  15995-2 0  9996
2 63155  98.8456 154.3446 0031824 249.5088 110.2675 14.25526740 58644
DMSP 5D-2 F14 DEB
1 63155U 97012V   26097.08530863  .00003430  00000-0  14616-2 0  9996
2 63155  98.8453 155.3357 0031897 246.5637 113.2187 14.25533464 58787
DMSP 5D-2 F14 DEB
1 63155U 97012V   26097.08530863  .00003430  00000-0  14616-2 0  9996
2 63155  98.8453 155.3357 0031897 246.5637 113.2187 14.25533464 58787
DMSP 5D-2 F14 DEB
1 63155U 97012V   26098.13813970  .00002813  00000-0  12021-2 0  9998
2 63155  98.8451 156.3976 0031989 243.4019 116.3881 14.25538928 58937
DMSP 5D-2 F14 DEB
1 63155U 97012V   26098.13813971  .00002813  00000-0  12021-2 0  9999
2 63155  98.8451 156.3976 0031989 243.4019 116.3881 14.25538928 58937
DMSP 5D-2 F14 DEB
1 63155U 97012V   26098.62945939  .00002557  00000-0  10943-2 0  9999
2 63155  98.8454 156.8938 0032114 241.9909 117.8020 14.25541288 59008
DMSP 5D-2 F14 DEB
1 63155U 97012V   26099.12077817  .00002420  00000-0  10364-2 0  9992
2 63155  98.8456 157.3893 0032189 240.6425 119.1538 14.25543863 59074
DMSP 5D-2 F14 DEB
1 63155U 97012V   26099.12077818  .00002420  00000-0  10364-2 0  9993
2 63155  98.8456 157.3893 0032189 240.6425 119.1538 14.25543863 59074
DMSP 5D-2 F14 DEB
1 63155U 97012V   26100.87548182  .00002919  00000-0  12460-2 0  9997
2 63155  98.8455 159.1595 0032377 235.4900 124.3221 14.25554105 59327
DMSP 5D-2 F14 DEB
1 63155U 97012V   26100.87548182  .00002919  00000-0  12460-2 0  9997
2 63155  98.8455 159.1595 0032377 235.4900 124.3221 14.25554105 59327
DMSP 5D-2 F14 DEB
1 63155U 97012V   26102.13886212  .00002327  00000-0  99716-3 0  9990
2 63155  98.8454 160.4340 0032488 231.7674 128.0580 14.25559274 59500
DMSP 5D-2 F14 DEB
1 63155U 97012V   26102.13886212  .00002327  00000-0  99716-3 0  9990
2 63155  98.8454 160.4340 0032488 231.7674 128.0580 14.25559274 59500
DMSP 5D-2 F14 DEB
1 63155U 97012V   26102.63017529  .00002023  00000-0  86941-3 0  9991
2 63155  98.8456 160.9297 0032583 230.3462 129.4842 14.25560980 59573
DMSP 5D-2 F14 DEB
1 63155U 97012V   26102.63017529  .00002023  00000-0  86941-3 0  9991
2 63155  98.8456 160.9297 0032583 230.3462 129.4842 14.25560980 59573
DMSP 5D-2 F14 DEB
1 63155U 97012V   26103.89354946  .00001827  00000-0  78671-3 0  9999
2 63155  98.8456 162.2041 0032747 226.6790 133.1658 14.25565641 59755
DMSP 5D-2 F14 DEB
1 63155U 97012V   26104.10411152  .00001907  00000-0  82027-3 0  9996
2 63155  98.8456 162.4165 0032778 226.0862 133.7610 14.25566564 59784
DMSP 5D-2 F14 DEB
1 63155U 97012V   26104.10411152  .00001907  00000-0  82027-3 0  9996
2 63155  98.8456 162.4165 0032778 226.0862 133.7610 14.25566564 59784
DMSP 5D-2 F14 DEB
1 63155U 97012V   26104.38486086  .00001848  00000-0  79581-3 0  9999
2 63155  98.8454 162.6997 0032777 225.2398 134.6113 14.25567453 59822
DMSP 5D-2 F14 DEB
1 63155U 97012V   26104.38486086  .00001848  00000-0  79581-3 0  9999
2 63155  98.8454 162.6997 0032777 225.2398 134.6114 14.25567453 59823
DMSP 5D-2 F14 DEB
1 63155U 97012V   26107.12215614  .00002015  00000-0  86535-3 0  9995
2 63155  98.8447 165.4607 0033109 217.3687 142.5189 14.25577664 60217
DMSP 5D-2 F14 DEB
1 63155U 97012V   26107.89421060  .00002162  00000-0  92719-3 0  9997
2 63155  98.8445 166.2396 0033225 215.1581 144.7406 14.25580771 60328
DMSP 5D-2 F14 DEB
1 63155U 97012V   26108.10477054  .00002209  00000-0  94677-3 0  9993
2 63155  98.8445 166.4520 0033251 214.5680 145.3338 14.25581772 60357
DMSP 5D-2 F14 DEB
1 63155U 97012V   26111.89482412  .00002371  00000-0  10144-2 0  9993
2 63155  98.8440 170.2757 0033711 203.8148 156.1473 14.25599906 60895
DMSP 5D-2 F14 DEB
1 63155U 97012V   26112.10538120  .00002367  00000-0  10124-2 0  9999
2 63155  98.8440 170.4881 0033726 203.2202 156.7455 14.25601010 60926
DMSP 5D-2 F14 DEB
1 63155U 97012V   26112.10538121  .00002367  00000-0  10124-2 0  9990
2 63155  98.8440 170.4881 0033726 203.2202 156.7455 14.25601010 60926
DMSP 5D-2 F14 DEB
1 63155U 97012V   26112.38612399  .00002305  00000-0  98657-3 0  9990
2 63155  98.8440 170.7713 0033758 202.4203 157.5502 14.25602105 60962
DMSP 5D-2 F14 DEB
1 63155U 97012V   26112.38612399  .00002305  00000-0  98657-3 0  9990
2 63155  98.8440 170.7713 0033758 202.4203 157.5502 14.25602105 60962
DMSP 5D-2 F14 DEB
1 63155U 97012V   26114.42150014  .00002330  00000-0  99656-3 0  9996
2 63155  98.8441 172.8246 0033978 196.6938 163.3125 14.25612010 61255
DMSP 5D-2 F14 DEB
1 63155U 97012V   26114.42150015  .00002330  00000-0  99656-3 0  9997
2 63155  98.8441 172.8246 0033978 196.6938 163.3125 14.25612010 61255
DMSP 5D-2 F14 DEB
1 63155U 97012V   26115.12335050  .00002540  00000-0  10848-2 0  9997
2 63155  98.8440 173.5327 0034024 194.7223 165.2969 14.25616220 61356
DMSP 5D-2 F14 DEB
1 63155U 97012V   26115.61464440  .00002787  00000-0  11882-2 0  9999
2 63155  98.8442 174.0283 0034084 193.3486 166.6794 14.25619662 61429
DMSP 5D-2 F14 DEB
1 63155U 97012V   26115.61464440  .00002787  00000-0  11882-2 0  9999
2 63155  98.8442 174.0283 0034084 193.3486 166.6794 14.25619662 61429
DMSP 5D-2 F14 DEB
1 63155U 97012V   26116.10593723  .00003228  00000-0  13731-2 0  9997
2 63155  98.8442 174.5239 0034122 191.9710 168.0662 14.25623770 61494
DMSP 5D-2 F14 DEB
1 63155U 97012V   26118.63256838  .00003238  00000-0  13766-2 0  9999
2 63155  98.8442 177.0725 0034369 184.9336 175.1509 14.25639926 61850
DMSP 5D-2 F14 DEB
1 63155U 97012V   26118.91330344  .00003168  00000-0  13471-2 0  9990
2 63155  98.8448 177.3554 0034402 184.1985 175.8911 14.25641435 61895
DMSP 5D-2 F14 DEB
1 63155U 97012V   26119.12385418  .00003183  00000-0  13535-2 0  9994
2 63155  98.8446 177.5682 0034427 183.6553 176.4380 14.25643017 61928
DMSP 5D-2 F14 DEB
1 63155U 97012V   26119.12385418  .00003183  00000-0  13535-2 0  9994
2 63155  98.8446 177.5682 0034427 183.6553 176.4380 14.25643017 61928
DMSP 5D-2 F14 DEB
1 63155U 97012V   26119.89587299  .00003293  00000-0  13991-2 0  9997
2 63155  98.8443 178.3470 0034494 181.4949 178.6133 14.25648358 62034
DMSP 5D-2 F14 DEB
1 63155U 97012V   26119.89587299  .00003293  00000-0  13991-2 0  9997
2 63155  98.8443 178.3470 0034494 181.4949 178.6133 14.25648358 62034
DMSP 5D-2 F14 DEB
1 63155U 97012V   26120.59770603  .00003075  00000-0  13078-2 0  9993
2 63155  98.8442 179.0550 0034559 179.5600 180.5615 14.25652177 62136
DMSP 5D-2 F14 DEB
1 63155U 97012V   26122.42246015  .00003335  00000-0  14164-2 0  9998
2 63155  98.8436 180.8956 0034714 174.5711 185.5851 14.25665060 62390
DMSP 5D-2 F14 DEB
1 63155U 97012V   26122.63300778  .00003286  00000-0  13955-2 0  9990
2 63155  98.8436 181.1080 0034726 173.9978 186.1624 14.25666372 62429
DMSP 5D-2 F14 DEB
1 63155U 97012V   26122.63300778  .00003286  00000-0  13955-2 0  9990
2 63155  98.8436 181.1080 0034726 173.9978 186.1624 14.25666372 62429
DMSP 5D-2 F14 DEB
1 63155U 97012V   26122.63300778  .00003286  00000-0  13955-2 0  9990
2 63155  98.8436 181.1080 0034726 173.9978 186.1624 14.25666372 62429
DMSP 5D-2 F14 DEB
1 63155U 97012V   26123.12428440  .00003258  00000-0  13838-2 0  9991
2 63155  98.8435 181.6037 0034759 172.6518 187.5177 14.25669738 62491
DMSP 5D-2 F14 DEB
1 63155U 97012V   26123.12428440  .00003258  00000-0  13838-2 0  9991
2 63155  98.8435 181.6037 0034759 172.6518 187.5177 14.25669738 62491
DMSP 5D-2 F14 DEB
1 63155U 97012V   26123.40501307  .00003346  00000-0  14209-2 0  9997
2 63155  98.8434 181.8869 0034803 171.9043 188.2705 14.25672388 62535
DMSP 5D-2 F14 DEB
1 63155U 97012V   26123.40501307  .00003346  00000-0  14209-2 0  9997
2 63155  98.8434 181.8868 0034803 171.9043 188.2705 14.25672388 62534
DMSP 5D-2 F14 DEB
1 63155U 97012V   26123.61555961  .00003261  00000-0  13850-2 0  9992
2 63155  98.8433 182.0993 0034821 171.3395 188.8393 14.25673718 62569
DMSP 5D-2 F14 DEB
1 63155U 97012V   26123.61555961  .00003261  00000-0  13850-2 0  9992
2 63155  98.8433 182.0993 0034821 171.3395 188.8393 14.25673718 62569
DMSP 5D-2 F14 DEB
1 63155U 97012V   26126.42282656  .00002948  00000-0  12533-2 0  9990
2 63155  98.8428 184.9313 0035026 163.6849 196.5466 14.25691655 62967
DMSP 5D-2 F14 DEB
1 63155U 97012V   26126.42282657  .00002948  00000-0  12533-2 0  9991
2 63155  98.8428 184.9313 0035026 163.6849 196.5466 14.25691655 62967
DMSP 5D-2 F14 DEB
1 63155U 97012V   26126.63337022  .00002944  00000-0  12519-2 0  9991
2 63155  98.8430 185.1439 0035040 163.1403 197.0949 14.25693051 62996
DMSP 5D-2 F14 DEB
1 63155U 97012V   26126.63337022  .00002944  00000-0  12519-2 0  9991
2 63155  98.8430 185.1439 0035040 163.1403 197.0949 14.25693051 62996
DMSP 5D-2 F14 DEB
1 63155U 97012V   26127.12463822  .00002803  00000-0  11925-2 0  9998
2 63155  98.8434 185.6396 0035052 161.7625 198.4820 14.25695236 63069
DMSP 5D-2 F14 DEB
1 63155U 97012V   26127.12463822  .00002803  00000-0  11925-2 0  9998
2 63155  98.8434 185.6396 0035052 161.7625 198.4820 14.25695236 63069
DMSP 5D-2 F14 DEB
1 63155U 97012V   26128.10717115  .00002600  00000-0  11076-2 0  9996
2 63155  98.8438 186.6310 0035114 159.0759 201.1866 14.25700411 63207
DMSP 5D-2 F14 DEB
1 63155U 97012V   26128.10717115  .00002600  00000-0  11076-2 0  9996
2 63155  98.8438 186.6310 0035114 159.0759 201.1866 14.25700411 63207
DMSP 5D-2 F14 DEB
1 63155U 97012V   26128.87915878  .00002546  00000-0  10850-2 0  9994
2 63155  98.8435 187.4096 0035155 157.0098 203.2664 14.25704459 63310
DMSP 5D-2 F14 DEB
1 63155U 97012V   26128.87915879  .00002546  00000-0  10850-2 0  9995
2 63155  98.8435 187.4097 0035155 157.0098 203.2664 14.25704459 63311
DMSP 5D-2 F14 DEB
1 63155U 97012V   26130.63366969  .00002156  00000-0  92161-3 0  9995
2 63155  98.8437 189.1797 0035241 152.2703 208.0365 14.25711607 63566
DMSP 5D-2 F14 DEB
1 63155U 97012V   26130.63366969  .00002156  00000-0  92161-3 0  9995
2 63155  98.8437 189.1797 0035241 152.2703 208.0365 14.25711606 63565
DMSP 5D-2 F14 DEB
1 63155U 97012V   26131.12493108  .00002102  00000-0  89895-3 0  9997
2 63155  98.8437 189.6752 0035258 150.9233 209.3920 14.25713631 63631
DMSP 5D-2 F14 DEB
1 63155U 97012V   26131.12493108  .00002102  00000-0  89895-3 0  9997
2 63155  98.8437 189.6752 0035258 150.9233 209.3920 14.25713631 63631
DMSP 5D-2 F14 DEB
1 63155U 97012V   26132.10745162  .00001996  00000-0  85423-3 0  9999
2 63155  98.8438 190.6664 0035297 148.2544 212.0773 14.25717615 63772
DMSP 5D-2 F14 DEB
1 63155U 97012V   26132.10745163  .00001996  00000-0  85423-3 0  9990
2 63155  98.8438 190.6664 0035297 148.2544 212.0773 14.25717616 63773
DMSP 5D-2 F14 DEB
1 63155U 97012V   26132.38817156  .00002045  00000-0  87497-3 0  9991
2 63155  98.8438 190.9496 0035313 147.4361 212.9006 14.25718821 63818
DMSP 5D-2 F14 DEB
1 63155U 97012V   26132.38817157  .00002045  00000-0  87497-3 0  9992
2 63155  98.8438 190.9496 0035313 147.4361 212.9007 14.25718821 63819
DMSP 5D-2 F14 DEB
1 63155U 97012V   26134.63392144  .00002106  00000-0  90033-3 0  9994
2 63155  98.8438 193.2152 0035383 141.3597 219.0124 14.25727613 64138
DMSP 5D-2 F14 DEB
1 63155U 97012V   26135.12517732  .00002144  00000-0  91599-3 0  9991
2 63155  98.8437 193.7107 0035393 140.0384 220.3409 14.25729604 64204
DMSP 5D-2 F14 DEB
1 63155U 97012V   26135.96732859  .00002184  00000-0  93264-3 0  9997
2 63155  98.8433 194.5602 0035412 137.7884 222.6032 14.25732999 64320
DMSP 5D-2 F14 DEB
1 63155U 97012V   26139.40608821  .00001960  00000-0  83873-3 0  9997
2 63155  98.8430 198.0296 0035433 128.5985 231.8376 14.25747448 64810
DMSP 5D-2 F14 DEB
1 63155U 97012V   26139.40608821  .00001960  00000-0  83873-3 0  9997
2 63155  98.8430 198.0296 0035433 128.5985 231.8376 14.25747448 64810
DMSP 5D-2 F14 DEB
1 63155U 97012V   26140.10787067  .00002101  00000-0  89754-3 0  9998
2 63155  98.8428 198.7377 0035431 126.6807 233.7637 14.25751286 64911
DMSP 5D-2 F14 DEB
1 63155U 97012V   26140.10787068  .00002101  00000-0  89754-3 0  9999
2 63155  98.8428 198.7377 0035431 126.6807 233.7637 14.25751286 64911
DMSP 5D-2 F14 DEB
1 63155U 97012V   26142.63427510  .00002310  00000-0  98461-3 0  9999
2 63155  98.8430 201.2866 0035397 119.8906 240.5798 14.25763404 65271
DMSP 5D-2 F14 DEB
1 63155U 97012V   26142.63427511  .00002310  00000-0  98461-3 0  9990
2 63155  98.8430 201.2867 0035397 119.8906 240.5798 14.25763404 65272
DMSP 5D-2 F14 DEB
1 63155U 97012V   26143.40622748  .00002410  00000-0  10265-2 0  9991
2 63155  98.8431 202.0655 0035376 117.8092 242.6680 14.25767390 65381
DMSP 5D-2 F14 DEB
1 63155U 97012V   26143.61675955  .00002271  00000-0  96819-3 0  9997
2 63155  98.8431 202.2779 0035377 117.2263 243.2527 14.25768078 65410
DMSP 5D-2 F14 DEB
1 63155U 97012V   26143.89746862  .00002424  00000-0  10323-2 0  9998
2 63155  98.8431 202.5611 0035377 116.4713 244.0102 14.25769915 65452
DMSP 5D-2 F14 DEB
1 63155U 97012V   26143.89746863  .00002424  00000-0  10323-2 0  9999
2 63155  98.8431 202.5611 0035377 116.4713 244.0102 14.25769915 65452
DMSP 5D-2 F14 DEB
1 63155U 97012V   26147.12559763  .00003447  00000-0  14591-2 0  9997
2 63155  98.8433 205.8178 0035223 107.7584 252.7444 14.25791660 65915
DMSP 5D-2 F14 DEB
1 63155U 97012V   26147.12559763  .00003447  00000-0  14591-2 0  9997
2 63155  98.8433 205.8178 0035223 107.7584 252.7444 14.25791660 65915
DMSP 5D-2 F14 DEB
1 63155U 97012V   26148.10806082  .00003665  00000-0  15502-2 0  9990
2 63155  98.8437 206.8091 0035212 105.0530 255.4550 14.25799331 66051
DMSP 5D-2 F14 DEB
1 63155U 97012V   26148.10806083  .00003665  00000-0  15502-2 0  9991
2 63155  98.8437 206.8091 0035212 105.0530 255.4550 14.25799331 66051
DMSP 5D-2 F14 DEB
1 63155U 97012V   26148.38876352  .00003823  00000-0  16160-2 0  9994
2 63155  98.8437 207.0923 0035197 104.2887 256.2204 14.25801901 66092
DMSP 5D-2 F14 DEB
1 63155U 97012V   26148.95016744  .00003910  00000-0  16523-2 0  9998
2 63155  98.8435 207.6586 0035146 102.7753 257.7357 14.25806511 66176
DMSP 5D-2 F14 DEB
1 63155U 97012V   26148.95016745  .00003910  00000-0  16523-2 0  9999
2 63155  98.8435 207.6586 0035146 102.7753 257.7357 14.25806511 66176
DMSP 5D-2 F14 DEB
1 63155U 97012V   26150.63436806  .00004091  00000-0  17275-2 0  9997
2 63155  98.8434 209.3578 0035046  98.1715 262.3442 14.25820813 66415
DMSP 5D-2 F14 DEB
1 63155U 97012V   26150.63436806  .00004091  00000-0  17275-2 0  9997
2 63155  98.8434 209.3578 0035046  98.1715 262.3442 14.25820812 66414
DMSP 5D-2 F14 DEB
1 63155U 97012V   26151.61680944  .00004088  00000-0  17257-2 0  9996
2 63155  98.8431 210.3491 0034953  95.5639 264.9529 14.25829811 66556
DMSP 5D-2 F14 DEB
1 63155U 97012V   26152.10802832  .00003742  00000-0  15812-2 0  9994
2 63155  98.8430 210.8447 0034926  94.2037 266.3135 14.25833059 66625
DMSP 5D-2 F14 DEB
1 63155U 97012V   26152.10802833  .00003742  00000-0  15812-2 0  9995
2 63155  98.8430 210.8447 0034926  94.2037 266.3135 14.25833059 66625
DMSP 5D-2 F14 DEB
1 63155U 97012V   26155.40617804  .00003788  00000-0  16000-2 0  9993
2 63155  98.8425 214.1727 0034664  85.1648 275.3488 14.25858154 67099
DMSP 5D-2 F14 DEB
1 63155U 97012V   26156.38859539  .00003226  00000-0  13654-2 0  9993
2 63155  98.8425 215.1640 0034562  82.4830 278.0274 14.25863207 67238
DMSP 5D-2 F14 DEB
1 63155U 97012V   26156.38859540  .00003226  00000-0  13654-2 0  9995
2 63155  98.8425 215.1640 0034562  82.4830 278.0274 14.25863207 67238
DMSP 5D-2 F14 DEB
1 63155U 97012V   26157.02014615  .00004090  00000-0  17255-2 0  9994
2 63155  98.8426 215.8014 0034493  80.7310 279.7768 14.25869803 67322
DMSP 5D-2 F14 DEB
1 63155U 97012V   26157.02014615  .00004090  00000-0  17255-2 0  9994
2 63155  98.8426 215.8014 0034493  80.7310 279.7768 14.25869802 67321
DMSP 5D-2 F14 DEB
1 63155U 97012V   26158.98496025  .00003492  00000-0  14758-2 0  9999
2 63155  98.8428 217.7839 0034305  75.3177 285.1801 14.25881641 67607
DMSP 5D-2 F14 DEB
1 63155U 97012V   26158.98496026  .00003492  00000-0  14758-2 0  9990
2 63155  98.8428 217.7839 0034305  75.3178 285.1801 14.25881641 67608
DMSP 5D-2 F14 DEB
1 63155U 97012V   26159.96736091  .00002546  00000-0  10813-2 0  9995
2 63155  98.8430 218.7752 0034221  72.5820 287.9097 14.25885464 67745
DMSP 5D-2 F14 DEB
1 63155U 97012V   26159.96736092  .00002546  00000-0  10813-2 0  9996
2 63155  98.8430 218.7752 0034221  72.5820 287.9097 14.25885464 67745
DMSP 5D-2 F14 DEB
1 63155U 97012V   26160.38838850  .00002634  00000-0  11179-2 0  9993
2 63155  98.8431 219.1999 0034154  71.4589 289.0296 14.25888021 67802
DMSP 5D-2 F14 DEB
1 63155U 97012V   26160.38838850  .00002634  00000-0  11179-2 0  9993
2 63155  98.8431 219.1999 0034154  71.4589 289.0296 14.25888021 67802
DMSP 5D-2 F14 DEB
1 63155U 97012V   26160.94975760  .00002760  00000-0  11704-2 0  9991
2 63155  98.8432 219.7663 0034065  69.9292 290.5548 14.25891291 67889
DMSP 5D-2 F14 DEB
1 63155U 97012V   26160.94975761  .00002760  00000-0  11704-2 0  9992
2 63155  98.8432 219.7663 0034065  69.9292 290.5548 14.25891291 67889
DMSP 5D-2 F14 DEB
1 63155U 97012V   26163.89692489  .00002992  00000-0  12669-2 0  9990
2 63155  98.8436 222.7402 0033727  61.6375 298.8199 14.25908448 68307
DMSP 5D-2 F14 DEB
1 63155U 97012V   26166.42303845  .00002560  00000-0  10866-2 0  9995
2 63155  98.8434 225.2896 0033426  54.4883 305.9407 14.25922002 68663
DMSP 5D-2 F14 DEB
1 63155U 97012V   26166.42303846  .00002560  00000-0  10866-2 0  9996
2 63155  98.8434 225.2896 0033426  54.4883 305.9407 14.25922002 68663
DMSP 5D-2 F14 DEB
1 63155U 97012V   26170.63317742  .00002272  00000-0  96668-3 0  9999
2 63155  98.8430 229.5387 0032886  42.4675 317.9040 14.25941591 69263
DMSP 5D-2 F14 DEB
1 63155U 97012V   26173.43990527  .00002120  00000-0  90296-3 0  9991
2 63155  98.8434 232.3715 0032547  34.3321 325.9954 14.25953480 69663
DMSP 5D-2 F14 DEB
1 63155U 97012V   26174.42225406  .00002265  00000-0  96345-3 0  9999
2 63155  98.8435 233.3627 0032437  31.4841 328.8271 14.25958292 69806
DMSP 5D-2 F14 DEB
1 63155U 97012V   26175.89577057  .00002822  00000-0  11955-2 0  9995
2 63155  98.8438 234.8496 0032234  27.1829 333.1030 14.25966997 70010
DMSP 5D-2 F14 DEB
1 63155U 97012V   26175.89577057  .00002822  00000-0  11955-2 0  9995
2 63155  98.8438 234.8496 0032234  27.1829 333.1030 14.25966997 70010
DMSP 5D-2 F14 DEB
1 63155U 97012V   26178.00077713  .00003005  00000-0  12716-2 0  9995
2 63155  98.8439 236.9739 0031974  20.9826 339.2658 14.25979877 70319
DMSP 5D-2 F14 DEB
1 63155U 97012V   26178.00077714  .00003005  00000-0  12716-2 0  9996
2 63155  98.8439 236.9739 0031974  20.9826 339.2658 14.25979877 70319
DMSP 5D-2 F14 DEB
1 63155U 97012V   26178.42177620  .00002991  00000-0  12658-2 0  9997
2 63155  98.8440 237.3986 0031932  19.7756 340.4654 14.25982448 70376
DMSP 5D-2 F14 DEB
1 63155U 97012V   26178.42177621  .00002991  00000-0  12658-2 0  9998
2 63155  98.8440 237.3986 0031932  19.7756 340.4654 14.25982448 70376
DMSP 5D-2 F14 DEB
1 63155U 97012V   26179.61460305  .00002644  00000-0  11212-2 0  9994
2 63155  98.8439 238.6024 0031793  16.2592 343.9600 14.25988640 70544
DMSP 5D-2 F14 DEB
1 63155U 97012V   26179.96543355  .00002624  00000-0  11125-2 0  9990
2 63155  98.8438 238.9564 0031753  15.2192 344.9935 14.25990435 70598
DMSP 5D-2 F14 DEB
1 63155U 97012V   26180.38642951  .00002757  00000-0  11681-2 0  9994
2 63155  98.8438 239.3814 0031693  13.9402 346.2645 14.25993076 70657
DMSP 5D-2 F14 DEB
1 63155U 97012V   26180.38642952  .00002757  00000-0  11681-2 0  9995
2 63155  98.8438 239.3814 0031693  13.9402 346.2645 14.25993076 70657
DMSP 5D-2 F14 DEB
1 63155U 97012V   26180.38642952  .00002757  00000-0  11681-2 0  9995
2 63155  98.8438 239.3814 0031693  13.9402 346.2645 14.25993076 70657
DMSP 5D-2 F14 DEB
1 63155U 97012V   26182.63172925  .00003085  00000-0  13043-2 0  9992
2 63155  98.8435 241.6475 0031443   7.2364 352.9263 14.26006322 70974
DMSP 5D-2 F14 DEB
1 63155U 97012V   26182.63172925  .00003085  00000-0  13043-2 0  9992
2 63155  98.8435 241.6475 0031443   7.2364 352.9263 14.26006322 70974
DMSP 5D-2 F14 DEB
1 63155U 97012V   26183.40354630  .00003445  00000-0  14542-2 0  9998
2 63155  98.8433 242.4268 0031365   4.8689 355.2789 14.26011746 71085
DMSP 5D-2 F14 DEB
1 63155U 97012V   26183.40354630  .00003445  00000-0  14542-2 0  9998
2 63155  98.8433 242.4268 0031365   4.8689 355.2789 14.26011746 71085
DMSP 5D-2 F14 DEB
1 63155U 97012V   26184.94717292  .00003428  00000-0  14473-2 0  9999
2 63155  98.8431 243.9849 0031191   0.1798 359.9387 14.26020754 71300
DMSP 5D-2 F14 DEB
1 63155U 97012V   26184.94717292  .00003428  00000-0  14473-2 0  9999
2 63155  98.8431 243.9849 0031191   0.1798 359.9387 14.26020754 71300
DMSP 5D-2 F14 DEB
1 63155U 97012V   26187.12226239  .00003089  00000-0  13057-2 0  9998
2 63155  98.8430 246.1802 0030971 353.5777   6.5001 14.26034686 71611
DMSP 5D-2 F14 DEB
1 63155U 97012V   26188.10455450  .00002279  00000-0  96841-3 0  9999
2 63155  98.8432 247.1716 0030872 350.5496   9.5098 14.26038675 71759
DMSP 5D-2 F14 DEB
1 63155U 97012V   26188.10455451  .00002279  00000-0  96841-3 0  9990
2 63155  98.8432 247.1716 0030872 350.5497   9.5098 14.26038675 71750
DMSP 5D-2 F14 DEB
1 63155U 97012V   26189.43766096  .00001719  00000-0  73516-3 0  9999
2 63155  98.8434 248.5171 0030746 346.4373  13.5977 14.26043777 71940
DMSP 5D-2 F14 DEB
1 63155U 97012V   26189.43766097  .00001719  00000-0  73516-3 0  9990
2 63155  98.8434 248.5171 0030746 346.4373  13.5977 14.26043777 71940
DMSP 5D-2 F14 DEB
1 63155U 97012V   26189.43766097  .00001719  00000-0  73516-3 0  9990
2 63155  98.8434 248.5171 0030746 346.4373  13.5977 14.26043777 71940
DMSP 5D-2 F14 DEB
1 63155U 97012V   26189.99896766  .00001703  00000-0  72835-3 0  9994
2 63155  98.8436 249.0836 0030710 344.7152  15.3096 14.26045997 72021
DMSP 5D-2 F14 DEB
1 63155U 97012V   26191.12157878  .00001746  00000-0  74626-3 0  9993
2 63155  98.8438 250.2167 0030628 341.2433  18.7615 14.26050396 72186
DMSP 5D-2 F14 DEB
1 63155U 97012V   26192.10386117  .00001565  00000-0  67087-3 0  9994
2 63155  98.8439 251.2081 0030553 338.2191  21.7687 14.26053376 72327
DMSP 5D-2 F14 DEB
1 63155U 97012V   26192.38451272  .00001632  00000-0  69892-3 0  9990
2 63155  98.8439 251.4915 0030528 337.2826  22.7000 14.26054588 72361
DMSP 5D-2 F14 DEB
1 63155U 97012V   26192.38451272  .00001632  00000-0  69892-3 0  9990
2 63155  98.8439 251.4915 0030528 337.2826  22.7000 14.26054588 72361
DMSP 5D-2 F14 DEB
1 63155U 97012V   26192.38451272  .00001632  00000-0  69892-3 0  9990
2 63155  98.8439 251.4915 0030528 337.2826  22.7000 14.26054588 72361
DMSP 5D-2 F14 DEB
1 63155U 97012V   26195.12085742  .00001561  00000-0  66896-3 0  9992
2 63155  98.8438 254.2536 0030372 328.7871  31.1504 14.26063682 72753
DMSP 5D-2 F14 DEB
1 63155U 97012V   26195.12085742  .00001561  00000-0  66896-3 0  9992
2 63155  98.8438 254.2536 0030372 328.7871  31.1504 14.26063682 72753
DMSP 5D-2 F14 DEB
1 63155U 97012V   26196.10313088  .00001495  00000-0  64149-3 0  9993
2 63155  98.8437 255.2452 0030330 325.6965  34.2255 14.26066764 72890
DMSP 5D-2 F14 DEB
1 63155U 97012V   26196.10313088  .00001495  00000-0  64149-3 0  9993
2 63155  98.8437 255.2452 0030330 325.6965  34.2255 14.26066764 72890
DMSP 5D-2 F14 DEB
1 63155U 97012V   26198.62896795  .00001370  00000-0  58966-3 0  9995
2 63155  98.8433 257.7949 0030247 317.7001  42.1846 14.26074355 73254
DMSP 5D-2 F14 DEB
1 63155U 97012V   26198.62896796  .00001370  00000-0  58966-3 0  9996
2 63155  98.8433 257.7949 0030247 317.7001  42.1846 14.26074355 73254
DMSP 5D-2 F14 DEB
1 63155U 97012V   26198.62896796  .00001370  00000-0  58966-3 0  9996
2 63155  98.8433 257.7949 0030247 317.7001  42.1846 14.26074355 73254
DMSP 5D-2 F14 DEB
1 63155U 97012V   26198.97977781  .00001429  00000-0  61423-3 0  9995
2 63155  98.8433 258.1492 0030250 316.6507  43.2293 14.26075524 73308
DMSP 5D-2 F14 DEB
1 63155U 97012V   26199.61123466  .00001360  00000-0  58526-3 0  9994
2 63155  98.8433 258.7865 0030234 314.6596  45.2119 14.26077329 73399
DMSP 5D-2 F14 DEB
1 63155U 97012V   26199.61123467  .00001360  00000-0  58526-3 0  9995
2 63155  98.8433 258.7866 0030234 314.6596  45.2119 14.26077329 73390
DMSP 5D-2 F14 DEB
1 63155U 97012V   26201.01446924  .00001451  00000-0  62308-3 0  9993
2 63155  98.8433 260.2028 0030217 310.2333  49.6204 14.26081808 73592
DMSP 5D-2 F14 DEB
1 63155U 97012V   26201.99673062  .00001739  00000-0  74292-3 0  9999
2 63155  98.8439 261.1941 0030246 307.2445  52.5976 14.26086464 73732
DMSP 5D-2 F14 DEB
1 63155U 97012V   26202.41769928  .00001878  00000-0  80096-3 0  9997
2 63155  98.8438 261.6190 0030236 306.0213  53.8165 14.26088587 73799
DMSP 5D-2 F14 DEB
1 63155U 97012V   26203.89108309  .00002219  00000-0  94270-3 0  9999
2 63155  98.8438 263.1064 0030250 301.4470  58.3753 14.26096155 74004
DMSP 5D-2 F14 DEB
1 63155U 97012V   26206.13622614  .00002670  00000-0  11300-2 0  9992
2 63155  98.8437 265.3726 0030287 294.4783  65.3239 14.26108617 74329
DMSP 5D-2 F14 DEB
1 63155U 97012V   26207.11847100  .00002836  00000-0  11988-2 0  9996
2 63155  98.8438 266.3641 0030316 291.4242  68.3705 14.26114262 74466
DMSP 5D-2 F14 DEB
1 63155U 97012V   26210.62645801  .00002790  00000-0  11792-2 0  9992
2 63155  98.8436 269.9052 0030406 280.6212  79.1543 14.26132739 74960
DMSP 5D-2 F14 DEB
1 63155U 97012V   26211.11757267  .00002678  00000-0  11327-2 0  9996
2 63155  98.8433 270.4009 0030482 278.8752  80.8976 14.26134479 75039
DMSP 5D-2 F14 DEB
1 63155U 97012V   26211.95948162  .00002572  00000-0  10886-2 0  9996
2 63155  98.8431 271.2509 0030514 276.2834  83.4870 14.26138633 75151
DMSP 5D-2 F14 DEB
1 63155U 97012V   26211.95948163  .00002572  00000-0  10886-2 0  9997
2 63155  98.8431 271.2509 0030514 276.2834  83.4870 14.26138633 75151
DMSP 5D-2 F14 DEB
1 63155U 97012V   26214.13440250  .00002433  00000-0  10305-2 0  9996
2 63155  98.8428 273.4464 0030707 269.5383  90.2278 14.26149046 75461
DMSP 5D-2 F14 DEB
1 63155U 97012V   26214.13440251  .00002433  00000-0  10305-2 0  9997
2 63155  98.8428 273.4464 0030707 269.5383  90.2278 14.26149046 75461
DMSP 5D-2 F14 DEB
1 63155U 97012V   26214.62551199  .00002310  00000-0  97908-3 0  9994
2 63155  98.8427 273.9421 0030717 268.0484  91.7177 14.26150933 75534
DMSP 5D-2 F14 DEB
1 63155U 97012V   26214.62551199  .00002310  00000-0  97908-3 0  9994
2 63155  98.8427 273.9421 0030717 268.0484  91.7177 14.26150933 75534
DMSP 5D-2 F14 DEB
1 63155U 97012V   26215.39725291  .00002281  00000-0  96692-3 0  9991
2 63155  98.8427 274.7210 0030824 265.6148  94.1509 14.26154665 75642
DMSP 5D-2 F14 DEB
1 63155U 97012V   26217.01088778  .00002021  00000-0  85910-3 0  9997
2 63155  98.8426 276.3497 0030976 260.6773  99.0903 14.26161599 75874
DMSP 5D-2 F14 DEB
1 63155U 97012V   26218.41404407  .00001627  00000-0  69532-3 0  9996
2 63155  98.8429 277.7659 0031085 256.4210 103.3506 14.26166099 76074
DMSP 5D-2 F14 DEB
1 63155U 97012V   26219.11562046  .00001516  00000-0  64904-3 0  9993
2 63155  98.8430 278.4741 0031154 254.3168 105.4573 14.26168389 76174
DMSP 5D-2 F14 DEB
1 63155U 97012V   26221.99207404  .00001560  00000-0  66714-3 0  9996
2 63155  98.8432 281.3775 0031420 245.6274 114.1625 14.26177375 76588
DMSP 5D-2 F14 DEB
1 63155U 97012V   26222.41301708  .00001559  00000-0  66642-3 0  9994
2 63155  98.8432 281.8024 0031468 244.3764 115.4164 14.26178704 76648
DMSP 5D-2 F14 DEB
1 63155U 97012V   26222.41301709  .00001559  00000-0  66642-3 0  9995
2 63155  98.8432 281.8024 0031468 244.3764 115.4164 14.26178704 76648
DMSP 5D-2 F14 DEB
1 63155U 97012V   26223.11458814  .00001433  00000-0  61441-3 0  9996
2 63155  98.8432 282.5107 0031576 242.2857 117.5118 14.26180484 76749
DMSP 5D-2 F14 DEB
1 63155U 97012V   26223.11458814  .00001433  00000-0  61441-3 0  9996
2 63155  98.8432 282.5107 0031576 242.2857 117.5118 14.26180484 76749
DMSP 5D-2 F14 DEB
1 63155U 97012V   26223.39521626  .00001451  00000-0  62170-3 0  9998
2 63155  98.8431 282.7941 0031584 241.5352 118.2644 14.26181324 76787
DMSP 5D-2 F14 DEB
1 63155U 97012V   26223.60568731  .00001441  00000-0  61771-3 0  9995
2 63155  98.8431 283.0065 0031612 240.9059 118.8954 14.26181907 76818
DMSP 5D-2 F14 DEB
1 63155U 97012V   26223.60568732  .00001441  00000-0  61771-3 0  9996
2 63155  98.8431 283.0065 0031612 240.9059 118.8954 14.26181907 76818
DMSP 5D-2 F14 DEB
1 63155U 97012V   26225.99101999  .00001439  00000-0  61656-3 0  9997
2 63155  98.8429 285.4142 0031879 233.8195 126.0035 14.26188930 77156
DMSP 5D-2 F14 DEB
1 63155U 97012V   26225.99101999  .00001439  00000-0  61656-3 0  9997
2 63155  98.8429 285.4142 0031879 233.8195 126.0035 14.26188930 77156
DMSP 5D-2 F14 DEB
1 63155U 97012V   26230.13024668  .00001842  00000-0  78366-3 0  9990
2 63155  98.8425 289.5924 0032338 221.7416 138.1295 14.26203620 77749
DMSP 5D-2 F14 DEB
1 63155U 97012V   26230.62133822  .00002040  00000-0  86567-3 0  9990
2 63155  98.8425 290.0881 0032407 220.3161 139.5615 14.26206459 77819
DMSP 5D-2 F14 DEB
1 63155U 97012V   26231.11242949  .00002110  00000-0  89441-3 0  9998
2 63155  98.8424 290.5838 0032483 218.9262 140.9578 14.26208523 77889
DMSP 5D-2 F14 DEB
1 63155U 97012V   26231.11242950  .00002110  00000-0  89441-3 0  9990
2 63155  98.8424 290.5838 0032483 218.9262 140.9579 14.26208523 77880
DMSP 5D-2 F14 DEB
1 63155U 97012V   26233.63803041  .00002198  00000-0  93082-3 0  9995
2 63155  98.8424 293.1330 0032771 211.6618 148.2591 14.26218879 78242
DMSP 5D-2 F14 DEB
1 63155U 97012V   26233.63803041  .00002198  00000-0  93082-3 0  9995
2 63155  98.8424 293.1330 0032771 211.6618 148.2591 14.26218879 78242
DMSP 5D-2 F14 DEB
1 63155U 97012V   26234.12911720  .00002233  00000-0  94511-3 0  9992
2 63155  98.8423 293.6287 0032805 210.2560 149.6726 14.26221158 78313
DMSP 5D-2 F14 DEB
1 63155U 97012V   26234.40973796  .00002205  00000-0  93375-3 0  9990
2 63155  98.8422 293.9120 0032860 209.4348 150.4981 14.26222168 78355
DMSP 5D-2 F14 DEB
1 63155U 97012V   26234.40973797  .00002205  00000-0  93375-3 0  9991
2 63155  98.8422 293.9120 0032860 209.4348 150.4981 14.26222168 78355
DMSP 5D-2 F14 DEB
1 63155U 97012V   26235.11128869  .00002195  00000-0  92930-3 0  9996
2 63155  98.8422 294.6201 0032941 207.4595 152.4845 14.26225157 78458
DMSP 5D-2 F14 DEB
1 63155U 97012V   26237.98763078  .00002234  00000-0  94511-3 0  9991
2 63155  98.8423 297.5236 0033253 199.3473 160.6447 14.26238133 78862
DMSP 5D-2 F14 DEB
1 63155U 97012V   26237.98763078  .00002234  00000-0  94511-3 0  9991
2 63155  98.8423 297.5236 0033253 199.3473 160.6447 14.26238133 78862
DMSP 5D-2 F14 DEB
1 63155U 97012V   26238.61901965  .00002484  00000-0  10485-2 0  9995
2 63155  98.8424 298.1609 0033298 197.5894 162.4135 14.26242245 78953
DMSP 5D-2 F14 DEB
1 63155U 97012V   26238.61901966  .00002484  00000-0  10485-2 0  9996
2 63155  98.8424 298.1609 0033298 197.5894 162.4135 14.26242245 78953
DMSP 5D-2 F14 DEB
1 63155U 97012V   26238.96979080  .00002293  00000-0  96962-3 0  9999
2 63155  98.8424 298.5150 0033332 196.6279 163.3810 14.26242734 79004
DMSP 5D-2 F14 DEB
1 63155U 97012V   26238.96979081  .00002293  00000-0  96962-3 0  9990
2 63155  98.8424 298.5150 0033332 196.6279 163.3810 14.26242734 79004
DMSP 5D-2 F14 DEB
1 63155U 97012V   26238.96979081  .00002293  00000-0  96962-3 0  9990
2 63155  98.8424 298.5150 0033332 196.6279 163.3810 14.26242734 79004
DMSP 5D-2 F14 DEB
1 63155U 97012V   26239.60117770  .00002517  00000-0  10622-2 0  9998
2 63155  98.8423 299.1523 0033389 194.8242 165.1961 14.26246739 79091
DMSP 5D-2 F14 DEB
1 63155U 97012V   26239.60117770  .00002517  00000-0  10622-2 0  9998
2 63155  98.8423 299.1523 0033389 194.8242 165.1961 14.26246739 79091
DMSP 5D-2 F14 DEB
1 63155U 97012V   26239.95194753  .00002478  00000-0  10461-2 0  9999
2 63155  98.8422 299.5063 0033431 193.8468 166.1798 14.26248111 79141
DMSP 5D-2 F14 DEB
1 63155U 97012V   26239.95194754  .00002478  00000-0  10461-2 0  9990
2 63155  98.8422 299.5063 0033431 193.8468 166.1798 14.26248111 79141
DMSP 5D-2 F14 DEB
1 63155U 97012V   26239.95194754  .00002478  00000-0  10461-2 0  9990
2 63155  98.8422 299.5063 0033431 193.8468 166.1798 14.26248111 79141
DMSP 5D-2 F14 DEB
1 63155U 97012V   26241.42517814  .00002516  00000-0  10616-2 0  9996
2 63155  98.8418 300.9936 0033654 189.7587 170.2942 14.26253745 79354
DMSP 5D-2 F14 DEB
1 63155U 97012V   26241.42517814  .00002516  00000-0  10616-2 0  9996
2 63155  98.8418 300.9936 0033654 189.7587 170.2942 14.26253745 79354
DMSP 5D-2 F14 DEB
1 63155U 97012V   26242.61778803  .00002292  00000-0  96879-3 0  9992
2 63155  98.8414 302.1974 0033773 186.4637 173.6112 14.26258559 79521
DMSP 5D-2 F14 DEB
1 63155U 97012V   26242.61778804  .00002292  00000-0  96879-3 0  9993
2 63155  98.8414 302.1974 0033773 186.4637 173.6112 14.26258559 79521
