TBA - TO BE ASSIGNED
1 63390U 24140ADM 25086.36812874  .00003285  00000-0  15839-2 0  9998
2 63390  89.0155 325.4134 0054168 198.2833 161.6410 14.17715872    14
CZ-6A R/B DEB
1 63390U 24140ADM 25089.89716979  .00001896  00000-0  91095-3 0  9993
2 63390  89.0149 325.0214 0054510 186.3156 173.7352 14.17731674 32617
CZ-6A R/B DEB
1 63390U 24140ADM 25090.88529564  .00001914  00000-0  91956-3 0  9993
2 63390  89.0147 324.9109 0054714 183.4147 176.6676 14.17734625 32755
CZ-6A R/B DEB
1 63390U 24140ADM 25094.34371444  .00002564  00000-0  12334-2 0  9994
2 63390  89.0153 324.5259 0055284 172.2070 187.9991 14.17750029 33244
CZ-6A R/B DEB
1 63390U 24140ADM 25097.87267435  .00002061  00000-0  98927-3 0  9994
2 63390  89.0156 324.1324 0055880 160.1662 200.1718 14.17765033 33742
CZ-6A R/B DEB
1 63390U 24140ADM 25102.31910898  .00002239  00000-0  10745-2 0  9996
2 63390  89.0137 323.6366 0056282 146.3529 214.1254 14.17783213 34376
CZ-6A R/B DEB
1 63390U 24140ADM 25116.85783728  .00002089  00000-0  10000-2 0  9997
2 63390  89.0118 322.0132 0057850 100.7206 260.0504 14.17837329 36432
CZ-6A R/B DEB
1 63390U 24140ADM 25121.30401820  .00001689  00000-0  80665-3 0  9993
2 63390  89.0112 321.5150 0059013  86.8646 273.9293 14.17853077 37061
CZ-6A R/B DEB
1 63390U 24140ADM 25124.83267699  .00001647  00000-0  78682-3 0  9998
2 63390  89.0111 321.1209 0057386  75.9959 284.7601 14.17868623 37569
CZ-6A R/B DEB
1 63390U 24140ADM 25125.82069632  .00001606  00000-0  76710-3 0  9990
2 63390  89.0128 321.0114 0057382  73.0189 287.7278 14.17872245 37705
CZ-6A R/B DEB
1 63390U 24140ADM 25128.29073440  .00001510  00000-0  72053-3 0  9996
2 63390  89.0110 320.7338 0057635  65.5149 295.2035 14.17881154  5948
CZ-6A R/B DEB
1 63390U 24140ADM 25132.80731225  .00001820  00000-0  87090-3 0  9991
2 63390  89.0164 320.2292 0055411  52.5598 308.0613 14.17902417 38694
CZ-6A R/B DEB
1 63390U 24140ADM 25137.25332394  .00001514  00000-0  72280-3 0  9994
2 63390  89.0113 319.7303 0056710  37.4165 323.0951 14.17905483 39328
CZ-6A R/B DEB
1 63390U 24140ADM 25138.24131421  .00001491  00000-0  71146-3 0  9996
2 63390  89.0122 319.6219 0056617  34.0533 326.4268 14.17909076 39466
CZ-6A R/B DEB
1 63390U 24140ADM 25140.78185457  .00001186  00000-0  56468-3 0  9997
2 63390  89.0117 319.3359 0055941  26.0289 334.3694 14.17914018 39823
CZ-6A R/B DEB
1 63390U 24140ADM 25143.74580133  .00001143  00000-0  54426-3 0  9991
2 63390  89.0108 319.0025 0055740  16.9210 343.3821 14.17922329 40243
CZ-6A R/B DEB
1 63390U 24140ADM 25145.22776891  .00001110  00000-0  52854-3 0  9991
2 63390  89.0100 318.8363 0055508  12.1149 348.1359 14.17925689 40452
CZ-6A R/B DEB
1 63390U 24140ADM 25149.74421679  .00001352  00000-0  64520-3 0  9994
2 63390  89.0105 318.3308 0054851 357.4677   2.6226 14.17938073 41099
CZ-6A R/B DEB
1 63390U 24140ADM 25150.73218498  .00001263  00000-0  60239-3 0  9992
2 63390  89.0106 318.2203 0054706 354.2463   5.8090 14.17940094 41236
CZ-6A R/B DEB
1 63390U 24140ADM 25151.72015129  .00001241  00000-0  59188-3 0  9995
2 63390  89.0110 318.1100 0054536 351.0064   9.0142 14.17942539 41374
CZ-6A R/B DEB
1 63390U 24140ADM 25152.21413339  .00001479  00000-0  70640-3 0  9994
2 63390  89.0107 318.0543 0054479 349.3873  10.6161 14.17945222 41443
CZ-6A R/B DEB
1 63390U 24140ADM 25154.19005461  .00001704  00000-0  81516-3 0  9991
2 63390  89.0110 317.8333 0054210 342.8818  17.0540 14.17952987 41720
CZ-6A R/B DEB
1 63390U 24140ADM 25155.17801364  .00001403  00000-0  66968-3 0  9996
2 63390  89.0111 317.7228 0054085 339.6234  20.2796 14.17954291 41863
CZ-6A R/B DEB
1 63390U 24140ADM 25156.16596940  .00001438  00000-0  68695-3 0  9994
2 63390  89.0111 317.6122 0053947 336.3463  23.5246 14.17957792 42001
CZ-6A R/B DEB
1 63390U 24140ADM 25158.70642028  .00001178  00000-0  56138-3 0  9995
2 63390  89.0107 317.3274 0053643 327.8388  31.9532 14.17964068 42369
CZ-6A DEB
1 63390U 24140ADM 25164.14013431  .00001103  00000-0  52524-3 0  9993
2 63390  89.0114 316.7195 0053123 309.6087  50.0418 14.17976309 43131
CZ-6A DEB
1 63390U 24140ADM 25165.69261588  .00001195  00000-0  56961-3 0  9992
2 63390  89.0118 316.5459 0053011 304.4024  55.2159 14.17980680 43356
CZ-6A DEB
1 63390U 24140ADM 25166.68055725  .00001162  00000-0  55370-3 0  9993
2 63390  89.0118 316.4354 0052952 301.0590  58.5406 14.17982908 43494
CZ-6A DEB
1 63390U 24140ADM 25169.64437321  .00001164  00000-0  55455-3 0  9994
2 63390  89.0120 316.1039 0052833 291.0148  68.5394 14.17990246 43917
CZ-6A DEB
1 63390U 24140ADM 25170.13834136  .00001197  00000-0  57047-3 0  9990
2 63390  89.0120 316.0486 0052815 289.3418  70.2064 14.17991637 43988
CZ-6A DEB
1 63390U 24140ADM 25172.11421201  .00001020  00000-0  48514-3 0  9999
2 63390  89.0119 315.8276 0052762 282.6274  76.9018 14.17995057 44261
CZ-6A DEB
1 63390U 24140ADM 25174.65461181  .00000952  00000-0  45225-3 0  9990
2 63390  89.0121 315.5436 0052749 274.0143  85.5017 14.17999826 44627
CZ-6A DEB
1 63390U 24140ADM 25179.10029817  .00000943  00000-0  44774-3 0  9999
2 63390  89.0126 315.0467 0052950 258.9051 100.6181 14.18007866 45250
CZ-6A DEB
1 63390U 24140ADM 25180.08822620  .00000906  00000-0  43024-3 0  9997
2 63390  89.0124 314.9360 0052985 255.5713 103.9592 14.18009413 45391
CZ-6A DEB
1 63390U 24140ADM 25203.58648067  .00001274  00000-0  60534-3 0  9993
2 63390  89.0147 312.3163 0056233 178.3674 181.7709 14.18058725 48721
CZ-6A DEB
1 63390U 24140ADM 25211.56018776  .00001308  00000-0  62117-3 0  9995
2 63390  89.0146 311.4264 0057138 153.0567 207.3609 14.18077136 49854
CZ-6A DEB
1 63390U 24140ADM 25216.00565119  .00001107  00000-0  52433-3 0  9994
2 63390  89.0133 310.9266 0057257 138.6394 221.9152 14.18087595 50481
CZ-6A DEB
1 63390U 24140ADM 25216.99352429  .00001106  00000-0  52412-3 0  9996
2 63390  89.0136 310.8164 0057104 135.8934 224.6831 14.18090677 50625
CZ-6A DEB
1 63390U 24140ADM 25218.54589562  .00000985  00000-0  46572-3 0  9993
2 63390  89.0137 310.6432 0057202 131.0612 229.5540 14.18093788 50843
CZ-6A DEB
1 63390U 24140ADM 25219.53376590  .00001013  00000-0  47922-3 0  9991
2 63390  89.0140 310.5333 0057215 128.0359 232.6014 14.18096127 50980
CZ-6A DEB
1 63390U 24140ADM 25220.52163469  .00001024  00000-0  48427-3 0  9994
2 63390  89.0138 310.4230 0057320 124.9102 235.7492 14.18098382 51126
CZ-6A DEB
1 63390U 24140ADM 25221.50950038  .00001249  00000-0  59240-3 0  9993
2 63390  89.0135 310.3125 0057415 121.7723 238.9077 14.18102151 51263
CZ-6A DEB
1 63390U 24140ADM 25222.00343218  .00001338  00000-0  63515-3 0  9994
2 63390  89.0134 310.2568 0057422 120.2453 240.4437 14.18104068 51339
CZ-6A DEB
1 63390U 24140ADM 25222.99129511  .00001315  00000-0  62403-3 0  9990
2 63390  89.0132 310.1465 0057441 117.2027 243.5032 14.18106376 51470
CZ-6A DEB
1 63390U 24140ADM 25223.97915552  .00001217  00000-0  57703-3 0  9995
2 63390  89.0133 310.0363 0057450 114.1653 246.5557 14.18108478 51614
CZ-6A DEB
1 63390U 24140ADM 25226.51935852  .00001212  00000-0  57425-3 0  9999
2 63390  89.0131 309.7528 0057436 106.3334 254.4181 14.18115135 51971
CZ-6A DEB
1 63390U 24140ADM 25228.49506206  .00001098  00000-0  51981-3 0  9998
2 63390  89.0129 309.5323 0057432 100.2081 260.5591 14.18119693 52255
CZ-6A DEB
1 63390U 24140ADM 25229.48291097  .00001105  00000-0  52300-3 0  9992
2 63390  89.0127 309.4220 0057414  97.1443 263.6279 14.18122141 52398
CZ-6A DEB
1 63390U 24140ADM 25232.94036729  .00001040  00000-0  49171-3 0  9996
2 63390  89.0117 309.0349 0057396  86.4188 274.3563 14.18129729 52889
CZ-6A DEB
1 63390U 24140ADM 25235.48052438  .00001035  00000-0  48935-3 0  9994
2 63390  89.0116 308.7511 0057129  78.5674 282.1924 14.18135216 53248
CZ-6A DEB
1 63390U 24140ADM 25241.90141658  .00001603  00000-0  76197-3 0  9993
2 63390  89.0107 308.0335 0056663  58.5055 302.1654 14.18154078 54159
CZ-6A DEB
1 63390U 24140ADM 25242.88923616  .00001868  00000-0  88907-3 0  9998
2 63390  89.0105 307.9228 0056594  55.3946 305.2562 14.18158771 54294
CZ-6A DEB
1 63390U 24140ADM 25244.44151760  .00002270  00000-0  10817-2 0  9997
2 63390  89.0104 307.7491 0056356  50.4814 310.1337 14.18166548 54510
CZ-6A DEB
1 63390U 24140ADM 25245.42932794  .00002518  00000-0  12006-2 0  9997
2 63390  89.0104 307.6386 0056182  47.3378 313.2525 14.18172039 54659
CZ-6A DEB
1 63390U 24140ADM 25249.87444185  .00001938  00000-0  92270-3 0  9999
2 63390  89.0100 307.1412 0055534  33.1768 327.2883 14.18187025 55289
CZ-6A DEB
1 63390U 24140ADM 25250.86223809  .00001539  00000-0  73153-3 0  9994
2 63390  89.0098 307.0304 0055403  30.0265 330.4081 14.18188485 55420
CZ-6A DEB
1 63390U 24140ADM 25251.42669165  .00001476  00000-0  70139-3 0  9997
2 63390  89.0096 306.9671 0055317  28.1983 332.2182 14.18190195 55504
CZ-6A DEB
1 63390U 24140ADM 25253.40227504  .00001190  00000-0  56386-3 0  9995
2 63390  89.0092 306.7455 0055032  21.8411 338.5106 14.18194754 55788
CZ-6A DEB
1 63390U 24140ADM 25260.10510351  .00001116  00000-0  52893-3 0  9992
2 63390  89.0083 305.9940 0054070   0.0300   0.0882 14.18209196 56730
CZ-6A DEB
1 63390U 24140ADM 25262.36288642  .00001172  00000-0  55564-3 0  9997
2 63390  89.0080 305.7407 0053799 352.6293   7.4099 14.18213717 57058
CZ-6A DEB
1 63390U 24140ADM 25264.83232392  .00001660  00000-0  78977-3 0  9997
2 63390  89.0082 305.4638 0053502 344.1809  15.7706 14.18222010 57406
CZ-6A DEB
1 63390U 24140ADM 25280.35416787  .00001437  00000-0  68245-3 0  9993
2 63390  89.0062 303.7198 0052907 292.1895  67.3685 14.18278652 59607
CZ-6A DEB
1 63390U 24140ADM 25283.81122923  .00001364  00000-0  64779-3 0  9990
2 63390  89.0065 303.3300 0052253 280.9761  78.5552 14.18289913 60096
CZ-6A DEB
1 63390U 24140ADM 25291.78354966  .00001939  00000-0  92269-3 0  9992
2 63390  89.0051 302.4320 0052540 254.1600 105.3794 14.18318928 61229
CZ-6A DEB
1 63390U 24140ADM 25302.71877948  .00001823  00000-0  86595-3 0  9995
2 63390  89.0041 301.1991 0053180 217.4731 142.2746 14.18362205 62771
CZ-6A DEB
1 63390U 24140ADM 25302.71878107  .00001858  00000-0  88300-3 0  9997
2 63390  89.0049 301.2008 0052990 217.0565 142.6961 14.18362105 62770
CZ-6A DEB
1 63390U 24140ADM 25308.71539415  .00001576  00000-0  74721-3 0  9998
2 63390  89.0016 300.5173 0053884 197.7663 162.1644 14.18383826 63628
CZ-6A DEB
1 63390U 24140ADM 25309.70306367  .00001652  00000-0  78313-3 0  9992
2 63390  89.0033 300.4099 0053859 194.5793 165.3846 14.18388053 63765
CZ-6A DEB
1 63390U 24140ADM 25315.20574277  .00002480  00000-0  11784-2 0  9999
2 63390  89.0039 299.7897 0054381 176.3572 183.8025 14.18414655 64540
CZ-6A DEB
1 63390U 24140ADM 25315.69956839  .00002571  00000-0  12213-2 0  9999
2 63390  89.0043 299.7334 0054557 174.7253 185.4523 14.18416455 64613
CZ-6A DEB
1 63390U 24140ADM 25318.66248998  .00002911  00000-0  13828-2 0  9990
2 63390  89.0052 299.4006 0054903 165.1533 195.1284 14.18437830 65035
CZ-6A DEB
1 63390U 24140ADM 25323.17735243  .00001620  00000-0  76622-3 0  9994
2 63390  89.0057 298.8928 0055216 150.3848 210.0488 14.18457676 65672
CZ-6A DEB
1 63390U 24140ADM 25330.16118396  .00001669  00000-0  78874-3 0  9999
2 63390  89.0042 298.1013 0056121 128.8905 231.7309 14.18478779 66663
CZ-6A DEB
1 63390U 24140ADM 25336.65110455  .00002094  00000-0  99083-3 0  9995
2 63390  89.0049 297.3728 0056609 108.1280 252.6085 14.18499129 67589
CZ-6A DEB
1 63390U 24140ADM 25340.17818106  .00002367  00000-0  11204-2 0  9996
2 63390  89.0057 296.9759 0056751  97.0404 263.7244 14.18515448 68088
CZ-6A DEB
1 63390U 24140ADM 25341.16575430  .00002290  00000-0  10833-2 0  9998
2 63390  89.0059 296.8648 0056832  93.9444 266.8245 14.18519465 68229
CZ-6A DEB
1 63390U 24140ADM 25349.13674914  .00001582  00000-0  74558-3 0  9998
2 63390  89.0026 295.9624 0057596  68.8195 291.9135 14.18552659 69353
CZ-6A DEB
1 63390U 24140ADM 25350.12429014  .00001317  00000-0  61967-3 0  9994
2 63390  89.0067 295.8567 0056998  66.0597 294.6547 14.18557765 69499
CZ-6A DEB
1 63390U 24140ADM 25358.09507891  .00001813  00000-0  85537-3 0  9998
2 63390  89.0063 294.9596 0056815  41.2242 319.3217 14.18583883 70623
CZ-6A DEB
1 63390U 24140ADM 25359.57635610  .00001942  00000-0  91701-3 0  9996
2 63390  89.0069 294.7944 0056737  36.6264 323.8783 14.18590411 70835
CZ-6A DEB
1 63390U 24140ADM 25360.56386913  .00002132  00000-0  10073-2 0  9990
2 63390  89.0074 294.6833 0056544  33.4807 326.9935 14.18595636 70973
CZ-6A DEB
1 63390U 24140ADM 25361.55137854  .00002284  00000-0  10794-2 0  9996
2 63390  89.0072 294.5720 0056445  30.3351 330.1085 14.18600966 71118
CZ-6A DEB
1 63390U 24140ADM 26004.52183594  .00002980  00000-0  14099-2 0  9995
2 63390  89.0084 293.6773 0055604   5.1092 355.0652 14.18650686 72242
CZ-6A DEB
1 63390U 24140ADM 26006.49677440  .00002233  00000-0  10549-2 0  9998
2 63390  89.0078 293.4540 0055414 359.0227   1.0844 14.18660013 72522
CZ-6A DEB
1 63390U 24140ADM 26009.03596480  .00001685  00000-0  79452-3 0  9994
2 63390  89.0077 293.1696 0055054 350.8436   9.1743 14.18669116 72880
CZ-6A DEB
1 63390U 24140ADM 26010.02342372  .00001758  00000-0  82916-3 0  9994
2 63390  89.0075 293.0585 0054927 347.6482  12.3357 14.18672794 73027
CZ-6A DEB
1 63390U 24140ADM 26013.47951359  .00001332  00000-0  62694-3 0  9996
2 63390  89.0074 292.6699 0054479 336.3449  23.5236 14.18682798 73516
CZ-6A DEB
1 63390U 24140ADM 26034.42711016  .00001545  00000-0  72753-3 0  9991
2 63390  89.0054 290.3145 0052646 266.8551  92.6614 14.18758520 76483
CZ-6A DEB
1 63390U 24140ADM 26037.95354444  .00001350  00000-0  63505-3 0  9999
2 63390  89.0061 289.9214 0052945 254.5861 104.9476 14.18768497 76984
CZ-6A DEB
1 63390U 24140ADM 26041.40942399  .00001211  00000-0  56854-3 0  9991
2 63390  89.0013 289.5186 0052909 243.9754 115.5982 14.18779388 77474
CZ-6A DEB
1 63390U 24140ADM 26077.30727683  .00001218  00000-0  56960-3 0  9991
2 63390  89.0011 285.4777 0055759 125.5516 235.0890 14.18863679 82569
CZ-6A DEB
1 63390U 24140ADM 26077.30727684  .00001218  00000-0  56960-3 0  9992
2 63390  89.0011 285.4777 0055759 125.5516 235.0890 14.18863679 82569
CZ-6A DEB
1 63390U 24140ADM 26080.83346474  .00001232  00000-0  57602-3 0  9998
2 63390  89.0007 285.0789 0055990 114.5228 246.1813 14.18871724 83062
CZ-6A DEB
1 63390U 24140ADM 26081.82079247  .00001298  00000-0  60707-3 0  9991
2 63390  88.9991 284.9669 0056107 111.4052 249.3136 14.18874499 83200
CZ-6A DEB
1 63390U 24140ADM 26082.80811760  .00001304  00000-0  60996-3 0  9992
2 63390  88.9989 284.8552 0056178 108.3016 252.4297 14.18877187 83345
CZ-6A DEB
1 63390U 24140ADM 26085.27642029  .00001335  00000-0  62466-3 0  9994
2 63390  88.9980 284.5746 0056317 100.6203 260.1337 14.18884347 83691
CZ-6A DEB
1 63390U 24140ADM 26085.27642029  .00001335  00000-0  62466-3 0  9994
2 63390  88.9980 284.5746 0056317 100.6203 260.1337 14.18884347 83691
CZ-6A DEB
1 63390U 24140ADM 26089.78984916  .00001648  00000-0  77268-3 0  9991
2 63390  89.0009 284.0659 0056323  86.5652 274.1978 14.18899156 84332
CZ-6A DEB
1 63390U 24140ADM 26090.77715442  .00001727  00000-0  80962-3 0  9991
2 63390  89.0002 283.9533 0056301  83.4960 277.2636 14.18902700 84478
CZ-6A DEB
1 63390U 24140ADM 26090.77715443  .00001727  00000-0  80962-3 0  9992
2 63390  89.0002 283.9533 0056301  83.4960 277.2636 14.18902700 84478
CZ-6A DEB
1 63390U 24140ADM 26092.25810719  .00001832  00000-0  85937-3 0  9993
2 63390  88.9995 283.7850 0056284  78.9301 281.8211 14.18908169 84683
CZ-6A DEB
1 63390U 24140ADM 26097.26509026  .00001504  00000-0  70420-3 0  9992
2 63390  89.0007 283.2184 0056098  63.6892 297.0044 14.18924237 85399
CZ-6A DEB
1 63390U 24140ADM 26111.22801056  .00000703  00000-0  32599-3 0  9998
2 63390  89.0010 281.6347 0054497  19.3602 340.9640 14.18944503 87372
CZ-6A DEB
1 63390U 24140ADM 26111.22801056  .00000703  00000-0  32599-3 0  9998
2 63390  89.0010 281.6346 0054497  19.3602 340.9640 14.18944503 87371
CZ-6A DEB
1 63390U 24140ADM 26116.72848257  .00001204  00000-0  56311-3 0  9997
2 63390  89.0005 281.0120 0053702   1.5394 358.5950 14.18957611 88158
CZ-6A DEB
1 63390U 24140ADM 26116.72848257  .00001204  00000-0  56311-3 0  9997
2 63390  89.0005 281.0120 0053702   1.5394 358.5950 14.18957611 88158
CZ-6A DEB
1 63390U 24140ADM 26117.71574144  .00001191  00000-0  55678-3 0  9998
2 63390  89.0002 280.9002 0053577 358.3658   1.7348 14.18959803 88296
CZ-6A DEB
1 63390U 24140ADM 26117.71574144  .00001191  00000-0  55678-3 0  9998
2 63390  89.0002 280.9002 0053577 358.3658   1.7348 14.18959803 88296
CZ-6A DEB
1 63390U 24140ADM 26118.70299855  .00001258  00000-0  58860-3 0  9991
2 63390  88.9997 280.7881 0053439 355.1337   4.9325 14.18962514 88435
CZ-6A DEB
1 63390U 24140ADM 26118.70299856  .00001258  00000-0  58860-3 0  9992
2 63390  88.9997 280.7882 0053439 355.1337   4.9325 14.18962514 88436
CZ-6A DEB
1 63390U 24140ADM 26122.15838505  .00001240  00000-0  58039-3 0  9995
2 63390  88.9999 280.3966 0052974 343.8113  16.1381 14.18971132 88923
CZ-6A DEB
1 63390U 24140ADM 26122.15838505  .00001240  00000-0  58039-3 0  9995
2 63390  88.9999 280.3966 0052974 343.8113  16.1381 14.18971132 88923
CZ-6A DEB
1 63390U 24140ADM 26129.13961877  .00000999  00000-0  46643-3 0  9997
2 63390  89.0016 279.6073 0052157 320.4647  39.2742 14.18986852 89913
CZ-6A DEB
1 63390U 24140ADM 26129.13961878  .00000999  00000-0  46643-3 0  9998
2 63390  89.0016 279.6073 0052157 320.4647  39.2742 14.18986852 89913
CZ-6A DEB
1 63390U 24140ADM 26131.11409964  .00000841  00000-0  39144-3 0  9996
2 63390  89.0016 279.3828 0052023 314.0282  45.6626 14.18989710 90194
CZ-6A DEB
1 63390U 24140ADM 26131.11409965  .00000841  00000-0  39144-3 0  9997
2 63390  89.0016 279.3828 0052023 314.0282  45.6626 14.18989710 90194
CZ-6A DEB
1 63390U 24140ADM 26131.11409965  .00000841  00000-0  39144-3 0  9997
2 63390  89.0016 279.3828 0052023 314.0282  45.6626 14.18989710 90194
CZ-6A DEB
1 63390U 24140ADM 26138.65941060  .00000736  00000-0  34217-3 0  9999
2 63390  89.0046 278.5325 0051522 288.4575  71.1018 14.19000436 91260
CZ-6A DEB
1 63390U 24140ADM 26138.65941061  .00000736  00000-0  34217-3 0  9990
2 63390  89.0046 278.5325 0051522 288.4575  71.1018 14.19000436 91260
CZ-6A DEB
1 63390U 24140ADM 26140.14026153  .00000775  00000-0  36017-3 0  9996
2 63390  89.0021 278.3637 0051536 283.2566  76.2878 14.19002856 91476
CZ-6A DEB
1 63390U 24140ADM 26140.14026153  .00000775  00000-0  36017-3 0  9996
2 63390  89.0021 278.3637 0051536 283.2566  76.2878 14.19002855 91475
CZ-6A DEB
1 63390U 24140ADM 26142.11472490  .00000881  00000-0  41058-3 0  9993
2 63390  89.0018 278.1407 0051590 276.4538  83.0778 14.19007069 91755
CZ-6A DEB
1 63390U 24140ADM 26145.64054110  .00001099  00000-0  51348-3 0  9994
2 63390  89.0031 277.7431 0051978 264.4409  95.0851 14.19015329 92255
CZ-6A DEB
1 63390U 24140ADM 26148.60221068  .00001569  00000-0  73566-3 0  9999
2 63390  89.0037 277.4084 0051913 254.5291 105.0162 14.19026072 92670
CZ-6A DEB
1 63390U 24140ADM 26148.60221069  .00001569  00000-0  73566-3 0  9990
2 63390  89.0037 277.4084 0051913 254.5291 105.0162 14.19026072 92670
CZ-6A DEB
1 63390U 24140ADM 26156.57042632  .00001566  00000-0  73343-3 0  9992
2 63390  89.0039 276.5088 0052711 227.7628 131.9084 14.19052111 93809
CZ-6A DEB
1 63390U 24140ADM 26156.57042633  .00001566  00000-0  73343-3 0  9993
2 63390  89.0039 276.5089 0052711 227.7628 131.9084 14.19052111 93800
CZ-6A DEB
1 63390U 24140ADM 26158.05123163  .00001493  00000-0  69869-3 0  9993
2 63390  89.0040 276.3419 0052971 222.8720 136.8335 14.19056365 94016
CZ-6A DEB
1 63390U 24140ADM 26158.05123164  .00001493  00000-0  69869-3 0  9994
2 63390  89.0041 276.3419 0052971 222.8720 136.8335 14.19056365 94017
CZ-6A DEB
1 63390U 24140ADM 26158.05123164  .00001493  00000-0  69869-3 0  9994
2 63390  89.0041 276.3419 0052971 222.8720 136.8335 14.19056365 94017
CZ-6A DEB
1 63390U 24140ADM 26175.53864326  .00001007  00000-0  46810-3 0  9990
2 63390  89.0045 274.3697 0055222 166.0497 194.2234 14.19090028 96493
CZ-6A DEB
1 63390U 24140ADM 26176.52582294  .00001122  00000-0  52236-3 0  9998
2 63390  89.0047 274.2591 0055384 162.9483 197.3585 14.19092675 96635
CZ-6A DEB
1 63390U 24140ADM 26176.52582295  .00001122  00000-0  52236-3 0  9999
2 63390  89.0047 274.2591 0055384 162.9483 197.3585 14.19092675 96635
CZ-6A DEB
1 63390U 24140ADM 26178.00658988  .00001137  00000-0  52902-3 0  9993
2 63390  89.0049 274.0925 0055585 158.2756 202.0809 14.19095926 96848
CZ-6A DEB
1 63390U 24140ADM 26178.00658989  .00001137  00000-0  52902-3 0  9994
2 63390  89.0049 274.0925 0055585 158.2756 202.0809 14.19095926 96848
CZ-6A DEB
1 63390U 24140ADM 26179.98093770  .00001228  00000-0  57188-3 0  9995
2 63390  89.0052 273.8699 0055793 152.2700 208.1484 14.19101414 97129
CZ-6A DEB
1 63390U 24140ADM 26183.50654289  .00001398  00000-0  65168-3 0  9991
2 63390  89.0051 273.4729 0056141 141.1495 219.3751 14.19110751 97624
CZ-6A DEB
1 63390U 24140ADM 26183.50654290  .00001398  00000-0  65168-3 0  9993
2 63390  89.0051 273.4729 0056141 141.1495 219.3751 14.19110751 97624
CZ-6A DEB
1 63390U 24140ADM 26195.49343351  .00000572  00000-0  26232-3 0  9999
2 63390  89.0051 272.1233 0056642 104.1660 256.5832 14.19130079 99326
CZ-6A DEB
1 63390U 24140ADM 26198.94844404  .00000546  00000-0  24999-3 0  9996
2 63390  89.0043 271.7328 0056673  93.3395 267.4280 14.19134071 99813
CZ-6A DEB
1 63390U 24140ADM 26198.94844404  .00000546  00000-0  24999-3 0  9996
2 63390  89.0043 271.7328 0056673  93.3395 267.4280 14.19134071 99813
CZ-6A DEB
1 63390U 24140ADM 26205.43535562  .00000995  00000-0  46163-3 0  9996
2 63390  89.0040 271.0005 0056414  73.3301 287.4071 14.19146065100733
CZ-6A DEB
1 63390U 24140ADM 26224.40212734  .00000538  00000-0  24686-3 0  9996
2 63390  89.0019 268.8572 0054438  13.5424 346.7211 14.19176469103423
CZ-6A DEB
1 63390U 24140ADM 26224.40212734  .00000538  00000-0  24686-3 0  9996
2 63390  89.0019 268.8572 0054438  13.5424 346.7211 14.19176469103423
CZ-6A DEB
1 63390U 24140ADM 26226.37634106  .00000576  00000-0  26492-3 0  9994
2 63390  89.0010 268.6352 0053842   6.8436 353.3476 14.19178878103708
CZ-6A DEB
1 63390U 24140ADM 26226.37634107  .00000576  00000-0  26492-3 0  9995
2 63390  89.0010 268.6352 0053842   6.8436 353.3476 14.19178878103708
CZ-6A DEB
1 63390U 24140ADM 26229.83120861  .00000682  00000-0  31475-3 0  9991
2 63390  89.0009 268.2458 0053277 355.4893   4.5809 14.19182744104197
CZ-6A DEB
1 63390U 24140ADM 26238.36257045  .00000863  00000-0  40046-3 0  9999
2 63390  89.0000 267.2803 0052302 327.2869  32.5084 14.19195381105401
CZ-6A DEB
1 63390U 24140ADM 26238.36257046  .00000863  00000-0  40046-3 0  9990
2 63390  89.0000 267.2803 0052302 327.2869  32.5084 14.19195381105401
