CZ-6A R/B DEB
1 63392U 24140ADP 25087.39794512  .00000916  00000-0  41547-3 0  9996
2 63392  89.0453 325.9587 0036844 189.8716 170.1755 14.20774107    18
CZ-6A R/B DEB
1 63392U 24140ADP 25121.55548591  .00000625  00000-0  28053-3 0  9991
2 63392  89.0396 322.2392 0039778  82.6581 277.9128 14.20823010 35495
CZ-6A R/B DEB
1 63392U 24140ADP 25137.26046525  .00000474  00000-0  21133-3 0  9990
2 63392  89.0386 320.5227 0038710  34.1522 326.2147 14.20838675 37724
CZ-6A R/B DEB
1 63392U 24140ADP 25138.45769766  .00000480  00000-0  21424-3 0  9991
2 63392  89.0386 320.3917 0038562  30.3914 329.9500 14.20839723 37892
CZ-6A R/B DEB
1 63392U 24140ADP 25139.23237700  .00000422  00000-0  18753-3 0  9993
2 63392  89.0386 320.3070 0038462  27.9352 332.3892 14.20840009 38004
CZ-6A R/B DEB
1 63392U 24140ADP 25141.76768845  .00000357  00000-0  15750-3 0  9994
2 63392  89.0385 320.0297 0038123  19.8585 340.4079 14.20841654 38366
CZ-6A R/B DEB
1 63392U 24140ADP 25144.23257090  .00000365  00000-0  16149-3 0  9996
2 63392  89.0385 319.7602 0037827  12.0145 348.1938 14.20843633 38715
CZ-6A R/B DEB
1 63392U 24140ADP 25144.72554690  .00000357  00000-0  15767-3 0  9992
2 63392  89.0384 319.7063 0037748  10.4342 349.7623 14.20843983 38781
CZ-6A R/B DEB
1 63392U 24140ADP 25145.50022332  .00000356  00000-0  15735-3 0  9996
2 63392  89.0384 319.6216 0037633   7.9337 352.2440 14.20844567 38895
CZ-6A R/B DEB
1 63392U 24140ADP 25146.90872511  .00000329  00000-0  14478-3 0  9996
2 63392  89.0384 319.4676 0037435   3.3570 356.7864 14.20845440 39095
CZ-6A R/B DEB
1 63392U 24140ADP 25147.47212560  .00000343  00000-0  15119-3 0  9990
2 63392  89.0384 319.4060 0037361   1.5238 358.6060 14.20845906 39176
CZ-6A R/B DEB
1 63392U 24140ADP 25149.44402604  .00000366  00000-0  16200-3 0  9996
2 63392  89.0386 319.1905 0037102 355.1025   4.9797 14.20847413 39452
CZ-6A R/B DEB
1 63392U 24140ADP 25151.41592449  .00000377  00000-0  16686-3 0  9993
2 63392  89.0387 318.9748 0036840 348.6346  11.4008 14.20848918 39736
CZ-6A R/B DEB
1 63392U 24140ADP 25154.16249279  .00000509  00000-0  22781-3 0  9998
2 63392  89.0392 318.6749 0036494 339.5454  20.4273 14.20852117 40129
CZ-6A R/B DEB
1 63392U 24140ADP 25154.72589061  .00000547  00000-0  24514-3 0  9994
2 63392  89.0392 318.6133 0036421 337.6601  22.3001 14.20852951 40204
CZ-6A R/B DEB
1 63392U 24140ADP 25156.90905766  .00000391  00000-0  17343-3 0  9999
2 63392  89.0394 318.3750 0036136 330.3154  29.5985 14.20853998 40510
CZ-6A R/B DEB
1 63392U 24140ADP 25158.88094886  .00000328  00000-0  14451-3 0  9997
2 63392  89.0394 318.1597 0035904 323.6082  36.2668 14.20855209 40794
CZ-6A R/B DEB
1 63392U 24140ADP 25159.44434622  .00000322  00000-0  14178-3 0  9996
2 63392  89.0394 318.0981 0035854 321.7092  38.1553 14.20855553 40879
CZ-6A R/B DEB
1 63392U 24140ADP 25159.72604488  .00000317  00000-0  13947-3 0  9993
2 63392  89.0393 318.0671 0035822 320.7637  39.0957 14.20855686 40913
CZ-6A R/B DEB
1 63392U 24140ADP 25161.69793455  .00000274  00000-0  11965-3 0  9995
2 63392  89.0395 317.8518 0035650 314.0729  45.7528 14.20856730 41199
CZ-6A R/B DEB
1 63392U 24140ADP 25162.40218068  .00000282  00000-0  12322-3 0  9994
2 63392  89.0397 317.7749 0035598 311.6701  48.1444 14.20857213 41292
CZ-6A R/B DEB
1 63392U 24140ADP 25163.38812505  .00000309  00000-0  13597-3 0  9993
2 63392  89.0398 317.6673 0035513 308.3044  51.4954 14.20857970 41437
CZ-6A R/B DEB
1 63392U 24140ADP 25164.16279452  .00000501  00000-0  22434-3 0  9992
2 63392  89.0398 317.5826 0035441 305.6831  54.1062 14.20859758 41548
CZ-6A DEB
1 63392U 24140ADP 25165.14873900  .00000355  00000-0  15700-3 0  9994
2 63392  89.0399 317.4749 0035369 302.2961  57.4805 14.20859429 41689
CZ-6A DEB
1 63392U 24140ADP 25167.68402202  .00000347  00000-0  15315-3 0  9991
2 63392  89.0401 317.1982 0035218 293.5871  66.1622 14.20861094 42040
CZ-6A DEB
1 63392U 24140ADP 25168.38826705  .00000358  00000-0  15823-3 0  9993
2 63392  89.0402 317.1213 0035183 291.1602  68.5830 14.20861652 42143
CZ-6A DEB
1 63392U 24140ADP 25169.37420985  .00000353  00000-0  15628-3 0  9991
2 63392  89.0402 317.0136 0035136 287.7257  72.0099 14.20862322 42288
CZ-6A DEB
1 63392U 24140ADP 25170.36015263  .00000350  00000-0  15476-3 0  9999
2 63392  89.0410 316.9068 0035127 284.2911  75.4380 14.20862934 42423
CZ-6A DEB
1 63392U 24140ADP 25172.82500894  .00000281  00000-0  12310-3 0  9998
2 63392  89.0407 316.6371 0035137 275.6220  84.0964 14.20864003 42772
CZ-6A DEB
1 63392U 24140ADP 25173.10670690  .00000276  00000-0  12058-3 0  9995
2 63392  89.0407 316.6064 0035120 274.6715  85.0465 14.20864096 42815
CZ-6A DEB
1 63392U 24140ADP 25174.37434728  .00000266  00000-0  11609-3 0  9995
2 63392  89.0409 316.4683 0035109 270.3063  89.4104 14.20864711 42999
CZ-6A DEB
1 63392U 24140ADP 25175.36028961  .00000269  00000-0  11745-3 0  9997
2 63392  89.0410 316.3608 0035116 266.8928  92.8244 14.20865240 43133
CZ-6A DEB
1 63392U 24140ADP 25176.34623172  .00000258  00000-0  11240-3 0  9999
2 63392  89.0411 316.2531 0035111 263.4727  96.2466 14.20865727 43272
CZ-6A DEB
1 63392U 24140ADP 25177.33217377  .00000262  00000-0  11429-3 0  9999
2 63392  89.0412 316.1455 0035137 260.0485  99.6739 14.20866264 43412
CZ-6A DEB
1 63392U 24140ADP 25179.37448204  .00000257  00000-0  11188-3 0  9996
2 63392  89.0415 315.9229 0035216 253.0098 106.7232 14.20867279 43708
CZ-6A DEB
1 63392U 24140ADP 25180.64212152  .00000258  00000-0  11240-3 0  9999
2 63392  89.0414 315.7845 0035243 248.6273 111.1156 14.20867900 43889
CZ-6A DEB
1 63392U 24140ADP 25181.62806322  .00000286  00000-0  12508-3 0  9995
2 63392  89.0414 315.6768 0035282 245.1954 114.5565 14.20868551 44024
CZ-6A DEB
1 63392U 24140ADP 25183.38867313  .00000300  00000-0  13155-3 0  9993
2 63392  89.0415 315.4851 0035501 239.0877 120.6822 14.20869525 44279
CZ-6A DEB
1 63392U 24140ADP 25184.09291672  .00000315  00000-0  13828-3 0  9994
2 63392  89.0415 315.4082 0035573 236.6905 123.0878 14.20870035 44376
CZ-6A DEB
1 63392U 24140ADP 25184.65631174  .00000305  00000-0  13386-3 0  9999
2 63392  89.0416 315.3470 0035597 234.7860 124.9997 14.20870281 44456
CZ-6A DEB
1 63392U 24140ADP 25185.07885779  .00000302  00000-0  13235-3 0  9998
2 63392  89.0418 315.3011 0035646 233.3382 126.4531 14.20870561 44517
CZ-6A DEB
1 63392U 24140ADP 25186.34649598  .00000315  00000-0  13855-3 0  9998
2 63392  89.0417 315.1630 0035750 229.0375 130.7721 14.20871403 44695
CZ-6A DEB
1 63392U 24140ADP 25186.76904202  .00000302  00000-0  13249-3 0  9993
2 63392  89.0416 315.1170 0035786 227.5835 132.2327 14.20871571 44758
CZ-6A DEB
1 63392U 24140ADP 25187.33243660  .00000302  00000-0  13220-3 0  9990
2 63392  89.0416 315.0556 0035837 225.6712 134.1539 14.20871924 44832
CZ-6A DEB
1 63392U 24140ADP 25188.31837673  .00000318  00000-0  13960-3 0  9990
2 63392  89.0422 314.9484 0035925 222.3039 137.5380 14.20872706 44976
CZ-6A DEB
1 63392U 24140ADP 25189.09304395  .00000295  00000-0  12921-3 0  9996
2 63392  89.0419 314.8636 0035977 219.6341 140.2220 14.20873086 45081
CZ-6A DEB
1 63392U 24140ADP 25189.65643790  .00000288  00000-0  12598-3 0  9995
2 63392  89.0420 314.8023 0036075 217.7733 142.0925 14.20873450 45163
CZ-6A DEB
1 63392U 24140ADP 25190.07898350  .00000285  00000-0  12455-3 0  9996
2 63392  89.0421 314.7564 0036116 216.3599 143.5138 14.20873718 45220
CZ-6A DEB
1 63392U 24140ADP 25191.06492296  .00000266  00000-0  11576-3 0  9997
2 63392  89.0421 314.6491 0036265 213.0541 146.8383 14.20874242 45360
CZ-6A DEB
1 63392U 24140ADP 25192.61425650  .00000254  00000-0  11029-3 0  9999
2 63392  89.0424 314.4804 0036399 207.8857 152.0383 14.20874988 45588
CZ-6A DEB
1 63392U 24140ADP 25193.60019560  .00000284  00000-0  12396-3 0  9999
2 63392  89.0427 314.3731 0036489 204.5932 155.3519 14.20875680 45720
CZ-6A DEB
1 63392U 24140ADP 25194.58613493  .00000291  00000-0  12740-3 0  9993
2 63392  89.0425 314.2655 0036683 201.2873 158.6794 14.20876057 45861
CZ-6A DEB
1 63392U 24140ADP 25196.27631543  .00000300  00000-0  13118-3 0  9998
2 63392  89.0425 314.0815 0036901 195.7135 164.2914 14.20877004 46106
CZ-6A DEB
1 63392U 24140ADP 25196.76928449  .00000304  00000-0  13302-3 0  9995
2 63392  89.0425 314.0279 0036973 194.0933 165.9230 14.20877315 46178
CZ-6A DEB
1 63392U 24140ADP 25197.33267764  .00000291  00000-0  12726-3 0  9999
2 63392  89.0425 313.9666 0037047 192.2390 167.7905 14.20877589 46257
CZ-6A DEB
1 63392U 24140ADP 25198.31861516  .00000314  00000-0  13782-3 0  9992
2 63392  89.0426 313.8594 0037178 189.0157 171.0370 14.20878371 46396
CZ-6A DEB
1 63392U 24140ADP 25199.58624862  .00000314  00000-0  13764-3 0  9993
2 63392  89.0428 313.7213 0037363 184.8966 175.1865 14.20879183 46578
CZ-6A DEB
1 63392U 24140ADP 25200.29048917  .00000312  00000-0  13658-3 0  9995
2 63392  89.0426 313.6447 0037445 182.5807 177.5196 14.20879651 46678
CZ-6A DEB
1 63392U 24140ADP 25201.27642550  .00000324  00000-0  14241-3 0  9999
2 63392  89.0426 313.5375 0037580 179.3692 180.7553 14.20880399 46813
CZ-6A DEB
1 63392U 24140ADP 25205.29058910  .00000412  00000-0  18270-3 0  9990
2 63392  89.0427 313.1009 0038108 166.4928 193.7292 14.20883891 47387
CZ-6A DEB
1 63392U 24140ADP 25206.27652437  .00000376  00000-0  16608-3 0  9995
2 63392  89.0427 312.9934 0038238 163.3284 196.9174 14.20884010 47520
CZ-6A DEB
1 63392U 24140ADP 25207.54415246  .00000415  00000-0  18409-3 0  9996
2 63392  89.0428 312.8556 0038407 159.3395 200.9359 14.20885203 17068
CZ-6A DEB
1 63392U 24140ADP 25208.53008462  .00000424  00000-0  18816-3 0  9996
2 63392  89.0430 312.7484 0038512 156.2433 204.0547 14.20886108 47844
CZ-6A DEB
1 63392U 24140ADP 25211.55830057  .00000410  00000-0  18156-3 0  9997
2 63392  89.0428 312.4189 0038846 146.7513 213.6130 14.20888694 48277
CZ-6A DEB
1 63392U 24140ADP 25212.26253587  .00000408  00000-0  18058-3 0  9991
2 63392  89.0427 312.3423 0038918 144.5447 215.8342 14.20889303 48376
CZ-6A DEB
1 63392U 24140ADP 25213.24846463  .00000411  00000-0  18219-3 0  9994
2 63392  89.0427 312.2351 0039011 141.4814 218.9173 14.20890178 48518
CZ-6A DEB
1 63392U 24140ADP 25214.23439278  .00000397  00000-0  17556-3 0  9992
2 63392  89.0428 312.1280 0039104 138.4269 221.9907 14.20890930 48652
CZ-6A DEB
1 63392U 24140ADP 25215.00905031  .00000377  00000-0  16613-3 0  9994
2 63392  89.0428 312.0438 0039169 136.0407 224.3911 14.20891396 48766
CZ-6A DEB
1 63392U 24140ADP 25216.27667066  .00000349  00000-0  15332-3 0  9993
2 63392  89.0426 311.9058 0039290 132.0897 228.3646 14.20892271 48946
CZ-6A DEB
1 63392U 24140ADP 25217.26259688  .00000323  00000-0  14168-3 0  9998
2 63392  89.0427 311.7987 0039364 129.0135 231.4571 14.20892868 49089
CZ-6A DEB
1 63392U 24140ADP 25218.24852240  .00000297  00000-0  12948-3 0  9994
2 63392  89.0428 311.6916 0039435 125.9652 234.5206 14.20893417 49225
CZ-6A DEB
1 63392U 24140ADP 25219.51613991  .00000316  00000-0  13820-3 0  9995
2 63392  89.0428 311.5536 0039520 122.0760 238.4278 14.20894347 49400
CZ-6A DEB
1 63392U 24140ADP 25220.22037161  .00000308  00000-0  13463-3 0  9998
2 63392  89.0427 311.4769 0039568 119.8994 240.6137 14.20894726 49502
CZ-6A DEB
1 63392U 24140ADP 25221.48798735  .00000346  00000-0  15190-3 0  9999
2 63392  89.0426 311.3390 0039656 116.0001 244.5283 14.20895797 49689
CZ-6A DEB
1 63392U 24140ADP 25221.98094847  .00000392  00000-0  17308-3 0  9991
2 63392  89.0425 311.2853 0039677 114.4917 246.0419 14.20896454 49759
CZ-6A DEB
1 63392U 24140ADP 25223.53025442  .00000379  00000-0  16733-3 0  9995
2 63392  89.0425 311.1168 0039722 109.7385 250.8097 14.20897466 49977
CZ-6A DEB
1 63392U 24140ADP 25224.51617544  .00000361  00000-0  15911-3 0  9992
2 63392  89.0423 311.0095 0039757 106.7150 253.8410 14.20898059 50117
CZ-6A DEB
1 63392U 24140ADP 25225.22040428  .00000360  00000-0  15830-3 0  9991
2 63392  89.0422 310.9328 0039779 104.5568 256.0040 14.20898570 50219
CZ-6A DEB
1 63392U 24140ADP 25226.48801534  .00000348  00000-0  15308-3 0  9999
2 63392  89.0421 310.7948 0039812 100.6846 259.8832 14.20899392 50390
CZ-6A DEB
1 63392U 24140ADP 25226.69928371  .00000345  00000-0  15157-3 0  9990
2 63392  89.0420 310.7718 0039816 100.0411 260.5276 14.20899547 50427
CZ-6A DEB
1 63392U 24140ADP 25227.19224314  .00000326  00000-0  14281-3 0  9998
2 63392  89.0420 310.7182 0039812  98.5392 262.0313 14.20899795 50498
CZ-6A DEB
1 63392U 24140ADP 25228.67112027  .00000299  00000-0  13052-3 0  9993
2 63392  89.0418 310.5571 0039823  94.0277 266.5467 14.20900718 50701
CZ-6A DEB
1 63392U 24140ADP 25229.93872801  .00000293  00000-0  12757-3 0  9991
2 63392  89.0416 310.4192 0039821  90.1473 270.4280 14.20901512 50889
CZ-6A DEB
1 63392U 24140ADP 25232.47394053  .00000302  00000-0  13180-3 0  9994
2 63392  89.0414 310.1431 0039769  82.3949 278.1756 14.20903015 51246
CZ-6A DEB
1 63392U 24140ADP 25234.16408007  .00000280  00000-0  12164-3 0  9993
2 63392  89.0412 309.9590 0039708  77.2290 283.3333 14.20903791 51487
CZ-6A DEB
1 63392U 24140ADP 25235.92464013  .00000278  00000-0  12092-3 0  9994
2 63392  89.0408 309.7669 0039607  71.8381 288.7116 14.20904678 51737
CZ-6A DEB
1 63392U 24140ADP 25236.20632961  .00000291  00000-0  12661-3 0  9992
2 63392  89.0409 309.7364 0039594  70.9653 289.5820 14.20904895 51773
CZ-6A DEB
1 63392U 24140ADP 25237.19224216  .00000302  00000-0  13201-3 0  9995
2 63392  89.0407 309.6289 0039533  67.9255 292.6126 14.20905486 51910
CZ-6A DEB
1 63392U 24140ADP 25239.16406503  .00000342  00000-0  15039-3 0  9990
2 63392  89.0402 309.4138 0039412  61.8648 298.6516 14.20906910 52194
CZ-6A DEB
1 63392U 24140ADP 25239.44575373  .00000365  00000-0  16091-3 0  9997
2 63392  89.0403 309.3832 0039389  60.9963 299.5166 14.20907217 52235
CZ-6A DEB
1 63392U 24140ADP 25241.91052727  .00000416  00000-0  18441-3 0  9993
2 63392  89.0399 309.1145 0039172  53.3622 307.1160 14.20909350 52580
CZ-6A DEB
1 63392U 24140ADP 25242.89643519  .00000483  00000-0  21484-3 0  9991
2 63392  89.0398 309.0071 0039091  50.2789 310.1836 14.20910543 52722
CZ-6A DEB
1 63392U 24140ADP 25243.17812306  .00000484  00000-0  21562-3 0  9993
2 63392  89.0397 308.9763 0039072  49.4029 311.0550 14.20910808 52764
CZ-6A DEB
1 63392U 24140ADP 25243.45981082  .00000486  00000-0  21660-3 0  9993
2 63392  89.0397 308.9456 0039049  48.5257 311.9276 14.20911058 52807
CZ-6A DEB
1 63392U 24140ADP 25244.16402998  .00000591  00000-0  26466-3 0  9992
2 63392  89.0396 308.8688 0038987  46.3228 314.1183 14.20912246 52909
CZ-6A DEB
1 63392U 24140ADP 25244.44571744  .00000595  00000-0  26662-3 0  9991
2 63392  89.0396 308.8380 0038964  45.4442 314.9919 14.20912538 52944
CZ-6A DEB
1 63392U 24140ADP 25244.93867028  .00000617  00000-0  27646-3 0  9996
2 63392  89.0394 308.7842 0038914  43.9031 316.5241 14.20913158 53010
CZ-6A DEB
1 63392U 24140ADP 25245.14993557  .00000665  00000-0  29863-3 0  9993
2 63392  89.0394 308.7611 0038894  43.2394 317.1838 14.20913699 53048
CZ-6A DEB
1 63392U 24140ADP 25245.43162264  .00000671  00000-0  30133-3 0  9997
2 63392  89.0394 308.7304 0038866  42.3602 318.0578 14.20914053 53088
CZ-6A DEB
1 63392U 24140ADP 25246.13584042  .00000622  00000-0  27893-3 0  9992
2 63392  89.0392 308.6535 0038793  40.1636 320.2410 14.20914525 53188
CZ-6A DEB
1 63392U 24140ADP 25246.91047940  .00000551  00000-0  24647-3 0  9994
2 63392  89.0391 308.5689 0038703  37.7409 322.6485 14.20914947 53295
CZ-6A DEB
1 63392U 24140ADP 25247.12174441  .00000548  00000-0  24478-3 0  9993
2 63392  89.0391 308.5459 0038680  37.0653 323.3197 14.20915187 53327
CZ-6A DEB
1 63392U 24140ADP 25248.60059873  .00000540  00000-0  24144-3 0  9990
2 63392  89.0389 308.3844 0038498  32.3838 327.9704 14.20916728 53539
CZ-6A DEB
1 63392U 24140ADP 25249.16397110  .00000523  00000-0  23353-3 0  9993
2 63392  89.0388 308.3229 0038428  30.5923 329.7497 14.20917303 53611
CZ-6A DEB
1 63392U 24140ADP 25249.44565722  .00000518  00000-0  23123-3 0  9999
2 63392  89.0388 308.2921 0038392  29.7021 330.6338 14.20917580 53654
CZ-6A DEB
1 63392U 24140ADP 25251.91040896  .00000359  00000-0  15831-3 0  9994
2 63392  89.0383 308.0229 0038085  21.8791 338.4015 14.20919171 54000
CZ-6A DEB
1 63392U 24140ADP 25253.10757280  .00000303  00000-0  13251-3 0  9992
2 63392  89.0380 307.8920 0037924  18.0535 342.1992 14.20919878 54175
CZ-6A DEB
1 63392U 24140ADP 25255.43147718  .00000256  00000-0  11088-3 0  9992
2 63392  89.0376 307.6379 0037617  10.5572 349.6400 14.20921230 54501
CZ-6A DEB
1 63392U 24140ADP 25257.89622201  .00000266  00000-0  11553-3 0  9997
2 63392  89.0370 307.3683 0037298   2.5955 357.5422 14.20922661 54850
CZ-6A DEB
1 63392U 24140ADP 25259.37506752  .00000314  00000-0  13770-3 0  9991
2 63392  89.0369 307.2066 0037095 357.7635   2.3384 14.20923793 55060
CZ-6A DEB
1 63392U 24140ADP 25259.86801594  .00000303  00000-0  13281-3 0  9992
2 63392  89.0368 307.1526 0037022 356.1494   3.9406 14.20923992 55136
CZ-6A DEB
1 63392U 24140ADP 25262.54401976  .00000331  00000-0  14566-3 0  9999
2 63392  89.0365 306.8597 0036684 347.3119  12.7144 14.20925691 55513
CZ-6A DEB
1 63392U 24140ADP 25262.61444086  .00000331  00000-0  14545-3 0  9993
2 63392  89.0365 306.8520 0036679 347.0726  12.9520 14.20925738 55527
CZ-6A DEB
1 63392U 24140ADP 25263.10738859  .00000356  00000-0  15685-3 0  9995
2 63392  89.0364 306.7980 0036624 345.4462  14.5670 14.20926187 55594
CZ-6A DEB
1 63392U 24140ADP 25266.83970228  .00000589  00000-0  26430-3 0  9994
2 63392  89.0355 306.3892 0036168 333.0107  26.9202 14.20930453 56123
CZ-6A DEB
1 63392U 24140ADP 25267.12138595  .00000589  00000-0  26399-3 0  9994
2 63392  89.0354 306.3583 0036136 332.0744  27.8506 14.20930755 56166
CZ-6A DEB
1 63392U 24140ADP 25268.60022441  .00000602  00000-0  26995-3 0  9998
2 63392  89.0351 306.1961 0035988 327.0746  32.8203 14.20932352 56379
CZ-6A DEB
1 63392U 24140ADP 25274.79724241  .00000816  00000-0  36848-3 0  9997
2 63392  89.0342 305.5163 0035418 306.0422  53.7488 14.20941725 57251
CZ-6A DEB
1 63392U 24140ADP 25275.07892415  .00000810  00000-0  36584-3 0  9999
2 63392  89.0342 305.4854 0035402 305.0778  54.7094 14.20942168 57293
CZ-6A DEB
1 63392U 24140ADP 25276.06480960  .00000782  00000-0  35293-3 0  9991
2 63392  89.0338 305.3768 0035342 301.6819  58.0927 14.20943646 57432
CZ-6A DEB
1 63392U 24140ADP 25279.79708367  .00000559  00000-0  25063-3 0  9994
2 63392  89.0329 304.9662 0035119 288.8930  70.8454 14.20948402 57962
CZ-6A DEB
1 63392U 24140ADP 25280.07876433  .00000546  00000-0  24461-3 0  9994
2 63392  89.0328 304.9351 0035124 287.9173  71.8189 14.20948724 58000
CZ-6A DEB
1 63392U 24140ADP 25280.50128536  .00000528  00000-0  23620-3 0  9992
2 63392  89.0336 304.8897 0035116 286.4042  73.3290 14.20949165 58069
CZ-6A DEB
1 63392U 24140ADP 25281.06464637  .00000527  00000-0  23583-3 0  9996
2 63392  89.0336 304.8280 0035104 284.4355  75.2941 14.20949916 58144
CZ-6A DEB
1 63392U 24140ADP 25281.48716725  .00000499  00000-0  22298-3 0  9990
2 63392  89.0330 304.7815 0035092 282.9652  76.7621 14.20950246 58206
CZ-6A DEB
1 63392U 24140ADP 25282.33220883  .00000447  00000-0  19919-3 0  9999
2 63392  89.0329 304.6886 0035068 280.0504  79.6730 14.20950858 58324
CZ-6A DEB
1 63392U 24140ADP 25283.31809032  .00000459  00000-0  20461-3 0  9994
2 63392  89.0327 304.5801 0035049 276.6514  83.0688 14.20951915 58460
CZ-6A DEB
1 63392U 24140ADP 25283.81103096  .00000448  00000-0  19964-3 0  9990
2 63392  89.0332 304.5264 0035057 274.9187  84.8001 14.20952311 58532
CZ-6A DEB
1 63392U 24140ADP 25284.30397155  .00000458  00000-0  20411-3 0  9996
2 63392  89.0332 304.4723 0035051 273.2096  86.5084 14.20952818 58606
CZ-6A DEB
1 63392U 24140ADP 25285.78279219  .00000483  00000-0  21527-3 0  9996
2 63392  89.0329 304.3096 0035079 268.0801  91.6372 14.20954439 58811
CZ-6A DEB
1 63392U 24140ADP 25286.06447223  .00000503  00000-0  22451-3 0  9990
2 63392  89.0328 304.2787 0035082 267.1079  92.6097 14.20954839 58850
CZ-6A DEB
1 63392U 24140ADP 25286.48699221  .00000482  00000-0  21504-3 0  9997
2 63392  89.0328 304.2322 0035092 265.6431  94.0750 14.20955146 58912
CZ-6A DEB
1 63392U 24140ADP 25286.76867216  .00000478  00000-0  21314-3 0  9993
2 63392  89.0328 304.2012 0035094 264.6669  95.0518 14.20955394 58954
CZ-6A DEB
1 63392U 24140ADP 25287.75455191  .00000485  00000-0  21626-3 0  9992
2 63392  89.0326 304.0928 0035111 261.2596  98.4618 14.20956346 59090
CZ-6A DEB
1 63392U 24140ADP 25288.31791149  .00000516  00000-0  23054-3 0  9993
2 63392  89.0326 304.0308 0035126 259.3226 100.4009 14.20957062 59179
CZ-6A DEB
1 63392U 24140ADP 25289.30379056  .00000527  00000-0  23567-3 0  9993
2 63392  89.0326 303.9224 0035150 255.9178 103.8105 14.20958064 59312
CZ-6A DEB
1 63392U 24140ADP 25291.27554712  .00000583  00000-0  26124-3 0  9990
2 63392  89.0323 303.7055 0035223 249.0980 110.6438 14.20960389 59593
CZ-6A DEB
1 63392U 24140ADP 25292.33184374  .00000688  00000-0  30932-3 0  9999
2 63392  89.0321 303.5892 0035276 245.4493 114.3019 14.20962272 59741
CZ-6A DEB
1 63392U 24140ADP 25294.30359590  .00000652  00000-0  29283-3 0  9990
2 63392  89.0315 303.3718 0035379 238.6675 121.1052 14.20964521 60024
CZ-6A DEB
1 63392U 24140ADP 25296.27534565  .00000600  00000-0  26913-3 0  9995
2 63392  89.0312 303.1545 0035501 231.8733 127.9256 14.20966770 60303
CZ-6A DEB
1 63392U 24140ADP 25298.74002930  .00000545  00000-0  24366-3 0  9993
2 63392  89.0312 302.8832 0035731 223.4657 136.3716 14.20969568 60656
CZ-6A DEB
1 63392U 24140ADP 25299.30338533  .00000554  00000-0  24782-3 0  9999
2 63392  89.0313 302.8213 0035786 221.5767 138.2702 14.20970186 60734
CZ-6A DEB
1 63392U 24140ADP 25299.44422426  .00000556  00000-0  24855-3 0  9992
2 63392  89.0313 302.8058 0035803 221.1034 138.7459 14.20970359 60752
CZ-6A DEB
1 63392U 24140ADP 25300.28925757  .00000583  00000-0  26115-3 0  9993
2 63392  89.0314 302.7129 0035887 218.2786 141.5857 14.20971421 60872
CZ-6A DEB
1 63392U 24140ADP 25301.27512933  .00000579  00000-0  25941-3 0  9992
2 63392  89.0314 302.6043 0035981 214.9563 144.9265 14.20972452 61019
CZ-6A DEB
1 63392U 24140ADP 25302.26100064  .00000580  00000-0  25980-3 0  9995
2 63392  89.0314 302.4957 0036079 211.6290 148.2733 14.20973469 61152
CZ-6A DEB
1 63392U 24140ADP 25303.24687119  .00000568  00000-0  25434-3 0  9995
2 63392  89.0314 302.3871 0036194 208.3024 151.6202 14.20974492 61293
CZ-6A DEB
1 63392U 24140ADP 25305.00735255  .00000552  00000-0  24672-3 0  9992
2 63392  89.0313 302.1932 0036402 202.4301 157.5301 14.20976445 61546
CZ-6A DEB
1 63392U 24140ADP 25305.99322148  .00000529  00000-0  23635-3 0  9995
2 63392  89.0312 302.0845 0036539 199.1794 160.8024 14.20977390 61680
CZ-6A DEB
1 63392U 24140ADP 25307.26076646  .00000491  00000-0  21857-3 0  9998
2 63392  89.0314 301.9453 0036698 194.9256 165.0855 14.20978513 61864
CZ-6A DEB
1 63392U 24140ADP 25308.73956752  .00000466  00000-0  20740-3 0  9998
2 63392  89.0313 301.7824 0036884 190.0290 170.0170 14.20979944 62074
CZ-6A DEB
1 63392U 24140ADP 25308.95082462  .00000460  00000-0  20433-3 0  9993
2 63392  89.0313 301.7591 0036900 189.3447 170.7062 14.20980164 62106
CZ-6A DEB
1 63392U 24140ADP 25312.26051515  .00000592  00000-0  26488-3 0  9999
2 63392  89.0314 301.3946 0037343 178.5429 181.5877 14.20984563 62571
CZ-6A DEB
1 63392U 24140ADP 25313.24637871  .00000632  00000-0  28315-3 0  9999
2 63392  89.0314 301.2860 0037458 175.3514 184.8032 14.20985899 62710
CZ-6A DEB
1 63392U 24140ADP 25315.92228962  .00000645  00000-0  28910-3 0  9998
2 63392  89.0316 300.9912 0037788 166.6838 193.5360 14.20989249 63090
CZ-6A DEB
1 63392U 24140ADP 25316.41521879  .00000934  00000-0  42141-3 0  9999
2 63392  89.0315 300.9368 0037867 165.0913 195.1403 14.20991743 63165
CZ-6A DEB
1 63392U 24140ADP 25317.40107664  .00000956  00000-0  43159-3 0  9995
2 63392  89.0315 300.8282 0037998 161.9446 198.3104 14.20993689 63300
CZ-6A DEB
1 63392U 24140ADP 25320.21780704  .00000829  00000-0  37309-3 0  9999
2 63392  89.0316 300.5180 0038350 153.0212 207.2984 14.20998210 63706
CZ-6A DEB
1 63392U 24140ADP 25321.20365987  .00000767  00000-0  34477-3 0  9995
2 63392  89.0320 300.4097 0038434 149.8989 210.4422 14.20999811 63840
CZ-6A DEB
1 63392U 24140ADP 25321.69658606  .00000706  00000-0  31689-3 0  9996
2 63392  89.0320 300.3555 0038493 148.3432 212.0085 14.21000374 63919
CZ-6A DEB
1 63392U 24140ADP 25326.34416576  .00000511  00000-0  22756-3 0  9990
2 63392  89.0325 299.8444 0038907 133.7755 226.6666 14.21005300 64572
CZ-6A DEB
1 63392U 24140ADP 25327.89335518  .00000516  00000-0  22978-3 0  9998
2 63392  89.0327 299.6738 0039096 128.8394 231.6297 14.21006815 64794
CZ-6A DEB
1 63392U 24140ADP 25328.66794910  .00000515  00000-0  22908-3 0  9991
2 63392  89.0327 299.5885 0039162 126.4473 234.0338 14.21007515 64906
CZ-6A DEB
1 63392U 24140ADP 25329.37212467  .00000555  00000-0  24748-3 0  9990
2 63392  89.0328 299.5111 0039220 124.2584 236.2331 14.21008491 65006
CZ-6A DEB
1 63392U 24140ADP 25330.63963954  .00000541  00000-0  24088-3 0  9997
2 63392  89.0331 299.3719 0039320 120.4817 240.0267 14.21009691 65183
CZ-6A DEB
1 63392U 24140ADP 25331.20297934  .00000511  00000-0  22708-3 0  9993
2 63392  89.0333 299.3103 0039350 118.7000 241.8155 14.21010053 65267
CZ-6A DEB
1 63392U 24140ADP 25331.34381431  .00000493  00000-0  21886-3 0  9999
2 63392  89.0332 299.2946 0039363 118.2540 242.2633 14.21010067 65281
CZ-6A DEB
1 63392U 24140ADP 25332.18882291  .00000506  00000-0  22517-3 0  9999
2 63392  89.0332 299.2016 0039417 115.6312 244.8959 14.21011001 65409
CZ-6A DEB
1 63392U 24140ADP 25333.17466563  .00000486  00000-0  21579-3 0  9993
2 63392  89.0331 299.0929 0039484 112.5730 247.9646 14.21011840 65546
CZ-6A DEB
1 63392U 24140ADP 25334.16050729  .00000521  00000-0  23179-3 0  9994
2 63392  89.0331 298.9844 0039547 109.5293 251.0175 14.21013043 65685
CZ-6A DEB
1 63392U 24140ADP 25334.65342780  .00000480  00000-0  21314-3 0  9992
2 63392  89.0332 298.9303 0039570 108.0222 252.5287 14.21013328 65752
CZ-6A DEB
1 63392U 24140ADP 25336.34343884  .00000599  00000-0  26752-3 0  9998
2 63392  89.0333 298.7445 0039634 102.8395 257.7228 14.21015786 65990
CZ-6A DEB
1 63392U 24140ADP 25336.90677506  .00000589  00000-0  26285-3 0  9991
2 63392  89.0334 298.6826 0039641 101.1203 259.4448 14.21016389 66074
CZ-6A DEB
1 63392U 24140ADP 25337.32927713  .00000648  00000-0  29004-3 0  9994
2 63392  89.0335 298.6361 0039651  99.8231 260.7440 14.21017141 66135
CZ-6A DEB
1 63392U 24140ADP 25340.63886657  .00000818  00000-0  36786-3 0  9997
2 63392  89.0338 298.2722 0039718  89.6735 270.9007 14.21022633 66601
CZ-6A DEB
1 63392U 24140ADP 25341.34303275  .00000809  00000-0  36352-3 0  9995
2 63392  89.0339 298.1949 0039718  87.5182 273.0555 14.21023639 66705
CZ-6A DEB
1 63392U 24140ADP 25342.61052988  .00000878  00000-0  39537-3 0  9992
2 63392  89.0343 298.0561 0039711  83.6337 276.9374 14.21026004 66880
CZ-6A DEB
1 63392U 24140ADP 25345.14551795  .00000703  00000-0  31531-3 0  9996
2 63392  89.0347 297.7777 0039620  75.8875 284.6714 14.21028933 67246
CZ-6A DEB
1 63392U 24140ADP 25345.35676635  .00000778  00000-0  34949-3 0  9998
2 63392  89.0347 297.7545 0039614  75.2544 285.3032 14.21029721 67279
CZ-6A DEB
1 63392U 24140ADP 25346.62425694  .00000754  00000-0  33842-3 0  9991
2 63392  89.0345 297.6151 0039630  71.3448 289.2039 14.21031497 67450
CZ-6A DEB
1 63392U 24140ADP 25347.61008130  .00000680  00000-0  30460-3 0  9994
2 63392  89.0345 297.5069 0039597  68.3083 292.2317 14.21032652 67592
CZ-6A DEB
1 63392U 24140ADP 25349.30006364  .00000506  00000-0  22485-3 0  9994
2 63392  89.0347 297.3215 0039505  63.0887 297.4332 14.21034162 67837
CZ-6A DEB
1 63392U 24140ADP 25349.86339047  .00000469  00000-0  20785-3 0  9991
2 63392  89.0348 297.2597 0039478  61.3563 299.1589 14.21034711 67913
CZ-6A DEB
1 63392U 24140ADP 25350.14505383  .00000452  00000-0  20043-3 0  9991
2 63392  89.0349 297.2289 0039467  60.4703 300.0413 14.21034943 67955
CZ-6A DEB
1 63392U 24140ADP 25350.84921192  .00000439  00000-0  19426-3 0  9996
2 63392  89.0349 297.1516 0039424  58.2998 302.2027 14.21035691 68059
CZ-6A DEB
1 63392U 24140ADP 25351.13087507  .00000429  00000-0  18989-3 0  9994
2 63392  89.0350 297.1206 0039413  57.4510 303.0478 14.21035929 68093
CZ-6A DEB
1 63392U 24140ADP 25352.11669562  .00000402  00000-0  17723-3 0  9996
2 63392  89.0353 297.0125 0039375  54.3949 306.0900 14.21036745 68230
CZ-6A DEB
1 63392U 24140ADP 25352.60960564  .00000386  00000-0  17027-3 0  9994
2 63392  89.0352 296.9585 0039308  52.8425 307.6345 14.21037057 68300
CZ-6A DEB
1 63392U 24140ADP 25353.59542522  .00000361  00000-0  15859-3 0  9997
2 63392  89.0355 296.8505 0039227  49.7895 310.6717 14.21037700 68447
CZ-6A DEB
1 63392U 24140ADP 25354.29958160  .00000366  00000-0  16109-3 0  9998
2 63392  89.0356 296.7733 0039165  47.6109 312.8386 14.21038281 68548
CZ-6A DEB
1 63392U 24140ADP 25356.13038661  .00000443  00000-0  19626-3 0  9991
2 63392  89.0360 296.5727 0039004  41.9038 318.5126 14.21040036 68809
CZ-6A DEB
1 63392U 24140ADP 25356.83454165  .00000427  00000-0  18906-3 0  9991
2 63392  89.0361 296.4955 0038934  39.7039 320.6990 14.21040521 68902
CZ-6A DEB
1 63392U 24140ADP 25358.10201992  .00000468  00000-0  20786-3 0  9995
2 63392  89.0360 296.3565 0038822  35.7371 324.6406 14.21041712 69087
CZ-6A DEB
1 63392U 24140ADP 25359.08783513  .00000499  00000-0  22190-3 0  9992
2 63392  89.0360 296.2485 0038727  32.6575 327.6999 14.21042802 69220
CZ-6A DEB
1 63392U 24140ADP 25360.56655634  .00000526  00000-0  23433-3 0  9991
2 63392  89.0361 296.0864 0038606  28.0584 332.2676 14.21044457 69430
CZ-6A DEB
1 63392U 24140ADP 25363.10150093  .00000699  00000-0  31362-3 0  9994
2 63392  89.0362 295.8086 0038304  20.0163 340.2520 14.21048553 69791
CZ-6A DEB
1 63392U 24140ADP 25364.08731075  .00000750  00000-0  33707-3 0  9990
2 63392  89.0362 295.7005 0038183  16.8922 343.3530 14.21050196 69939
CZ-6A DEB
1 63392U 24140ADP 25364.79145982  .00000805  00000-0  36202-3 0  9998
2 63392  89.0362 295.6234 0038108  14.6590 345.5696 14.21051557 70038
CZ-6A DEB
1 63392U 24140ADP 25365.07311910  .00000858  00000-0  38642-3 0  9994
2 63392  89.0363 295.5926 0038072  13.7661 346.4559 14.21052318 70073
CZ-6A DEB
1 63392U 24140ADP 25365.56602308  .00000899  00000-0  40534-3 0  9990
2 63392  89.0362 295.5385 0038003  12.1970 348.0132 14.21053248 70147
CZ-6A DEB
1 63392U 24140ADP 26002.53763520  .00000926  00000-0  41764-3 0  9997
2 63392  89.0362 295.3225 0037741   5.8877 354.2749 14.21056672 70429
CZ-6A DEB
1 63392U 24140ADP 26003.24178099  .00000920  00000-0  41500-3 0  9999
2 63392  89.0363 295.2453 0037649   3.6087 356.5368 14.21057932 70521
CZ-6A DEB
1 63392U 24140ADP 26004.22758475  .00000776  00000-0  34884-3 0  9996
2 63392  89.0364 295.1374 0037526   0.4258 359.6958 14.21058758 70663
CZ-6A DEB
1 63392U 24140ADP 26005.07255836  .00000698  00000-0  31310-3 0  9997
2 63392  89.0364 295.0449 0037419 357.6798   2.4213 14.21059730 70783
CZ-6A DEB
1 63392U 24140ADP 26007.04416101  .00000584  00000-0  26125-3 0  9992
2 63392  89.0364 294.8289 0037161 351.2734   8.7806 14.21062165 71061
CZ-6A DEB
1 63392U 24140ADP 26008.02996130  .00000509  00000-0  22687-3 0  9992
2 63392  89.0364 294.7209 0037030 348.0422  11.9885 14.21063102 71206
CZ-6A DEB
1 63392U 24140ADP 26008.52286104  .00000601  00000-0  26868-3 0  9998
2 63392  89.0363 294.6670 0036962 346.4126  13.6066 14.21064257 71271
CZ-6A DEB
1 63392U 24140ADP 26009.50866026  .00000520  00000-0  23170-3 0  9997
2 63392  89.0363 294.5590 0036836 343.1584  16.8381 14.21065039 71413
CZ-6A DEB
1 63392U 24140ADP 26010.77611576  .00000474  00000-0  21052-3 0  9991
2 63392  89.0362 294.4203 0036689 338.9713  20.9967 14.21066168 71593
CZ-6A DEB
1 63392U 24140ADP 26011.05777248  .00000464  00000-0  20593-3 0  9990
2 63392  89.0362 294.3895 0036657 338.0490  21.9128 14.21066373 71630
CZ-6A DEB
1 63392U 24140ADP 26012.53646927  .00000412  00000-0  18250-3 0  9993
2 63392  89.0362 294.2275 0036477 333.1513  26.7789 14.21067557 71847
CZ-6A DEB
1 63392U 24140ADP 26013.02936819  .00000362  00000-0  15947-3 0  9994
2 63392  89.0363 294.1736 0036418 331.5169  28.4031 14.21067691 71919
CZ-6A DEB
1 63392U 24140ADP 26013.52226692  .00000336  00000-0  14738-3 0  9998
2 63392  89.0364 294.1197 0036351 329.8637  30.0462 14.21067960 71980
CZ-6A DEB
1 63392U 24140ADP 26014.22640783  .00000320  00000-0  14010-3 0  9993
2 63392  89.0364 294.0426 0036269 327.5062  32.3896 14.21068451 72083
CZ-6A DEB
1 63392U 24140ADP 26015.21220492  .00000303  00000-0  13229-3 0  9996
2 63392  89.0364 293.9347 0036155 324.1899  35.6868 14.21069066 72222
CZ-6A DEB
1 63392U 24140ADP 26015.77551743  .00000282  00000-0  12291-3 0  9997
2 63392  89.0364 293.8730 0036099 322.2830  37.5830 14.21069335 72306
CZ-6A DEB
1 63392U 24140ADP 26016.19800184  .00000317  00000-0  13882-3 0  9996
2 63392  89.0365 293.8268 0036059 320.8486  39.0097 14.21069756 72365
CZ-6A DEB
1 63392U 24140ADP 26016.47965806  .00000316  00000-0  13829-3 0  9990
2 63392  89.0365 293.7959 0036032 319.8999  39.9532 14.21069912 72401
CZ-6A DEB
1 63392U 24140ADP 26016.76131411  .00000347  00000-0  15252-3 0  9995
2 63392  89.0365 293.7651 0036003 318.9393  40.9088 14.21070305 72446
CZ-6A DEB
1 63392U 24140ADP 26017.18379834  .00000349  00000-0  15333-3 0  9997
2 63392  89.0365 293.7188 0035961 317.5150  42.3259 14.21070569 72504
CZ-6A DEB
1 63392U 24140ADP 26017.46545441  .00000365  00000-0  16066-3 0  9999
2 63392  89.0365 293.6880 0035934 316.5688  43.2672 14.21070838 72549
CZ-6A DEB
1 63392U 24140ADP 26018.02876669  .00000372  00000-0  16396-3 0  9995
2 63392  89.0365 293.6264 0035888 314.6890  45.1378 14.21071201 72625
CZ-6A DEB
1 63392U 24140ADP 26019.01456280  .00000379  00000-0  16734-3 0  9991
2 63392  89.0364 293.5184 0035783 311.3528  48.4586 14.21071867 72760
CZ-6A DEB
1 63392U 24140ADP 26023.02814831  .00000777  00000-0  34958-3 0  9997
2 63392  89.0360 293.0788 0035435 297.7127  62.0470 14.21079647 73339
CZ-6A DEB
1 63392U 24140ADP 26025.49262267  .00000737  00000-0  33115-3 0  9990
2 63392  89.0357 292.8088 0035306 289.2163  70.5209 14.21083852 73683
CZ-6A DEB
1 63392U 24140ADP 26025.70386314  .00000724  00000-0  32523-3 0  9992
2 63392  89.0356 292.7857 0035295 288.4984  71.2372 14.21084148 73716
CZ-6A DEB
1 63392U 24140ADP 26030.13990618  .00000591  00000-0  26455-3 0  9992
2 63392  89.0353 292.2996 0035107 273.1837  86.5337 14.21089697 74346
CZ-6A DEB
1 63392U 24140ADP 26030.98486575  .00000492  00000-0  21895-3 0  9990
2 63392  89.0352 292.2069 0035086 270.2627  89.4543 14.21090144 74460
CZ-6A DEB
1 63392U 24140ADP 26032.46354416  .00000446  00000-0  19782-3 0  9994
2 63392  89.0352 292.0451 0035118 265.0766  94.6415 14.21091508 74679
CZ-6A DEB
1 63392U 24140ADP 26034.15346088  .00000428  00000-0  18972-3 0  9998
2 63392  89.0351 291.8599 0035164 259.1886 100.5346 14.21093266 74916
CZ-6A DEB
1 63392U 24140ADP 26035.13924500  .00000446  00000-0  19794-3 0  9991
2 63392  89.0350 291.7519 0035208 255.7526 103.9754 14.21094393 75056
CZ-6A DEB
1 63392U 24140ADP 26036.68833411  .00000552  00000-0  24639-3 0  9994
2 63392  89.0340 291.5817 0035162 250.4175 109.3218 14.21096408 75273
CZ-6A DEB
1 63392U 24140ADP 26037.11081291  .00000492  00000-0  21906-3 0  9991
2 63392  89.0346 291.5356 0035216 249.0181 110.7241 14.21096428 75339
CZ-6A DEB
1 63392U 24140ADP 26039.15279217  .00000429  00000-0  18993-3 0  9996
2 63392  89.0339 291.3112 0035260 241.9323 117.8301 14.21098006 75628
CZ-6A DEB
1 63392U 24140ADP 26041.12435672  .00000378  00000-0  16655-3 0  9991
2 63392  89.0335 291.0949 0035375 235.1392 124.6471 14.21099539 75904
CZ-6A DEB
1 63392U 24140ADP 26041.68766063  .00000371  00000-0  16339-3 0  9995
2 63392  89.0335 291.0331 0035425 233.2189 126.5749 14.21099982 75987
CZ-6A DEB
1 63392U 24140ADP 26042.11013855  .00000370  00000-0  16304-3 0  9999
2 63392  89.0335 290.9867 0035452 231.7702 128.0296 14.21100310 76043
CZ-6A DEB
1 63392U 24140ADP 26045.13789561  .00000372  00000-0  16387-3 0  9991
2 63392  89.0332 290.6542 0035691 221.4333 138.4151 14.21102521 76476
CZ-6A DEB
1 63392U 24140ADP 26046.12367652  .00000345  00000-0  15170-3 0  9993
2 63392  89.0331 290.5461 0035781 218.0793 141.7869 14.21103047 76619
CZ-6A DEB
1 63392U 24140ADP 26046.96863101  .00000387  00000-0  17088-3 0  9991
2 63392  89.0330 290.4532 0035877 215.2296 144.6523 14.21103911 76731
CZ-6A DEB
1 63392U 24140ADP 26047.10945676  .00000389  00000-0  17142-3 0  9999
2 63392  89.0330 290.4378 0035896 214.7544 145.1302 14.21104030 76756
CZ-6A DEB
1 63392U 24140ADP 26048.09523687  .00000399  00000-0  17622-3 0  9996
2 63392  89.0330 290.3294 0035989 211.4315 148.4726 14.21104799 76898
CZ-6A DEB
1 63392U 24140ADP 26048.65853963  .00000339  00000-0  14867-3 0  9993
2 63392  89.0328 290.2675 0036054 209.5365 150.3790 14.21104880 76977
CZ-6A DEB
1 63392U 24140ADP 26050.91174976  .00000332  00000-0  14545-3 0  9991
2 63392  89.0323 290.0198 0036306 201.9593 158.0044 14.21106363 77290
CZ-6A DEB
1 63392U 24140ADP 26051.12298812  .00000331  00000-0  14476-3 0  9993
2 63392  89.0323 289.9966 0036330 201.2508 158.7176 14.21106515 77322
CZ-6A DEB
1 63392U 24140ADP 26051.40463931  .00000319  00000-0  13937-3 0  9997
2 63392  89.0321 289.9656 0036369 200.3104 159.6643 14.21106610 77369
CZ-6A DEB
1 63392U 24140ADP 26053.09454535  .00000298  00000-0  12967-3 0  9992
2 63392  89.0318 289.7798 0036590 194.6915 165.3216 14.21107692 77609
CZ-6A DEB
1 63392U 24140ADP 26054.08032323  .00000337  00000-0  14766-3 0  9992
2 63392  89.0316 289.6714 0036709 191.4424 168.5936 14.21108614 77740
CZ-6A DEB
1 63392U 24140ADP 26055.06610088  .00000318  00000-0  13906-3 0  9995
2 63392  89.0314 289.5628 0036845 188.1837 171.8758 14.21109151 77884
CZ-6A DEB
1 63392U 24140ADP 26056.12229087  .00000307  00000-0  13407-3 0  9992
2 63392  89.0312 289.4467 0036972 184.7110 175.3738 14.21109755 78034
CZ-6A DEB
1 63392U 24140ADP 26056.61517942  .00000323  00000-0  14103-3 0  9998
2 63392  89.0311 289.3922 0037058 183.0778 177.0190 14.21110128 78101
CZ-6A DEB
1 63392U 24140ADP 26058.37549428  .00000370  00000-0  16266-3 0  9991
2 63392  89.0309 289.1984 0037304 177.3201 182.8197 14.21111591 78358
CZ-6A DEB
1 63392U 24140ADP 26058.37549429  .00000370  00000-0  16266-3 0  9992
2 63392  89.0309 289.1985 0037304 177.3201 182.8197 14.21111591 78359
CZ-6A DEB
1 63392U 24140ADP 26059.07961984  .00000370  00000-0  16286-3 0  9996
2 63392  89.0307 289.1209 0037401 175.0225 185.1346 14.21112112 78458
CZ-6A DEB
1 63392U 24140ADP 26059.07961984  .00000370  00000-0  16286-3 0  9996
2 63392  89.0307 289.1209 0037401 175.0225 185.1346 14.21112112 78458
CZ-6A DEB
1 63392U 24140ADP 26060.62869507  .00000401  00000-0  17683-3 0  9994
2 63392  89.0305 288.9502 0037598 170.0187 190.1759 14.21113391 78676
CZ-6A DEB
1 63392U 24140ADP 26060.62869508  .00000401  00000-0  17683-3 0  9995
2 63392  89.0305 288.9502 0037598 170.0187 190.1759 14.21113391 78676
CZ-6A DEB
1 63392U 24140ADP 26064.92385012  .00000418  00000-0  18433-3 0  9997
2 63392  89.0296 288.4768 0038171 156.2843 204.0118 14.21116909 79287
CZ-6A DEB
1 63392U 24140ADP 26067.59951379  .00000453  00000-0  20058-3 0  9993
2 63392  89.0295 288.1821 0038467 147.9146 212.4398 14.21119473 79668
CZ-6A DEB
1 63392U 24140ADP 26068.58528344  .00000425  00000-0  18757-3 0  9997
2 63392  89.0295 288.0737 0038542 144.7067 215.6687 14.21120184 79807
CZ-6A DEB
1 63392U 24140ADP 26068.58528344  .00000425  00000-0  18757-3 0  9997
2 63392  89.0295 288.0737 0038542 144.7067 215.6687 14.21120184 79807
CZ-6A DEB
1 63392U 24140ADP 26069.57105227  .00000425  00000-0  18741-3 0  9991
2 63392  89.0296 287.9650 0038721 141.5208 218.8756 14.21121054 79945
CZ-6A DEB
1 63392U 24140ADP 26069.57105227  .00000425  00000-0  18741-3 0  9991
2 63392  89.0296 287.9651 0038721 141.5208 218.8756 14.21121054 79946
CZ-6A DEB
1 63392U 24140ADP 26071.61299983  .00000426  00000-0  18808-3 0  9997
2 63392  89.0296 287.7401 0038934 135.1088 225.3263 14.21122782 80237
CZ-6A DEB
1 63392U 24140ADP 26071.61299983  .00000426  00000-0  18808-3 0  9997
2 63392  89.0296 287.7401 0038934 135.1088 225.3263 14.21122782 80237
CZ-6A DEB
1 63392U 24140ADP 26074.07741496  .00000405  00000-0  17838-3 0  9990
2 63392  89.0290 287.4678 0039069 127.5190 232.9562 14.21124633 80584
CZ-6A DEB
1 63392U 24140ADP 26074.85194451  .00000361  00000-0  15839-3 0  9999
2 63392  89.0290 287.3830 0039047 125.1824 235.3034 14.21124977 80691
CZ-6A DEB
1 63392U 24140ADP 26075.83770888  .00000364  00000-0  15950-3 0  9999
2 63392  89.0287 287.2737 0039153 122.0984 238.4018 14.21125714 80835
CZ-6A DEB
1 63392U 24140ADP 26075.83770888  .00000364  00000-0  15950-3 0  9999
2 63392  89.0287 287.2737 0039153 122.0984 238.4018 14.21125714 80835
CZ-6A DEB
1 63392U 24140ADP 26076.54182590  .00000366  00000-0  16041-3 0  9999
2 63392  89.0285 287.1959 0039204 119.9174 240.5920 14.21126251 80935
CZ-6A DEB
1 63392U 24140ADP 26077.31635411  .00000372  00000-0  16306-3 0  9991
2 63392  89.0284 287.1104 0039285 117.5121 243.0071 14.21126867 81042
CZ-6A DEB
1 63392U 24140ADP 26077.31635411  .00000372  00000-0  16306-3 0  9991
2 63392  89.0284 287.1105 0039285 117.5121 243.0071 14.21126867 81043
CZ-6A DEB
1 63392U 24140ADP 26078.02047024  .00000347  00000-0  15168-3 0  9994
2 63392  89.0283 287.0327 0039327 115.3435 245.1837 14.21127293 81146
CZ-6A DEB
1 63392U 24140ADP 26078.51335146  .00000329  00000-0  14372-3 0  9999
2 63392  89.0281 286.9784 0039357 113.8256 246.7068 14.21127528 81218
CZ-6A DEB
1 63392U 24140ADP 26081.32981217  .00000360  00000-0  15779-3 0  9995
2 63392  89.0276 286.6670 0039521 105.1545 255.4022 14.21129440 81617
CZ-6A DEB
1 63392U 24140ADP 26082.52680594  .00000355  00000-0  15542-3 0  9994
2 63392  89.0274 286.5346 0039564 101.4982 259.0656 14.21130268 81786
CZ-6A DEB
1 63392U 24140ADP 26082.80845134  .00000354  00000-0  15480-3 0  9998
2 63392  89.0274 286.5035 0039565 100.6438 259.9212 14.21130455 81829
CZ-6A DEB
1 63392U 24140ADP 26083.51256465  .00000351  00000-0  15353-3 0  9996
2 63392  89.0272 286.4256 0039590  98.4892 262.0789 14.21130974 81928
CZ-6A DEB
1 63392U 24140ADP 26083.51256465  .00000351  00000-0  15353-3 0  9996
2 63392  89.0272 286.4256 0039590  98.4892 262.0789 14.21130974 81928
CZ-6A DEB
1 63392U 24140ADP 26084.28708892  .00000359  00000-0  15716-3 0  9998
2 63392  89.0270 286.3399 0039627  96.1413 264.4295 14.21131575 82037
CZ-6A DEB
1 63392U 24140ADP 26086.04736930  .00000377  00000-0  16548-3 0  9992
2 63392  89.0269 286.1451 0039628  90.7500 269.8232 14.21133034 82289
CZ-6A DEB
1 63392U 24140ADP 26086.04736930  .00000377  00000-0  16548-3 0  9992
2 63392  89.0269 286.1451 0039628  90.7500 269.8232 14.21133034 82289
CZ-6A DEB
1 63392U 24140ADP 26086.54024737  .00000363  00000-0  15927-3 0  9997
2 63392  89.0269 286.0906 0039624  89.2346 271.3384 14.21133335 82358
CZ-6A DEB
1 63392U 24140ADP 26086.54024737  .00000363  00000-0  15927-3 0  9997
2 63392  89.0269 286.0906 0039624  89.2346 271.3385 14.21133335 82359
CZ-6A DEB
1 63392U 24140ADP 26087.52600293  .00000403  00000-0  17740-3 0  9993
2 63392  89.0268 285.9817 0039623  86.1979 274.3741 14.21134289 82497
CZ-6A DEB
1 63392U 24140ADP 26087.52600293  .00000403  00000-0  17740-3 0  9993
2 63392  89.0268 285.9817 0039623  86.1979 274.3741 14.21134289 82497
CZ-6A DEB
1 63392U 24140ADP 26087.80764713  .00000406  00000-0  17875-3 0  9994
2 63392  89.0269 285.9505 0039615  85.3399 275.2315 14.21134522 82532
CZ-6A DEB
1 63392U 24140ADP 26087.80764713  .00000406  00000-0  17875-3 0  9994
2 63392  89.0269 285.9505 0039615  85.3399 275.2315 14.21134522 82532
CZ-6A DEB
1 63392U 24140ADP 26088.30052442  .00000467  00000-0  20670-3 0  9993
2 63392  89.0269 285.8961 0039610  83.8350 276.7351 14.21135240 82604
CZ-6A DEB
1 63392U 24140ADP 26092.80682008  .00000453  00000-0  20042-3 0  9998
2 63392  89.0268 285.3981 0039474  69.9906 290.5528 14.21139358 83245
CZ-6A DEB
1 63392U 24140ADP 26092.80682009  .00000453  00000-0  20042-3 0  9999
2 63392  89.0268 285.3982 0039474  69.9906 290.5528 14.21139358 83246
CZ-6A DEB
1 63392U 24140ADP 26093.51092677  .00000587  00000-0  26151-3 0  9999
2 63392  89.0267 285.3201 0039441  67.8295 292.7073 14.21140866 83347
CZ-6A DEB
1 63392U 24140ADP 26093.51092677  .00000587  00000-0  26151-3 0  9999
2 63392  89.0267 285.3201 0039441  67.8295 292.7073 14.21140866 83347
CZ-6A DEB
1 63392U 24140ADP 26097.94678852  .00000395  00000-0  17387-3 0  9993
2 63392  89.0271 284.8298 0039169  54.2890 306.1935 14.21144557 83977
CZ-6A DEB
1 63392U 24140ADP 26097.94678852  .00000395  00000-0  17387-3 0  9993
2 63392  89.0271 284.8298 0039169  54.2890 306.1935 14.21144557 83977
CZ-6A DEB
1 63392U 24140ADP 26098.22842994  .00000385  00000-0  16928-3 0  9994
2 63392  89.0270 284.7985 0039138  53.3891 307.0889 14.21144778 84014
CZ-6A DEB
1 63392U 24140ADP 26099.00294382  .00000402  00000-0  17680-3 0  9999
2 63392  89.0270 284.7129 0039071  50.9821 309.4838 14.21145517 84120
CZ-6A DEB
1 63392U 24140ADP 26099.00294383  .00000402  00000-0  17680-3 0  9990
2 63392  89.0270 284.7129 0039071  50.9821 309.4838 14.21145517 84120
CZ-6A DEB
1 63392U 24140ADP 26099.98868802  .00000389  00000-0  17117-3 0  9999
2 63392  89.0271 284.6038 0038982  47.9110 312.5384 14.21146257 84264
CZ-6A DEB
1 63392U 24140ADP 26099.98868802  .00000389  00000-0  17117-3 0  9999
2 63392  89.0271 284.6038 0038982  47.9110 312.5384 14.21146257 84264
CZ-6A DEB
1 63392U 24140ADP 26100.48155979  .00000402  00000-0  17714-3 0  9990
2 63392  89.0271 284.5493 0038937  46.3559 314.0849 14.21146732 84337
CZ-6A DEB
1 63392U 24140ADP 26100.48155980  .00000402  00000-0  17714-3 0  9992
2 63392  89.0271 284.5493 0038937  46.3559 314.0849 14.21146732 84337
CZ-6A DEB
1 63392U 24140ADP 26101.25607249  .00000347  00000-0  15177-3 0  9997
2 63392  89.0270 284.4635 0038862  43.9453 316.4817 14.21146966 84448
CZ-6A DEB
1 63392U 24140ADP 26101.46730307  .00000344  00000-0  15048-3 0  9996
2 63392  89.0270 284.4402 0038839  43.2672 317.1558 14.21147133 84470
CZ-6A DEB
1 63392U 24140ADP 26101.46730307  .00000344  00000-0  15048-3 0  9996
2 63392  89.0270 284.4402 0038839  43.2672 317.1558 14.21147133 84470
CZ-6A DEB
1 63392U 24140ADP 26102.24181529  .00000322  00000-0  14073-3 0  9992
2 63392  89.0270 284.3545 0038754  40.8539 319.5545 14.21147527 84589
CZ-6A DEB
1 63392U 24140ADP 26102.24181530  .00000322  00000-0  14073-3 0  9994
2 63392  89.0270 284.3545 0038754  40.8539 319.5545 14.21147527 84589
CZ-6A DEB
1 63392U 24140ADP 26103.22755787  .00000305  00000-0  13265-3 0  9997
2 63392  89.0267 284.2451 0038652  37.7561 322.6330 14.21148005 84722
CZ-6A DEB
1 63392U 24140ADP 26103.22755788  .00000305  00000-0  13265-3 0  9998
2 63392  89.0267 284.2451 0038652  37.7561 322.6330 14.21148005 84722
CZ-6A DEB
1 63392U 24140ADP 26105.19904116  .00000259  00000-0  11197-3 0  9997
2 63392  89.0265 284.0268 0038422  31.5497 328.7986 14.21148910 85000
CZ-6A DEB
1 63392U 24140ADP 26105.48068147  .00000260  00000-0  11229-3 0  9992
2 63392  89.0265 283.9956 0038395  30.6608 329.6815 14.21149088 85047
CZ-6A DEB
1 63392U 24140ADP 26105.48068147  .00000260  00000-0  11229-3 0  9992
2 63392  89.0265 283.9956 0038395  30.6608 329.6815 14.21149089 85048
CZ-6A DEB
1 63392U 24140ADP 26106.74806269  .00000257  00000-0  11096-3 0  9995
2 63392  89.0270 283.8557 0038253  26.6554 333.6592 14.21149635 85222
CZ-6A DEB
1 63392U 24140ADP 26106.74806269  .00000257  00000-0  11096-3 0  9995
2 63392  89.0270 283.8557 0038253  26.6554 333.6592 14.21149635 85222
CZ-6A DEB
1 63392U 24140ADP 26107.45216307  .00000260  00000-0  11222-3 0  9997
2 63392  89.0271 283.7779 0038160  24.4205 335.8783 14.21149978 85321
CZ-6A DEB
1 63392U 24140ADP 26108.93077301  .00000260  00000-0  11227-3 0  9995
2 63392  89.0271 283.6143 0037968  19.7229 340.5420 14.21150699 85539
CZ-6A DEB
1 63392U 24140ADP 26108.93077302  .00000260  00000-0  11227-3 0  9996
2 63392  89.0271 283.6144 0037968  19.7229 340.5420 14.21150699 85530
CZ-6A DEB
1 63392U 24140ADP 26108.93077302  .00000260  00000-0  11227-3 0  9996
2 63392  89.0271 283.6144 0037968  19.7229 340.5420 14.21150699 85530
CZ-6A DEB
1 63392U 24140ADP 26114.42274528  .00000301  00000-0  13129-3 0  9995
2 63392  89.0274 283.0068 0037254   2.0402 358.0934 14.21153607 86311
CZ-6A DEB
1 63392U 24140ADP 26114.70438446  .00000310  00000-0  13518-3 0  9999
2 63392  89.0274 282.9756 0037211   1.1203 359.0064 14.21153817 86357
CZ-6A DEB
1 63392U 24140ADP 26115.19725294  .00000340  00000-0  14904-3 0  9996
2 63392  89.0273 282.9209 0037115 359.4919   0.6228 14.21154278 86426
CZ-6A DEB
1 63392U 24140ADP 26115.40848227  .00000339  00000-0  14863-3 0  9994
2 63392  89.0273 282.8975 0037091 358.7973   1.3122 14.21154423 86456
CZ-6A DEB
1 63392U 24140ADP 26115.40848227  .00000339  00000-0  14863-3 0  9994
2 63392  89.0273 282.8975 0037091 358.7973   1.3122 14.21154423 86456
CZ-6A DEB
1 63392U 24140ADP 26116.46462872  .00000369  00000-0  16230-3 0  9992
2 63392  89.0276 282.7810 0036967 355.3446   4.7396 14.21155253 86604
CZ-6A DEB
1 63392U 24140ADP 26116.46462872  .00000369  00000-0  16230-3 0  9992
2 63392  89.0276 282.7810 0036967 355.3446   4.7396 14.21155253 86604
CZ-6A DEB
1 63392U 24140ADP 26116.88708721  .00000357  00000-0  15694-3 0  9994
2 63392  89.0276 282.7343 0036913 353.9530   6.1210 14.21155436 86664
CZ-6A DEB
1 63392U 24140ADP 26116.88708722  .00000357  00000-0  15694-3 0  9995
2 63392  89.0276 282.7343 0036913 353.9530   6.1210 14.21155436 86664
CZ-6A DEB
1 63392U 24140ADP 26117.45036493  .00000364  00000-0  16021-3 0  9991
2 63392  89.0276 282.6719 0036843 352.0944   7.9661 14.21155870 86741
CZ-6A DEB
1 63392U 24140ADP 26117.73200369  .00000366  00000-0  16093-3 0  9998
2 63392  89.0275 282.6406 0036797 351.1565   8.8973 14.21156075 86788
CZ-6A DEB
1 63392U 24140ADP 26117.87282302  .00000386  00000-0  16985-3 0  9992
2 63392  89.0275 282.6251 0036782 350.6944   9.3560 14.21156309 86806
CZ-6A DEB
1 63392U 24140ADP 26117.87282303  .00000386  00000-0  16985-3 0  9993
2 63392  89.0275 282.6251 0036782 350.6944   9.3560 14.21156309 86806
CZ-6A DEB
1 63392U 24140ADP 26118.71773920  .00000384  00000-0  16897-3 0  9997
2 63392  89.0275 282.5317 0036676 347.9096  12.1211 14.21156898 86928
CZ-6A DEB
1 63392U 24140ADP 26118.71773921  .00000384  00000-0  16897-3 0  9998
2 63392  89.0275 282.5317 0036676 347.9096  12.1211 14.21156898 86928
CZ-6A DEB
1 63392U 24140ADP 26119.42183579  .00000378  00000-0  16638-3 0  9997
2 63392  89.0274 282.4538 0036594 345.6010  14.4135 14.21157411 87025
CZ-6A DEB
1 63392U 24140ADP 26119.42183579  .00000378  00000-0  16638-3 0  9997
2 63392  89.0274 282.4538 0036594 345.6010  14.4135 14.21157411 87025
CZ-6A DEB
1 63392U 24140ADP 26120.90043777  .00000363  00000-0  15946-3 0  9992
2 63392  89.0275 282.2903 0036399 340.6975  19.2835 14.21158463 87239
CZ-6A DEB
1 63392U 24140ADP 26120.90043777  .00000363  00000-0  15946-3 0  9992
2 63392  89.0275 282.2903 0036399 340.6975  19.2835 14.21158463 87239
CZ-6A DEB
1 63392U 24140ADP 26121.39330471  .00000391  00000-0  17218-3 0  9991
2 63392  89.0279 282.2361 0036330 339.0424  20.9275 14.21159041 87305
CZ-6A DEB
1 63392U 24140ADP 26121.39330472  .00000391  00000-0  17218-3 0  9992
2 63392  89.0279 282.2361 0036330 339.0424  20.9275 14.21159041 87305
CZ-6A DEB
1 63392U 24140ADP 26123.43518169  .00000362  00000-0  15907-3 0  9991
2 63392  89.0282 282.0105 0036092 332.1823  27.7437 14.21160414 87597
CZ-6A DEB
1 63392U 24140ADP 26123.43518169  .00000362  00000-0  15907-3 0  9991
2 63392  89.0282 282.0105 0036092 332.1823  27.7437 14.21160414 87597
CZ-6A DEB
1 63392U 24140ADP 26124.42091495  .00000328  00000-0  14384-3 0  9999
2 63392  89.0282 281.9014 0035986 328.8595  31.0462 14.21160924 87731
CZ-6A DEB
1 63392U 24140ADP 26124.42091496  .00000328  00000-0  14384-3 0  9990
2 63392  89.0282 281.9014 0035986 328.8595  31.0462 14.21160924 87731
CZ-6A DEB
1 63392U 24140ADP 26125.40664759  .00000383  00000-0  16893-3 0  9995
2 63392  89.0283 281.7925 0035876 325.5638  34.3228 14.21162000 87879
CZ-6A DEB
1 63392U 24140ADP 26125.40664760  .00000383  00000-0  16893-3 0  9997
2 63392  89.0283 281.7925 0035876 325.5638  34.3228 14.21162000 87879
CZ-6A DEB
1 63392U 24140ADP 26126.88524638  .00000343  00000-0  15058-3 0  9997
2 63392  89.0289 281.6296 0035707 320.5716  39.2877 14.21162823 88081
CZ-6A DEB
1 63392U 24140ADP 26126.88524638  .00000343  00000-0  15058-3 0  9997
2 63392  89.0289 281.6296 0035707 320.5716  39.2877 14.21162823 88081
CZ-6A DEB
1 63392U 24140ADP 26127.87097861  .00000329  00000-0  14415-3 0  9990
2 63392  89.0290 281.5208 0035615 317.1716  42.6701 14.21163391 88226
CZ-6A DEB
1 63392U 24140ADP 26127.87097862  .00000329  00000-0  14415-3 0  9991
2 63392  89.0290 281.5208 0035615 317.1716  42.6701 14.21163391 88226
CZ-6A DEB
1 63392U 24140ADP 26128.85671056  .00000322  00000-0  14079-3 0  9992
2 63392  89.0290 281.4118 0035535 313.8086  46.0167 14.21163995 88368
CZ-6A DEB
1 63392U 24140ADP 26128.85671056  .00000322  00000-0  14079-3 0  9992
2 63392  89.0290 281.4118 0035535 313.8086  46.0167 14.21163995 88368
CZ-6A DEB
1 63392U 24140ADP 26129.13834825  .00000310  00000-0  13565-3 0  9995
2 63392  89.0289 281.3805 0035517 312.8416  46.9791 14.21164089 88406
CZ-6A DEB
1 63392U 24140ADP 26129.13834826  .00000310  00000-0  13565-3 0  9996
2 63392  89.0289 281.3805 0035517 312.8416  46.9791 14.21164089 88406
CZ-6A DEB
1 63392U 24140ADP 26129.41998605  .00000305  00000-0  13299-3 0  9991
2 63392  89.0290 281.3494 0035491 311.9394  47.8772 14.21164230 88449
CZ-6A DEB
1 63392U 24140ADP 26129.70162366  .00000293  00000-0  12773-3 0  9992
2 63392  89.0290 281.3182 0035468 310.9589  48.8533 14.21164328 88480
CZ-6A DEB
1 63392U 24140ADP 26129.70162366  .00000293  00000-0  12773-3 0  9992
2 63392  89.0290 281.3182 0035468 310.9589  48.8533 14.21164328 88480
CZ-6A DEB
1 63392U 24140ADP 26130.40571771  .00000280  00000-0  12190-3 0  9994
2 63392  89.0292 281.2406 0035411 308.5329  51.2689 14.21164679 88583
CZ-6A DEB
1 63392U 24140ADP 26130.68735534  .00000279  00000-0  12129-3 0  9993
2 63392  89.0291 281.2094 0035390 307.5891  52.2087 14.21164816 88625
CZ-6A DEB
1 63392U 24140ADP 26130.89858353  .00000274  00000-0  11880-3 0  9999
2 63392  89.0292 281.1862 0035372 306.8484  52.9464 14.21164909 88650
CZ-6A DEB
1 63392U 24140ADP 26130.89858354  .00000274  00000-0  11880-3 0  9990
2 63392  89.0292 281.1862 0035372 306.8484  52.9464 14.21164909 88650
CZ-6A DEB
1 63392U 24140ADP 26131.39144933  .00000264  00000-0  11439-3 0  9996
2 63392  89.0293 281.1318 0035334 305.1549  54.6333 14.21165127 88724
CZ-6A DEB
1 63392U 24140ADP 26131.39144933  .00000264  00000-0  11439-3 0  9996
2 63392  89.0293 281.1318 0035334 305.1549  54.6333 14.21165127 88724
CZ-6A DEB
1 63392U 24140ADP 26131.67308692  .00000258  00000-0  11156-3 0  9990
2 63392  89.0294 281.1009 0035303 304.1645  55.6200 14.21165215 88760
CZ-6A DEB
1 63392U 24140ADP 26131.67308693  .00000258  00000-0  11156-3 0  9991
2 63392  89.0294 281.1009 0035303 304.1645  55.6200 14.21165215 88760
CZ-6A DEB
1 63392U 24140ADP 26132.65881840  .00000253  00000-0  10957-3 0  9993
2 63392  89.0295 280.9920 0035228 300.7759  58.9965 14.21165715 88909
CZ-6A DEB
1 63392U 24140ADP 26132.65881841  .00000253  00000-0  10957-3 0  9994
2 63392  89.0295 280.9921 0035228 300.7759  58.9965 14.21165715 88900
CZ-6A DEB
1 63392U 24140ADP 26133.36291228  .00000244  00000-0  10538-3 0  9992
2 63392  89.0295 280.9144 0035173 298.3303  61.4341 14.21166032 89005
CZ-6A DEB
1 63392U 24140ADP 26133.36291229  .00000244  00000-0  10538-3 0  9993
2 63392  89.0295 280.9144 0035173 298.3303  61.4341 14.21166032 89005
CZ-6A DEB
1 63392U 24140ADP 26134.41905301  .00000243  00000-0  10478-3 0  9995
2 63392  89.0296 280.7978 0035134 294.6577  65.0957 14.21166534 89154
CZ-6A DEB
1 63392U 24140ADP 26135.82724061  .00000223  00000-0  95656-4 0  9993
2 63392  89.0298 280.6426 0035089 289.7682  69.9726 14.21167040 89356
CZ-6A DEB
1 63392U 24140ADP 26136.67215308  .00000226  00000-0  97224-4 0  9992
2 63392  89.0300 280.5494 0035062 286.8521  72.8826 14.21167424 89478
CZ-6A DEB
1 63392U 24140ADP 26136.67215309  .00000226  00000-0  97224-4 0  9993
2 63392  89.0300 280.5494 0035062 286.8521  72.8826 14.21167425 89479
CZ-6A DEB
1 63392U 24140ADP 26137.65788443  .00000222  00000-0  95358-4 0  9998
2 63392  89.0302 280.4408 0035046 283.4143  76.3142 14.21167778 89617
CZ-6A DEB
1 63392U 24140ADP 26137.65788444  .00000222  00000-0  95358-4 0  9999
2 63392  89.0302 280.4408 0035046 283.4143  76.3142 14.21167778 89617
CZ-6A DEB
1 63392U 24140ADP 26138.36197822  .00000228  00000-0  98006-4 0  9991
2 63392  89.0302 280.3631 0035014 280.9835  78.7418 14.21168109 89711
CZ-6A DEB
1 63392U 24140ADP 26138.36197822  .00000228  00000-0  98006-4 0  9991
2 63392  89.0302 280.3631 0035014 280.9834  78.7418 14.21168109 89710
CZ-6A DEB
1 63392U 24140ADP 26139.13648132  .00000229  00000-0  98373-4 0  9990
2 63392  89.0301 280.2775 0034985 278.3077  81.4147 14.21168420 89821
CZ-6A DEB
1 63392U 24140ADP 26139.13648133  .00000229  00000-0  98373-4 0  9991
2 63392  89.0301 280.2775 0034985 278.3077  81.4147 14.21168420 89821
CZ-6A DEB
1 63392U 24140ADP 26139.34770941  .00000230  00000-0  98864-4 0  9994
2 63392  89.0301 280.2542 0034985 277.5755  82.1462 14.21168539 89859
CZ-6A DEB
1 63392U 24140ADP 26139.34770942  .00000230  00000-0  98864-4 0  9995
2 63392  89.0301 280.2542 0034985 277.5755  82.1462 14.21168539 89859
CZ-6A DEB
1 63392U 24140ADP 26140.12221242  .00000245  00000-0  10552-3 0  9990
2 63392  89.0302 280.1687 0034972 274.8865  84.8333 14.21168947 89968
CZ-6A DEB
1 63392U 24140ADP 26140.12221243  .00000245  00000-0  10552-3 0  9991
2 63392  89.0302 280.1687 0034972 274.8865  84.8333 14.21168947 89968
CZ-6A DEB
1 63392U 24140ADP 26140.33344051  .00000243  00000-0  10469-3 0  9992
2 63392  89.0302 280.1454 0034972 274.1571  85.5623 14.21169047 89992
CZ-6A DEB
1 63392U 24140ADP 26140.33344051  .00000243  00000-0  10469-3 0  9992
2 63392  89.0302 280.1454 0034972 274.1571  85.5623 14.21169047 89992
CZ-6A DEB
1 63392U 24140ADP 26140.82630605  .00000245  00000-0  10576-3 0  9990
2 63392  89.0303 280.0911 0034977 272.4381  87.2806 14.21169277 90062
CZ-6A DEB
1 63392U 24140ADP 26141.67121829  .00000244  00000-0  10528-3 0  9993
2 63392  89.0305 279.9979 0034989 269.5022  90.2159 14.21169662 90183
CZ-6A DEB
1 63392U 24140ADP 26141.81203699  .00000261  00000-0  11290-3 0  9991
2 63392  89.0305 279.9824 0034992 269.0138  90.7043 14.21169823 90208
CZ-6A DEB
1 63392U 24140ADP 26141.81203700  .00000261  00000-0  11290-3 0  9994
2 63392  89.0305 279.9824 0034992 269.0138  90.7043 14.21169823 90208
CZ-6A DEB
1 63392U 24140ADP 26142.65694917  .00000265  00000-0  11465-3 0  9999
2 63392  89.0306 279.8893 0035003 266.0997  93.6192 14.21170251 90325
CZ-6A DEB
1 63392U 24140ADP 26142.65694917  .00000265  00000-0  11465-3 0  9999
2 63392  89.0306 279.8893 0035003 266.0996  93.6192 14.21170251 90324
CZ-6A DEB
1 63392U 24140ADP 26143.36104263  .00000278  00000-0  12092-3 0  9999
2 63392  89.0307 279.8117 0035006 263.6716  96.0487 14.21170692 90424
CZ-6A DEB
1 63392U 24140ADP 26144.34677336  .00000289  00000-0  12563-3 0  9999
2 63392  89.0308 279.7031 0035022 260.2545  99.4690 14.21171254 90563
CZ-6A DEB
1 63392U 24140ADP 26145.33250388  .00000318  00000-0  13923-3 0  9997
2 63392  89.0310 279.5944 0035038 256.8333 102.8947 14.21171980 90706
CZ-6A DEB
1 63392U 24140ADP 26145.33250388  .00000318  00000-0  13923-3 0  9997
2 63392  89.0310 279.5944 0035038 256.8333 102.8947 14.21171980 90706
CZ-6A DEB
1 63392U 24140ADP 26146.10700616  .00000322  00000-0  14096-3 0  9994
2 63392  89.0311 279.5090 0035061 254.1452 105.5873 14.21172491 90816
CZ-6A DEB
1 63392U 24140ADP 26148.78255795  .00000401  00000-0  17693-3 0  9997
2 63392  89.0313 279.2143 0035237 244.9211 114.8321 14.21174854 91197
CZ-6A DEB
1 63392U 24140ADP 26149.34583172  .00000407  00000-0  17995-3 0  9994
2 63392  89.0313 279.1523 0035270 242.9895 116.7693 14.21175339 91272
CZ-6A DEB
1 63392U 24140ADP 26149.34583173  .00000407  00000-0  17995-3 0  9995
2 63392  89.0313 279.1523 0035270 242.9895 116.7693 14.21175339 91272
CZ-6A DEB
1 63392U 24140ADP 26150.33156045  .00000453  00000-0  20085-3 0  9995
2 63392  89.0315 279.0437 0035333 239.5999 120.1698 14.21176411 91416
CZ-6A DEB
1 63392U 24140ADP 26150.61319728  .00000446  00000-0  19757-3 0  9991
2 63392  89.0316 279.0127 0035356 238.6273 121.1457 14.21176560 91456
CZ-6A DEB
1 63392U 24140ADP 26150.61319729  .00000446  00000-0  19757-3 0  9992
2 63392  89.0316 279.0127 0035356 238.6273 121.1457 14.21176560 91456
CZ-6A DEB
1 63392U 24140ADP 26151.31728881  .00000474  00000-0  21032-3 0  9993
2 63392  89.0317 278.9352 0035410 236.2076 123.5741 14.21177380 91555
CZ-6A DEB
1 63392U 24140ADP 26152.30301703  .00000419  00000-0  18541-3 0  9993
2 63392  89.0318 278.8267 0035500 232.8260 126.9688 14.21177896 91691
CZ-6A DEB
1 63392U 24140ADP 26154.62651713  .00000437  00000-0  19346-3 0  9993
2 63392  89.0322 278.5711 0035728 224.9202 134.9097 14.21180067 92022
CZ-6A DEB
1 63392U 24140ADP 26154.62651714  .00000437  00000-0  19346-3 0  9994
2 63392  89.0322 278.5711 0035728 224.9202 134.9097 14.21180067 92022
CZ-6A DEB
1 63392U 24140ADP 26155.61224388  .00000460  00000-0  20370-3 0  9992
2 63392  89.0323 278.4627 0035828 221.5862 138.2603 14.21181027 92166
CZ-6A DEB
1 63392U 24140ADP 26156.59797029  .00000426  00000-0  18841-3 0  9999
2 63392  89.0324 278.3542 0035935 218.2532 141.6109 14.21181664 92300
CZ-6A DEB
1 63392U 24140ADP 26156.59797030  .00000426  00000-0  18841-3 0  9991
2 63392  89.0324 278.3542 0035935 218.2532 141.6109 14.21181664 92300
CZ-6A DEB
1 63392U 24140ADP 26158.07655906  .00000409  00000-0  18052-3 0  9996
2 63392  89.0324 278.1916 0036119 213.2654 146.6267 14.21182820 92516
CZ-6A DEB
1 63392U 24140ADP 26158.07655907  .00000409  00000-0  18052-3 0  9997
2 63392  89.0324 278.1916 0036119 213.2654 146.6267 14.21182820 92516
CZ-6A DEB
1 63392U 24140ADP 26158.56942196  .00000451  00000-0  19962-3 0  9998
2 63392  89.0324 278.1373 0036176 211.6061 148.2957 14.21183412 92589
CZ-6A DEB
1 63392U 24140ADP 26158.56942196  .00000451  00000-0  19962-3 0  9998
2 63392  89.0324 278.1373 0036176 211.6061 148.2957 14.21183412 92589
CZ-6A DEB
1 63392U 24140ADP 26160.04800963  .00000337  00000-0  14774-3 0  9998
2 63392  89.0325 277.9747 0036371 206.6700 153.2621 14.21184027 92793
CZ-6A DEB
1 63392U 24140ADP 26160.04800963  .00000337  00000-0  14774-3 0  9998
2 63392  89.0325 277.9747 0036371 206.6700 153.2621 14.21184027 92793
CZ-6A DEB
1 63392U 24140ADP 26160.32964535  .00000336  00000-0  14703-3 0  9996
2 63392  89.0325 277.9438 0036400 205.7291 154.2090 14.21184241 92832
CZ-6A DEB
1 63392U 24140ADP 26160.32964535  .00000336  00000-0  14703-3 0  9996
2 63392  89.0325 277.9438 0036400 205.7291 154.2090 14.21184241 92832
CZ-6A DEB
1 63392U 24140ADP 26161.03373436  .00000329  00000-0  14366-3 0  9996
2 63392  89.0326 277.8663 0036491 203.3883 156.5649 14.21184737 92939
CZ-6A DEB
1 63392U 24140ADP 26161.03373437  .00000329  00000-0  14366-3 0  9997
2 63392  89.0326 277.8663 0036491 203.3883 156.5649 14.21184737 92939
CZ-6A DEB
1 63392U 24140ADP 26162.58272987  .00000322  00000-0  14052-3 0  9991
2 63392  89.0327 277.6961 0036680 198.2494 161.7383 14.21185769 93153
CZ-6A DEB
1 63392U 24140ADP 26162.58272988  .00000322  00000-0  14052-3 0  9992
2 63392  89.0327 277.6961 0036680 198.2494 161.7383 14.21185769 93153
CZ-6A DEB
1 63392U 24140ADP 26162.79395646  .00000311  00000-0  13550-3 0  9992
2 63392  89.0327 277.6728 0036709 197.5523 162.4402 14.21185868 93184
CZ-6A DEB
1 63392U 24140ADP 26165.61030924  .00000325  00000-0  14183-3 0  9999
2 63392  89.0329 277.3634 0037109 188.2942 171.7640 14.21187843 93582
CZ-6A DEB
1 63392U 24140ADP 26165.61030924  .00000325  00000-0  14183-3 0  9999
2 63392  89.0329 277.3634 0037109 188.2942 171.7640 14.21187843 93582
CZ-6A DEB
1 63392U 24140ADP 26166.03276191  .00000323  00000-0  14093-3 0  9992
2 63392  89.0329 277.3168 0037153 186.9151 173.1532 14.21188108 93648
CZ-6A DEB
1 63392U 24140ADP 26166.31439705  .00000312  00000-0  13595-3 0  9999
2 63392  89.0329 277.2859 0037191 185.9980 174.0771 14.21188229 93688
CZ-6A DEB
1 63392U 24140ADP 26166.31439705  .00000312  00000-0  13595-3 0  9999
2 63392  89.0329 277.2859 0037191 185.9980 174.0771 14.21188229 93688
CZ-6A DEB
1 63392U 24140ADP 26166.31439705  .00000312  00000-0  13595-3 0  9999
2 63392  89.0329 277.2859 0037191 185.9980 174.0771 14.21188229 93688
CZ-6A DEB
1 63392U 24140ADP 26167.30011955  .00000317  00000-0  13829-3 0  9997
2 63392  89.0330 277.1775 0037319 182.7997 177.2991 14.21188879 93827
CZ-6A DEB
1 63392U 24140ADP 26167.30011955  .00000317  00000-0  13829-3 0  9997
2 63392  89.0330 277.1775 0037319 182.7997 177.2991 14.21188879 93827
CZ-6A DEB
1 63392U 24140ADP 26167.58175449  .00000312  00000-0  13612-3 0  9991
2 63392  89.0330 277.1466 0037354 181.8847 178.2209 14.21189009 93860
CZ-6A DEB
1 63392U 24140ADP 26167.58175450  .00000312  00000-0  13612-3 0  9993
2 63392  89.0330 277.1466 0037354 181.8847 178.2210 14.21189009 93862
CZ-6A DEB
1 63392U 24140ADP 26169.27156372  .00000312  00000-0  13569-3 0  9994
2 63392  89.0331 276.9609 0037592 176.4111 183.7356 14.21189961 94104
CZ-6A DEB
1 63392U 24140ADP 26169.27156372  .00000312  00000-0  13569-3 0  9994
2 63392  89.0331 276.9609 0037592 176.4111 183.7356 14.21189961 94104
CZ-6A DEB
1 63392U 24140ADP 26170.25728517  .00000307  00000-0  13377-3 0  9991
2 63392  89.0332 276.8526 0037734 173.2358 186.9350 14.21190513 94247
CZ-6A DEB
1 63392U 24140ADP 26171.24300627  .00000293  00000-0  12718-3 0  9991
2 63392  89.0332 276.7442 0037864 170.0708 190.1239 14.21191002 94383
CZ-6A DEB
1 63392U 24140ADP 26171.24300628  .00000293  00000-0  12718-3 0  9992
2 63392  89.0332 276.7442 0037864 170.0708 190.1239 14.21191002 94383
CZ-6A DEB
1 63392U 24140ADP 26173.56648975  .00000262  00000-0  11289-3 0  9997
2 63392  89.0333 276.4891 0038168 162.6834 197.5668 14.21192209 94718
CZ-6A DEB
1 63392U 24140ADP 26174.55220954  .00000269  00000-0  11607-3 0  9991
2 63392  89.0332 276.3806 0038287 159.5483 200.7252 14.21192742 94852
CZ-6A DEB
1 63392U 24140ADP 26177.01650623  .00000325  00000-0  14182-3 0  9999
2 63392  89.0332 276.1098 0038589 151.7608 208.5686 14.21194520 95204
CZ-6A DEB
1 63392U 24140ADP 26177.01650623  .00000325  00000-0  14182-3 0  9999
2 63392  89.0332 276.1098 0038589 151.7608 208.5686 14.21194520 95204
CZ-6A DEB
1 63392U 24140ADP 26177.57977359  .00000321  00000-0  13979-3 0  9997
2 63392  89.0333 276.0479 0038651 149.9954 210.3463 14.21194850 95288
CZ-6A DEB
1 63392U 24140ADP 26177.57977359  .00000321  00000-0  13979-3 0  9997
2 63392  89.0333 276.0479 0038651 149.9954 210.3463 14.21194850 95288
CZ-6A DEB
1 63392U 24140ADP 26178.00222389  .00000335  00000-0  14622-3 0  9993
2 63392  89.0333 276.0015 0038699 148.6741 211.6767 14.21195214 95349
CZ-6A DEB
1 63392U 24140ADP 26178.00222390  .00000335  00000-0  14622-3 0  9995
2 63392  89.0333 276.0015 0038699 148.6741 211.6767 14.21195214 95349
CZ-6A DEB
1 63392U 24140ADP 26178.70630764  .00000324  00000-0  14140-3 0  9993
2 63392  89.0333 275.9242 0038770 146.4742 213.8914 14.21195620 95446
CZ-6A DEB
1 63392U 24140ADP 26178.70630764  .00000324  00000-0  14140-3 0  9993
2 63392  89.0333 275.9242 0038770 146.4742 213.8914 14.21195620 95446
CZ-6A DEB
1 63392U 24140ADP 26178.98794098  .00000330  00000-0  14387-3 0  9994
2 63392  89.0333 275.8933 0038802 145.5960 214.7755 14.21195835 95485
CZ-6A DEB
1 63392U 24140ADP 26178.98794099  .00000330  00000-0  14387-3 0  9995
2 63392  89.0333 275.8933 0038802 145.5960 214.7755 14.21195835 95485
CZ-6A DEB
1 63392U 24140ADP 26181.02978180  .00000374  00000-0  16389-3 0  9991
2 63392  89.0334 275.6690 0039000 139.2232 221.1890 14.21197361 95777
CZ-6A DEB
1 63392U 24140ADP 26181.02978180  .00000374  00000-0  16389-3 0  9991
2 63392  89.0334 275.6690 0039000 139.2232 221.1890 14.21197361 95777
CZ-6A DEB
1 63392U 24140ADP 26182.01549709  .00000378  00000-0  16562-3 0  9999
2 63392  89.0334 275.5607 0039098 136.1575 224.2731 14.21198020 95914
CZ-6A DEB
1 63392U 24140ADP 26182.01549710  .00000378  00000-0  16562-3 0  9991
2 63392  89.0334 275.5608 0039098 136.1575 224.2731 14.21198020 95915
CZ-6A DEB
1 63392U 24140ADP 26183.00121171  .00000384  00000-0  16834-3 0  9997
2 63392  89.0334 275.4525 0039191 133.1027 227.3454 14.21198721 96055
CZ-6A DEB
1 63392U 24140ADP 26183.49406874  .00000404  00000-0  17789-3 0  9999
2 63392  89.0334 275.3983 0039231 131.5696 228.8869 14.21199188 96123
CZ-6A DEB
1 63392U 24140ADP 26183.49406875  .00000404  00000-0  17789-3 0  9990
2 63392  89.0334 275.3983 0039231 131.5696 228.8869 14.21199188 96123
CZ-6A DEB
1 63392U 24140ADP 26184.55019051  .00000398  00000-0  17497-3 0  9992
2 63392  89.0333 275.2823 0039311 128.3214 232.1522 14.21199860 96270
CZ-6A DEB
1 63392U 24140ADP 26184.97263889  .00000407  00000-0  17913-3 0  9992
2 63392  89.0333 275.2360 0039342 127.0180 233.4621 14.21200228 96330
CZ-6A DEB
1 63392U 24140ADP 26184.97263889  .00000407  00000-0  17913-3 0  9992
2 63392  89.0333 275.2360 0039342 127.0180 233.4621 14.21200228 96330
CZ-6A DEB
1 63392U 24140ADP 26185.53590279  .00000499  00000-0  22118-3 0  9995
2 63392  89.0333 275.1741 0039374 125.2775 235.2110 14.21201272 96419
CZ-6A DEB
1 63392U 24140ADP 26185.53590279  .00000499  00000-0  22118-3 0  9995
2 63392  89.0333 275.1741 0039374 125.2775 235.2110 14.21201272 96419
CZ-6A DEB
1 63392U 24140ADP 26186.23998288  .00000455  00000-0  20107-3 0  9993
2 63392  89.0332 275.0968 0039417 123.1081 237.3903 14.21201571 96519
CZ-6A DEB
1 63392U 24140ADP 26186.23998289  .00000455  00000-0  20107-3 0  9994
2 63392  89.0332 275.0968 0039417 123.1081 237.3903 14.21201571 96519
CZ-6A DEB
1 63392U 24140ADP 26186.52161492  .00000436  00000-0  19237-3 0  9995
2 63392  89.0332 275.0658 0039437 122.2360 238.2663 14.21201632 96552
CZ-6A DEB
1 63392U 24140ADP 26186.52161493  .00000436  00000-0  19237-3 0  9996
2 63392  89.0332 275.0659 0039437 122.2360 238.2663 14.21201632 96553
CZ-6A DEB
1 63392U 24140ADP 26187.22569448  .00000366  00000-0  16031-3 0  9997
2 63392  89.0332 274.9885 0039481 120.0690 240.4425 14.21201810 96653
CZ-6A DEB
1 63392U 24140ADP 26188.00018166  .00000308  00000-0  13367-3 0  9995
2 63392  89.0331 274.9034 0039535 117.6855 242.8357 14.21202050 96762
CZ-6A DEB
1 63392U 24140ADP 26188.00018166  .00000308  00000-0  13367-3 0  9995
2 63392  89.0331 274.9034 0039535 117.6855 242.8356 14.21202050 96761
CZ-6A DEB
1 63392U 24140ADP 26189.19711558  .00000260  00000-0  11203-3 0  9995
2 63392  89.0330 274.7720 0039602 114.0139 246.5205 14.21202652 96932
CZ-6A DEB
1 63392U 24140ADP 26189.47874691  .00000252  00000-0  10818-3 0  9996
2 63392  89.0330 274.7410 0039613 113.1556 247.3816 14.21202796 96973
CZ-6A DEB
1 63392U 24140ADP 26189.47874691  .00000252  00000-0  10818-3 0  9996
2 63392  89.0330 274.7410 0039613 113.1556 247.3816 14.21202796 96973
CZ-6A DEB
1 63392U 24140ADP 26189.47874691  .00000252  00000-0  10818-3 0  9996
2 63392  89.0330 274.7410 0039613 113.1556 247.3816 14.21202796 96973
CZ-6A DEB
1 63392U 24140ADP 26190.18282505  .00000239  00000-0  10235-3 0  9991
2 63392  89.0329 274.6637 0039638 110.9995 249.5443 14.21203221 97076
CZ-6A DEB
1 63392U 24140ADP 26193.21035860  .00000187  00000-0  78665-4 0  9992
2 63392  89.0328 274.3311 0039711 101.7399 258.8251 14.21204371 97504
CZ-6A DEB
1 63392U 24140ADP 26193.21035860  .00000187  00000-0  78665-4 0  9992
2 63392  89.0328 274.3311 0039711 101.7399 258.8251 14.21204371 97504
CZ-6A DEB
1 63392U 24140ADP 26193.98484314  .00000197  00000-0  83141-4 0  9994
2 63392  89.0327 274.2460 0039733  99.3685 261.2002 14.21204706 97617
CZ-6A DEB
1 63392U 24140ADP 26193.98484314  .00000197  00000-0  83141-4 0  9994
2 63392  89.0327 274.2460 0039733  99.3685 261.2002 14.21204706 97617
CZ-6A DEB
1 63392U 24140ADP 26195.18177332  .00000197  00000-0  83158-4 0  9995
2 63392  89.0326 274.1144 0039749  95.7162 264.8563 14.21205132 97784
CZ-6A DEB
1 63392U 24140ADP 26195.18177333  .00000197  00000-0  83158-4 0  9996
2 63392  89.0326 274.1144 0039749  95.7162 264.8563 14.21205132 97784
CZ-6A DEB
1 63392U 24140ADP 26196.16747988  .00000192  00000-0  80945-4 0  9990
2 63392  89.0326 274.0060 0039746  92.7054 267.8687 14.21205480 97926
CZ-6A DEB
1 63392U 24140ADP 26196.16747989  .00000192  00000-0  80945-4 0  9991
2 63392  89.0326 274.0060 0039746  92.7054 267.8687 14.21205481 97927
CZ-6A DEB
1 63392U 24140ADP 26197.64603873  .00000185  00000-0  77767-4 0  9998
2 63392  89.0325 273.8435 0039720  88.1927 272.3812 14.21206009 98131
CZ-6A DEB
1 63392U 24140ADP 26197.64603873  .00000185  00000-0  77767-4 0  9998
2 63392  89.0325 273.8435 0039720  88.1927 272.3812 14.21206009 98131
CZ-6A DEB
1 63392U 24140ADP 26198.63174404  .00000177  00000-0  74225-4 0  9998
2 63392  89.0324 273.7351 0039697  85.1715 275.4006 14.21206320 98271
CZ-6A DEB
1 63392U 24140ADP 26198.63174405  .00000177  00000-0  74225-4 0  9999
2 63392  89.0324 273.7352 0039697  85.1715 275.4006 14.21206320 98272
CZ-6A DEB
1 63392U 24140ADP 26198.63174405  .00000177  00000-0  74225-4 0  9999
2 63392  89.0324 273.7352 0039697  85.1715 275.4006 14.21206320 98272
CZ-6A DEB
1 63392U 24140ADP 26199.47663394  .00000178  00000-0  74270-4 0  9993
2 63392  89.0323 273.6423 0039679  82.5792 277.9905 14.21206609 98393
CZ-6A DEB
1 63392U 24140ADP 26200.18070859  .00000175  00000-0  72978-4 0  9992
2 63392  89.0322 273.5649 0039662  80.4200 280.1469 14.21206853 98497
CZ-6A DEB
1 63392U 24140ADP 26201.16641268  .00000181  00000-0  75801-4 0  9994
2 63392  89.0321 273.4565 0039635  77.4038 283.1581 14.21207230 98631
CZ-6A DEB
1 63392U 24140ADP 26202.15211616  .00000212  00000-0  89869-4 0  9998
2 63392  89.0319 273.3481 0039599  74.3853 286.1702 14.21207772 98778
CZ-6A DEB
1 63392U 24140ADP 26203.91229933  .00000240  00000-0  10259-3 0  9991
2 63392  89.0317 273.1545 0039505  68.9925 291.5485 14.21208677 99023
CZ-6A DEB
1 63392U 24140ADP 26206.16533143  .00000297  00000-0  12862-3 0  9996
2 63392  89.0317 272.9069 0039396  62.0284 298.4885 14.21210000 99340
CZ-6A DEB
1 63392U 24140ADP 26207.15103194  .00000326  00000-0  14197-3 0  9991
2 63392  89.0316 272.7985 0039318  58.9958 301.5085 14.21210642 99485
CZ-6A DEB
1 63392U 24140ADP 26208.13673168  .00000313  00000-0  13628-3 0  9997
2 63392  89.0315 272.6899 0039233  55.9542 304.5364 14.21211147 99629
CZ-6A DEB
1 63392U 24140ADP 26209.19283788  .00000309  00000-0  13447-3 0  9993
2 63392  89.0314 272.5738 0039136  52.6849 307.7897 14.21211755 99772
CZ-6A DEB
1 63392U 24140ADP 26209.61528024  .00000312  00000-0  13569-3 0  9994
2 63392  89.0313 272.5273 0039104  51.3729 309.0952 14.21212000 99831
CZ-6A DEB
1 63392U 24140ADP 26212.43155939  .00000283  00000-0  12241-3 0  9992
2 63392  89.0309 272.2174 0038812  42.5921 317.8268 14.21213488100239
CZ-6A DEB
1 63392U 24140ADP 26213.13562845  .00000280  00000-0  12125-3 0  9996
2 63392  89.0308 272.1399 0038730  40.3885 320.0170 14.21213909100337
CZ-6A DEB
1 63392U 24140ADP 26214.12132476  .00000274  00000-0  11835-3 0  9999
2 63392  89.0307 272.0314 0038619  37.3038 323.0823 14.21214443100471
CZ-6A DEB
1 63392U 24140ADP 26214.12132476  .00000274  00000-0  11835-3 0  9999
2 63392  89.0307 272.0314 0038619  37.3038 323.0823 14.21214443100471
CZ-6A DEB
1 63392U 24140ADP 26216.86719050  .00000215  00000-0  91412-4 0  9996
2 63392  89.0303 271.7292 0038274  28.6069 331.7210 14.21215589100863
CZ-6A DEB
1 63392U 24140ADP 26217.14881758  .00000213  00000-0  90487-4 0  9992
2 63392  89.0303 271.6982 0038241  27.7102 332.6115 14.21215724100900
CZ-6A DEB
1 63392U 24140ADP 26218.13451217  .00000192  00000-0  81287-4 0  9999
2 63392  89.0302 271.5896 0038119  24.5653 335.7343 14.21216047101044
CZ-6A DEB
1 63392U 24140ADP 26218.41613913  .00000191  00000-0  80495-4 0  9992
2 63392  89.0302 271.5586 0038083  23.6719 336.6213 14.21216139101085
CZ-6A DEB
1 63392U 24140ADP 26219.89468029  .00000178  00000-0  74730-4 0  9991
2 63392  89.0299 271.3956 0037905  18.9944 341.2650 14.21216664101291
CZ-6A DEB
1 63392U 24140ADP 26220.10590038  .00000176  00000-0  73570-4 0  9992
2 63392  89.0299 271.3723 0037878  18.3174 341.9371 14.21216746101323
CZ-6A DEB
1 63392U 24140ADP 26220.10590039  .00000176  00000-0  73570-4 0  9993
2 63392  89.0299 271.3723 0037878  18.3174 341.9371 14.21216746101323
CZ-6A DEB
1 63392U 24140ADP 26220.38752720  .00000174  00000-0  72678-4 0  9996
2 63392  89.0299 271.3413 0037841  17.4183 342.8296 14.21216817101368
CZ-6A DEB
1 63392U 24140ADP 26220.38752721  .00000174  00000-0  72678-4 0  9997
2 63392  89.0299 271.3413 0037841  17.4183 342.8296 14.21216817101368
CZ-6A DEB
1 63392U 24140ADP 26220.88037402  .00000176  00000-0  74022-4 0  9991
2 63392  89.0298 271.2870 0037769  15.8433 344.3930 14.21217008101435
CZ-6A DEB
1 63392U 24140ADP 26221.09159404  .00000176  00000-0  73768-4 0  9998
2 63392  89.0298 271.2637 0037743  15.1552 345.0760 14.21217102101460
CZ-6A DEB
1 63392U 24140ADP 26221.09159404  .00000176  00000-0  73768-4 0  9998
2 63392  89.0298 271.2637 0037743  15.1552 345.0760 14.21217102101460
CZ-6A DEB
1 63392U 24140ADP 26222.57013403  .00000180  00000-0  75541-4 0  9996
2 63392  89.0297 271.1008 0037537  10.3759 349.8198 14.21217592101670
CZ-6A DEB
1 63392U 24140ADP 26222.57013403  .00000180  00000-0  75541-4 0  9996
2 63392  89.0297 271.1008 0037537  10.3759 349.8198 14.21217591101679
CZ-6A DEB
1 63392U 24140ADP 26223.55582708  .00000181  00000-0  76148-4 0  9999
2 63392  89.0296 270.9922 0037407   7.1728 352.9990 14.21217883101811
CZ-6A DEB
1 63392U 24140ADP 26223.55582709  .00000181  00000-0  76148-4 0  9990
2 63392  89.0296 270.9922 0037407   7.1728 352.9990 14.21217883101811
CZ-6A DEB
1 63392U 24140ADP 26224.11908012  .00000183  00000-0  76979-4 0  9996
2 63392  89.0295 270.9301 0037337   5.3483 354.8099 14.21218085101895
CZ-6A DEB
1 63392U 24140ADP 26224.11908012  .00000183  00000-0  76979-4 0  9996
2 63392  89.0295 270.9301 0037337   5.3483 354.8098 14.21218085101894
CZ-6A DEB
1 63392U 24140ADP 26226.09046528  .00000181  00000-0  76161-4 0  9991
2 63392  89.0292 270.7127 0037077 358.9588   1.1519 14.21218725102172
CZ-6A DEB
1 63392U 24140ADP 26226.09046528  .00000181  00000-0  76161-4 0  9991
2 63392  89.0292 270.7127 0037077 358.9588   1.1519 14.21218725102172
CZ-6A DEB
1 63392U 24140ADP 26227.07615737  .00000184  00000-0  77721-4 0  9990
2 63392  89.0291 270.6040 0036935 355.7214   4.3655 14.21219115102313
CZ-6A DEB
1 63392U 24140ADP 26227.07615738  .00000184  00000-0  77721-4 0  9991
2 63392  89.0291 270.6040 0036935 355.7214   4.3655 14.21219115102313
CZ-6A DEB
1 63392U 24140ADP 26228.55469520  .00000183  00000-0  77220-4 0  9994
2 63392  89.0289 270.4409 0036727 350.8266   9.2249 14.21219635102522
CZ-6A DEB
1 63392U 24140ADP 26229.54038690  .00000187  00000-0  79022-4 0  9990
2 63392  89.0287 270.3322 0036601 347.5513  12.4770 14.21219986102661
CZ-6A DEB
1 63392U 24140ADP 26232.07502183  .00000240  00000-0  10330-3 0  9991
2 63392  89.0284 270.0526 0036288 339.1499  20.8209 14.21221221103028
CZ-6A DEB
1 63392U 24140ADP 26233.06071275  .00000251  00000-0  10828-3 0  9998
2 63392  89.0284 269.9439 0036162 335.8469  24.1024 14.21221696103162
CZ-6A DEB
1 63392U 24140ADP 26233.41274544  .00000253  00000-0  10938-3 0  9995
2 63392  89.0283 269.9049 0036131 334.7256  25.2165 14.21221807103214
CZ-6A DEB
1 63392U 24140ADP 26233.41274545  .00000253  00000-0  10938-3 0  9996
2 63392  89.0283 269.9049 0036131 334.7256  25.2165 14.21221807103214
CZ-6A DEB
1 63392U 24140ADP 26235.52493974  .00000252  00000-0  10881-3 0  9995
2 63392  89.0282 269.6718 0035889 327.5909  32.3077 14.21222695103517
CZ-6A DEB
1 63392U 24140ADP 26236.36981723  .00000258  00000-0  11139-3 0  9995
2 63392  89.0282 269.5786 0035799 324.7520  35.1303 14.21223095103630
CZ-6A DEB
1 63392U 24140ADP 26236.36981724  .00000258  00000-0  11139-3 0  9996
2 63392  89.0282 269.5786 0035799 324.7520  35.1303 14.21223095103630
CZ-6A DEB
1 63392U 24140ADP 26237.07388171  .00000258  00000-0  11144-3 0  9998
2 63392  89.0280 269.5009 0035724 322.3721  37.4971 14.21223438103739
CZ-6A DEB
1 63392U 24140ADP 26237.35550748  .00000269  00000-0  11655-3 0  9999
2 63392  89.0280 269.4697 0035697 321.4362  38.4279 14.21223619103778
CZ-6A DEB
1 63392U 24140ADP 26237.35550748  .00000269  00000-0  11655-3 0  9999
2 63392  89.0280 269.4697 0035697 321.4362  38.4279 14.21223619103778
CZ-6A DEB
1 63392U 24140ADP 26238.34119760  .00000282  00000-0  12265-3 0  9997
2 63392  89.0279 269.3609 0035594 318.0986  41.7481 14.21224147103913
CZ-6A DEB
1 63392U 24140ADP 26238.34119761  .00000282  00000-0  12265-3 0  9998
2 63392  89.0279 269.3609 0035594 318.0986  41.7481 14.21224147103913
CZ-6A DEB
1 63392U 24140ADP 26238.83404256  .00000299  00000-0  13040-3 0  9998
2 63392  89.0278 269.3064 0035562 316.3949  43.4432 14.21224479103982
CZ-6A DEB
1 63392U 24140ADP 26238.83404256  .00000299  00000-0  13040-3 0  9998
2 63392  89.0278 269.3064 0035562 316.3949  43.4432 14.21224478103981
CZ-6A DEB
1 63392U 24140ADP 26239.32688744  .00000291  00000-0  12661-3 0  9999
2 63392  89.0277 269.2519 0035515 314.7184  45.1116 14.21224693104051
CZ-6A DEB
1 63392U 24140ADP 26239.32688745  .00000291  00000-0  12661-3 0  9990
2 63392  89.0277 269.2519 0035515 314.7184  45.1116 14.21224693104051
CZ-6A DEB
1 63392U 24140ADP 26240.52379642  .00000272  00000-0  11801-3 0  9991
2 63392  89.0275 269.1196 0035416 310.6169  49.1943 14.21225183104223
CZ-6A DEB
1 63392U 24140ADP 26240.52379643  .00000272  00000-0  11801-3 0  9992
2 63392  89.0275 269.1196 0035416 310.6169  49.1943 14.21225183104223
CZ-6A DEB
1 63392U 24140ADP 26241.79111144  .00000273  00000-0  11830-3 0  9995
2 63392  89.0273 268.9796 0035325 306.2713  53.5215 14.21225843104403
CZ-6A DEB
1 63392U 24140ADP 26241.79111144  .00000273  00000-0  11830-3 0  9995
2 63392  89.0273 268.9796 0035325 306.2713  53.5215 14.21225843104403
CZ-6A DEB
1 63392U 24140ADP 26242.49517524  .00000251  00000-0  10850-3 0  9992
2 63392  89.0272 268.9017 0035271 303.8661  55.9175 14.21226106104508
CZ-6A DEB
1 63392U 24140ADP 26242.49517525  .00000251  00000-0  10850-3 0  9993
2 63392  89.0272 268.9018 0035271 303.8661  55.9175 14.21226106104509
CZ-6A DEB
1 63392U 24140ADP 26242.84720715  .00000236  00000-0  10149-3 0  9993
2 63392  89.0271 268.8628 0035245 302.6660  57.1132 14.21226194104550
CZ-6A DEB
1 63392U 24140ADP 26242.84720716  .00000236  00000-0  10149-3 0  9994
2 63392  89.0271 268.8628 0035245 302.6661  57.1132 14.21226194104551
CZ-6A DEB
1 63392U 24140ADP 26243.34005181  .00000231  00000-0  99370-4 0  9991
2 63392  89.0271 268.8084 0035213 300.9733  58.8000 14.21226418104622
CZ-6A DEB
1 63392U 24140ADP 26243.34005181  .00000231  00000-0  99370-4 0  9991
2 63392  89.0271 268.8084 0035213 300.9733  58.8000 14.21226418104622
CZ-6A DEB
1 63392U 24140ADP 26244.32574109  .00000214  00000-0  91588-4 0  9995
2 63392  89.0270 268.6995 0035144 297.5894  62.1729 14.21226809104767
CZ-6A DEB
1 63392U 24140ADP 26244.32574109  .00000214  00000-0  91588-4 0  9995
2 63392  89.0270 268.6995 0035144 297.5894  62.1729 14.21226809104767
CZ-6A DEB
1 63392U 24140ADP 26244.32574109  .00000214  00000-0  91588-4 0  9995
2 63392  89.0270 268.6995 0035144 297.5894  62.1729 14.21226809104767
