CZ-6A R/B DEB
1 63394U 24140ADR 25086.39688411  .00005195  00000-0  26748-2 0  9996
2 63394  88.9586 323.9930 0075071 206.1976 153.5405 14.13626366    13
CZ-6A R/B DEB
1 63394U 24140ADR 25119.52159329  .00003101  00000-0  15813-2 0  9995
2 63394  88.9516 320.1014 0079545 100.5141 260.5020 14.13859028 32198
CZ-6A R/B DEB
1 63394U 24140ADR 25137.78040595  .00002168  00000-0  11027-2 0  9992
2 63394  88.9514 317.9490 0078576  43.8932 316.8461 14.13942126 34770
CZ-6A R/B DEB
1 63394U 24140ADR 25139.47884544  .00001663  00000-0  84407-3 0  9992
2 63394  88.9509 317.7488 0078428  38.5238 322.1510 14.13946480 35015
CZ-6A R/B DEB
1 63394U 24140ADR 25140.75266985  .00001631  00000-0  82785-3 0  9990
2 63394  88.9509 317.5984 0078239  34.5219 326.1013 14.13950851 35197
CZ-6A R/B DEB
1 63394U 24140ADR 25141.46034839  .00001574  00000-0  79853-3 0  9998
2 63394  88.9509 317.5150 0078124  32.2833 328.3100 14.13952984 35293
CZ-6A R/B DEB
1 63394U 24140ADR 25142.23879341  .00001588  00000-0  80572-3 0  9994
2 63394  88.9510 317.4232 0077975  29.8364 330.7233 14.13955643 35401
CZ-6A R/B DEB
1 63394U 24140ADR 25143.72491145  .00001480  00000-0  75079-3 0  9998
2 63394  88.9511 317.2480 0077717  25.1163 335.3772 14.13959896 35611
CZ-6A R/B DEB
1 63394U 24140ADR 25144.22028292  .00001510  00000-0  76629-3 0  9999
2 63394  88.9511 317.1896 0077643  23.5556 336.9155 14.13961643 35689
CZ-6A R/B DEB
1 63394U 24140ADR 25145.70639442  .00001477  00000-0  74950-3 0  9995
2 63394  88.9514 317.0146 0077411  18.8287 341.5734 14.13965965 35899
CZ-6A R/B DEB
1 63394U 24140ADR 25147.19250071  .00001413  00000-0  71644-3 0  9994
2 63394  88.9514 316.8395 0077190  14.0885 346.2429 14.13970173 36103
CZ-6A R/B DEB
1 63394U 24140ADR 25151.72155907  .00001391  00000-0  70576-3 0  9998
2 63394  88.9514 316.3057 0076492 359.5716   0.5391 14.13983115 36745
CZ-6A R/B DEB
1 63394U 24140ADR 25152.42922012  .00001635  00000-0  83066-3 0  9994
2 63394  88.9515 316.2222 0076359 357.2552   2.8205 14.13986557 36847
CZ-6A R/B DEB
1 63394U 24140ADR 25152.71227569  .00003166  00000-0  16150-2 0  9991
2 63394  88.9512 316.1882 0076370 356.3385   3.7232 14.13998190 36882
CZ-6A R/B DEB
1 63394U 24140ADR 25155.40138388  .00001493  00000-0  75799-3 0  9996
2 63394  88.9516 315.8719 0075899 347.5481  12.3827 14.13995421 37268
CZ-6A R/B DEB
1 63394U 24140ADR 25156.17980477  .00001528  00000-0  77627-3 0  9996
2 63394  88.9517 315.7804 0075785 345.0019  14.8919 14.13998128 37375
CZ-6A R/B DEB
1 63394U 24140ADR 25157.17052151  .00001304  00000-0  66131-3 0  9996
2 63394  88.9514 315.6629 0075651 341.7885  18.0594 14.13999832 37516
CZ-6A R/B DEB
1 63394U 24140ADR 25158.58582527  .00001280  00000-0  64913-3 0  9996
2 63394  88.9472 315.4904 0075410 336.9295  22.8511 14.14004408 37718
CZ-6A R/B DEB
1 63394U 24140ADR 25160.42572480  .00001014  00000-0  51310-3 0  9991
2 63394  88.9531 315.2802 0075205 331.3481  28.3582 14.14006420 37970
CZ-6A R/B DEB
1 63394U 24140ADR 25161.69949735  .00000881  00000-0  44478-3 0  9990
2 63394  88.9525 315.1300 0075041 327.0389  32.6130 14.14007921 38157
CZ-6A R/B DEB
1 63394U 24140ADR 25163.68091851  .00000921  00000-0  46565-3 0  9992
2 63394  88.9522 314.8966 0074781 320.4502  39.1242 14.14011545 38436
CZ-6A R/B DEB
1 63394U 24140ADR 25164.67162553  .00001273  00000-0  64603-3 0  9994
2 63394  88.9525 314.7800 0074708 317.1608  42.3772 14.14015760 38576
CZ-6A DEB
1 63394U 24140ADR 25165.37927515  .00001090  00000-0  55233-3 0  9995
2 63394  88.9525 314.6967 0074653 314.8042  44.7090 14.14015777 38672
CZ-6A DEB
1 63394U 24140ADR 25167.36068788  .00001040  00000-0  52630-3 0  9997
2 63394  88.9529 314.4635 0074522 308.2350  51.2144 14.14019464 38951
CZ-6A DEB
1 63394U 24140ADR 25168.35139287  .00001043  00000-0  52810-3 0  9993
2 63394  88.9519 314.3462 0074450 304.9564  54.4645 14.14021512 39091
CZ-6A DEB
1 63394U 24140ADR 25169.12980349  .00001002  00000-0  50706-3 0  9999
2 63394  88.9525 314.2549 0074368 302.4005  57.0001 14.14022850 39208
CZ-6A DEB
1 63394U 24140ADR 25171.67732524  .00000859  00000-0  43401-3 0  9995
2 63394  88.9532 313.9554 0074232 293.9362  65.4062 14.14026924 39563
CZ-6A DEB
1 63394U 24140ADR 25173.16337808  .00000812  00000-0  40981-3 0  9996
2 63394  88.9527 313.7798 0074199 288.9393  70.3761 14.14029073 39777
CZ-6A DEB
1 63394U 24140ADR 25174.36637255  .00000776  00000-0  39112-3 0  9991
2 63394  88.9528 313.6383 0074169 284.9185  74.3797 14.14030714 39945
CZ-6A DEB
1 63394U 24140ADR 25175.35707365  .00000769  00000-0  38756-3 0  9996
2 63394  88.9531 313.5219 0074187 281.5875  77.6990 14.14032018 40082
CZ-6A DEB
1 63394U 24140ADR 25176.63083182  .00000712  00000-0  35831-3 0  9991
2 63394  88.9532 313.3720 0074213 277.3537  81.9219 14.14033321 40266
CZ-6A DEB
1 63394U 24140ADR 25177.62153166  .00000744  00000-0  37465-3 0  9991
2 63394  88.9532 313.2553 0074240 274.0538  85.2165 14.14034866 40402
CZ-6A DEB
1 63394U 24140ADR 25178.11688149  .00000742  00000-0  37374-3 0  9997
2 63394  88.9531 313.1969 0074260 272.3957  86.8729 14.14035522 40479
CZ-6A DEB
1 63394U 24140ADR 25179.31987359  .00000747  00000-0  37635-3 0  9990
2 63394  88.9533 313.0554 0074308 268.3961  90.8713 14.14037168 40648
CZ-6A DEB
1 63394U 24140ADR 25182.07967656  .00000806  00000-0  40612-3 0  9990
2 63394  88.9537 312.7309 0074407 259.2304 100.0500 14.14041347 41032
CZ-6A DEB
1 63394U 24140ADR 25182.64578935  .00000874  00000-0  44135-3 0  9990
2 63394  88.9538 312.6643 0074439 257.3566 101.9291 14.14042584 41117
CZ-6A DEB
1 63394U 24140ADR 25183.35343004  .00000851  00000-0  42937-3 0  9999
2 63394  88.9537 312.5811 0074488 255.0051 104.2882 14.14043595 41216
CZ-6A DEB
1 63394U 24140ADR 25185.33482077  .00000917  00000-0  46328-3 0  9994
2 63394  88.9537 312.3480 0074651 248.4355 110.8864 14.14047612 41498
CZ-6A DEB
1 63394U 24140ADR 25187.31620778  .00000903  00000-0  45567-3 0  9995
2 63394  88.9535 312.1148 0074815 241.8862 117.4750 14.14051505 41771
CZ-6A DEB
1 63394U 24140ADR 25189.58064526  .00000856  00000-0  43176-3 0  9990
2 63394  88.9537 311.8484 0075072 234.4421 124.9752 14.14055894 42093
CZ-6A DEB
1 63394U 24140ADR 25190.07599050  .00000850  00000-0  42867-3 0  9991
2 63394  88.9538 311.7903 0075123 232.8145 126.6168 14.14056841 42162
CZ-6A DEB
1 63394U 24140ADR 25191.06668057  .00000819  00000-0  41269-3 0  9995
2 63394  88.9540 311.6738 0075231 229.5675 129.8934 14.14058499 42304
CZ-6A DEB
1 63394U 24140ADR 25192.76500498  .00000825  00000-0  41530-3 0  9995
2 63394  88.9540 311.4741 0075441 223.9894 135.5274 14.14061360 42548
CZ-6A DEB
1 63394U 24140ADR 25193.33111256  .00000914  00000-0  46100-3 0  9996
2 63394  88.9541 311.4075 0075495 222.1406 137.3962 14.14062784 42622
CZ-6A DEB
1 63394U 24140ADR 25193.75569295  .00000905  00000-0  45643-3 0  9993
2 63394  88.9541 311.3577 0075546 220.7495 138.8027 14.14063480 42685
CZ-6A DEB
1 63394U 24140ADR 25194.60485330  .00000960  00000-0  48441-3 0  9995
2 63394  88.9539 311.2575 0075688 217.9702 141.6135 14.14065204 42807
CZ-6A DEB
1 63394U 24140ADR 25195.02943319  .00000936  00000-0  47190-3 0  9991
2 63394  88.9540 311.2078 0075742 216.5805 143.0197 14.14065854 42868
CZ-6A DEB
1 63394U 24140ADR 25196.30317168  .00000978  00000-0  49335-3 0  9999
2 63394  88.9535 311.0577 0075880 212.3965 147.2552 14.14068495 43044
CZ-6A DEB
1 63394U 24140ADR 25197.57690777  .00000968  00000-0  48831-3 0  9998
2 63394  88.9537 310.9080 0076113 208.2877 151.4168 14.14071079 43221
CZ-6A DEB
1 63394U 24140ADR 25198.28453812  .00001014  00000-0  51147-3 0  9991
2 63394  88.9537 310.8248 0076227 206.0093 153.7256 14.14072849 43328
CZ-6A DEB
1 63394U 24140ADR 25199.27521964  .00000988  00000-0  49837-3 0  9997
2 63394  88.9536 310.7084 0076384 202.8215 156.9572 14.14074834 43465
CZ-6A DEB
1 63394U 24140ADR 25201.53962986  .00000999  00000-0  50365-3 0  9993
2 63394  88.9535 310.4420 0076723 195.5565 164.3264 14.14079664 43780
CZ-6A DEB
1 63394U 24140ADR 25202.03496722  .00001066  00000-0  53802-3 0  9994
2 63394  88.9537 310.3839 0076780 193.9463 165.9605 14.14081494 43855
CZ-6A DEB
1 63394U 24140ADR 25203.02564322  .00001145  00000-0  57834-3 0  9993
2 63394  88.9537 310.2675 0076930 190.7758 169.1785 14.14084149 43991
CZ-6A DEB
1 63394U 24140ADR 25204.58241588  .00001430  00000-0  72350-3 0  9998
2 63394  88.9539 310.0846 0077127 185.7690 174.2617 14.14089496 44216
CZ-6A DEB
1 63394U 24140ADR 25207.55441964  .00001600  00000-0  80999-3 0  9995
2 63394  88.9541 309.7355 0077562 176.2857 183.8923 14.14099528 44631
CZ-6A DEB
1 63394U 24140ADR 25208.54508248  .00001604  00000-0  81186-3 0  9997
2 63394  88.9542 309.6191 0077716 173.1536 187.0733 14.14103026 44779
CZ-6A DEB
1 63394U 24140ADR 25209.25269768  .00001521  00000-0  76948-3 0  9995
2 63394  88.9539 309.5357 0077798 170.9100 189.3517 14.14105005 44875
CZ-6A DEB
1 63394U 24140ADR 25211.02172976  .00001482  00000-0  74936-3 0  9998
2 63394  88.9538 309.3278 0078020 165.3211 195.0267 14.14110924 45125
CZ-6A DEB
1 63394U 24140ADR 25212.50771099  .00001582  00000-0  80011-3 0  9995
2 63394  88.9540 309.1533 0078190 160.6361 199.7826 14.14116312 45334
CZ-6A DEB
1 63394U 24140ADR 25216.25802137  .00001471  00000-0  74286-3 0  9993
2 63394  88.9537 308.7125 0078595 148.8133 211.7753 14.14127575 45861
CZ-6A DEB
1 63394U 24140ADR 25217.53170423  .00001399  00000-0  70604-3 0  9990
2 63394  88.9537 308.5627 0078721 144.8234 215.8186 14.14131054 18531
CZ-6A DEB
1 63394U 24140ADR 25218.23930409  .00001252  00000-0  63105-3 0  9992
2 63394  88.9537 308.4795 0078802 142.6146 218.0561 14.14132442 46146
CZ-6A DEB
1 63394U 24140ADR 25219.22994259  .00001220  00000-0  61485-3 0  9999
2 63394  88.9537 308.3630 0078878 139.5281 221.1810 14.14134999 46287
CZ-6A DEB
1 63394U 24140ADR 25220.22057925  .00001143  00000-0  57505-3 0  9993
2 63394  88.9536 308.2465 0078943 136.4502 224.2955 14.14137126 46421
CZ-6A DEB
1 63394U 24140ADR 25221.98956629  .00001400  00000-0  70625-3 0  9990
2 63394  88.9535 308.0385 0079033 130.9478 229.8585 14.14143384 46671
CZ-6A DEB
1 63394U 24140ADR 25223.19247424  .00001359  00000-0  68502-3 0  9995
2 63394  88.9533 307.8970 0079088 127.1986 233.6454 14.14146221 46848
CZ-6A DEB
1 63394U 24140ADR 25223.97082427  .00001264  00000-0  63693-3 0  9992
2 63394  88.9534 307.8056 0079138 124.7653 236.1017 14.14147834 46950
CZ-6A DEB
1 63394U 24140ADR 25225.95207311  .00001247  00000-0  62789-3 0  9999
2 63394  88.9532 307.5725 0079219 118.5921 242.3266 14.14152968 47238
CZ-6A DEB
1 63394U 24140ADR 25226.65965971  .00001277  00000-0  64298-3 0  9990
2 63394  88.9531 307.4893 0079241 116.3919 244.5430 14.14155023 47333
CZ-6A DEB
1 63394U 24140ADR 25227.93331249  .00001173  00000-0  59003-3 0  9990
2 63394  88.9530 307.3396 0079267 112.4563 248.5043 14.14157857 47510
CZ-6A DEB
1 63394U 24140ADR 25229.48999529  .00001131  00000-0  56866-3 0  9991
2 63394  88.9529 307.1566 0079305 107.5969 253.3900 14.14161397 47737
CZ-6A DEB
1 63394U 24140ADR 25230.48060897  .00001079  00000-0  54228-3 0  9991
2 63394  88.9527 307.0399 0079303 104.5213 256.4788 14.14163411 47877
CZ-6A DEB
1 63394U 24140ADR 25231.18818888  .00001028  00000-0  51603-3 0  9998
2 63394  88.9526 306.9567 0079281 102.3291 258.6786 14.14164746 47973
CZ-6A DEB
1 63394U 24140ADR 25232.46182981  .00001052  00000-0  52844-3 0  9993
2 63394  88.9525 306.8066 0079267  98.3607 262.6576 14.14167760 48156
CZ-6A DEB
1 63394U 24140ADR 25232.95713419  .00000991  00000-0  49741-3 0  9996
2 63394  88.9524 306.7483 0079248  96.8229 264.1982 14.14168389 48223
CZ-6A DEB
1 63394U 24140ADR 25234.93834670  .00000931  00000-0  46687-3 0  9999
2 63394  88.9522 306.5151 0079178  90.6441 270.3819 14.14171842 48508
CZ-6A DEB
1 63394U 24140ADR 25235.92895019  .00000957  00000-0  47973-3 0  9990
2 63394  88.9521 306.3984 0079144  87.5560 273.4685 14.14173835 48643
CZ-6A DEB
1 63394U 24140ADR 25238.47620718  .00001066  00000-0  53574-3 0  9991
2 63394  88.9519 306.0985 0079012  79.6095 281.3986 14.14179377 49007
CZ-6A DEB
1 63394U 24140ADR 25238.90074824  .00001160  00000-0  58345-3 0  9996
2 63394  88.9517 306.0485 0079014  78.2821 282.7217 14.14180902 49068
CZ-6A DEB
1 63394U 24140ADR 25239.46680264  .00001244  00000-0  62612-3 0  9994
2 63394  88.9516 305.9818 0078963  76.5140 284.4830 14.14182614 49143
CZ-6A DEB
1 63394U 24140ADR 25242.15554737  .00001717  00000-0  86708-3 0  9996
2 63394  88.9510 305.6649 0078759  68.1000 292.8537 14.14192789 49524
CZ-6A DEB
1 63394U 24140ADR 25243.14613186  .00001810  00000-0  91457-3 0  9991
2 63394  88.9509 305.5481 0078669  64.9932 295.9398 14.14196601 49664
CZ-6A DEB
1 63394U 24140ADR 25245.12729058  .00002287  00000-0  11576-2 0  9999
2 63394  88.9508 305.3147 0078478  58.7533 302.1311 14.14206553 49941
CZ-6A DEB
1 63394U 24140ADR 25245.90559721  .00002383  00000-0  12066-2 0  9995
2 63394  88.9503 305.2225 0078397  56.3074 304.5556 14.14210706 50052
CZ-6A DEB
1 63394U 24140ADR 25246.89616712  .00002246  00000-0  11369-2 0  9991
2 63394  88.9510 305.1067 0078233  53.1694 307.6634 14.14214531 50191
CZ-6A DEB
1 63394U 24140ADR 25250.15087407  .00001841  00000-0  93092-3 0  9992
2 63394  88.9502 304.7223 0077855  42.8898 317.8324 14.14227038 50657
CZ-6A DEB
1 63394U 24140ADR 25250.85841476  .00001672  00000-0  84449-3 0  9991
2 63394  88.9504 304.6396 0077747  40.6823 320.0135 14.14229092 50752
CZ-6A DEB
1 63394U 24140ADR 25251.14143072  .00001625  00000-0  82070-3 0  9997
2 63394  88.9505 304.6062 0077722  39.7713 320.9135 14.14229981 50793
CZ-6A DEB
1 63394U 24140ADR 25251.91972366  .00001429  00000-0  72100-3 0  9993
2 63394  88.9499 304.5139 0077653  37.3322 323.3225 14.14231911 50908
CZ-6A DEB
1 63394U 24140ADR 25253.12253701  .00001063  00000-0  53454-3 0  9998
2 63394  88.9494 304.3722 0077458  33.5314 327.0741 14.14235383 51071
CZ-6A DEB
1 63394U 24140ADR 25253.40555165  .00001198  00000-0  60319-3 0  9995
2 63394  88.9491 304.3386 0077462  32.6584 327.9358 14.14236517 51116
CZ-6A DEB
1 63394U 24140ADR 25254.11308827  .00001135  00000-0  57099-3 0  9997
2 63394  88.9494 304.2547 0077381  30.3721 330.1915 14.14237185 51213
CZ-6A DEB
1 63394U 24140ADR 25254.39610240  .00001122  00000-0  56434-3 0  9990
2 63394  88.9493 304.2212 0077351  29.4706 331.0807 14.14237876 51251
CZ-6A DEB
1 63394U 24140ADR 25255.88192451  .00001033  00000-0  51901-3 0  9999
2 63394  88.9492 304.0460 0077143  24.6992 335.7857 14.14241092 51460
CZ-6A DEB
1 63394U 24140ADR 25256.09418455  .00001024  00000-0  51489-3 0  9999
2 63394  88.9491 304.0209 0077122  24.0202 336.4551 14.14241530 51494
CZ-6A DEB
1 63394U 24140ADR 25256.87247058  .00001072  00000-0  53915-3 0  9993
2 63394  88.9491 303.9288 0077020  21.5129 338.9264 14.14243497 51601
CZ-6A DEB
1 63394U 24140ADR 25259.84409756  .00001234  00000-0  62201-3 0  9996
2 63394  88.9486 303.5776 0076624  11.9943 348.3045 14.14251201 52020
CZ-6A DEB
1 63394U 24140ADR 25261.40065766  .00001256  00000-0  63345-3 0  9994
2 63394  88.9484 303.3936 0076416   7.0004 353.2231 14.14255087 52249
CZ-6A DEB
1 63394U 24140ADR 25262.10818331  .00001288  00000-0  64967-3 0  9992
2 63394  88.9483 303.3100 0076321   4.7198 355.4691 14.14257084 52348
CZ-6A DEB
1 63394U 24140ADR 25262.39119335  .00001313  00000-0  66254-3 0  9991
2 63394  88.9481 303.2764 0076275   3.8137 356.3614 14.14257925 52385
CZ-6A DEB
1 63394U 24140ADR 25263.59398334  .00001507  00000-0  76147-3 0  9999
2 63394  88.9479 303.1342 0076113 359.9305   0.1858 14.14262380 52550
CZ-6A DEB
1 63394U 24140ADR 25264.08924907  .00001618  00000-0  81793-3 0  9991
2 63394  88.9478 303.0757 0076055 358.3274   1.7646 14.14264350 52620
CZ-6A DEB
1 63394U 24140ADR 25264.37225766  .00001756  00000-0  88845-3 0  9998
2 63394  88.9478 303.0423 0076028 357.4181   2.6602 14.14265923 52660
CZ-6A DEB
1 63394U 24140ADR 25265.07977775  .00001985  00000-0  10050-2 0  9996
2 63394  88.9476 302.9585 0075942 355.1231   4.9207 14.14269491 52761
CZ-6A DEB
1 63394U 24140ADR 25265.36278574  .00001981  00000-0  10033-2 0  9996
2 63394  88.9476 302.9251 0075904 354.2037   5.8263 14.14270313 52805
CZ-6A DEB
1 63394U 24140ADR 25266.35330979  .00002485  00000-0  12602-2 0  9998
2 63394  88.9476 302.8082 0075782 350.9546   9.0270 14.14276800 52944
CZ-6A DEB
1 63394U 24140ADR 25270.52762594  .00002778  00000-0  14095-2 0  9997
2 63394  88.9470 302.3141 0075278 337.4830  22.3059 14.14297950 53533
CZ-6A DEB
1 63394U 24140ADR 25273.07463034  .00002809  00000-0  14248-2 0  9992
2 63394  88.9468 302.0126 0074995 329.1240  30.5547 14.14313006 53891
CZ-6A DEB
1 63394U 24140ADR 25275.33860324  .00003900  00000-0  19807-2 0  9995
2 63394  88.9470 301.7457 0074739 321.5771  38.0106 14.14335380 54218
CZ-6A DEB
1 63394U 24140ADR 25276.32908225  .00003910  00000-0  19853-2 0  9990
2 63394  88.9460 301.6275 0074601 318.4020  41.1505 14.14344124 54353
CZ-6A DEB
1 63394U 24140ADR 25279.30049873  .00002208  00000-0  11186-2 0  9996
2 63394  88.9458 301.2753 0074396 308.5600  50.8936 14.14358513 54770
CZ-6A DEB
1 63394U 24140ADR 25281.49366995  .00002323  00000-0  11771-2 0  9994
2 63394  88.9457 301.0152 0074289 301.2926  58.1000 14.14369246 55085
CZ-6A DEB
1 63394U 24140ADR 25282.48413026  .00002070  00000-0  10481-2 0  9998
2 63394  88.9453 300.8976 0074237 298.0000  61.3689 14.14373180 55228
CZ-6A DEB
1 63394U 24140ADR 25283.47458768  .00002054  00000-0  10398-2 0  9999
2 63394  88.9451 300.7797 0074266 294.7193  64.6275 14.14377428 55365
CZ-6A DEB
1 63394U 24140ADR 25284.04056278  .00002041  00000-0  10332-2 0  9997
2 63394  88.9454 300.7129 0074153 292.8645  66.4724 14.14379821 55440
CZ-6A DEB
1 63394U 24140ADR 25288.28534192  .00002389  00000-0  12102-2 0  9995
2 63394  88.9449 300.2092 0074034 278.8582  80.4228 14.14401337 56040
CZ-6A DEB
1 63394U 24140ADR 25290.76143944  .00002684  00000-0  13598-2 0  9990
2 63394  88.9436 299.9145 0073941 270.6935  88.5780 14.14413745 56393
CZ-6A DEB
1 63394U 24140ADR 25291.75187281  .00002994  00000-0  15177-2 0  9991
2 63394  88.9447 299.7988 0073932 267.3886  91.8837 14.14419817 56538
CZ-6A DEB
1 63394U 24140ADR 25294.29868072  .00003173  00000-0  16076-2 0  9996
2 63394  88.9452 299.4963 0074176 259.0536 100.2299 14.14436909 56892
CZ-6A DEB
1 63394U 24140ADR 25295.99653808  .00002644  00000-0  13384-2 0  9994
2 63394  88.9427 299.2924 0074168 253.3700 105.9334 14.14446564 57138
CZ-6A DEB
1 63394U 24140ADR 25298.26033354  .00002662  00000-0  13472-2 0  9993
2 63394  88.9427 299.0224 0074168 245.8873 113.4544 14.14459383 57451
CZ-6A DEB
1 63394U 24140ADR 25305.26385371  .00002659  00000-0  13443-2 0  9995
2 63394  88.9432 298.1906 0074478 222.9383 136.5977 14.14494899 58447
CZ-6A DEB
1 63394U 24140ADR 25307.24461828  .00002177  00000-0  10989-2 0  9994
2 63394  88.9435 297.9560 0074688 216.2813 143.3298 14.14503805 58721
CZ-6A DEB
1 63394U 24140ADR 25308.23499621  .00002117  00000-0  10682-2 0  9990
2 63394  88.9432 297.8371 0074763 212.9129 146.7392 14.14508506 58864
CZ-6A DEB
1 63394U 24140ADR 25308.73018423  .00002006  00000-0  10117-2 0  9992
2 63394  88.9431 297.7784 0074853 211.3119 148.3600 14.14510434 58933
CZ-6A DEB
1 63394U 24140ADR 25310.21574360  .00002531  00000-0  12783-2 0  9999
2 63394  88.9436 297.6023 0074971 206.4517 153.2836 14.14518835 59144
CZ-6A DEB
1 63394U 24140ADR 25314.67237481  .00003105  00000-0  15681-2 0  9991
2 63394  88.9448 297.0746 0075466 192.0137 167.9254 14.14543937 59777
CZ-6A DEB
1 63394U 24140ADR 25315.23829059  .00003339  00000-0  16865-2 0  9996
2 63394  88.9448 297.0074 0075517 190.1776 169.7887 14.14547907 59858
CZ-6A DEB
1 63394U 24140ADR 25316.37011600  .00004617  00000-0  23335-2 0  9997
2 63394  88.9448 296.8731 0075638 186.5020 173.5194 14.14559587 60011
CZ-6A DEB
1 63394U 24140ADR 25319.90701093  .00002886  00000-0  14549-2 0  9994
2 63394  88.9443 296.4534 0076075 175.0398 185.1560 14.14587970 60518
CZ-6A DEB
1 63394U 24140ADR 25320.40217091  .00002885  00000-0  14542-2 0  9993
2 63394  88.9432 296.3936 0076133 173.3999 186.8210 14.14591976 60582
CZ-6A DEB
1 63394U 24140ADR 25321.18027871  .00002825  00000-0  14236-2 0  9998
2 63394  88.9435 296.3013 0076263 170.8838 189.3755 14.14595903 60697
CZ-6A DEB
1 63394U 24140ADR 25321.67543715  .00002577  00000-0  12979-2 0  9998
2 63394  88.9437 296.2427 0076350 169.3046 190.9788 14.14597820 60760
CZ-6A DEB
1 63394U 24140ADR 25324.64637209  .00002007  00000-0  10087-2 0  9996
2 63394  88.9449 295.8903 0076639 159.8194 200.6052 14.14609420 61185
CZ-6A DEB
1 63394U 24140ADR 25325.35373178  .00002293  00000-0  11531-2 0  9999
2 63394  88.9422 295.8031 0076783 157.6981 202.7576 14.14613946 61281
CZ-6A DEB
1 63394U 24140ADR 25326.90992326  .00002067  00000-0  10386-2 0  9999
2 63394  88.9438 295.6206 0076821 152.3789 208.1512 14.14619510 61509
CZ-6A DEB
1 63394U 24140ADR 25329.17345709  .00002251  00000-0  11311-2 0  9992
2 63394  88.9460 295.3534 0077144 145.3224 215.3028 14.14629671 61826
CZ-6A DEB
1 63394U 24140ADR 25330.16374783  .00002151  00000-0  10804-2 0  9992
2 63394  88.9458 295.2360 0077260 142.1612 218.5042 14.14633643 61964
CZ-6A DEB
1 63394U 24140ADR 25332.85166429  .00001973  00000-0  98997-3 0  9997
2 63394  88.9456 294.9171 0077561 133.6538 227.1115 14.14644134 62341
CZ-6A DEB
1 63394U 24140ADR 25334.33708161  .00002069  00000-0  10382-2 0  9995
2 63394  88.9452 294.7406 0077674 128.9843 231.8297 14.14650362 62553
CZ-6A DEB
1 63394U 24140ADR 25335.61029052  .00002154  00000-0  10810-2 0  9993
2 63394  88.9455 294.5902 0077772 124.9543 235.8981 14.14655930 62737
CZ-6A DEB
1 63394U 24140ADR 25336.31762600  .00002590  00000-0  13014-2 0  9997
2 63394  88.9455 294.5061 0077819 122.7369 238.1350 14.14660461 62839
CZ-6A DEB
1 63394U 24140ADR 25336.88349238  .00002644  00000-0  13285-2 0  9997
2 63394  88.9455 294.4387 0077851 120.9753 239.9114 14.14663558 62918
CZ-6A DEB
1 63394U 24140ADR 25340.13719218  .00003393  00000-0  17058-2 0  9993
2 63394  88.9462 294.0523 0078122 110.7440 250.2142 14.14686422 63379
CZ-6A DEB
1 63394U 24140ADR 25341.83475169  .00003397  00000-0  17071-2 0  9994
2 63394  88.9466 293.8513 0078312 105.3735 255.6122 14.14698558 63614
CZ-6A DEB
1 63394U 24140ADR 25342.11767709  .00002815  00000-0  14132-2 0  9999
2 63394  88.9471 293.8184 0078306 104.4794 256.5097 14.14698531 63658
CZ-6A DEB
1 63394U 24140ADR 25342.61279597  .00003585  00000-0  18019-2 0  9990
2 63394  88.9468 293.7598 0078355 102.9179 258.0774 14.14703596 63721
CZ-6A DEB
1 63394U 24140ADR 25344.31033633  .00003178  00000-0  15963-2 0  9991
2 63394  88.9466 293.5588 0078442  97.5924 263.4182 14.14712375 63964
CZ-6A DEB
1 63394U 24140ADR 25345.58348155  .00003398  00000-0  17070-2 0  9994
2 63394  88.9468 293.4077 0078441  93.6396 267.3766 14.14721024 64140
CZ-6A DEB
1 63394U 24140ADR 25346.57369933  .00003434  00000-0  17245-2 0  9996
2 63394  88.9464 293.2905 0078393  90.5721 270.4449 14.14728005 64282
CZ-6A DEB
1 63394U 24140ADR 25347.13953591  .00003320  00000-0  16669-2 0  9991
2 63394  88.9463 293.2235 0078427  88.7826 272.2345 14.14731764 64360
CZ-6A DEB
1 63394U 24140ADR 25347.84682935  .00002771  00000-0  13903-2 0  9997
2 63394  88.9462 293.1395 0078449  86.5637 274.4519 14.14735342 64469
CZ-6A DEB
1 63394U 24140ADR 25348.27120438  .00002695  00000-0  13517-2 0  9996
2 63394  88.9464 293.0891 0078507  85.2297 275.7849 14.14737328 64527
CZ-6A DEB
1 63394U 24140ADR 25349.33213986  .00001911  00000-0  95638-3 0  9990
2 63394  88.9470 292.9637 0078516  81.9289 279.0797 14.14740587 64670
CZ-6A DEB
1 63394U 24140ADR 25349.82724185  .00001775  00000-0  88760-3 0  9998
2 63394  88.9473 292.9052 0078513  80.3937 280.6110 14.14742408 64743
CZ-6A DEB
1 63394U 24140ADR 25355.83913895  .00001849  00000-0  92483-3 0  9993
2 63394  88.9488 292.1931 0078293  61.5787 299.3261 14.14763295 65591
CZ-6A DEB
1 63394U 24140ADR 25356.82932223  .00002162  00000-0  10826-2 0  9998
2 63394  88.9497 292.0776 0078121  58.5153 302.3638 14.14768339 65733
CZ-6A DEB
1 63394U 24140ADR 25358.80967808  .00002301  00000-0  11527-2 0  9999
2 63394  88.9483 291.8425 0078205  52.3180 308.5065 14.14778067 66014
CZ-6A DEB
1 63394U 24140ADR 25362.77033850  .00003065  00000-0  15370-2 0  9999
2 63394  88.9477 291.3741 0078254  39.9697 320.7214 14.14802303 66575
CZ-6A DEB
1 63394U 24140ADR 25364.04338896  .00003920  00000-0  19673-2 0  9999
2 63394  88.9480 291.2219 0077934  35.8858 324.7528 14.14814093 66757
CZ-6A DEB
1 63394U 24140ADR 25365.24570621  .00004470  00000-0  22439-2 0  9991
2 63394  88.9477 291.0795 0077892  32.1314 328.4585 14.14825226 66923
CZ-6A DEB
1 63394U 24140ADR 26004.27693496  .00003631  00000-0  18211-2 0  9992
2 63394  88.9488 290.6027 0077451  19.3621 341.0480 14.14858722 67492
CZ-6A DEB
1 63394U 24140ADR 26006.04498997  .00002964  00000-0  14856-2 0  9997
2 63394  88.9487 290.3937 0077267  13.8189 346.5088 14.14869581 67748
CZ-6A DEB
1 63394U 24140ADR 26006.75220828  .00002869  00000-0  14378-2 0  9994
2 63394  88.9484 290.3102 0077169  11.5666 348.7271 14.14873702 67844
CZ-6A DEB
1 63394U 24140ADR 26007.03509490  .00002646  00000-0  13256-2 0  9998
2 63394  88.9484 290.2768 0077134  10.6762 349.6040 14.14874884 67880
CZ-6A DEB
1 63394U 24140ADR 26011.20763966  .00002623  00000-0  13139-2 0  9997
2 63394  88.9477 289.7831 0076599 357.3719   2.7055 14.14896879 68470
CZ-6A DEB
1 63394U 24140ADR 26012.19772632  .00002254  00000-0  11284-2 0  9995
2 63394  88.9475 289.6655 0076465 354.1612   5.8676 14.14900649 68610
CZ-6A DEB
1 63394U 24140ADR 26012.48060831  .00002092  00000-0  10465-2 0  9998
2 63394  88.9475 289.6320 0076489 353.3527   6.6637 14.14901209 68654
CZ-6A DEB
1 63394U 24140ADR 26013.47069219  .00001810  00000-0  90483-3 0  9993
2 63394  88.9475 289.5146 0076374 350.2088   9.7606 14.14904440 68795
CZ-6A DEB
1 63394U 24140ADR 26014.17789375  .00001473  00000-0  73479-3 0  9994
2 63394  88.9476 289.4309 0076285 347.9356  12.0001 14.14906020 68891
CZ-6A DEB
1 63394U 24140ADR 26016.22877403  .00001534  00000-0  76606-3 0  9995
2 63394  88.9482 289.1884 0076010 341.3798  18.4611 14.14911943 69187
CZ-6A DEB
1 63394U 24140ADR 26016.51165281  .00001561  00000-0  77954-3 0  9998
2 63394  88.9480 289.1547 0075970 340.4483  19.3793 14.14912951 69222
CZ-6A DEB
1 63394U 24140ADR 26017.00669082  .00001901  00000-0  95091-3 0  9991
2 63394  88.9483 289.0964 0075877 338.7932  21.0114 14.14915462 69296
CZ-6A DEB
1 63394U 24140ADR 26017.50172832  .00002073  00000-0  10371-2 0  9996
2 63394  88.9484 289.0379 0075804 337.1979  22.5847 14.14917663 69363
CZ-6A DEB
1 63394U 24140ADR 26017.99676550  .00002105  00000-0  10533-2 0  9991
2 63394  88.9484 288.9794 0075742 335.6063  24.1546 14.14919434 69430
CZ-6A DEB
1 63394U 24140ADR 26018.20892406  .00002100  00000-0  10511-2 0  9997
2 63394  88.9483 288.9543 0075706 334.9217  24.8299 14.14920218 69461
CZ-6A DEB
1 63394U 24140ADR 26018.98683741  .00002120  00000-0  10612-2 0  9996
2 63394  88.9483 288.8623 0075608 332.4077  27.3105 14.14923380 69576
CZ-6A DEB
1 63394U 24140ADR 26019.48187209  .00002409  00000-0  12068-2 0  9997
2 63394  88.9482 288.8038 0075540 330.8101  28.8873 14.14926446 69642
CZ-6A DEB
1 63394U 24140ADR 26019.69402978  .00002251  00000-0  11269-2 0  9990
2 63394  88.9481 288.7788 0075520 330.1214  29.5671 14.14926864 69679
CZ-6A DEB
1 63394U 24140ADR 26020.18906041  .00003824  00000-0  19191-2 0  9995
2 63394  88.9481 288.7202 0075449 328.5152  31.1530 14.14935521 69743
CZ-6A DEB
1 63394U 24140ADR 26020.68408914  .00005047  00000-0  25343-2 0  9991
2 63394  88.9479 288.6617 0075377 326.9096  32.7386 14.14943751 69816
CZ-6A DEB
1 63394U 24140ADR 26025.49286894  .00003295  00000-0  16518-2 0  9993
2 63394  88.9468 288.0923 0074780 311.2124  48.2632 14.14981042 70491
CZ-6A DEB
1 63394U 24140ADR 26030.16012032  .00002858  00000-0  14317-2 0  9993
2 63394  88.9472 287.5388 0074206 295.8723  63.4826 14.15010073 71156
CZ-6A DEB
1 63394U 24140ADR 26033.13015076  .00001750  00000-0  87411-3 0  9990
2 63394  88.9468 287.1870 0074158 285.9795  73.3232 14.15022061 71575
CZ-6A DEB
1 63394U 24140ADR 26035.95873165  .00002392  00000-0  11971-2 0  9993
2 63394  88.9453 286.8518 0073797 276.7435  82.5359 14.15036009 71974
CZ-6A DEB
1 63394U 24140ADR 26039.14085834  .00001893  00000-0  94617-3 0  9990
2 63394  88.9453 286.4747 0073607 266.1795  93.0974 14.15049079 72428
CZ-6A DEB
1 63394U 24140ADR 26040.13084882  .00001672  00000-0  83448-3 0  9998
2 63394  88.9453 286.3572 0073585 262.8980  96.3836 14.15052257 72567
CZ-6A DEB
1 63394U 24140ADR 26040.41370293  .00001842  00000-0  92022-3 0  9990
2 63394  88.9453 286.3236 0073558 261.9601  97.3236 14.15053764 72608
CZ-6A DEB
1 63394U 24140ADR 26041.12083761  .00001705  00000-0  85138-3 0  9998
2 63394  88.9454 286.2397 0073554 259.6151  99.6739 14.15055830 72706
CZ-6A DEB
1 63394U 24140ADR 26042.11082481  .00001723  00000-0  86036-3 0  9994
2 63394  88.9454 286.1220 0073528 256.3388 102.9604 14.15059173 72845
CZ-6A DEB
1 63394U 24140ADR 26043.10080969  .00001830  00000-0  91414-3 0  9998
2 63394  88.9454 286.0046 0073538 253.0560 106.2558 14.15062957 72981
CZ-6A DEB
1 63394U 24140ADR 26044.65649668  .00001682  00000-0  83934-3 0  9999
2 63394  88.9454 285.8200 0073544 247.8966 111.4402 14.15067901 73204
CZ-6A DEB
1 63394U 24140ADR 26047.90928290  .00001783  00000-0  89004-3 0  9997
2 63394  88.9446 285.4345 0073720 237.0870 122.3211 14.15078770 73667
CZ-6A DEB
1 63394U 24140ADR 26050.10136769  .00001430  00000-0  71201-3 0  9994
2 63394  88.9440 285.1740 0073883 229.8924 129.5773 14.15084142 73972
CZ-6A DEB
1 63394U 24140ADR 26051.09133896  .00001426  00000-0  70996-3 0  9996
2 63394  88.9439 285.0563 0073936 226.6204 132.8811 14.15087128 74111
CZ-6A DEB
1 63394U 24140ADR 26052.43486909  .00001460  00000-0  72712-3 0  9997
2 63394  88.9439 284.8971 0073979 222.1658 137.3825 14.15091244 74302
CZ-6A DEB
1 63394U 24140ADR 26053.07127756  .00001375  00000-0  68406-3 0  9990
2 63394  88.9441 284.8215 0073986 220.0625 139.5092 14.15092508 74398
CZ-6A DEB
1 63394U 24140ADR 26054.06124327  .00001594  00000-0  79402-3 0  9992
2 63394  88.9440 284.7037 0074059 216.7788 142.8306 14.15096781 74530
CZ-6A DEB
1 63394U 24140ADR 26055.40476600  .00001577  00000-0  78549-3 0  9997
2 63394  88.9438 284.5442 0074166 212.3537 147.3092 14.15100730 74721
CZ-6A DEB
1 63394U 24140ADR 26056.60686229  .00001489  00000-0  74117-3 0  9999
2 63394  88.9437 284.4011 0074293 208.3957 151.3174 14.15104006 74897
CZ-6A DEB
1 63394U 24140ADR 26059.57673348  .00001628  00000-0  81053-3 0  9998
2 63394  88.9432 284.0482 0074645 198.7010 161.1433 14.15114491 75317
CZ-6A DEB
1 63394U 24140ADR 26059.57673348  .00001628  00000-0  81053-3 0  9998
2 63394  88.9432 284.0482 0074645 198.7010 161.1433 14.15114491 75317
CZ-6A DEB
1 63394U 24140ADR 26060.56668619  .00001741  00000-0  86718-3 0  9993
2 63394  88.9430 283.9305 0074759 195.4676 164.4227 14.15118391 75450
CZ-6A DEB
1 63394U 24140ADR 26060.56668619  .00001741  00000-0  86718-3 0  9993
2 63394  88.9430 283.9305 0074759 195.4676 164.4227 14.15118391 75450
CZ-6A DEB
1 63394U 24140ADR 26061.06166174  .00001719  00000-0  85588-3 0  9997
2 63394  88.9429 283.8716 0074820 193.8420 166.0718 14.15119917 75527
CZ-6A DEB
1 63394U 24140ADR 26061.34450483  .00001860  00000-0  92700-3 0  9998
2 63394  88.9427 283.8379 0074833 192.8786 167.0493 14.15121590 75563
CZ-6A DEB
1 63394U 24140ADR 26061.34450483  .00001860  00000-0  92700-3 0  9998
2 63394  88.9427 283.8379 0074833 192.8786 167.0493 14.15121590 75563
CZ-6A DEB
1 63394U 24140ADR 26062.05161142  .00001818  00000-0  90569-3 0  9992
2 63394  88.9427 283.7538 0074898 190.5737 169.3880 14.15123746 75662
CZ-6A DEB
1 63394U 24140ADR 26062.05161143  .00001818  00000-0  90569-3 0  9993
2 63394  88.9427 283.7539 0074898 190.5737 169.3880 14.15123746 75663
CZ-6A DEB
1 63394U 24140ADR 26064.03150192  .00002011  00000-0  10022-2 0  9996
2 63394  88.9424 283.5184 0075113 184.1247 175.9331 14.15132022 75942
CZ-6A DEB
1 63394U 24140ADR 26064.03150193  .00002011  00000-0  10022-2 0  9997
2 63394  88.9424 283.5184 0075113 184.1247 175.9331 14.15132022 75942
CZ-6A DEB
1 63394U 24140ADR 26064.59718259  .00002177  00000-0  10853-2 0  9996
2 63394  88.9423 283.4510 0075204 182.3064 177.7789 14.15135134 76025
CZ-6A DEB
1 63394U 24140ADR 26064.59718260  .00002177  00000-0  10853-2 0  9998
2 63394  88.9423 283.4511 0075204 182.3064 177.7789 14.15135134 76026
CZ-6A DEB
1 63394U 24140ADR 26065.58712205  .00002164  00000-0  10785-2 0  9991
2 63394  88.9424 283.3335 0075337 179.1091 181.0245 14.15138970 76162
CZ-6A DEB
1 63394U 24140ADR 26067.56699159  .00002155  00000-0  10735-2 0  9998
2 63394  88.9420 283.0977 0075594 172.7288 187.5015 14.15147270 76449
CZ-6A DEB
1 63394U 24140ADR 26068.34479477  .00001950  00000-0  97044-3 0  9995
2 63394  88.9422 283.0055 0075694 170.2491 190.0188 14.15149336 76555
CZ-6A DEB
1 63394U 24140ADR 26068.34479477  .00001950  00000-0  97044-3 0  9995
2 63394  88.9422 283.0055 0075694 170.2491 190.0188 14.15149336 76555
CZ-6A DEB
1 63394U 24140ADR 26069.54685023  .00001940  00000-0  96568-3 0  9993
2 63394  88.9421 282.8625 0075828 166.3799 193.9459 14.15154297 76724
CZ-6A DEB
1 63394U 24140ADR 26069.54685024  .00001940  00000-0  96568-3 0  9994
2 63394  88.9421 282.8625 0075828 166.3799 193.9459 14.15154297 76724
CZ-6A DEB
1 63394U 24140ADR 26070.04181304  .00001880  00000-0  93550-3 0  9994
2 63394  88.9424 282.8039 0075886 164.7948 195.5546 14.15156011 76796
CZ-6A DEB
1 63394U 24140ADR 26070.04181305  .00001880  00000-0  93550-3 0  9995
2 63394  88.9424 282.8039 0075886 164.7948 195.5546 14.15156011 76796
CZ-6A DEB
1 63394U 24140ADR 26072.30449405  .00001856  00000-0  92287-3 0  9993
2 63394  88.9418 282.5333 0076185 157.4479 203.0087 14.15164094 77116
CZ-6A DEB
1 63394U 24140ADR 26072.87016166  .00001835  00000-0  91208-3 0  9998
2 63394  88.9419 282.4659 0076255 155.6349 204.8475 14.15166116 77196
CZ-6A DEB
1 63394U 24140ADR 26073.29441183  .00001848  00000-0  91853-3 0  9996
2 63394  88.9417 282.4152 0076317 154.2812 206.2203 14.15167743 77250
CZ-6A DEB
1 63394U 24140ADR 26074.84999154  .00001653  00000-0  82075-3 0  9994
2 63394  88.9413 282.2298 0076528 149.3268 211.2427 14.15172399 77470
CZ-6A DEB
1 63394U 24140ADR 26076.82981162  .00001599  00000-0  79366-3 0  9992
2 63394  88.9409 281.9940 0076742 143.0769 217.5737 14.15178992 77759
CZ-6A DEB
1 63394U 24140ADR 26076.82981162  .00001599  00000-0  79366-3 0  9992
2 63394  88.9409 281.9940 0076742 143.0769 217.5737 14.15178992 77759
CZ-6A DEB
1 63394U 24140ADR 26077.53688792  .00001581  00000-0  78429-3 0  9994
2 63394  88.9407 281.9098 0076813 140.8575 219.8204 14.15181251 77857
CZ-6A DEB
1 63394U 24140ADR 26077.53688792  .00001581  00000-0  78429-3 0  9994
2 63394  88.9407 281.9098 0076813 140.8575 219.8204 14.15181251 77857
CZ-6A DEB
1 63394U 24140ADR 26078.52679285  .00001460  00000-0  72343-3 0  9996
2 63394  88.9407 281.7918 0076916 137.7246 222.9906 14.15183761 77997
CZ-6A DEB
1 63394U 24140ADR 26079.51669564  .00001544  00000-0  76538-3 0  9998
2 63394  88.9406 281.6739 0077012 134.5968 226.1539 14.15187143 78133
CZ-6A DEB
1 63394U 24140ADR 26079.51669565  .00001544  00000-0  76538-3 0  9999
2 63394  88.9407 281.6739 0077012 134.5968 226.1539 14.15187143 78134
CZ-6A DEB
1 63394U 24140ADR 26079.79952446  .00001555  00000-0  77127-3 0  9999
2 63394  88.9407 281.6402 0077031 133.7087 227.0516 14.15188037 78177
CZ-6A DEB
1 63394U 24140ADR 26079.79952446  .00001555  00000-0  77127-3 0  9999
2 63394  88.9407 281.6402 0077031 133.7087 227.0516 14.15188037 78177
CZ-6A DEB
1 63394U 24140ADR 26081.28437228  .00001671  00000-0  82881-3 0  9994
2 63394  88.9403 281.4632 0077204 129.0144 231.7951 14.15193120 78387
CZ-6A DEB
1 63394U 24140ADR 26083.97122344  .00001708  00000-0  84705-3 0  9990
2 63394  88.9399 281.1426 0077477 120.5453 240.3410 14.15202146 78767
CZ-6A DEB
1 63394U 24140ADR 26086.51663816  .00001717  00000-0  85140-3 0  9991
2 63394  88.9403 280.8391 0077583 112.6003 248.3415 14.15212091 79125
CZ-6A DEB
1 63394U 24140ADR 26086.51663817  .00001717  00000-0  85140-3 0  9992
2 63394  88.9403 280.8391 0077583 112.6003 248.3415 14.15212091 79125
CZ-6A DEB
1 63394U 24140ADR 26086.79946085  .00001700  00000-0  84302-3 0  9994
2 63394  88.9408 280.8057 0077530 111.7255 249.2208 14.15213029 79166
CZ-6A DEB
1 63394U 24140ADR 26086.79946085  .00001700  00000-0  84302-3 0  9994
2 63394  88.9408 280.8057 0077530 111.7255 249.2208 14.15213030 79168
CZ-6A DEB
1 63394U 24140ADR 26087.50651632  .00001840  00000-0  91274-3 0  9996
2 63394  88.9406 280.7214 0077565 109.5016 251.4571 14.15216528 79262
CZ-6A DEB
1 63394U 24140ADR 26087.50651633  .00001840  00000-0  91274-3 0  9997
2 63394  88.9406 280.7214 0077565 109.5016 251.4571 14.15216528 79262
CZ-6A DEB
1 63394U 24140ADR 26088.28427518  .00002091  00000-0  10381-2 0  9994
2 63394  88.9403 280.6284 0077606 107.0600 253.9108 14.15220944 79375
CZ-6A DEB
1 63394U 24140ADR 26089.48626235  .00002133  00000-0  10590-2 0  9993
2 63394  88.9405 280.4851 0077640 103.3165 257.6695 14.15225944 79544
CZ-6A DEB
1 63394U 24140ADR 26089.48626236  .00002133  00000-0  10590-2 0  9994
2 63394  88.9405 280.4851 0077640 103.3165 257.6695 14.15225944 79544
CZ-6A DEB
1 63394U 24140ADR 26089.98119629  .00002186  00000-0  10856-2 0  9995
2 63394  88.9404 280.4260 0077657 101.7669 259.2244 14.15228381 79610
CZ-6A DEB
1 63394U 24140ADR 26089.98119629  .00002186  00000-0  10856-2 0  9995
2 63394  88.9404 280.4260 0077657 101.7669 259.2244 14.15228381 79610
CZ-6A DEB
1 63394U 24140ADR 26091.46599424  .00001916  00000-0  95061-3 0  9998
2 63394  88.9403 280.2494 0077773  97.1541 263.8497 14.15233791 79827
CZ-6A DEB
1 63394U 24140ADR 26091.96092475  .00002062  00000-0  10231-2 0  9995
2 63394  88.9403 280.1904 0077759  95.6082 265.3979 14.15236482 79898
CZ-6A DEB
1 63394U 24140ADR 26091.96092475  .00002062  00000-0  10231-2 0  9995
2 63394  88.9403 280.1904 0077759  95.6082 265.3979 14.15236482 79898
CZ-6A DEB
1 63394U 24140ADR 26092.95078194  .00002850  00000-0  14171-2 0  9999
2 63394  88.9406 280.0726 0077699  92.5182 268.4903 14.15243870 80030
CZ-6A DEB
1 63394U 24140ADR 26093.94063510  .00003100  00000-0  15419-2 0  9990
2 63394  88.9407 279.9545 0077679  89.4493 271.5595 14.15249884 80173
CZ-6A DEB
1 63394U 24140ADR 26095.77891949  .00002422  00000-0  12031-2 0  9991
2 63394  88.9425 279.7353 0077541  83.9483 277.0534 14.15258977 80430
CZ-6A DEB
1 63394U 24140ADR 26095.77891950  .00002422  00000-0  12031-2 0  9993
2 63394  88.9425 279.7353 0077541  83.9483 277.0534 14.15258977 80430
CZ-6A DEB
1 63394U 24140ADR 26096.76875971  .00002220  00000-0  11020-2 0  9991
2 63394  88.9392 279.6147 0077705  80.6740 280.3224 14.15264032 80572
CZ-6A DEB
1 63394U 24140ADR 26097.26367913  .00002022  00000-0  10030-2 0  9999
2 63394  88.9409 279.5571 0077573  79.1438 281.8467 14.15265419 80644
CZ-6A DEB
1 63394U 24140ADR 26097.75859798  .00001826  00000-0  90508-3 0  9990
2 63394  88.9408 279.4979 0077562  77.5973 283.3881 14.15266712 80710
CZ-6A DEB
1 63394U 24140ADR 26097.75859798  .00001826  00000-0  90508-3 0  9990
2 63394  88.9408 279.4979 0077562  77.5973 283.3881 14.15266712 80710
CZ-6A DEB
1 63394U 24140ADR 26098.46562311  .00001684  00000-0  83381-3 0  9994
2 63394  88.9408 279.4135 0077526  75.3987 285.5781 14.15269127 80812
CZ-6A DEB
1 63394U 24140ADR 26100.23318090  .00001824  00000-0  90420-3 0  9994
2 63394  88.9397 279.2017 0077263  69.9110 291.0371 14.15275190 81063
CZ-6A DEB
1 63394U 24140ADR 26100.23318091  .00001824  00000-0  90420-3 0  9995
2 63394  88.9397 279.2017 0077263  69.9110 291.0371 14.15275190 81063
CZ-6A DEB
1 63394U 24140ADR 26100.94020200  .00001753  00000-0  86846-3 0  9993
2 63394  88.9405 279.1182 0077309  67.6762 293.2597 14.15277086 81165
CZ-6A DEB
1 63394U 24140ADR 26100.94020201  .00001753  00000-0  86846-3 0  9994
2 63394  88.9405 279.1182 0077309  67.6762 293.2597 14.15277086 81165
CZ-6A DEB
1 63394U 24140ADR 26101.22300990  .00001536  00000-0  76043-3 0  9999
2 63394  88.9399 279.0839 0077220  66.7981 294.1315 14.15277242 81207
CZ-6A DEB
1 63394U 24140ADR 26101.22300990  .00001536  00000-0  76043-3 0  9999
2 63394  88.9399 279.0839 0077220  66.7981 294.1315 14.15277242 81207
CZ-6A DEB
1 63394U 24140ADR 26101.93002898  .00001516  00000-0  74997-3 0  9997
2 63394  88.9402 278.9999 0077175  64.5769 296.3380 14.15279315 81306
CZ-6A DEB
1 63394U 24140ADR 26101.93002899  .00001516  00000-0  74997-3 0  9998
2 63394  88.9402 278.9999 0077175  64.5769 296.3380 14.15279315 81306
CZ-6A DEB
1 63394U 24140ADR 26103.20266075  .00001281  00000-0  63306-3 0  9999
2 63394  88.9404 278.8487 0077056  60.5625 300.3224 14.15281998 81486
CZ-6A DEB
1 63394U 24140ADR 26103.20266076  .00001281  00000-0  63306-3 0  9990
2 63394  88.9404 278.8487 0077056  60.5625 300.3224 14.15281998 81486
CZ-6A DEB
1 63394U 24140ADR 26104.75809534  .00001109  00000-0  54706-3 0  9996
2 63394  88.9401 278.6636 0076989  55.6723 305.1719 14.15285266 81704
CZ-6A DEB
1 63394U 24140ADR 26104.89949842  .00001177  00000-0  58105-3 0  9990
2 63394  88.9408 278.6468 0076962  55.2092 305.6307 14.15285429 81721
CZ-6A DEB
1 63394U 24140ADR 26105.18230426  .00001103  00000-0  54408-3 0  9995
2 63394  88.9402 278.6126 0076960  54.3196 306.5123 14.15285693 81762
CZ-6A DEB
1 63394U 24140ADR 26105.18230426  .00001103  00000-0  54408-3 0  9995
2 63394  88.9402 278.6126 0076960  54.3196 306.5123 14.15285693 81762
CZ-6A DEB
1 63394U 24140ADR 26105.74791507  .00001097  00000-0  54079-3 0  9995
2 63394  88.9402 278.5451 0076907  52.5344 308.2805 14.15287027 81846
CZ-6A DEB
1 63394U 24140ADR 26105.74791507  .00001097  00000-0  54079-3 0  9995
2 63394  88.9402 278.5451 0076907  52.5344 308.2805 14.15287027 81846
CZ-6A DEB
1 63394U 24140ADR 26105.96001898  .00001085  00000-0  53508-3 0  9999
2 63394  88.9404 278.5200 0076856  51.8710 308.9372 14.15287471 81874
CZ-6A DEB
1 63394U 24140ADR 26106.73773284  .00001139  00000-0  56204-3 0  9996
2 63394  88.9403 278.4270 0076783  49.4081 311.3753 14.15289450 81984
CZ-6A DEB
1 63394U 24140ADR 26106.73773284  .00001139  00000-0  56204-3 0  9996
2 63394  88.9403 278.4270 0076783  49.4082 311.3753 14.15289450 81985
CZ-6A DEB
1 63394U 24140ADR 26107.44474454  .00001160  00000-0  57227-3 0  9992
2 63394  88.9405 278.3428 0076679  47.1754 313.5843 14.15291034 82083
CZ-6A DEB
1 63394U 24140ADR 26108.22245653  .00001158  00000-0  57150-3 0  9998
2 63394  88.9409 278.2504 0076522  44.7086 316.0235 14.15292507 82190
CZ-6A DEB
1 63394U 24140ADR 26109.91927750  .00001212  00000-0  59865-3 0  9996
2 63394  88.9413 278.0482 0076307  39.3290 321.3404 14.15296531 82431
CZ-6A DEB
1 63394U 24140ADR 26109.91927750  .00001212  00000-0  59865-3 0  9996
2 63394  88.9413 278.0482 0076307  39.3290 321.3404 14.15296531 82431
CZ-6A DEB
1 63394U 24140ADR 26110.20208106  .00001160  00000-0  57275-3 0  9992
2 63394  88.9409 278.0142 0076273  38.4255 322.2329 14.15296685 82472
CZ-6A DEB
1 63394U 24140ADR 26110.20208107  .00001160  00000-0  57275-3 0  9993
2 63394  88.9409 278.0142 0076273  38.4255 322.2330 14.15296685 82474
CZ-6A DEB
1 63394U 24140ADR 26111.19188976  .00001276  00000-0  63078-3 0  9999
2 63394  88.9409 277.8961 0076140  35.2830 325.3362 14.15299697 82618
CZ-6A DEB
1 63394U 24140ADR 26111.19188976  .00001276  00000-0  63078-3 0  9999
2 63394  88.9409 277.8961 0076140  35.2830 325.3362 14.15299697 82618
CZ-6A DEB
1 63394U 24140ADR 26111.89889499  .00001243  00000-0  61432-3 0  9990
2 63394  88.9410 277.8118 0076031  33.0311 327.5591 14.15301216 82713
CZ-6A DEB
1 63394U 24140ADR 26111.89889500  .00001243  00000-0  61432-3 0  9993
2 63394  88.9410 277.8118 0076031  33.0311 327.5591 14.15301216 82713
CZ-6A DEB
1 63394U 24140ADR 26111.89889500  .00001243  00000-0  61432-3 0  9993
2 63394  88.9410 277.8118 0076031  33.0311 327.5591 14.15301216 82713
CZ-6A DEB
1 63394U 24140ADR 26114.16130531  .00001285  00000-0  63561-3 0  9990
2 63394  88.9413 277.5422 0075813  25.8582 334.6363 14.15307062 83034
CZ-6A DEB
1 63394U 24140ADR 26114.16130532  .00001285  00000-0  63561-3 0  9991
2 63394  88.9413 277.5422 0075813  25.8582 334.6363 14.15307062 83034
CZ-6A DEB
1 63394U 24140ADR 26114.44410528  .00001278  00000-0  63185-3 0  9992
2 63394  88.9414 277.5086 0075684  24.9141 335.5669 14.15307827 83070
CZ-6A DEB
1 63394U 24140ADR 26114.44410528  .00001278  00000-0  63185-3 0  9992
2 63394  88.9414 277.5086 0075684  24.9141 335.5669 14.15307827 83070
CZ-6A DEB
1 63394U 24140ADR 26115.71670431  .00001373  00000-0  67935-3 0  9997
2 63394  88.9416 277.3569 0075475  20.8327 339.5908 14.15311929 83253
CZ-6A DEB
1 63394U 24140ADR 26115.71670431  .00001373  00000-0  67935-3 0  9997
2 63394  88.9416 277.3569 0075475  20.8327 339.5907 14.15311929 83252
CZ-6A DEB
1 63394U 24140ADR 26116.42370184  .00001576  00000-0  78084-3 0  9990
2 63394  88.9416 277.2726 0075413  18.5698 341.8214 14.15315203 83350
CZ-6A DEB
1 63394U 24140ADR 26116.42370185  .00001576  00000-0  78084-3 0  9991
2 63394  88.9416 277.2726 0075413  18.5698 341.8214 14.15315203 83350
CZ-6A DEB
1 63394U 24140ADR 26116.70650014  .00001675  00000-0  83066-3 0  9990
2 63394  88.9417 277.2390 0075392  17.6638 342.7144 14.15316722 83391
CZ-6A DEB
1 63394U 24140ADR 26116.70650015  .00001675  00000-0  83066-3 0  9991
2 63394  88.9417 277.2390 0075392  17.6638 342.7144 14.15316722 83391
CZ-6A DEB
1 63394U 24140ADR 26117.20139742  .00001665  00000-0  82553-3 0  9995
2 63394  88.9418 277.1800 0075308  16.0581 344.2968 14.15318185 83468
CZ-6A DEB
1 63394U 24140ADR 26117.20139742  .00001665  00000-0  82553-3 0  9995
2 63394  88.9418 277.1800 0075308  16.0581 344.2967 14.15318185 83467
CZ-6A DEB
1 63394U 24140ADR 26117.69629424  .00001616  00000-0  80101-3 0  9992
2 63394  88.9418 277.1211 0075215  14.4563 345.8751 14.15319419 83539
CZ-6A DEB
1 63394U 24140ADR 26117.69629424  .00001616  00000-0  80101-3 0  9992
2 63394  88.9418 277.1210 0075215  14.4563 345.8751 14.15319419 83538
CZ-6A DEB
1 63394U 24140ADR 26118.19118992  .00001722  00000-0  85440-3 0  9990
2 63394  88.9415 277.0619 0075133  12.8645 347.4435 14.15321679 83605
CZ-6A DEB
1 63394U 24140ADR 26118.19118992  .00001722  00000-0  85440-3 0  9990
2 63394  88.9415 277.0619 0075133  12.8645 347.4435 14.15321679 83605
CZ-6A DEB
1 63394U 24140ADR 26118.40328786  .00001736  00000-0  86120-3 0  9999
2 63394  88.9416 277.0366 0075110  12.1712 348.1267 14.15322498 83632
CZ-6A DEB
1 63394U 24140ADR 26118.40328786  .00001736  00000-0  86120-3 0  9999
2 63394  88.9416 277.0366 0075110  12.1712 348.1267 14.15322498 83632
CZ-6A DEB
1 63394U 24140ADR 26119.39307730  .00001713  00000-0  84967-3 0  9996
2 63394  88.9414 276.9187 0074957   8.9640 351.2865 14.15325701 83774
CZ-6A DEB
1 63394U 24140ADR 26119.39307731  .00001713  00000-0  84967-3 0  9997
2 63394  88.9414 276.9187 0074957   8.9640 351.2865 14.15325701 83774
CZ-6A DEB
1 63394U 24140ADR 26120.38286356  .00001705  00000-0  84586-3 0  9995
2 63394  88.9414 276.8009 0074810   5.7386 354.4641 14.15329260 83913
CZ-6A DEB
1 63394U 24140ADR 26120.38286357  .00001705  00000-0  84586-3 0  9996
2 63394  88.9414 276.8009 0074810   5.7386 354.4641 14.15329260 83913
CZ-6A DEB
1 63394U 24140ADR 26122.15032903  .00001878  00000-0  93213-3 0  9997
2 63394  88.9415 276.5905 0074591   0.0518   0.0664 14.15337779 84168
CZ-6A DEB
1 63394U 24140ADR 26122.15032903  .00001878  00000-0  93213-3 0  9997
2 63394  88.9415 276.5905 0074591   0.0518   0.0664 14.15337779 84168
CZ-6A DEB
1 63394U 24140ADR 26122.85731384  .00001841  00000-0  91393-3 0  9990
2 63394  88.9417 276.5064 0074544 357.7960   2.2888 14.15340381 84263
CZ-6A DEB
1 63394U 24140ADR 26122.85731385  .00001841  00000-0  91393-3 0  9991
2 63394  88.9417 276.5064 0074544 357.7960   2.2888 14.15340381 84263
CZ-6A DEB
1 63394U 24140ADR 26123.84708993  .00001820  00000-0  90330-3 0  9997
2 63394  88.9437 276.3892 0074471 354.5924   5.4451 14.15344218 84406
CZ-6A DEB
1 63394U 24140ADR 26123.84708994  .00001820  00000-0  90330-3 0  9998
2 63394  88.9437 276.3892 0074471 354.5924   5.4451 14.15344218 84406
CZ-6A DEB
1 63394U 24140ADR 26124.12988242  .00001735  00000-0  86114-3 0  9996
2 63394  88.9443 276.3559 0074409 353.6148   6.4083 14.15344865 84446
CZ-6A DEB
1 63394U 24140ADR 26124.12988243  .00001735  00000-0  86114-3 0  9997
2 63394  88.9443 276.3559 0074409 353.6148   6.4083 14.15344865 84446
CZ-6A DEB
1 63394U 24140ADR 26124.69546557  .00001875  00000-0  93115-3 0  9991
2 63394  88.9437 276.2884 0074233 351.6474   8.3471 14.15348162 84529
CZ-6A DEB
1 63394U 24140ADR 26124.69546557  .00001875  00000-0  93115-3 0  9991
2 63394  88.9437 276.2884 0074233 351.6474   8.3471 14.15348162 84529
CZ-6A DEB
1 63394U 24140ADR 26125.40244395  .00002029  00000-0  10082-2 0  9999
2 63394  88.9432 276.2039 0074149 349.3881  10.5737 14.15352237 84627
CZ-6A DEB
1 63394U 24140ADR 26125.40244395  .00002029  00000-0  10082-2 0  9999
2 63394  88.9432 276.2039 0074149 349.3881  10.5737 14.15352237 84627
CZ-6A DEB
1 63394U 24140ADR 26127.16988656  .00001718  00000-0  85237-3 0  9998
2 63394  88.9433 275.9931 0073850 343.6176  16.2625 14.15358284 84871
CZ-6A DEB
1 63394U 24140ADR 26127.16988657  .00001718  00000-0  85237-3 0  9999
2 63394  88.9433 275.9931 0073850 343.6176  16.2625 14.15358284 84871
CZ-6A DEB
1 63394U 24140ADR 26128.37174294  .00001656  00000-0  82140-3 0  9998
2 63394  88.9425 275.8495 0073714 339.6903  20.1355 14.15362585 85041
CZ-6A DEB
1 63394U 24140ADR 26128.86662387  .00001723  00000-0  85518-3 0  9994
2 63394  88.9423 275.7904 0073650 338.0652  21.7387 14.15364610 85117
CZ-6A DEB
1 63394U 24140ADR 26128.86662387  .00001723  00000-0  85518-3 0  9994
2 63394  88.9423 275.7904 0073650 338.0652  21.7387 14.15364610 85117
CZ-6A DEB
1 63394U 24140ADR 26129.14941288  .00001658  00000-0  82267-3 0  9991
2 63394  88.9423 275.7567 0073629 337.1544  22.6372 14.15365358 85156
CZ-6A DEB
1 63394U 24140ADR 26129.14941289  .00001658  00000-0  82267-3 0  9992
2 63394  88.9423 275.7567 0073629 337.1544  22.6372 14.15365358 85156
CZ-6A DEB
1 63394U 24140ADR 26129.85638463  .00001561  00000-0  77422-3 0  9997
2 63394  88.9422 275.6726 0073550 334.8089  24.9517 14.15367436 85258
CZ-6A DEB
1 63394U 24140ADR 26130.13917236  .00001587  00000-0  78729-3 0  9997
2 63394  88.9425 275.6393 0073588 333.8155  25.9318 14.15368257 85291
CZ-6A DEB
1 63394U 24140ADR 26130.13917237  .00001587  00000-0  78729-3 0  9998
2 63394  88.9425 275.6393 0073588 333.8155  25.9318 14.15368257 85291
CZ-6A DEB
1 63394U 24140ADR 26130.84614274  .00001533  00000-0  76005-3 0  9997
2 63394  88.9427 275.5551 0073523 331.4992  28.2183 14.15370413 85394
CZ-6A DEB
1 63394U 24140ADR 26130.84614275  .00001533  00000-0  76005-3 0  9998
2 63394  88.9427 275.5551 0073523 331.4992  28.2183 14.15370413 85394
CZ-6A DEB
1 63394U 24140ADR 26131.83589890  .00001489  00000-0  73815-3 0  9998
2 63394  88.9428 275.4374 0073430 328.2051  31.4712 14.15373644 85533
CZ-6A DEB
1 63394U 24140ADR 26131.83589891  .00001489  00000-0  73815-3 0  9999
2 63394  88.9428 275.4374 0073430 328.2051  31.4712 14.15373644 85533
CZ-6A DEB
1 63394U 24140ADR 26132.11868610  .00001534  00000-0  76072-3 0  9999
2 63394  88.9430 275.4039 0073399 327.3082  32.3573 14.15374873 85576
CZ-6A DEB
1 63394U 24140ADR 26132.11868610  .00001534  00000-0  76072-3 0  9999
2 63394  88.9430 275.4038 0073399 327.3082  32.3573 14.15374873 85575
CZ-6A DEB
1 63394U 24140ADR 26132.82565332  .00001504  00000-0  74571-3 0  9991
2 63394  88.9430 275.3200 0073332 324.9427  34.6945 14.15377040 85676
CZ-6A DEB
1 63394U 24140ADR 26132.82565333  .00001504  00000-0  74571-3 0  9992
2 63394  88.9430 275.3200 0073332 324.9427  34.6945 14.15377040 85676
CZ-6A DEB
1 63394U 24140ADR 26133.10843981  .00001509  00000-0  74822-3 0  9996
2 63394  88.9442 275.2869 0073364 324.0086  35.6172 14.15378051 85717
CZ-6A DEB
1 63394U 24140ADR 26133.10843982  .00001509  00000-0  74822-3 0  9997
2 63394  88.9442 275.2869 0073364 324.0086  35.6172 14.15378051 85717
CZ-6A DEB
1 63394U 24140ADR 26133.39122664  .00001499  00000-0  74308-3 0  9992
2 63394  88.9444 275.2534 0073348 323.0639  36.5509 14.15378805 85758
CZ-6A DEB
1 63394U 24140ADR 26133.39122665  .00001499  00000-0  74308-3 0  9993
2 63394  88.9444 275.2534 0073348 323.0639  36.5509 14.15378805 85758
CZ-6A DEB
1 63394U 24140ADR 26134.80515750  .00001523  00000-0  75509-3 0  9993
2 63394  88.9444 275.0849 0073196 318.4142  41.1491 14.15383423 85959
CZ-6A DEB
1 63394U 24140ADR 26135.15863978  .00001469  00000-0  72811-3 0  9992
2 63394  88.9441 275.0427 0073151 317.2529  42.2982 14.15384167 86005
CZ-6A DEB
1 63394U 24140ADR 26135.37072892  .00001467  00000-0  72738-3 0  9999
2 63394  88.9441 275.0175 0073140 316.5458  42.9978 14.15384820 86037
CZ-6A DEB
1 63394U 24140ADR 26136.64326125  .00001576  00000-0  78171-3 0  9999
2 63394  88.9438 274.8657 0073075 312.2954  47.2053 14.15389541 86213
CZ-6A DEB
1 63394U 24140ADR 26136.64326126  .00001576  00000-0  78171-3 0  9990
2 63394  88.9438 274.8658 0073075 312.2954  47.2053 14.15389541 86214
CZ-6A DEB
1 63394U 24140ADR 26136.64326126  .00001576  00000-0  78171-3 0  9990
2 63394  88.9438 274.8658 0073075 312.2954  47.2053 14.15389541 86214
CZ-6A DEB
1 63394U 24140ADR 26137.13813454  .00001539  00000-0  76338-3 0  9992
2 63394  88.9438 274.8070 0073043 310.6380  48.8470 14.15390825 86286
CZ-6A DEB
1 63394U 24140ADR 26137.35022318  .00001534  00000-0  76046-3 0  9998
2 63394  88.9438 274.7817 0073033 309.9323  49.5461 14.15391371 86310
CZ-6A DEB
1 63394U 24140ADR 26137.35022319  .00001534  00000-0  76046-3 0  9999
2 63394  88.9438 274.7817 0073033 309.9323  49.5461 14.15391371 86310
CZ-6A DEB
1 63394U 24140ADR 26138.12787999  .00001555  00000-0  77135-3 0  9990
2 63394  88.9439 274.6893 0072990 307.3414  52.1138 14.15393839 86422
CZ-6A DEB
1 63394U 24140ADR 26138.33996832  .00001532  00000-0  75967-3 0  9997
2 63394  88.9439 274.6641 0072985 306.6356  52.8135 14.15394272 86453
CZ-6A DEB
1 63394U 24140ADR 26138.33996833  .00001532  00000-0  75967-3 0  9998
2 63394  88.9439 274.6641 0072985 306.6356  52.8135 14.15394272 86453
CZ-6A DEB
1 63394U 24140ADR 26140.81432285  .00001585  00000-0  78620-3 0  9997
2 63394  88.9442 274.3699 0072869 298.3929  60.9925 14.15402242 86804
CZ-6A DEB
1 63394U 24140ADR 26141.80406172  .00001559  00000-0  77306-3 0  9994
2 63394  88.9443 274.2522 0072822 295.1024  64.2619 14.15405233 86944
CZ-6A DEB
1 63394U 24140ADR 26141.80406173  .00001559  00000-0  77306-3 0  9995
2 63394  88.9443 274.2522 0072822 295.1024  64.2619 14.15405233 86944
CZ-6A DEB
1 63394U 24140ADR 26142.79379865  .00001651  00000-0  81900-3 0  9999
2 63394  88.9444 274.1345 0072801 291.8043  67.5410 14.15408920 87085
CZ-6A DEB
1 63394U 24140ADR 26143.78353405  .00001620  00000-0  80366-3 0  9992
2 63394  88.9446 274.0168 0072807 288.4894  70.8391 14.15411871 87221
CZ-6A DEB
1 63394U 24140ADR 26143.78353406  .00001620  00000-0  80366-3 0  9993
2 63394  88.9446 274.0168 0072807 288.4894  70.8391 14.15411871 87221
CZ-6A DEB
1 63394U 24140ADR 26147.10620222  .00002081  00000-0  10336-2 0  9997
2 63394  88.9449 273.6222 0072806 277.4487  81.8432 14.15425672 87698
CZ-6A DEB
1 63394U 24140ADR 26147.10620223  .00002081  00000-0  10336-2 0  9998
2 63394  88.9449 273.6223 0072806 277.4488  81.8432 14.15425672 87690
CZ-6A DEB
1 63394U 24140ADR 26147.31828610  .00002239  00000-0  11125-2 0  9993
2 63394  88.9446 273.5970 0072786 276.7637  82.5272 14.15427484 87727
CZ-6A DEB
1 63394U 24140ADR 26147.31828611  .00002239  00000-0  11125-2 0  9994
2 63394  88.9446 273.5970 0072786 276.7637  82.5272 14.15427484 87727
CZ-6A DEB
1 63394U 24140ADR 26148.09592899  .00002068  00000-0  10274-2 0  9990
2 63394  88.9451 273.5047 0072724 274.2573  85.0306 14.15429250 87833
CZ-6A DEB
1 63394U 24140ADR 26148.30801144  .00002256  00000-0  11212-2 0  9992
2 63394  88.9456 273.4803 0072836 273.5049  85.7810 14.15431456 87862
CZ-6A DEB
1 63394U 24140ADR 26148.30801144  .00002256  00000-0  11212-2 0  9992
2 63394  88.9456 273.4803 0072836 273.5049  85.7810 14.15431456 87862
CZ-6A DEB
1 63394U 24140ADR 26148.30801144  .00002256  00000-0  11212-2 0  9992
2 63394  88.9456 273.4803 0072836 273.5049  85.7810 14.15431456 87862
CZ-6A DEB
1 63394U 24140ADR 26150.07537355  .00002252  00000-0  11190-2 0  9990
2 63394  88.9445 273.2695 0072764 267.6524  91.6331 14.15438109 88114
CZ-6A DEB
1 63394U 24140ADR 26150.07537356  .00002252  00000-0  11190-2 0  9991
2 63394  88.9445 273.2695 0072764 267.6524  91.6331 14.15438109 88114
CZ-6A DEB
1 63394U 24140ADR 26150.78231566  .00002324  00000-0  11551-2 0  9994
2 63394  88.9448 273.1858 0072771 265.2906  93.9969 14.15441480 88212
CZ-6A DEB
1 63394U 24140ADR 26150.78231566  .00002324  00000-0  11551-2 0  9994
2 63394  88.9448 273.1858 0072771 265.2906  93.9969 14.15441480 88212
CZ-6A DEB
1 63394U 24140ADR 26151.77203127  .00002380  00000-0  11827-2 0  9994
2 63394  88.9446 273.0680 0072860 261.9576  97.3340 14.15446344 88357
CZ-6A DEB
1 63394U 24140ADR 26151.77203128  .00002380  00000-0  11827-2 0  9995
2 63394  88.9446 273.0680 0072860 261.9576  97.3340 14.15446344 88357
CZ-6A DEB
1 63394U 24140ADR 26158.06374921  .00001907  00000-0  94559-3 0  9992
2 63394  88.9472 272.3210 0073312 241.1407 118.2410 14.15469582 89242
CZ-6A DEB
1 63394U 24140ADR 26158.06374922  .00001907  00000-0  94559-3 0  9993
2 63394  88.9472 272.3210 0073312 241.1407 118.2410 14.15469583 89243
CZ-6A DEB
1 63394U 24140ADR 26158.55860005  .00002079  00000-0  10315-2 0  9997
2 63394  88.9452 272.2627 0073332 239.5300 119.8632 14.15472290 89317
CZ-6A DEB
1 63394U 24140ADR 26158.55860005  .00002079  00000-0  10315-2 0  9997
2 63394  88.9452 272.2627 0073332 239.5300 119.8632 14.15472290 89317
CZ-6A DEB
1 63394U 24140ADR 26159.54829979  .00001903  00000-0  94360-3 0  9990
2 63394  88.9451 272.1451 0073409 236.2533 123.1646 14.15474977 89459
CZ-6A DEB
1 63394U 24140ADR 26159.54829980  .00001903  00000-0  94360-3 0  9992
2 63394  88.9451 272.1451 0073409 236.2533 123.1646 14.15474977 89459
CZ-6A DEB
1 63394U 24140ADR 26162.02254217  .00001551  00000-0  76712-3 0  9994
2 63394  88.9461 271.8510 0073804 228.0737 131.4144 14.15481336 89807
CZ-6A DEB
1 63394U 24140ADR 26162.58808227  .00001593  00000-0  78826-3 0  9995
2 63394  88.9458 271.7841 0073803 226.2331 133.2734 14.15483259 89887
CZ-6A DEB
1 63394U 24140ADR 26162.58808228  .00001593  00000-0  78826-3 0  9996
2 63394  88.9458 271.7841 0073803 226.2331 133.2735 14.15483259 89888
CZ-6A DEB
1 63394U 24140ADR 26164.07262069  .00001662  00000-0  82251-3 0  9993
2 63394  88.9458 271.6079 0073996 221.3671 138.1899 14.15488414 90094
CZ-6A DEB
1 63394U 24140ADR 26166.05199981  .00001488  00000-0  73554-3 0  9997
2 63394  88.9462 271.3732 0074286 214.9073 144.7232 14.15493561 90373
CZ-6A DEB
1 63394U 24140ADR 26166.05199982  .00001488  00000-0  73554-3 0  9998
2 63394  88.9462 271.3732 0074286 214.9073 144.7232 14.15493561 90373
CZ-6A DEB
1 63394U 24140ADR 26166.54684341  .00001487  00000-0  73494-3 0  9992
2 63394  88.9461 271.3143 0074325 213.2664 146.3841 14.15495123 90448
CZ-6A DEB
1 63394U 24140ADR 26166.54684342  .00001487  00000-0  73494-3 0  9993
2 63394  88.9461 271.3143 0074325 213.2664 146.3841 14.15495123 90448
CZ-6A DEB
1 63394U 24140ADR 26167.04168667  .00001473  00000-0  72760-3 0  9996
2 63394  88.9465 271.2559 0074402 211.6815 147.9885 14.15496563 90510
CZ-6A DEB
1 63394U 24140ADR 26167.04168667  .00001473  00000-0  72760-3 0  9996
2 63394  88.9465 271.2559 0074402 211.6815 147.9885 14.15496563 90510
CZ-6A DEB
1 63394U 24140ADR 26167.53652977  .00001426  00000-0  70425-3 0  9996
2 63394  88.9464 271.1970 0074460 210.0648 149.6255 14.15497727 90586
CZ-6A DEB
1 63394U 24140ADR 26167.53652977  .00001426  00000-0  70425-3 0  9996
2 63394  88.9464 271.1970 0074460 210.0648 149.6255 14.15497727 90586
CZ-6A DEB
1 63394U 24140ADR 26170.01073973  .00001272  00000-0  62726-3 0  9990
2 63394  88.9464 270.9034 0074814 202.0357 157.7610 14.15503484 90937
CZ-6A DEB
1 63394U 24140ADR 26170.01073974  .00001272  00000-0  62726-3 0  9991
2 63394  88.9464 270.9034 0074814 202.0357 157.7610 14.15503484 90937
CZ-6A DEB
1 63394U 24140ADR 26170.71765510  .00001257  00000-0  61958-3 0  9991
2 63394  88.9464 270.8195 0074913 199.7402 160.0883 14.15505188 91031
CZ-6A DEB
1 63394U 24140ADR 26170.71765511  .00001257  00000-0  61958-3 0  9992
2 63394  88.9464 270.8195 0074913 199.7402 160.0883 14.15505188 91031
CZ-6A DEB
1 63394U 24140ADR 26173.54531075  .00001179  00000-0  58030-3 0  9992
2 63394  88.9462 270.4840 0075294 190.5756 169.3852 14.15511200 91430
CZ-6A DEB
1 63394U 24140ADR 26173.54531075  .00001179  00000-0  58030-3 0  9992
2 63394  88.9462 270.4840 0075294 190.5756 169.3852 14.15511200 91430
CZ-6A DEB
1 63394U 24140ADR 26175.52466192  .00001304  00000-0  64221-3 0  9998
2 63394  88.9460 270.2492 0075584 184.2285 175.8274 14.15516583 91718
CZ-6A DEB
1 63394U 24140ADR 26176.51433432  .00001400  00000-0  68995-3 0  9998
2 63394  88.9461 270.1317 0075742 181.0944 179.0090 14.15519726 91856
CZ-6A DEB
1 63394U 24140ADR 26176.51433432  .00001400  00000-0  68995-3 0  9998
2 63394  88.9461 270.1317 0075742 181.0944 179.0090 14.15519726 91856
CZ-6A DEB
1 63394U 24140ADR 26177.00917000  .00001365  00000-0  67267-3 0  9992
2 63394  88.9461 270.0731 0075814 179.5170 180.6105 14.15520839 91928
CZ-6A DEB
1 63394U 24140ADR 26177.00917000  .00001365  00000-0  67267-3 0  9992
2 63394  88.9461 270.0731 0075814 179.5170 180.6105 14.15520839 91928
CZ-6A DEB
1 63394U 24140ADR 26177.99883995  .00001392  00000-0  68588-3 0  9992
2 63394  88.9464 269.9559 0075961 176.3657 183.8099 14.15523606 92062
CZ-6A DEB
1 63394U 24140ADR 26177.99883996  .00001392  00000-0  68588-3 0  9993
2 63394  88.9464 269.9559 0075961 176.3657 183.8099 14.15523606 92062
CZ-6A DEB
1 63394U 24140ADR 26178.49367436  .00001369  00000-0  67439-3 0  9993
2 63394  88.9465 269.8972 0076023 174.7862 185.4136 14.15524761 92132
CZ-6A DEB
1 63394U 24140ADR 26178.49367437  .00001369  00000-0  67439-3 0  9994
2 63394  88.9465 269.8972 0076023 174.7862 185.4136 14.15524761 92132
CZ-6A DEB
1 63394U 24140ADR 26178.98850815  .00001373  00000-0  67620-3 0  9992
2 63394  88.9464 269.8386 0076097 173.2132 187.0106 14.15526114 92202
CZ-6A DEB
1 63394U 24140ADR 26178.98850815  .00001373  00000-0  67620-3 0  9992
2 63394  88.9464 269.8386 0076097 173.2132 187.0106 14.15526114 92202
CZ-6A DEB
1 63394U 24140ADR 26179.69541292  .00001352  00000-0  66560-3 0  9996
2 63394  88.9464 269.7548 0076192 170.9604 189.2977 14.15527861 92306
CZ-6A DEB
1 63394U 24140ADR 26180.54369758  .00001407  00000-0  69298-3 0  9999
2 63394  88.9464 269.6540 0076299 168.2466 192.0526 14.15530299 92425
CZ-6A DEB
1 63394U 24140ADR 26180.54369759  .00001407  00000-0  69298-3 0  9990
2 63394  88.9464 269.6540 0076299 168.2466 192.0526 14.15530300 92428
CZ-6A DEB
1 63394U 24140ADR 26181.95750162  .00001463  00000-0  72085-3 0  9998
2 63394  88.9463 269.4863 0076488 163.7608 196.6058 14.15534354 92626
CZ-6A DEB
1 63394U 24140ADR 26181.95750163  .00001463  00000-0  72085-3 0  9999
2 63394  88.9463 269.4863 0076488 163.7608 196.6058 14.15534354 92626
CZ-6A DEB
1 63394U 24140ADR 26181.95750163  .00001463  00000-0  72085-3 0  9999
2 63394  88.9463 269.4863 0076488 163.7608 196.6058 14.15534354 92626
CZ-6A DEB
1 63394U 24140ADR 26182.52302227  .00001440  00000-0  70898-3 0  9992
2 63394  88.9463 269.4193 0076561 161.9674 198.4257 14.15535673 92702
CZ-6A DEB
1 63394U 24140ADR 26182.52302227  .00001440  00000-0  70898-3 0  9992
2 63394  88.9463 269.4193 0076561 161.9674 198.4257 14.15535673 92702
CZ-6A DEB
1 63394U 24140ADR 26183.51268176  .00001559  00000-0  76822-3 0  9990
2 63394  88.9463 269.3018 0076692 158.8544 201.5843 14.15538828 92840
CZ-6A DEB
1 63394U 24140ADR 26183.51268176  .00001559  00000-0  76822-3 0  9990
2 63394  88.9463 269.3018 0076692 158.8544 201.5843 14.15538828 92840
CZ-6A DEB
1 63394U 24140ADR 26184.50233909  .00001531  00000-0  75415-3 0  9993
2 63394  88.9462 269.1844 0076815 155.7469 204.7366 14.15541287 92986
CZ-6A DEB
1 63394U 24140ADR 26184.50233909  .00001531  00000-0  75415-3 0  9993
2 63394  88.9462 269.1844 0076815 155.7469 204.7366 14.15541287 92986
CZ-6A DEB
1 63394U 24140ADR 26185.49199356  .00001543  00000-0  76014-3 0  9998
2 63394  88.9461 269.0670 0076924 152.6427 207.8844 14.15544258 93125
CZ-6A DEB
1 63394U 24140ADR 26185.49199357  .00001543  00000-0  76014-3 0  9999
2 63394  88.9461 269.0670 0076924 152.6427 207.8844 14.15544258 93125
CZ-6A DEB
1 63394U 24140ADR 26186.19888742  .00001716  00000-0  84595-3 0  9995
2 63394  88.9461 268.9832 0076994 150.4326 210.1249 14.15547557 93226
CZ-6A DEB
1 63394U 24140ADR 26186.19888742  .00001716  00000-0  84595-3 0  9995
2 63394  88.9461 268.9832 0076994 150.4326 210.1249 14.15547557 93226
CZ-6A DEB
1 63394U 24140ADR 26188.17818872  .00001093  00000-0  53601-3 0  9994
2 63394  88.9459 268.7483 0077187 144.2587 216.3803 14.15549506 93509
CZ-6A DEB
1 63394U 24140ADR 26188.17818872  .00001093  00000-0  53601-3 0  9994
2 63394  88.9459 268.7483 0077187 144.2587 216.3803 14.15549505 93508
CZ-6A DEB
1 63394U 24140ADR 26188.53163461  .00001055  00000-0  51714-3 0  9992
2 63394  88.9459 268.7064 0077221 143.1511 217.5020 14.15550174 93550
CZ-6A DEB
1 63394U 24140ADR 26188.53163461  .00001055  00000-0  51714-3 0  9992
2 63394  88.9459 268.7064 0077221 143.1511 217.5020 14.15550174 93550
CZ-6A DEB
1 63394U 24140ADR 26190.51092881  .00000776  00000-0  37812-3 0  9992
2 63394  88.9459 268.4717 0077405 136.9374 223.7906 14.15552811 93836
CZ-6A DEB
1 63394U 24140ADR 26194.18674985  .00000565  00000-0  27312-3 0  9990
2 63394  88.9455 268.0355 0077606 125.5890 235.2562 14.15556232 94351
CZ-6A DEB
1 63394U 24140ADR 26194.18674986  .00000565  00000-0  27312-3 0  9991
2 63394  88.9455 268.0355 0077606 125.5890 235.2562 14.15556232 94351
CZ-6A DEB
1 63394U 24140ADR 26194.68157084  .00000547  00000-0  26440-3 0  9992
2 63394  88.9456 267.9768 0077631 124.0456 236.8135 14.15556647 94429
CZ-6A DEB
1 63394U 24140ADR 26195.17639152  .00000555  00000-0  26827-3 0  9996
2 63394  88.9454 267.9178 0077651 122.4982 238.3742 14.15557199 94491
CZ-6A DEB
1 63394U 24140ADR 26195.17639152  .00000555  00000-0  26827-3 0  9996
2 63394  88.9454 267.9178 0077651 122.4981 238.3742 14.15557199 94490
CZ-6A DEB
1 63394U 24140ADR 26196.16603363  .00000463  00000-0  22275-3 0  9992
2 63394  88.9458 267.8011 0077684 119.4392 241.4577 14.15557262 94635
CZ-6A DEB
1 63394U 24140ADR 26196.16603364  .00000463  00000-0  22275-3 0  9993
2 63394  88.9458 267.8011 0077684 119.4392 241.4577 14.15557262 94635
CZ-6A DEB
1 63394U 24140ADR 26197.43842890  .00000424  00000-0  20315-3 0  9993
2 63394  88.9462 267.6503 0077729 115.4310 245.4947 14.15557829 94814
CZ-6A DEB
1 63394U 24140ADR 26197.43842891  .00000424  00000-0  20315-3 0  9994
2 63394  88.9462 267.6503 0077729 115.4310 245.4947 14.15557829 94814
CZ-6A DEB
1 63394U 24140ADR 26198.64013406  .00000380  00000-0  18137-3 0  9990
2 63394  88.9466 267.5084 0077728 111.7561 249.1922 14.15558220 94985
CZ-6A DEB
1 63394U 24140ADR 26198.64013407  .00000380  00000-0  18137-3 0  9991
2 63394  88.9466 267.5084 0077728 111.7561 249.1922 14.15558220 94985
CZ-6A DEB
1 63394U 24140ADR 26198.92288817  .00000376  00000-0  17925-3 0  9990
2 63394  88.9461 267.4739 0077681 110.9244 250.0280 14.15558210 95026
CZ-6A DEB
1 63394U 24140ADR 26199.62977308  .00000351  00000-0  16661-3 0  9997
2 63394  88.9460 267.3900 0077718 108.7287 252.2355 14.15558363 95124
CZ-6A DEB
1 63394U 24140ADR 26199.91252723  .00000336  00000-0  15951-3 0  9990
2 63394  88.9458 267.3560 0077720 107.8503 253.1181 14.15558279 95164
CZ-6A DEB
1 63394U 24140ADR 26200.61941193  .00000318  00000-0  15027-3 0  9990
2 63394  88.9460 267.2726 0077783 105.6372 255.3416 14.15558395 95264
CZ-6A DEB
1 63394U 24140ADR 26200.61941194  .00000318  00000-0  15027-3 0  9991
2 63394  88.9460 267.2726 0077783 105.6372 255.3416 14.15558395 95264
CZ-6A DEB
1 63394U 24140ADR 26202.45730951  .00000429  00000-0  20542-3 0  9993
2 63394  88.9461 267.0547 0077731  99.9461 261.0511 14.15559643 95527
CZ-6A DEB
1 63394U 24140ADR 26203.44694441  .00000429  00000-0  20554-3 0  9999
2 63394  88.9450 266.9363 0077684  96.9030 264.1003 14.15560365 95663
CZ-6A DEB
1 63394U 24140ADR 26204.43657818  .00000485  00000-0  23330-3 0  9993
2 63394  88.9450 266.8190 0077605  93.8484 267.1580 14.15561475 95804
CZ-6A DEB
1 63394U 24140ADR 26204.43657819  .00000485  00000-0  23330-3 0  9994
2 63394  88.9450 266.8191 0077605  93.8484 267.1580 14.15561475 95805
CZ-6A DEB
1 63394U 24140ADR 26206.13308967  .00000623  00000-0  30188-3 0  9993
2 63394  88.9450 266.6176 0077485  88.5709 272.4354 14.15564083 96046
CZ-6A DEB
1 63394U 24140ADR 26207.61753349  .00000711  00000-0  34594-3 0  9998
2 63394  88.9449 266.4411 0077373  83.9511 277.0486 14.15566506 96252
CZ-6A DEB
1 63394U 24140ADR 26208.60716058  .00000731  00000-0  35568-3 0  9998
2 63394  88.9450 266.3238 0077290  80.8742 280.1180 14.15568068 96396
CZ-6A DEB
1 63394U 24140ADR 26209.59678618  .00000712  00000-0  34638-3 0  9992
2 63394  88.9450 266.2065 0077206  77.7947 283.1875 14.15569435 96531
CZ-6A DEB
1 63394U 24140ADR 26210.86915911  .00000727  00000-0  35368-3 0  9991
2 63394  88.9449 266.0555 0077083  73.8361 287.1293 14.15571568 96719
CZ-6A DEB
1 63394U 24140ADR 26212.42427830  .00000669  00000-0  32522-3 0  9997
2 63394  88.9448 265.8708 0076836  68.9973 291.9412 14.15573661 96930
CZ-6A DEB
1 63394U 24140ADR 26215.39313173  .00000655  00000-0  31829-3 0  9994
2 63394  88.9447 265.5188 0076406  59.6800 301.1917 14.15578305 97358
CZ-6A DEB
1 63394U 24140ADR 26217.08961357  .00000597  00000-0  28934-3 0  9993
2 63394  88.9445 265.3170 0076196  54.3328 306.4922 14.15580580 97596
CZ-6A DEB
1 63394U 24140ADR 26217.58441994  .00000595  00000-0  28854-3 0  9997
2 63394  88.9444 265.2582 0076103  52.7701 308.0398 14.15581307 97667
CZ-6A DEB
1 63394U 24140ADR 26219.56364296  .00000524  00000-0  25318-3 0  9990
2 63394  88.9445 265.0231 0075800  46.5357 314.2101 14.15583560 97943
CZ-6A DEB
1 63394U 24140ADR 26219.84638874  .00000501  00000-0  24180-3 0  9998
2 63394  88.9444 264.9894 0075752  45.6439 315.0921 14.15583786 97985
CZ-6A DEB
1 63394U 24140ADR 26219.84638874  .00000501  00000-0  24180-3 0  9998
2 63394  88.9444 264.9894 0075752  45.6439 315.0921 14.15583786 97985
CZ-6A DEB
1 63394U 24140ADR 26220.41188022  .00000491  00000-0  23674-3 0  9993
2 63394  88.9443 264.9222 0075658  43.8504 316.8656 14.15584347 98065
CZ-6A DEB
1 63394U 24140ADR 26220.41188022  .00000491  00000-0  23674-3 0  9993
2 63394  88.9443 264.9222 0075658  43.8504 316.8656 14.15584347 98065
CZ-6A DEB
1 63394U 24140ADR 26221.82560664  .00000503  00000-0  24288-3 0  9991
2 63394  88.9442 264.7541 0075450  39.3727 321.2911 14.15586174 98269
CZ-6A DEB
1 63394U 24140ADR 26222.39109660  .00000529  00000-0  25580-3 0  9993
2 63394  88.9441 264.6868 0075355  37.5770 323.0650 14.15586964 98347
CZ-6A DEB
1 63394U 24140ADR 26222.39109660  .00000529  00000-0  25580-3 0  9993
2 63394  88.9441 264.6868 0075355  37.5770 323.0649 14.15586964 98345
CZ-6A DEB
1 63394U 24140ADR 26226.06677374  .00000547  00000-0  26485-3 0  9998
2 63394  88.9439 264.2499 0074710  25.7851 334.7030 14.15591071 98866
CZ-6A DEB
1 63394U 24140ADR 26226.06677374  .00000547  00000-0  26485-3 0  9998
2 63394  88.9439 264.2499 0074710  25.7851 334.7030 14.15591071 98866
CZ-6A DEB
1 63394U 24140ADR 26226.34951719  .00000572  00000-0  27760-3 0  9992
2 63394  88.9443 264.2168 0074612  24.8700 335.6053 14.15591605 98901
CZ-6A DEB
1 63394U 24140ADR 26226.34951719  .00000572  00000-0  27760-3 0  9992
2 63394  88.9443 264.2168 0074612  24.8700 335.6053 14.15591605 98901
CZ-6A DEB
1 63394U 24140ADR 26227.05637617  .00000604  00000-0  29368-3 0  9991
2 63394  88.9442 264.1328 0074507  22.6041 337.8400 14.15592654 99001
CZ-6A DEB
1 63394U 24140ADR 26227.05637617  .00000604  00000-0  29368-3 0  9991
2 63394  88.9442 264.1328 0074507  22.6041 337.8399 14.15592654 99008
CZ-6A DEB
1 63394U 24140ADR 26227.83392035  .00000650  00000-0  31649-3 0  9995
2 63394  88.9441 264.0404 0074388  20.1178 340.2914 14.15593883 99110
CZ-6A DEB
1 63394U 24140ADR 26227.83392035  .00000650  00000-0  31649-3 0  9995
2 63394  88.9441 264.0404 0074388  20.1178 340.2914 14.15593883 99110
CZ-6A DEB
1 63394U 24140ADR 26228.04597770  .00000660  00000-0  32169-3 0  9991
2 63394  88.9441 264.0152 0074358  19.4284 340.9711 14.15594228 99145
CZ-6A DEB
1 63394U 24140ADR 26228.04597770  .00000660  00000-0  32169-3 0  9991
2 63394  88.9441 264.0152 0074358  19.4284 340.9711 14.15594227 99144
CZ-6A DEB
1 63394U 24140ADR 26228.54077801  .00000677  00000-0  32996-3 0  9990
2 63394  88.9441 263.9564 0074267  17.8356 342.5412 14.15594979 99218
CZ-6A DEB
1 63394U 24140ADR 26229.53037759  .00000727  00000-0  35478-3 0  9992
2 63394  88.9439 263.8388 0074088  14.6405 345.6904 14.15596664 99357
CZ-6A DEB
1 63394U 24140ADR 26229.81312013  .00000797  00000-0  38999-3 0  9990
2 63394  88.9440 263.8053 0074046  13.7321 346.5857 14.15597448 99391
CZ-6A DEB
1 63394U 24140ADR 26230.51997568  .00000913  00000-0  44754-3 0  9999
2 63394  88.9441 263.7213 0073912  11.4288 348.8556 14.15599223 99492
CZ-6A DEB
1 63394U 24140ADR 26231.36820141  .00001041  00000-0  51116-3 0  9998
2 63394  88.9440 263.6205 0073773   8.6737 351.5706 14.15601366 99617
CZ-6A DEB
1 63394U 24140ADR 26232.35779731  .00001007  00000-0  49431-3 0  9995
2 63394  88.9439 263.5028 0073607   5.4520 354.7452 14.15602836 99759
CZ-6A DEB
1 63394U 24140ADR 26233.06465038  .00001036  00000-0  50882-3 0  9990
2 63394  88.9439 263.4188 0073486   3.1396 357.0237 14.15604318 99851
CZ-6A DEB
1 63394U 24140ADR 26234.05424383  .00001037  00000-0  50959-3 0  9994
2 63394  88.9440 263.3014 0073319 359.8942   0.2217 14.15606112 99997
CZ-6A DEB
1 63394U 24140ADR 26234.83178084  .00001019  00000-0  50058-3 0  9994
2 63394  88.9438 263.2088 0073206 357.3496   2.7293 14.15607382100103
CZ-6A DEB
1 63394U 24140ADR 26235.04383623  .00001017  00000-0  49973-3 0  9997
2 63394  88.9437 263.1835 0073181 356.6593   3.4095 14.15607774100139
CZ-6A DEB
1 63394U 24140ADR 26236.03342706  .00001003  00000-0  49296-3 0  9997
2 63394  88.9437 263.0659 0073032 353.4186   6.6035 14.15609586100277
CZ-6A DEB
1 63394U 24140ADR 26237.02301696  .00000997  00000-0  48997-3 0  9998
2 63394  88.9435 262.9481 0072897 350.1824   9.7934 14.15611367100415
CZ-6A DEB
1 63394U 24140ADR 26238.50739999  .00001099  00000-0  54066-3 0  9991
2 63394  88.9433 262.7714 0072697 345.3230  14.5845 14.15614521100628
CZ-6A DEB
1 63394U 24140ADR 26238.50739999  .00001099  00000-0  54066-3 0  9991
2 63394  88.9433 262.7714 0072697 345.3230  14.5845 14.15614521100628
CZ-6A DEB
1 63394U 24140ADR 26239.49698696  .00001106  00000-0  54445-3 0  9998
2 63394  88.9431 262.6537 0072567 342.0899  17.7732 14.15616423100767
CZ-6A DEB
1 63394U 24140ADR 26239.49698696  .00001106  00000-0  54445-3 0  9998
2 63394  88.9431 262.6537 0072567 342.0899  17.7732 14.15616423100767
CZ-6A DEB
1 63394U 24140ADR 26243.31395684  .00000843  00000-0  41336-3 0  9997
2 63394  88.9429 262.1999 0072090 329.5249  30.1758 14.15621681101301
CZ-6A DEB
1 63394U 24140ADR 26243.31395685  .00000843  00000-0  41336-3 0  9998
2 63394  88.9429 262.1999 0072090 329.5249  30.1758 14.15621681101301
CZ-6A DEB
1 63394U 24140ADR 26244.79833015  .00000775  00000-0  37968-3 0  9995
2 63394  88.9428 262.0232 0071943 324.5970  35.0452 14.15623875101516
