CZ-6A R/B DEB
1 63393U 24140ADQ 25086.38520477  .00001823  00000-0  93458-3 0  9998
2 63393  89.0389 326.1778 0070398 195.8298 164.0689 14.13786532    11
CZ-6A R/B DEB
1 63393U 24140ADQ 25121.70186144  .00001116  00000-0  56654-3 0  9995
2 63393  89.0330 322.3496 0073691  84.0666 276.8914 14.13876085 37453
CZ-6A R/B DEB
1 63393U 24140ADQ 25138.47463056  .00000770  00000-0  38914-3 0  9991
2 63393  89.0318 320.5247 0072491  31.6303 328.9209 14.13903547 39829
CZ-6A R/B DEB
1 63393U 24140ADQ 25140.24388805  .00000661  00000-0  33314-3 0  9995
2 63393  89.0318 320.3319 0072199  26.0741 334.4053 14.13905186 40075
CZ-6A R/B DEB
1 63393U 24140ADQ 25141.44698087  .00000632  00000-0  31812-3 0  9993
2 63393  89.0319 320.2014 0072106  22.2307 338.1978 14.13906694 40242
CZ-6A R/B DEB
1 63393U 24140ADQ 25141.73006130  .00000602  00000-0  30276-3 0  9997
2 63393  89.0319 320.1708 0072071  21.3310 339.0854 14.13906910 40284
CZ-6A R/B DEB
1 63393U 24140ADQ 25143.21623232  .00000618  00000-0  31084-3 0  9995
2 63393  89.0321 320.0092 0071904  16.6150 343.7369 14.13908988 40498
CZ-6A R/B DEB
1 63393U 24140ADQ 25144.49009133  .00000585  00000-0  29406-3 0  9992
2 63393  89.0319 319.8704 0071729  12.5506 347.7445 14.13910502 40670
CZ-6A R/B DEB
1 63393U 24140ADQ 25147.74550201  .00000543  00000-0  27265-3 0  9995
2 63393  89.0313 319.5154 0071257   2.1162 358.0312 14.13914314 41134
CZ-6A R/B DEB
1 63393U 24140ADQ 25148.73627733  .00000578  00000-0  29043-3 0  9994
2 63393  89.0313 319.4075 0071128 358.9182   1.1839 14.13915680 41278
CZ-6A R/B DEB
1 63393U 24140ADQ 25149.44397357  .00000590  00000-0  29711-3 0  9995
2 63393  89.0319 319.3308 0071010 356.6298   3.4400 14.13916572 41376
CZ-6A R/B DEB
1 63393U 24140ADQ 25150.43474731  .00000651  00000-0  32845-3 0  9998
2 63393  89.0320 319.2230 0070868 353.4265   6.5984 14.13918142 41512
CZ-6A R/B DEB
1 63393U 24140ADQ 25150.71782554  .00000618  00000-0  31113-3 0  9994
2 63393  89.0323 319.1926 0070813 352.5096   7.5026 14.13918254 41554
CZ-6A R/B DEB
1 63393U 24140ADQ 25151.42552065  .00000630  00000-0  31742-3 0  9997
2 63393  89.0324 319.1155 0070726 350.2147   9.7657 14.13919160 41656
CZ-6A R/B DEB
1 63393U 24140ADQ 25151.70859852  .00000618  00000-0  31154-3 0  9995
2 63393  89.0325 319.0848 0070685 349.2976  10.6701 14.13919442 41695
CZ-6A R/B DEB
1 63393U 24140ADQ 25152.41629281  .00000737  00000-0  37252-3 0  9992
2 63393  89.0325 319.0078 0070602 346.9990  12.9373 14.13921015 41799
CZ-6A R/B DEB
1 63393U 24140ADQ 25152.91167808  .00000747  00000-0  37814-3 0  9994
2 63393  89.0324 318.9537 0070530 345.3830  14.5316 14.13921895 41861
CZ-6A R/B DEB
1 63393U 24140ADQ 25153.90244832  .00000790  00000-0  39988-3 0  9999
2 63393  89.0325 318.8459 0070408 342.1647  17.7069 14.13923696 42007
CZ-6A R/B DEB
1 63393U 24140ADQ 25154.89321766  .00000776  00000-0  39294-3 0  9994
2 63393  89.0324 318.7380 0070282 338.9355  20.8939 14.13925246 42146
CZ-6A R/B DEB
1 63393U 24140ADQ 25155.88398640  .00000726  00000-0  36720-3 0  9995
2 63393  89.0325 318.6303 0070155 335.7110  24.0774 14.13926535 42284
CZ-6A R/B DEB
1 63393U 24140ADQ 25156.16706305  .00000697  00000-0  35223-3 0  9992
2 63393  89.0326 318.5996 0070114 334.7893  24.9876 14.13926804 42320
CZ-6A R/B DEB
1 63393U 24140ADQ 25157.72398346  .00000599  00000-0  30196-3 0  9992
2 63393  89.0327 318.4302 0069922 329.6805  30.0344 14.13928614 42545
CZ-6A R/B DEB
1 63393U 24140ADQ 25158.71475017  .00000562  00000-0  28258-3 0  9999
2 63393  89.0326 318.3224 0069815 326.4327  33.2445 14.13929818 42680
CZ-6A R/B DEB
1 63393U 24140ADQ 25159.70551651  .00000529  00000-0  26602-3 0  9992
2 63393  89.0326 318.2146 0069710 323.1658  36.4750 14.13930883 42821
CZ-6A R/B DEB
1 63393U 24140ADQ 25161.40397211  .00000493  00000-0  24743-3 0  9996
2 63393  89.0327 318.0300 0069550 317.5454  42.0364 14.13932598 10605
CZ-6A R/B DEB
1 63393U 24140ADQ 25161.68704798  .00000473  00000-0  23680-3 0  9995
2 63393  89.0328 317.9992 0069524 316.6077  42.9648 14.13932761 43100
CZ-6A R/B DEB
1 63393U 24140ADQ 25164.16395893  .00000872  00000-0  44288-3 0  9993
2 63393  89.0330 317.7299 0069345 308.4180  51.0793 14.13937911 43458
CZ-6A DEB
1 63393U 24140ADQ 25164.87164813  .00000709  00000-0  35872-3 0  9995
2 63393  89.0330 317.6529 0069291 306.0737  53.4044 14.13937693 43558
CZ-6A DEB
1 63393U 24140ADQ 25166.85317576  .00000611  00000-0  30803-3 0  9992
2 63393  89.0332 317.4375 0069151 299.5106  59.9196 14.13939346 43835
CZ-6A DEB
1 63393U 24140ADQ 25167.13625098  .00000593  00000-0  29890-3 0  9998
2 63393  89.0332 317.4067 0069135 298.5784  60.8457 14.13939568 43877
CZ-6A DEB
1 63393U 24140ADQ 25168.69316370  .00000603  00000-0  30397-3 0  9996
2 63393  89.0333 317.2375 0069040 293.4052  65.9884 14.13941546 44099
CZ-6A DEB
1 63393U 24140ADQ 25169.40085084  .00000606  00000-0  30583-3 0  9991
2 63393  89.0334 317.1606 0069014 291.0609  68.3207 14.13942501 44198
CZ-6A DEB
1 63393U 24140ADQ 25170.17930661  .00000606  00000-0  30572-3 0  9995
2 63393  89.0334 317.0760 0068977 288.4643  70.9055 14.13943452 44302
CZ-6A DEB
1 63393U 24140ADQ 25170.67468745  .00000573  00000-0  28848-3 0  9995
2 63393  89.0334 317.0221 0068966 286.8108  72.5521 14.13943862 44378
CZ-6A DEB
1 63393U 24140ADQ 25171.66544888  .00000528  00000-0  26556-3 0  9992
2 63393  89.0334 316.9144 0068950 283.5084  75.8426 14.13944792 44519
CZ-6A DEB
1 63393U 24140ADQ 25173.36389664  .00000496  00000-0  24913-3 0  9999
2 63393  89.0335 316.7299 0068954 277.8521  81.4842 14.13946488 44750
CZ-6A DEB
1 63393U 24140ADQ 25174.63773203  .00000487  00000-0  24422-3 0  9991
2 63393  89.0337 316.5917 0068983 273.5983  85.7316 14.13947763 44934
CZ-6A DEB
1 63393U 24140ADQ 25175.34541846  .00000506  00000-0  25394-3 0  9997
2 63393  89.0337 316.5148 0068993 271.2471  88.0812 14.13948529 45038
CZ-6A DEB
1 63393U 24140ADQ 25176.33617911  .00000498  00000-0  24982-3 0  9996
2 63393  89.0337 316.4072 0069010 267.9525  91.3757 14.13949452 45172
CZ-6A DEB
1 63393U 24140ADQ 25177.82231961  .00000532  00000-0  26722-3 0  9991
2 63393  89.0339 316.2458 0069039 263.0110  96.3221 14.13951113 45389
CZ-6A DEB
1 63393U 24140ADQ 25180.08691371  .00000544  00000-0  27330-3 0  9997
2 63393  89.0342 316.0000 0069130 255.4646 103.8865 14.13953455 45700
CZ-6A DEB
1 63393U 24140ADQ 25180.79459902  .00000544  00000-0  27352-3 0  9991
2 63393  89.0343 315.9231 0069175 253.1087 106.2507 14.13954232 45803
CZ-6A DEB
1 63393U 24140ADQ 25182.63457982  .00000610  00000-0  30731-3 0  9991
2 63393  89.0344 315.7234 0069300 247.0147 112.3719 14.13956731 46062
CZ-6A DEB
1 63393U 24140ADQ 25183.34226441  .00000585  00000-0  29461-3 0  9993
2 63393  89.0344 315.6466 0069359 244.6747 114.7245 14.13957468 46160
CZ-6A DEB
1 63393U 24140ADQ 25184.33302245  .00000587  00000-0  29548-3 0  9998
2 63393  89.0345 315.5391 0069443 241.4079 118.0109 14.13958697 46301
CZ-6A DEB
1 63393U 24140ADQ 25185.32377994  .00000608  00000-0  30641-3 0  9991
2 63393  89.0345 315.4316 0069532 238.1459 121.2948 14.13960069 46449
CZ-6A DEB
1 63393U 24140ADQ 25187.30529443  .00000599  00000-0  30148-3 0  9990
2 63393  89.0346 315.2166 0069699 231.6202 127.8712 14.13962313 46725
CZ-6A DEB
1 63393U 24140ADQ 25189.07450244  .00000584  00000-0  29368-3 0  9994
2 63393  89.0348 315.0246 0069863 225.7932 133.7504 14.13964228 46970
CZ-6A DEB
1 63393U 24140ADQ 25190.63140441  .00000564  00000-0  28329-3 0  9997
2 63393  89.0351 314.8558 0070024 220.6769 138.9176 14.13965860 47190
CZ-6A DEB
1 63393U 24140ADQ 25191.62215982  .00000550  00000-0  27600-3 0  9996
2 63393  89.0351 314.7483 0070142 217.4230 142.2062 14.13966833 47333
CZ-6A DEB
1 63393U 24140ADQ 25193.60366897  .00000540  00000-0  27100-3 0  9992
2 63393  89.0353 314.5335 0070415 210.9531 148.7498 14.13968983 47617
CZ-6A DEB
1 63393U 24140ADQ 25195.58517642  .00000495  00000-0  24767-3 0  9992
2 63393  89.0353 314.3186 0070696 204.5271 155.2548 14.13970859 47894
CZ-6A DEB
1 63393U 24140ADQ 25196.57592952  .00000505  00000-0  25259-3 0  9998
2 63393  89.0355 314.2114 0070839 201.3351 158.4879 14.13971914 48031
CZ-6A DEB
1 63393U 24140ADQ 25197.56668246  .00000476  00000-0  23761-3 0  9991
2 63393  89.0356 314.1041 0070973 198.1334 161.7321 14.13972664 48170
CZ-6A DEB
1 63393U 24140ADQ 25198.27436269  .00000514  00000-0  25700-3 0  9996
2 63393  89.0355 314.0272 0071079 195.8675 164.0286 14.13973537 48271
CZ-6A DEB
1 63393U 24140ADQ 25199.26511471  .00000523  00000-0  26185-3 0  9993
2 63393  89.0355 313.9199 0071210 192.6680 167.2720 14.13974485 48412
CZ-6A DEB
1 63393U 24140ADQ 25200.25586620  .00000531  00000-0  26592-3 0  9994
2 63393  89.0353 313.8124 0071341 189.4497 170.5353 14.13975431 48558
CZ-6A DEB
1 63393U 24140ADQ 25201.60045656  .00000557  00000-0  27935-3 0  9993
2 63393  89.0358 313.6670 0071523 185.1433 174.9027 14.13976783 48740
CZ-6A DEB
1 63393U 24140ADQ 25202.30813532  .00000578  00000-0  29012-3 0  9998
2 63393  89.0355 313.5900 0071619 182.8470 177.2320 14.13977572 48843
CZ-6A DEB
1 63393U 24140ADQ 25203.58195556  .00000636  00000-0  31975-3 0  9994
2 63393  89.0354 313.4519 0071794 178.7571 181.3808 14.13979291 49025
CZ-6A DEB
1 63393U 24140ADQ 25204.57270335  .00000658  00000-0  33108-3 0  9997
2 63393  89.0355 313.3446 0071932 175.6027 184.5808 14.13980680 49164
CZ-6A DEB
1 63393U 24140ADQ 25205.06807680  .00000635  00000-0  31896-3 0  9998
2 63393  89.0356 313.2910 0072008 174.0340 186.1722 14.13981242 49232
CZ-6A DEB
1 63393U 24140ADQ 25206.27112598  .00000596  00000-0  29902-3 0  9990
2 63393  89.0356 313.1605 0072163 170.2153 190.0459 14.13982624 49409
CZ-6A DEB
1 63393U 24140ADQ 25207.26187111  .00000609  00000-0  30557-3 0  9996
2 63393  89.0357 313.0532 0072283 167.0703 193.2359 14.13984060 49541
CZ-6A DEB
1 63393U 24140ADQ 25208.53568477  .00000619  00000-0  31076-3 0  9993
2 63393  89.0358 312.9152 0072430 163.0426 197.3206 14.13985847 49720
CZ-6A DEB
1 63393U 24140ADQ 25209.24335847  .00000599  00000-0  30056-3 0  9999
2 63393  89.0357 312.8385 0072509 160.8008 199.5938 14.13986658 49822
CZ-6A DEB
1 63393U 24140ADQ 25210.02179870  .00000610  00000-0  30602-3 0  9990
2 63393  89.0357 312.7541 0072600 158.3330 202.0956 14.13987758 49931
CZ-6A DEB
1 63393U 24140ADQ 25212.28634836  .00000692  00000-0  34802-3 0  9994
2 63393  89.0356 312.5088 0072851 151.1696 209.3547 14.13991139 50259
CZ-6A DEB
1 63393U 24140ADQ 25213.27708660  .00000716  00000-0  36034-3 0  9997
2 63393  89.0355 312.4015 0072973 148.0391 212.5254 14.13992678 50394
CZ-6A DEB
1 63393U 24140ADQ 25213.70168837  .00000736  00000-0  37049-3 0  9990
2 63393  89.0355 312.3555 0073019 146.7062 213.8750 14.13993382 50459
CZ-6A DEB
1 63393U 24140ADQ 25214.26782346  .00000706  00000-0  35487-3 0  9990
2 63393  89.0354 312.2941 0073080 144.9272 215.6759 14.13994107 50531
CZ-6A DEB
1 63393U 24140ADQ 25215.25855892  .00000683  00000-0  34315-3 0  9990
2 63393  89.0354 312.1868 0073180 141.8211 218.8192 14.13995539 50679
CZ-6A DEB
1 63393U 24140ADQ 25216.24929304  .00000642  00000-0  32203-3 0  9999
2 63393  89.0353 312.0795 0073285 138.7023 221.9739 14.13996912 50812
CZ-6A DEB
1 63393U 24140ADQ 25218.23075768  .00000509  00000-0  25360-3 0  9994
2 63393  89.0354 311.8648 0073419 132.5135 228.2285 14.13999153 51099
CZ-6A DEB
1 63393U 24140ADQ 25220.70758222  .00000506  00000-0  25200-3 0  9992
2 63393  89.0349 311.5957 0073600 124.7702 236.0442 14.14002124 51443
CZ-6A DEB
1 63393U 24140ADQ 25221.48601015  .00000577  00000-0  28878-3 0  9997
2 63393  89.0352 311.5117 0073599 122.4034 238.4301 14.14003578 51551
CZ-6A DEB
1 63393U 24140ADQ 25222.19367185  .00000654  00000-0  32781-3 0  9997
2 63393  89.0352 311.4349 0073647 120.1686 240.6824 14.14004901 51656
CZ-6A DEB
1 63393U 24140ADQ 25222.97209883  .00000696  00000-0  34962-3 0  9992
2 63393  89.0352 311.3507 0073693 117.7301 243.1386 14.14006170 51761
CZ-6A DEB
1 63393U 24140ADQ 25224.52895042  .00000690  00000-0  34663-3 0  9995
2 63393  89.0352 311.1817 0073755 112.8998 247.9996 14.14008169 51983
CZ-6A DEB
1 63393U 24140ADQ 25225.51967210  .00000644  00000-0  32262-3 0  9994
2 63393  89.0351 311.0745 0073764 109.8185 251.0974 14.14009372 52121
CZ-6A DEB
1 63393U 24140ADQ 25226.22732933  .00000682  00000-0  34248-3 0  9993
2 63393  89.0351 310.9980 0073797 107.6078 253.3187 14.14010735 19762
CZ-6A DEB
1 63393U 24140ADQ 25226.65192342  .00000663  00000-0  33235-3 0  9998
2 63393  89.0351 310.9520 0073803 106.2947 254.6374 14.14011279 52280
CZ-6A DEB
1 63393U 24140ADQ 25227.50111058  .00000619  00000-0  30999-3 0  9993
2 63393  89.0347 310.8598 0073788 103.6584 257.2833 14.14012376 52401
CZ-6A DEB
1 63393U 24140ADQ 25228.49182795  .00000574  00000-0  28691-3 0  9994
2 63393  89.0348 310.7524 0073783 100.5877 260.3631 14.14013554 52541
CZ-6A DEB
1 63393U 24140ADQ 25229.19948247  .00000568  00000-0  28368-3 0  9998
2 63393  89.0345 310.6756 0073761  98.3873 262.5684 14.14014462 52642
CZ-6A DEB
1 63393U 24140ADQ 25230.19019777  .00000547  00000-0  27315-3 0  9995
2 63393  89.0345 310.5682 0073747  95.3060 265.6547 14.14015569 52784
CZ-6A DEB
1 63393U 24140ADQ 25231.18091185  .00000527  00000-0  26286-3 0  9992
2 63393  89.0344 310.4608 0073717  92.2236 268.7394 14.14016589 52921
CZ-6A DEB
1 63393U 24140ADQ 25232.95004123  .00000534  00000-0  26626-3 0  9990
2 63393  89.0342 310.2687 0073668  86.7128 274.2483 14.14018454 53179
CZ-6A DEB
1 63393U 24140ADQ 25235.92217075  .00000527  00000-0  26307-3 0  9990
2 63393  89.0340 309.9463 0073602  77.4569 283.4838 14.14021259 53597
CZ-6A DEB
1 63393U 24140ADQ 25236.20523024  .00000549  00000-0  27388-3 0  9990
2 63393  89.0340 309.9157 0073597  76.5718 284.3658 14.14021637 53631
CZ-6A DEB
1 63393U 24140ADQ 25236.62981905  .00000539  00000-0  26915-3 0  9996
2 63393  89.0338 309.8695 0073582  75.2551 285.6775 14.14022049 53697
CZ-6A DEB
1 63393U 24140ADQ 25237.47899608  .00000554  00000-0  27697-3 0  9993
2 63393  89.0335 309.7772 0073540  72.6113 288.3098 14.14023016 53815
CZ-6A DEB
1 63393U 24140ADQ 25238.46970145  .00000549  00000-0  27417-3 0  9993
2 63393  89.0336 309.6699 0073460  69.5094 291.3958 14.14024052 53952
CZ-6A DEB
1 63393U 24140ADQ 25241.15875164  .00000695  00000-0  34934-3 0  9992
2 63393  89.0332 309.3780 0073210  61.0885 299.7620 14.14028079 54338
CZ-6A DEB
1 63393U 24140ADQ 25241.93715929  .00000705  00000-0  35421-3 0  9994
2 63393  89.0331 309.2935 0073126  58.6433 302.1882 14.14029045 54440
CZ-6A DEB
1 63393U 24140ADQ 25242.92785848  .00000809  00000-0  40801-3 0  9994
2 63393  89.0328 309.1855 0073064  55.5297 305.2764 14.14030917 54589
CZ-6A DEB
1 63393U 24140ADQ 25243.14015096  .00000818  00000-0  41233-3 0  9990
2 63393  89.0327 309.1624 0073046  54.8602 305.9400 14.14031264 54618
CZ-6A DEB
1 63393U 24140ADQ 25243.63549975  .00000874  00000-0  44106-3 0  9996
2 63393  89.0327 309.1087 0073008  53.3005 307.4860 14.14032282 54685
CZ-6A DEB
1 63393U 24140ADQ 25247.17369391  .00000868  00000-0  43821-3 0  9997
2 63393  89.0322 308.7242 0072705  42.1890 318.4860 14.14038040 55185
CZ-6A DEB
1 63393U 24140ADQ 25249.43812812  .00000786  00000-0  39598-3 0  9994
2 63393  89.0321 308.4780 0072391  35.0182 325.5733 14.14041440 55506
CZ-6A DEB
1 63393U 24140ADQ 25251.13644959  .00000614  00000-0  30780-3 0  9993
2 63393  89.0315 308.2929 0072141  29.5985 330.9254 14.14043146 55743
CZ-6A DEB
1 63393U 24140ADQ 25251.41950303  .00000595  00000-0  29834-3 0  9993
2 63393  89.0314 308.2621 0072114  28.7051 331.8075 14.14043384 55785
CZ-6A DEB
1 63393U 24140ADQ 25253.89621665  .00000446  00000-0  22171-3 0  9995
2 63393  89.0310 307.9926 0071775  20.7777 339.6301 14.14045463 56132
CZ-6A DEB
1 63393U 24140ADQ 25255.87758471  .00000387  00000-0  19150-3 0  9998
2 63393  89.0307 307.7768 0071549  14.4769 345.8444 14.14046932 56410
CZ-6A DEB
1 63393U 24140ADQ 25256.58521560  .00000409  00000-0  20299-3 0  9995
2 63393  89.0304 307.6995 0071475  12.2302 348.0598 14.14047622 56518
CZ-6A DEB
1 63393U 24140ADQ 25258.42505312  .00000576  00000-0  28863-3 0  9997
2 63393  89.0304 307.4995 0071245   6.3527 353.8546 14.14050314 56771
CZ-6A DEB
1 63393U 24140ADQ 25258.84963187  .00000433  00000-0  21524-3 0  9990
2 63393  89.0302 307.4531 0071180   4.9798 355.2081 14.14049604 56834
CZ-6A DEB
1 63393U 24140ADQ 25259.41573540  .00000454  00000-0  22641-3 0  9998
2 63393  89.0301 307.3914 0071101   3.1589 357.0032 14.14050188 56913
CZ-6A DEB
1 63393U 24140ADQ 25261.39709620  .00000459  00000-0  22857-3 0  9992
2 63393  89.0299 307.1756 0070829 356.7281   3.3433 14.14051863 57191
CZ-6A DEB
1 63393U 24140ADQ 25262.38777562  .00000489  00000-0  24443-3 0  9998
2 63393  89.0298 307.0676 0070694 353.5023   6.5240 14.14052901 57330
CZ-6A DEB
1 63393U 24140ADQ 25262.88311506  .00000519  00000-0  25955-3 0  9998
2 63393  89.0297 307.0136 0070632 351.8859   8.1178 14.14053524 57408
CZ-6A DEB
1 63393U 24140ADQ 25263.37845428  .00000567  00000-0  28420-3 0  9991
2 63393  89.0297 306.9597 0070576 350.2709   9.7106 14.14054271 57476
CZ-6A DEB
1 63393U 24140ADQ 25265.85514694  .00000903  00000-0  45729-3 0  9999
2 63393  89.0292 306.6896 0070304 342.2209  17.6519 14.14058974 57824
CZ-6A DEB
1 63393U 24140ADQ 25270.52546212  .00001031  00000-0  52321-3 0  9999
2 63393  89.0284 306.1800 0069783 326.9653  32.7183 14.14067943 58480
CZ-6A DEB
1 63393U 24140ADQ 25273.07289424  .00001023  00000-0  51890-3 0  9992
2 63393  89.0279 305.9016 0069545 318.5615  41.0309 14.14073474 58840
CZ-6A DEB
1 63393U 24140ADQ 25274.34660550  .00001290  00000-0  65623-3 0  9991
2 63393  89.0278 305.7623 0069463 314.3387  45.2119 14.14078219 59028
CZ-6A DEB
1 63393U 24140ADQ 25276.32792885  .00001441  00000-0  73379-3 0  9993
2 63393  89.0278 305.5466 0069304 307.8676  51.6254 14.14084776 59300
CZ-6A DEB
1 63393U 24140ADQ 25279.51218851  .00000995  00000-0  50482-3 0  9996
2 63393  89.0269 305.1983 0069136 297.3748  62.0414 14.14090911 59757
CZ-6A DEB
1 63393U 24140ADQ 25280.07827762  .00000952  00000-0  48244-3 0  9992
2 63393  89.0265 305.1362 0069144 295.4928  63.9117 14.14092079 59838
CZ-6A DEB
1 63393U 24140ADQ 25280.36132202  .00000929  00000-0  47069-3 0  9990
2 63393  89.0261 305.1043 0069147 294.5155  64.8833 14.14092606 59870
CZ-6A DEB
1 63393U 24140ADQ 25281.49349945  .00000879  00000-0  44537-3 0  9990
2 63393  89.0253 304.9803 0069033 290.7540  68.6259 14.14094882 60034
CZ-6A DEB
1 63393U 24140ADQ 25282.48415434  .00000802  00000-0  40539-3 0  9991
2 63393  89.0251 304.8718 0069001 287.4643  71.9010 14.14096326 60170
CZ-6A DEB
1 63393U 24140ADQ 25283.05024267  .00000749  00000-0  37818-3 0  9991
2 63393  89.0250 304.8098 0068985 285.5828  73.7751 14.14097022 60259
CZ-6A DEB
1 63393U 24140ADQ 25284.04089655  .00000768  00000-0  38793-3 0  9997
2 63393  89.0255 304.7017 0069047 282.2821  77.0640 14.14098791 60394
CZ-6A DEB
1 63393U 24140ADQ 25286.30524486  .00000888  00000-0  44950-3 0  9999
2 63393  89.0259 304.4542 0068970 274.7423  84.5889 14.14103517 60713
CZ-6A DEB
1 63393U 24140ADQ 25286.80057073  .00000859  00000-0  43455-3 0  9994
2 63393  89.0259 304.4000 0068969 273.0982  86.2315 14.14104203 60785
CZ-6A DEB
1 63393U 24140ADQ 25287.79122185  .00000845  00000-0  42765-3 0  9998
2 63393  89.0258 304.2915 0068974 269.8171  89.5112 14.14105824 60923
CZ-6A DEB
1 63393U 24140ADQ 25288.78187218  .00000922  00000-0  46716-3 0  9992
2 63393  89.0259 304.1831 0068967 266.5337  92.7960 14.14107957 61062
CZ-6A DEB
1 63393U 24140ADQ 25292.74446462  .00001138  00000-0  57783-3 0  9998
2 63393  89.0256 303.7491 0069033 253.3996 105.9602 14.14116560 61628
CZ-6A DEB
1 63393U 24140ADQ 25293.31054770  .00001210  00000-0  61497-3 0  9997
2 63393  89.0254 303.6869 0069073 251.5329 107.8342 14.14118146 61701
CZ-6A DEB
1 63393U 24140ADQ 25294.01815117  .00001150  00000-0  58392-3 0  9998
2 63393  89.0253 303.6094 0069112 249.1952 110.1822 14.14119375 61805
CZ-6A DEB
1 63393U 24140ADQ 25295.29183590  .00001041  00000-0  52800-3 0  9999
2 63393  89.0251 303.4698 0069194 245.0076 114.3914 14.14121676 61987
CZ-6A DEB
1 63393U 24140ADQ 25296.28247827  .00001021  00000-0  51743-3 0  9996
2 63393  89.0249 303.3611 0069233 241.6996 117.7194 14.14123898 62127
CZ-6A DEB
1 63393U 24140ADQ 25297.27311970  .00000982  00000-0  49746-3 0  9992
2 63393  89.0248 303.2525 0069307 238.4436 120.9971 14.14125926 62262
CZ-6A DEB
1 63393U 24140ADQ 25297.76844015  .00000930  00000-0  47084-3 0  9993
2 63393  89.0248 303.1981 0069333 236.7951 122.6576 14.14126728 62338
CZ-6A DEB
1 63393U 24140ADQ 25298.75908040  .00000902  00000-0  45652-3 0  9990
2 63393  89.0248 303.0896 0069404 233.5392 125.9386 14.14128591 62475
CZ-6A DEB
1 63393U 24140ADQ 25299.74972030  .00000911  00000-0  46085-3 0  9991
2 63393  89.0249 302.9810 0069466 230.2737 129.2315 14.14130388 62617
CZ-6A DEB
1 63393U 24140ADQ 25302.29707612  .00000987  00000-0  49973-3 0  9990
2 63393  89.0248 302.7016 0069645 221.8836 137.7011 14.14135125 62977
CZ-6A DEB
1 63393U 24140ADQ 25303.28771305  .00000972  00000-0  49192-3 0  9997
2 63393  89.0250 302.5933 0069701 218.6156 141.0035 14.14136734 63116
CZ-6A DEB
1 63393U 24140ADQ 25305.26898411  .00000940  00000-0  47529-3 0  9992
2 63393  89.0247 302.3754 0069883 212.1350 147.5569 14.14140080 63399
CZ-6A DEB
1 63393U 24140ADQ 25306.25961801  .00000856  00000-0  43247-3 0  9995
2 63393  89.0245 302.2666 0070000 208.8997 150.8306 14.14141471 63537
CZ-6A DEB
1 63393U 24140ADQ 25308.24088276  .00000734  00000-0  36932-3 0  9990
2 63393  89.0243 302.0494 0070216 202.4403 157.3709 14.14144496 63813
CZ-6A DEB
1 63393U 24140ADQ 25308.94847653  .00000688  00000-0  34589-3 0  9993
2 63393  89.0243 301.9718 0070294 200.1411 159.7000 14.14145493 63919
CZ-6A DEB
1 63393U 24140ADQ 25310.22214397  .00000848  00000-0  42797-3 0  9998
2 63393  89.0244 301.8321 0070422 196.0024 163.8939 14.14148468 64097
CZ-6A DEB
1 63393U 24140ADQ 25314.75072547  .00001089  00000-0  55106-3 0  9995
2 63393  89.0247 301.3357 0070930 181.3220 178.7791 14.14157292 64730
CZ-6A DEB
1 63393U 24140ADQ 25316.37817600  .00001415  00000-0  71809-3 0  9993
2 63393  89.0248 301.1572 0071140 176.0552 184.1211 14.14162694 64966
CZ-6A DEB
1 63393U 24140ADQ 25318.92547771  .00001191  00000-0  60287-3 0  9994
2 63393  89.0255 300.8790 0071209 167.9010 192.3909 14.14168639 65327
CZ-6A DEB
1 63393U 24140ADQ 25321.18973305  .00001074  00000-0  54295-3 0  9994
2 63393  89.0250 300.6295 0071700 160.7169 199.6757 14.14174777 65648
CZ-6A DEB
1 63393U 24140ADQ 25321.89731188  .00000912  00000-0  45990-3 0  9995
2 63393  89.0250 300.5521 0071752 158.4446 201.9789 14.14175697 65743
CZ-6A DEB
1 63393U 24140ADQ 25323.66625564  .00000798  00000-0  40145-3 0  9991
2 63393  89.0251 300.3584 0071952 152.7720 207.7269 14.14178879 65994
CZ-6A DEB
1 63393U 24140ADQ 25324.93989315  .00000759  00000-0  38099-3 0  9991
2 63393  89.0254 300.2190 0072113 148.6858 211.8654 14.14180779 66172
CZ-6A DEB
1 63393U 24140ADQ 25326.92110193  .00000776  00000-0  38973-3 0  9992
2 63393  89.0262 300.0023 0072357 142.3631 218.2652 14.14184204 66451
CZ-6A DEB
1 63393U 24140ADQ 25328.19473296  .00000804  00000-0  40392-3 0  9999
2 63393  89.0264 299.8629 0072498 138.3228 222.3515 14.14186507 66635
CZ-6A DEB
1 63393U 24140ADQ 25329.18533278  .00000865  00000-0  43520-3 0  9999
2 63393  89.0268 299.7547 0072606 135.2500 225.4576 14.14188617 66777
CZ-6A DEB
1 63393U 24140ADQ 25330.17593122  .00000820  00000-0  41197-3 0  9993
2 63393  89.0266 299.6461 0072697 132.1232 228.6165 14.14190155 66912
CZ-6A DEB
1 63393U 24140ADQ 25332.36939403  .00000781  00000-0  39203-3 0  9993
2 63393  89.0266 299.4057 0072882 125.1922 235.6119 14.14193724 67222
CZ-6A DEB
1 63393U 24140ADQ 25334.35057959  .00000815  00000-0  40945-3 0  9994
2 63393  89.0267 299.1888 0073038 118.9357 241.9180 14.14197222 67504
CZ-6A DEB
1 63393U 24140ADQ 25335.34116964  .00000925  00000-0  46544-3 0  9999
2 63393  89.0270 299.0810 0073118 115.8120 245.0634 14.14199546 67640
CZ-6A DEB
1 63393U 24140ADQ 25335.90721980  .00000943  00000-0  47498-3 0  9990
2 63393  89.0269 299.0188 0073130 114.0862 246.7997 14.14200782 67728
CZ-6A DEB
1 63393U 24140ADQ 25336.33175755  .00001054  00000-0  53139-3 0  9994
2 63393  89.0270 298.9726 0073172 112.7395 248.1547 14.14202090 67785
CZ-6A DEB
1 63393U 24140ADQ 25336.89780643  .00001065  00000-0  53723-3 0  9994
2 63393  89.0269 298.9104 0073190 110.9982 249.9055 14.14203404 67867
CZ-6A DEB
1 63393U 24140ADQ 25338.17141352  .00001426  00000-0  72168-3 0  9990
2 63393  89.0264 298.7700 0073201 107.0742 253.8480 14.14208357 68045
CZ-6A DEB
1 63393U 24140ADQ 25340.15257246  .00001412  00000-0  71424-3 0  9990
2 63393  89.0273 298.5540 0073300 100.8601 260.0846 14.14213612 68327
CZ-6A DEB
1 63393U 24140ADQ 25341.63843497  .00001465  00000-0  74153-3 0  9993
2 63393  89.0273 298.3910 0073367  96.2047 264.7504 14.14218235 68532
CZ-6A DEB
1 63393U 24140ADQ 25342.34598728  .00001523  00000-0  77126-3 0  9994
2 63393  89.0275 298.3137 0073386  93.9947 266.9632 14.14220403 68636
CZ-6A DEB
1 63393U 24140ADQ 25343.83184192  .00001445  00000-0  73106-3 0  9992
2 63393  89.0274 298.1510 0073410  89.3695 271.5903 14.14224230 68843
CZ-6A DEB
1 63393U 24140ADQ 25344.61014445  .00001379  00000-0  69738-3 0  9994
2 63393  89.0273 298.0659 0073419  86.9545 274.0040 14.14226083 68951
CZ-6A DEB
1 63393U 24140ADQ 25345.60070927  .00001386  00000-0  70085-3 0  9996
2 63393  89.0275 297.9575 0073412  83.8613 277.0931 14.14228841 69095
CZ-6A DEB
1 63393U 24140ADQ 25346.30825405  .00001378  00000-0  69666-3 0  9997
2 63393  89.0281 297.8805 0073414  81.6583 279.2919 14.14230769 69194
CZ-6A DEB
1 63393U 24140ADQ 25347.15730625  .00001354  00000-0  68445-3 0  9998
2 63393  89.0283 297.7878 0073434  79.0123 281.9314 14.14232996 69315
CZ-6A DEB
1 63393U 24140ADQ 25347.58183207  .00001287  00000-0  65024-3 0  9998
2 63393  89.0275 297.7409 0073464  77.6832 283.2567 14.14233743 69372
CZ-6A DEB
1 63393U 24140ADQ 25347.86484883  .00001229  00000-0  62060-3 0  9996
2 63393  89.0276 297.7100 0073465  76.8007 284.1363 14.14234230 69418
CZ-6A DEB
1 63393U 24140ADQ 25349.13842270  .00000956  00000-0  48126-3 0  9999
2 63393  89.0276 297.5707 0073453  72.8368 288.0844 14.14236048 69597
CZ-6A DEB
1 63393U 24140ADQ 25351.61480738  .00000798  00000-0  40027-3 0  9998
2 63393  89.0279 297.3001 0073363  65.1143 295.7647 14.14240917 69946
CZ-6A DEB
1 63393U 24140ADQ 25351.82706853  .00000794  00000-0  39841-3 0  9998
2 63393  89.0280 297.2770 0073344  64.4554 296.4192 14.14241301 69971
CZ-6A DEB
1 63393U 24140ADQ 25352.11008330  .00000776  00000-0  38915-3 0  9997
2 63393  89.0281 297.2462 0073328  63.5759 297.2929 14.14241705 70011
CZ-6A DEB
1 63393U 24140ADQ 25352.32234414  .00000779  00000-0  39075-3 0  9995
2 63393  89.0281 297.2230 0073317  62.9132 297.9510 14.14242164 70046
CZ-6A DEB
1 63393U 24140ADQ 25354.58645755  .00000705  00000-0  35268-3 0  9998
2 63393  89.0286 296.9757 0073210  55.8225 304.9874 14.14245260 70364
CZ-6A DEB
1 63393U 24140ADQ 25355.57700469  .00000805  00000-0  40428-3 0  9997
2 63393  89.0287 296.8676 0073164  52.7223 308.0605 14.14247282 70505
CZ-6A DEB
1 63393U 24140ADQ 25356.56754987  .00000872  00000-0  43832-3 0  9997
2 63393  89.0287 296.7594 0073112  49.6277 311.1262 14.14249304 70646
CZ-6A DEB
1 63393U 24140ADQ 25358.12411764  .00000951  00000-0  47877-3 0  9995
2 63393  89.0289 296.5894 0073016  44.7557 315.9489 14.14252453 70865
CZ-6A DEB
1 63393U 24140ADQ 25359.11465840  .00000994  00000-0  50088-3 0  9994
2 63393  89.0289 296.4812 0072941  41.6573 319.0137 14.14254585 71004
CZ-6A DEB
1 63393U 24140ADQ 25360.24670291  .00001025  00000-0  51685-3 0  9998
2 63393  89.0289 296.3576 0072820  38.1088 322.5217 14.14257002 71160
CZ-6A DEB
1 63393U 24140ADQ 25361.09573447  .00001121  00000-0  56591-3 0  9995
2 63393  89.0291 296.2649 0072739  35.4246 325.1741 14.14259337 71285
CZ-6A DEB
1 63393U 24140ADQ 25364.27958866  .00001564  00000-0  79210-3 0  9994
2 63393  89.0293 295.9176 0072385  25.3547 335.1163 14.14269495 71732
CZ-6A DEB
1 63393U 24140ADQ 25364.56259696  .00001571  00000-0  79572-3 0  9990
2 63393  89.0290 295.8866 0072352  24.4615 335.9976 14.14270236 71773
CZ-6A DEB
1 63393U 24140ADQ 25365.05786067  .00001653  00000-0  83792-3 0  9992
2 63393  89.0291 295.8325 0072327  22.9147 337.5239 14.14272085 71841
CZ-6A DEB
1 63393U 24140ADQ 25365.27011665  .00001692  00000-0  85752-3 0  9992
2 63393  89.0291 295.8094 0072307  22.2413 338.1882 14.14272814 71875
CZ-6A DEB
1 63393U 24140ADQ 26002.53417081  .00001758  00000-0  89168-3 0  9990
2 63393  89.0294 295.5626 0072060  15.0708 345.2602 14.14279998 72194
CZ-6A DEB
1 63393U 24140ADQ 26003.52469066  .00001615  00000-0  81841-3 0  9992
2 63393  89.0293 295.4543 0071968  11.9454 348.3418 14.14282403 72339
CZ-6A DEB
1 63393U 24140ADQ 26004.23220370  .00001451  00000-0  73476-3 0  9997
2 63393  89.0292 295.3771 0071886   9.7081 350.5475 14.14283739 72432
CZ-6A DEB
1 63393U 24140ADQ 26004.79821339  .00001436  00000-0  72708-3 0  9990
2 63393  89.0293 295.3153 0071822   7.9105 352.3196 14.14285370 72516
CZ-6A DEB
1 63393U 24140ADQ 26005.08121812  .00001289  00000-0  65182-3 0  9996
2 63393  89.0292 295.2845 0071804   7.0302 353.1874 14.14285409 72551
CZ-6A DEB
1 63393U 24140ADQ 26006.07173296  .00001190  00000-0  60113-3 0  9999
2 63393  89.0292 295.1763 0071670   3.8729 356.2997 14.14287782 72698
CZ-6A DEB
1 63393U 24140ADQ 26007.06224653  .00001044  00000-0  52683-3 0  9994
2 63393  89.0292 295.0681 0071529   0.7035 359.4239 14.14289622 72830
CZ-6A DEB
1 63393U 24140ADQ 26008.05275874  .00000913  00000-0  45989-3 0  9990
2 63393  89.0293 294.9601 0071403 357.5263   2.5560 14.14291314 72977
CZ-6A DEB
1 63393U 24140ADQ 26009.04326953  .00000865  00000-0  43522-3 0  9992
2 63393  89.0294 294.8522 0071277 354.3303   5.7068 14.14293273 73119
CZ-6A DEB
1 63393U 24140ADQ 26010.74128572  .00000865  00000-0  43532-3 0  9999
2 63393  89.0293 294.6669 0071072 348.8955  11.0659 14.14296611 73353
CZ-6A DEB
1 63393U 24140ADQ 26013.00530314  .00000671  00000-0  33654-3 0  9991
2 63393  89.0291 294.4197 0070802 341.5842  18.2783 14.14299412 73674
CZ-6A DEB
1 63393U 24140ADQ 26016.04757193  .00000521  00000-0  25947-3 0  9994
2 63393  89.0294 294.0883 0070405 331.8012  27.9369 14.14302656 74106
CZ-6A DEB
1 63393U 24140ADQ 26016.47207412  .00000555  00000-0  27724-3 0  9997
2 63393  89.0293 294.0418 0070354 330.4079  29.3134 14.14303327 74168
CZ-6A DEB
1 63393U 24140ADQ 26017.03807684  .00000598  00000-0  29922-3 0  9996
2 63393  89.0294 293.9801 0070298 328.5805  31.1190 14.14304217 74246
CZ-6A DEB
1 63393U 24140ADQ 26018.02858129  .00000633  00000-0  31730-3 0  9996
2 63393  89.0293 293.8720 0070183 325.3582  34.3042 14.14305494 74388
CZ-6A DEB
1 63393U 24140ADQ 26019.01908523  .00000635  00000-0  31829-3 0  9991
2 63393  89.0293 293.7640 0070072 322.1175  37.5092 14.14306580 74521
CZ-6A DEB
1 63393U 24140ADQ 26020.50483737  .00001053  00000-0  53219-3 0  9994
2 63393  89.0290 293.6016 0069924 317.2891  42.2872 14.14311335 74734
CZ-6A DEB
1 63393U 24140ADQ 26024.46681778  .00001436  00000-0  72804-3 0  9994
2 63393  89.0289 293.1697 0069520 304.3147  55.1472 14.14325441 75299
CZ-6A DEB
1 63393U 24140ADQ 26028.71177333  .00001142  00000-0  57796-3 0  9990
2 63393  89.0294 292.7078 0069004 290.4470  68.9317 14.14335456 75897
CZ-6A DEB
1 63393U 24140ADQ 26030.97574085  .00000854  00000-0  43029-3 0  9999
2 63393  89.0286 292.4589 0069037 282.8328  76.5152 14.14339014 76218
CZ-6A DEB
1 63393U 24140ADQ 26031.68323023  .00000820  00000-0  41279-3 0  9990
2 63393  89.0282 292.3821 0068964 280.4770  78.8651 14.14340278 76319
CZ-6A DEB
1 63393U 24140ADQ 26032.67371497  .00000744  00000-0  37406-3 0  9990
2 63393  89.0280 292.2736 0068964 277.1792  82.1557 14.14341629 76457
CZ-6A DEB
1 63393U 24140ADQ 26034.15944039  .00000729  00000-0  36621-3 0  9994
2 63393  89.0278 292.1113 0068908 272.2615  87.0683 14.14344253 76663
CZ-6A DEB
1 63393U 24140ADQ 26034.44243540  .00000764  00000-0  38405-3 0  9996
2 63393  89.0278 292.0804 0068895 271.3190  88.0105 14.14344966 76708
CZ-6A DEB
1 63393U 24140ADQ 26035.14992326  .00000752  00000-0  37797-3 0  9997
2 63393  89.0275 292.0032 0068843 268.9973  90.3326 14.14346081 76804
CZ-6A DEB
1 63393U 24140ADQ 26038.12136570  .00000877  00000-0  44169-3 0  9998
2 63393  89.0274 291.6791 0068893 259.1056 100.2373 14.14352226 77227
CZ-6A DEB
1 63393U 24140ADQ 26039.67783325  .00000734  00000-0  36875-3 0  9992
2 63393  89.0271 291.5094 0069059 253.9153 105.4423 14.14354159 77448
CZ-6A DEB
1 63393U 24140ADQ 26043.63974442  .00000646  00000-0  32356-3 0  9997
2 63393  89.0265 291.0755 0068992 240.8015 118.6259 14.14360211 78009
CZ-6A DEB
1 63393U 24140ADQ 26044.63022130  .00000650  00000-0  32570-3 0  9999
2 63393  89.0264 290.9671 0069017 237.5207 121.9296 14.14361523 78148
CZ-6A DEB
1 63393U 24140ADQ 26048.09688524  .00000775  00000-0  38923-3 0  9994
2 63393  89.0258 290.5872 0069239 226.0288 133.5177 14.14366858 78635
CZ-6A DEB
1 63393U 24140ADQ 26048.66287094  .00000668  00000-0  33468-3 0  9994
2 63393  89.0257 290.5252 0069243 224.1571 135.4077 14.14366996 78717
CZ-6A DEB
1 63393U 24140ADQ 26049.08735975  .00000687  00000-0  34414-3 0  9990
2 63393  89.0255 290.4786 0069267 222.7371 136.8418 14.14367703 78771
CZ-6A DEB
1 63393U 24140ADQ 26050.07783324  .00000650  00000-0  32539-3 0  9998
2 63393  89.0254 290.3703 0069356 219.4729 140.1395 14.14368919 78915
CZ-6A DEB
1 63393U 24140ADQ 26050.64381786  .00000649  00000-0  32460-3 0  9998
2 63393  89.0252 290.3086 0069393 217.6177 142.0146 14.14369721 78990
CZ-6A DEB
1 63393U 24140ADQ 26051.06830618  .00000622  00000-0  31093-3 0  9990
2 63393  89.0252 290.2622 0069437 216.2186 143.4289 14.14370186 79057
CZ-6A DEB
1 63393U 24140ADQ 26052.62476246  .00000567  00000-0  28285-3 0  9993
2 63393  89.0249 290.0916 0069607 211.0996 148.6063 14.14372048 79278
CZ-6A DEB
1 63393U 24140ADQ 26054.11046909  .00000624  00000-0  31162-3 0  9990
2 63393  89.0247 289.9288 0069765 206.2243 153.5405 14.14374395 79486
CZ-6A DEB
1 63393U 24140ADQ 26055.10093964  .00000594  00000-0  29669-3 0  9998
2 63393  89.0245 289.8203 0069861 202.9858 156.8200 14.14375468 79629
CZ-6A DEB
1 63393U 24140ADQ 26055.38393103  .00000631  00000-0  31522-3 0  9999
2 63393  89.0247 289.7894 0069890 202.0524 157.7653 14.14376016 79665
CZ-6A DEB
1 63393U 24140ADQ 26056.09140949  .00000589  00000-0  29399-3 0  9997
2 63393  89.0246 289.7119 0069960 199.7385 160.1093 14.14376662 79763
CZ-6A DEB
1 63393U 24140ADQ 26057.08187860  .00000633  00000-0  31628-3 0  9998
2 63393  89.0245 289.6033 0070066 196.5012 163.3895 14.14378110 79908
CZ-6A DEB
1 63393U 24140ADQ 26058.07234695  .00000703  00000-0  35222-3 0  9999
2 63393  89.0243 289.4947 0070164 193.2538 166.6808 14.14379736 80046
CZ-6A DEB
1 63393U 24140ADQ 26058.07234695  .00000703  00000-0  35222-3 0  9999
2 63393  89.0243 289.4947 0070164 193.2538 166.6808 14.14379736 80046
CZ-6A DEB
1 63393U 24140ADQ 26058.92131884  .00000757  00000-0  37943-3 0  9990
2 63393  89.0242 289.4016 0070285 190.4982 169.4742 14.14381161 80164
CZ-6A DEB
1 63393U 24140ADQ 26058.92131885  .00000757  00000-0  37943-3 0  9991
2 63393  89.0242 289.4016 0070285 190.4982 169.4742 14.14381161 80164
CZ-6A DEB
1 63393U 24140ADQ 26059.62879513  .00000775  00000-0  38888-3 0  9995
2 63393  89.0241 289.3240 0070381 188.2022 171.8020 14.14382215 80266
CZ-6A DEB
1 63393U 24140ADQ 26059.62879513  .00000775  00000-0  38888-3 0  9995
2 63393  89.0241 289.3240 0070381 188.2022 171.8020 14.14382215 80266
CZ-6A DEB
1 63393U 24140ADQ 26060.05328049  .00000795  00000-0  39897-3 0  9990
2 63393  89.0240 289.2774 0070434 186.8155 173.2081 14.14382968 80321
CZ-6A DEB
1 63393U 24140ADQ 26060.05328049  .00000795  00000-0  39897-3 0  9990
2 63393  89.0240 289.2774 0070434 186.8156 173.2081 14.14382968 80322
CZ-6A DEB
1 63393U 24140ADQ 26060.61926069  .00000826  00000-0  41442-3 0  9992
2 63393  89.0239 289.2153 0070503 184.9783 175.0712 14.14383997 80406
CZ-6A DEB
1 63393U 24140ADQ 26060.61926071  .00000826  00000-0  41442-3 0  9995
2 63393  89.0239 289.2153 0070503 184.9783 175.0712 14.14383997 80406
CZ-6A DEB
1 63393U 24140ADQ 26061.39748291  .00000862  00000-0  43281-3 0  9990
2 63393  89.0237 289.1299 0070602 182.4570 177.6281 14.14385406 80519
CZ-6A DEB
1 63393U 24140ADQ 26061.39748292  .00000862  00000-0  43281-3 0  9991
2 63393  89.0237 289.1299 0070602 182.4570 177.6281 14.14385406 80519
CZ-6A DEB
1 63393U 24140ADQ 26062.60018851  .00000875  00000-0  43933-3 0  9995
2 63393  89.0236 288.9980 0070758 178.5844 181.5557 14.14387485 80681
CZ-6A DEB
1 63393U 24140ADQ 26062.60018851  .00000875  00000-0  43933-3 0  9995
2 63393  89.0236 288.9980 0070758 178.5844 181.5557 14.14387485 80681
CZ-6A DEB
1 63393U 24140ADQ 26063.59065057  .00000886  00000-0  44501-3 0  9998
2 63393  89.0235 288.8894 0070880 175.4038 184.7816 14.14389259 80820
CZ-6A DEB
1 63393U 24140ADQ 26063.59065057  .00000886  00000-0  44501-3 0  9998
2 63393  89.0235 288.8894 0070880 175.4038 184.7816 14.14389259 80820
CZ-6A DEB
1 63393U 24140ADQ 26063.87363975  .00000818  00000-0  41033-3 0  9991
2 63393  89.0235 288.8583 0070914 174.4838 185.7147 14.14389316 80866
CZ-6A DEB
1 63393U 24140ADQ 26063.87363975  .00000818  00000-0  41033-3 0  9991
2 63393  89.0235 288.8583 0070914 174.4838 185.7147 14.14389317 80867
CZ-6A DEB
1 63393U 24140ADQ 26065.07634204  .00000760  00000-0  38037-3 0  9997
2 63393  89.0236 288.7267 0071057 170.6456 189.6074 14.14390984 81033
CZ-6A DEB
1 63393U 24140ADQ 26065.57157176  .00000860  00000-0  43175-3 0  9990
2 63393  89.0234 288.6723 0071114 169.0560 191.2194 14.14392348 81105
CZ-6A DEB
1 63393U 24140ADQ 26066.06680152  .00000757  00000-0  37921-3 0  9997
2 63393  89.0234 288.6180 0071176 167.4714 192.8264 14.14392534 81172
CZ-6A DEB
1 63393U 24140ADQ 26066.06680152  .00000757  00000-0  37921-3 0  9997
2 63393  89.0234 288.6180 0071176 167.4714 192.8264 14.14392534 81172
CZ-6A DEB
1 63393U 24140ADQ 26067.05725979  .00000875  00000-0  43936-3 0  9998
2 63393  89.0230 288.5090 0071289 164.2934 196.0488 14.14394695 81311
CZ-6A DEB
1 63393U 24140ADQ 26067.05725979  .00000875  00000-0  43936-3 0  9998
2 63393  89.0230 288.5090 0071289 164.2934 196.0489 14.14394695 81312
CZ-6A DEB
1 63393U 24140ADQ 26068.04771704  .00000834  00000-0  41830-3 0  9991
2 63393  89.0227 288.3998 0071399 161.1155 199.2706 14.14395962 81456
CZ-6A DEB
1 63393U 24140ADQ 26069.60414743  .00000828  00000-0  41503-3 0  9991
2 63393  89.0224 288.2286 0071587 156.1314 204.3221 14.14398245 81673
CZ-6A DEB
1 63393U 24140ADQ 26069.60414743  .00000828  00000-0  41503-3 0  9991
2 63393  89.0224 288.2286 0071587 156.1314 204.3221 14.14398246 81674
CZ-6A DEB
1 63393U 24140ADQ 26070.87758867  .00000757  00000-0  37873-3 0  9996
2 63393  89.0213 288.0879 0071818 152.0710 208.4362 14.14399644 81854
CZ-6A DEB
1 63393U 24140ADQ 26070.87758867  .00000757  00000-0  37873-3 0  9996
2 63393  89.0213 288.0879 0071818 152.0710 208.4362 14.14399644 81854
CZ-6A DEB
1 63393U 24140ADQ 26071.58505463  .00000818  00000-0  40962-3 0  9998
2 63393  89.0209 288.0100 0071923 149.8398 210.6960 14.14401121 81953
CZ-6A DEB
1 63393U 24140ADQ 26071.58505464  .00000818  00000-0  40962-3 0  9999
2 63393  89.0209 288.0100 0071923 149.8398 210.6960 14.14401121 81953
CZ-6A DEB
1 63393U 24140ADQ 26073.84894218  .00000720  00000-0  35958-3 0  9999
2 63393  89.0225 287.7620 0072050 142.5393 218.0847 14.14404201 82275
CZ-6A DEB
1 63393U 24140ADQ 26075.82983905  .00000591  00000-0  29385-3 0  9994
2 63393  89.0220 287.5448 0072328 136.4135 224.2798 14.14406041 82559
CZ-6A DEB
1 63393U 24140ADQ 26075.82983905  .00000591  00000-0  29385-3 0  9994
2 63393  89.0220 287.5448 0072328 136.4135 224.2798 14.14406041 82559
CZ-6A DEB
1 63393U 24140ADQ 26076.82028595  .00000587  00000-0  29164-3 0  9990
2 63393  89.0216 287.4358 0072399 133.2900 227.4358 14.14407164 82695
CZ-6A DEB
1 63393U 24140ADQ 26076.82028596  .00000587  00000-0  29164-3 0  9991
2 63393  89.0216 287.4358 0072399 133.2900 227.4358 14.14407164 82695
CZ-6A DEB
1 63393U 24140ADQ 26077.03252436  .00000574  00000-0  28521-3 0  9999
2 63393  89.0216 287.4124 0072413 132.6251 228.1073 14.14407374 82724
CZ-6A DEB
1 63393U 24140ADQ 26079.29639864  .00000586  00000-0  29113-3 0  9994
2 63393  89.0214 287.1637 0072631 125.4959 235.3033 14.14409734 83049
CZ-6A DEB
1 63393U 24140ADQ 26080.85280821  .00000651  00000-0  32403-3 0  9992
2 63393  89.0210 286.9924 0072801 120.5897 240.2498 14.14411810 83269
CZ-6A DEB
1 63393U 24140ADQ 26081.84324886  .00000656  00000-0  32668-3 0  9990
2 63393  89.0209 286.8835 0072869 117.4936 243.3683 14.14413032 83404
CZ-6A DEB
1 63393U 24140ADQ 26082.26772284  .00000680  00000-0  33901-3 0  9994
2 63393  89.0212 286.8371 0072906 116.1695 244.7014 14.14413759 83468
CZ-6A DEB
1 63393U 24140ADQ 26082.83368792  .00000638  00000-0  31765-3 0  9991
2 63393  89.0211 286.7749 0072920 114.4018 246.4801 14.14414274 83546
CZ-6A DEB
1 63393U 24140ADQ 26085.52201535  .00000612  00000-0  30432-3 0  9993
2 63393  89.0205 286.4786 0073062 106.0027 254.9224 14.14418034 83925
CZ-6A DEB
1 63393U 24140ADQ 26085.52201535  .00000612  00000-0  30432-3 0  9993
2 63393  89.0205 286.4786 0073062 106.0027 254.9224 14.14418034 83925
CZ-6A DEB
1 63393U 24140ADQ 26086.01723244  .00000640  00000-0  31870-3 0  9992
2 63393  89.0205 286.4240 0073078 104.4576 256.4734 14.14418881 83998
CZ-6A DEB
1 63393U 24140ADQ 26086.01723245  .00000640  00000-0  31870-3 0  9993
2 63393  89.0205 286.4240 0073078 104.4576 256.4734 14.14418881 83998
CZ-6A DEB
1 63393U 24140ADQ 26086.51244914  .00000617  00000-0  30660-3 0  9999
2 63393  89.0205 286.3696 0073095 102.9243 258.0121 14.14419439 84062
CZ-6A DEB
1 63393U 24140ADQ 26086.51244915  .00000617  00000-0  30660-3 0  9990
2 63393  89.0205 286.3696 0073095 102.9243 258.0121 14.14419439 84062
CZ-6A DEB
1 63393U 24140ADQ 26087.00766562  .00000638  00000-0  31748-3 0  9993
2 63393  89.0205 286.3151 0073110 101.3814 259.5597 14.14420197 84137
CZ-6A DEB
1 63393U 24140ADQ 26087.00766562  .00000638  00000-0  31748-3 0  9993
2 63393  89.0205 286.3151 0073110 101.3814 259.5597 14.14420197 84137
CZ-6A DEB
1 63393U 24140ADQ 26088.98852708  .00000805  00000-0  40264-3 0  9998
2 63393  89.0204 286.0970 0073139  95.1929 265.7610 14.14423830 84413
CZ-6A DEB
1 63393U 24140ADQ 26088.98852709  .00000805  00000-0  40264-3 0  9999
2 63393  89.0204 286.0970 0073139  95.1929 265.7610 14.14423830 84413
CZ-6A DEB
1 63393U 24140ADQ 26089.27150640  .00000821  00000-0  41047-3 0  9995
2 63393  89.0203 286.0658 0073117  94.3164 266.6382 14.14424381 84455
CZ-6A DEB
1 63393U 24140ADQ 26089.97895493  .00000839  00000-0  41984-3 0  9993
2 63393  89.0201 285.9878 0073121  92.1044 268.8518 14.14425554 84552
CZ-6A DEB
1 63393U 24140ADQ 26090.26193434  .00000861  00000-0  43123-3 0  9995
2 63393  89.0201 285.9567 0073127  91.2201 269.7365 14.14426032 84594
CZ-6A DEB
1 63393U 24140ADQ 26090.26193435  .00000861  00000-0  43123-3 0  9996
2 63393  89.0201 285.9567 0073127  91.2201 269.7365 14.14426032 84594
CZ-6A DEB
1 63393U 24140ADQ 26094.50660398  .00000956  00000-0  47926-3 0  9994
2 63393  89.0202 285.4894 0073052  77.9981 282.9382 14.14434226 85193
CZ-6A DEB
1 63393U 24140ADQ 26095.49702207  .00000868  00000-0  43471-3 0  9992
2 63393  89.0201 285.3803 0073030  74.9263 285.9990 14.14435682 85338
CZ-6A DEB
1 63393U 24140ADQ 26095.49702208  .00000868  00000-0  43471-3 0  9993
2 63393  89.0201 285.3803 0073030  74.9263 285.9990 14.14435682 85338
CZ-6A DEB
1 63393U 24140ADQ 26095.77999663  .00000883  00000-0  44216-3 0  9992
2 63393  89.0208 285.3503 0072952  74.0521 286.8689 14.14436642 85378
CZ-6A DEB
1 63393U 24140ADQ 26095.77999664  .00000883  00000-0  44216-3 0  9993
2 63393  89.0208 285.3503 0072952  74.0521 286.8689 14.14436642 85378
CZ-6A DEB
1 63393U 24140ADQ 26096.27520449  .00000814  00000-0  40732-3 0  9993
2 63393  89.0196 285.2940 0073025  72.5449 288.3703 14.14437261 85442
CZ-6A DEB
1 63393U 24140ADQ 26096.77041203  .00000852  00000-0  42640-3 0  9996
2 63393  89.0204 285.2402 0073005  70.9243 289.9832 14.14438517 85510
CZ-6A DEB
1 63393U 24140ADQ 26100.23685595  .00000711  00000-0  35449-3 0  9994
2 63393  89.0209 284.8585 0072810  60.1122 300.7273 14.14443239 86005
CZ-6A DEB
1 63393U 24140ADQ 26100.23685596  .00000711  00000-0  35449-3 0  9995
2 63393  89.0209 284.8585 0072810  60.1122 300.7273 14.14443239 86005
CZ-6A DEB
1 63393U 24140ADQ 26100.80280442  .00000675  00000-0  33622-3 0  9999
2 63393  89.0207 284.7958 0072765  58.3403 302.4854 14.14443811 86084
CZ-6A DEB
1 63393U 24140ADQ 26101.22726572  .00000609  00000-0  30301-3 0  9993
2 63393  89.0204 284.7489 0072730  57.0385 303.7767 14.14443995 86144
CZ-6A DEB
1 63393U 24140ADQ 26101.22726572  .00000609  00000-0  30301-3 0  9993
2 63393  89.0204 284.7489 0072730  57.0385 303.7767 14.14443995 86144
CZ-6A DEB
1 63393U 24140ADQ 26102.99585155  .00000537  00000-0  26630-3 0  9998
2 63393  89.0203 284.5539 0072595  51.5100 309.2568 14.14445809 86393
CZ-6A DEB
1 63393U 24140ADQ 26103.20808169  .00000537  00000-0  26592-3 0  9993
2 63393  89.0203 284.5305 0072577  50.8471 309.9135 14.14446020 86424
CZ-6A DEB
1 63393U 24140ADQ 26103.77402909  .00000505  00000-0  24984-3 0  9995
2 63393  89.0202 284.4679 0072580  49.0807 311.6634 14.14446307 86504
CZ-6A DEB
1 63393U 24140ADQ 26103.77402909  .00000505  00000-0  24984-3 0  9995
2 63393  89.0202 284.4679 0072580  49.0807 311.6634 14.14446307 86504
CZ-6A DEB
1 63393U 24140ADQ 26104.48146205  .00000480  00000-0  23724-3 0  9991
2 63393  89.0202 284.3900 0072500  46.8790 313.8429 14.14446952 86601
CZ-6A DEB
1 63393U 24140ADQ 26104.48146205  .00000480  00000-0  23724-3 0  9991
2 63393  89.0202 284.3900 0072500  46.8790 313.8429 14.14446953 86602
CZ-6A DEB
1 63393U 24140ADQ 26106.46227208  .00000455  00000-0  22456-3 0  9997
2 63393  89.0209 284.1722 0072187  40.6708 319.9838 14.14448645 86882
CZ-6A DEB
1 63393U 24140ADQ 26106.46227209  .00000455  00000-0  22456-3 0  9998
2 63393  89.0209 284.1722 0072187  40.6708 319.9838 14.14448645 86882
CZ-6A DEB
1 63393U 24140ADQ 26107.45267651  .00000461  00000-0  22758-3 0  9995
2 63393  89.0203 284.0630 0072063  37.5045 323.1138 14.14449281 87029
CZ-6A DEB
1 63393U 24140ADQ 26108.23085052  .00000465  00000-0  22943-3 0  9995
2 63393  89.0203 283.9773 0071950  35.0372 325.5517 14.14449859 87135
CZ-6A DEB
1 63393U 24140ADQ 26110.21165501  .00000442  00000-0  21783-3 0  9990
2 63393  89.0202 283.7589 0071780  28.7451 331.7662 14.14451209 87418
CZ-6A DEB
1 63393U 24140ADQ 26110.42388380  .00000442  00000-0  21823-3 0  9990
2 63393  89.0202 283.7355 0071750  28.0669 332.4357 14.14451404 87449
CZ-6A DEB
1 63393U 24140ADQ 26110.42388380  .00000442  00000-0  21823-3 0  9990
2 63393  89.0202 283.7355 0071750  28.0669 332.4357 14.14451404 87449
CZ-6A DEB
1 63393U 24140ADQ 26112.89988381  .00000457  00000-0  22568-3 0  9993
2 63393  89.0204 283.4626 0071430  20.2205 340.1785 14.14453674 87794
CZ-6A DEB
1 63393U 24140ADQ 26112.89988381  .00000457  00000-0  22568-3 0  9993
2 63393  89.0204 283.4626 0071430  20.2205 340.1785 14.14453674 87794
CZ-6A DEB
1 63393U 24140ADQ 26112.89988381  .00000457  00000-0  22568-3 0  9993
2 63393  89.0204 283.4626 0071430  20.2205 340.1785 14.14453674 87794
CZ-6A DEB
1 63393U 24140ADQ 26114.73919518  .00000484  00000-0  23982-3 0  9995
2 63393  89.0204 283.2598 0071230  14.3718 345.9472 14.14455470 88053
CZ-6A DEB
1 63393U 24140ADQ 26115.72959212  .00000500  00000-0  24759-3 0  9992
2 63393  89.0206 283.1509 0071078  11.1888 349.0859 14.14456540 88197
CZ-6A DEB
1 63393U 24140ADQ 26115.72959212  .00000500  00000-0  24759-3 0  9992
2 63393  89.0206 283.1509 0071078  11.1888 349.0859 14.14456540 88197
CZ-6A DEB
1 63393U 24140ADQ 26116.43701797  .00000570  00000-0  28343-3 0  9994
2 63393  89.0207 283.0730 0070979   8.9101 351.3326 14.14457655 88298
CZ-6A DEB
1 63393U 24140ADQ 26116.43701798  .00000570  00000-0  28343-3 0  9995
2 63393  89.0207 283.0730 0070979   8.9101 351.3326 14.14457655 88298
CZ-6A DEB
1 63393U 24140ADQ 26116.71998819  .00000588  00000-0  29285-3 0  9993
2 63393  89.0208 283.0419 0070936   7.9976 352.2324 14.14458035 88331
CZ-6A DEB
1 63393U 24140ADQ 26116.71998820  .00000588  00000-0  29285-3 0  9995
2 63393  89.0208 283.0419 0070936   7.9976 352.2324 14.14458035 88331
CZ-6A DEB
1 63393U 24140ADQ 26117.71038356  .00000568  00000-0  28281-3 0  9998
2 63393  89.0211 282.9331 0070784   4.7899 355.3949 14.14458940 88473
CZ-6A DEB
1 63393U 24140ADQ 26117.71038357  .00000568  00000-0  28281-3 0  9999
2 63393  89.0211 282.9331 0070784   4.7899 355.3949 14.14458940 88473
CZ-6A DEB
1 63393U 24140ADQ 26118.20558095  .00000594  00000-0  29592-3 0  9995
2 63393  89.0210 282.8786 0070716   3.1916 356.9707 14.14459603 88547
CZ-6A DEB
1 63393U 24140ADQ 26118.41780830  .00000596  00000-0  29703-3 0  9998
2 63393  89.0210 282.8552 0070691   2.5052 357.6475 14.14459857 88578
CZ-6A DEB
1 63393U 24140ADQ 26118.70077801  .00000600  00000-0  29892-3 0  9992
2 63393  89.0212 282.8242 0070653   1.5862 358.5535 14.14460192 88618
CZ-6A DEB
1 63393U 24140ADQ 26118.70077802  .00000600  00000-0  29892-3 0  9993
2 63393  89.0212 282.8242 0070653   1.5862 358.5535 14.14460192 88618
CZ-6A DEB
1 63393U 24140ADQ 26119.19597498  .00000595  00000-0  29631-3 0  9999
2 63393  89.0212 282.7695 0070581 359.9762   0.1409 14.14460710 88681
CZ-6A DEB
1 63393U 24140ADQ 26119.19597498  .00000595  00000-0  29631-3 0  9999
2 63393  89.0212 282.7695 0070581 359.9762   0.1409 14.14460710 88681
CZ-6A DEB
1 63393U 24140ADQ 26119.40820215  .00000596  00000-0  29692-3 0  9997
2 63393  89.0212 282.7462 0070556 359.2893   0.8181 14.14460970 88719
CZ-6A DEB
1 63393U 24140ADQ 26119.40820216  .00000596  00000-0  29692-3 0  9998
2 63393  89.0212 282.7462 0070556 359.2893   0.8181 14.14460970 88719
CZ-6A DEB
1 63393U 24140ADQ 26122.87457419  .00000554  00000-0  27554-3 0  9993
2 63393  89.0214 282.3646 0070085 348.0649  11.8873 14.14464982 89205
CZ-6A DEB
1 63393U 24140ADQ 26122.87457419  .00000554  00000-0  27554-3 0  9993
2 63393  89.0214 282.3646 0070085 348.0649  11.8873 14.14464982 89205
CZ-6A DEB
1 63393U 24140ADQ 26123.86496464  .00000534  00000-0  26552-3 0  9991
2 63393  89.0215 282.2556 0069949 344.8435  15.0655 14.14466059 89345
CZ-6A DEB
1 63393U 24140ADQ 26123.86496465  .00000534  00000-0  26552-3 0  9992
2 63393  89.0215 282.2556 0069949 344.8435  15.0655 14.14466059 89345
CZ-6A DEB
1 63393U 24140ADQ 26124.14793323  .00000508  00000-0  25207-3 0  9994
2 63393  89.0216 282.2245 0069912 343.9226  15.9741 14.14466244 89384
CZ-6A DEB
1 63393U 24140ADQ 26124.43090183  .00000499  00000-0  24769-3 0  9991
2 63393  89.0216 282.1934 0069878 343.0036  16.8810 14.14466517 89424
CZ-6A DEB
1 63393U 24140ADQ 26124.43090184  .00000499  00000-0  24769-3 0  9992
2 63393  89.0216 282.1934 0069878 343.0036  16.8810 14.14466517 89424
CZ-6A DEB
1 63393U 24140ADQ 26125.42129146  .00000565  00000-0  28119-3 0  9990
2 63393  89.0216 282.0844 0069786 339.8203  20.0228 14.14468022 89568
CZ-6A DEB
1 63393U 24140ADQ 26125.42129146  .00000565  00000-0  28119-3 0  9990
2 63393  89.0216 282.0844 0069786 339.8203  20.0228 14.14468022 89568
CZ-6A DEB
1 63393U 24140ADQ 26127.40206917  .00000493  00000-0  24493-3 0  9993
2 63393  89.0220 281.8666 0069541 333.3068  26.4545 14.14469723 89841
CZ-6A DEB
1 63393U 24140ADQ 26127.40206917  .00000493  00000-0  24493-3 0  9993
2 63393  89.0220 281.8666 0069541 333.3068  26.4545 14.14469723 89841
CZ-6A DEB
1 63393U 24140ADQ 26128.67542574  .00000475  00000-0  23547-3 0  9994
2 63393  89.0222 281.7266 0069425 329.1443  30.5671 14.14470766 90026
CZ-6A DEB
1 63393U 24140ADQ 26128.67542575  .00000475  00000-0  23547-3 0  9995
2 63393  89.0222 281.7266 0069425 329.1443  30.5671 14.14470766 90026
CZ-6A DEB
1 63393U 24140ADQ 26129.38284568  .00000462  00000-0  22900-3 0  9997
2 63393  89.0223 281.6489 0069357 326.8070  32.8774 14.14471355 90122
CZ-6A DEB
1 63393U 24140ADQ 26129.38284569  .00000462  00000-0  22900-3 0  9998
2 63393  89.0223 281.6489 0069357 326.8070  32.8774 14.14471355 90122
CZ-6A DEB
1 63393U 24140ADQ 26130.37323345  .00000432  00000-0  21373-3 0  9995
2 63393  89.0225 281.5402 0069263 323.5345  36.1135 14.14472037 90264
CZ-6A DEB
1 63393U 24140ADQ 26130.65620144  .00000425  00000-0  21016-3 0  9999
2 63393  89.0226 281.5089 0069223 322.6152  37.0229 14.14472186 90302
CZ-6A DEB
1 63393U 24140ADQ 26130.65620144  .00000425  00000-0  21016-3 0  9999
2 63393  89.0226 281.5089 0069223 322.6152  37.0229 14.14472186 90302
CZ-6A DEB
1 63393U 24140ADQ 26131.36362105  .00000409  00000-0  20176-3 0  9996
2 63393  89.0227 281.4312 0069156 320.2900  39.3235 14.14472713 90400
CZ-6A DEB
1 63393U 24140ADQ 26131.36362106  .00000409  00000-0  20176-3 0  9997
2 63393  89.0227 281.4312 0069156 320.2900  39.3235 14.14472713 90400
CZ-6A DEB
1 63393U 24140ADQ 26132.14178253  .00000404  00000-0  19917-3 0  9998
2 63393  89.0227 281.3456 0069073 317.7204  41.8669 14.14473316 90515
CZ-6A DEB
1 63393U 24140ADQ 26132.14178254  .00000404  00000-0  19917-3 0  9999
2 63393  89.0227 281.3456 0069073 317.7204  41.8669 14.14473316 90515
CZ-6A DEB
1 63393U 24140ADQ 26132.84920204  .00000390  00000-0  19211-3 0  9997
2 63393  89.0231 281.2680 0068983 315.4015  44.1633 14.14473812 90611
CZ-6A DEB
1 63393U 24140ADQ 26132.84920204  .00000390  00000-0  19211-3 0  9997
2 63393  89.0231 281.2680 0068983 315.4015  44.1633 14.14473812 90611
CZ-6A DEB
1 63393U 24140ADQ 26133.13216979  .00000382  00000-0  18807-3 0  9998
2 63393  89.0230 281.2368 0068953 314.4640  45.0920 14.14473981 90653
CZ-6A DEB
1 63393U 24140ADQ 26133.13216980  .00000382  00000-0  18807-3 0  9990
2 63393  89.0230 281.2368 0068953 314.4640  45.0920 14.14473981 90653
CZ-6A DEB
1 63393U 24140ADQ 26133.83958909  .00000376  00000-0  18505-3 0  9999
2 63393  89.0229 281.1589 0068879 312.1257  47.4088 14.14474527 90750
CZ-6A DEB
1 63393U 24140ADQ 26133.83958909  .00000376  00000-0  18505-3 0  9999
2 63393  89.0229 281.1589 0068879 312.1257  47.4088 14.14474527 90750
CZ-6A DEB
1 63393U 24140ADQ 26134.82997595  .00000366  00000-0  17991-3 0  9990
2 63393  89.0226 281.0498 0068797 308.8350  50.6708 14.14475250 90894
CZ-6A DEB
1 63393U 24140ADQ 26136.38629798  .00000367  00000-0  18035-3 0  9991
2 63393  89.0227 280.8788 0068684 303.6681  55.7968 14.14476417 91115
CZ-6A DEB
1 63393U 24140ADQ 26136.66926552  .00000363  00000-0  17875-3 0  9997
2 63393  89.0227 280.8477 0068668 302.7261  56.7318 14.14476612 91157
CZ-6A DEB
1 63393U 24140ADQ 26136.66926553  .00000363  00000-0  17875-3 0  9998
2 63393  89.0227 280.8477 0068668 302.7262  56.7318 14.14476612 91158
CZ-6A DEB
1 63393U 24140ADQ 26137.37668462  .00000353  00000-0  17355-3 0  9991
2 63393  89.0228 280.7700 0068633 300.3713  59.0700 14.14477055 91258
CZ-6A DEB
1 63393U 24140ADQ 26137.37668462  .00000353  00000-0  17355-3 0  9991
2 63393  89.0228 280.7700 0068633 300.3713  59.0700 14.14477055 91258
CZ-6A DEB
1 63393U 24140ADQ 26139.14523205  .00000355  00000-0  17448-3 0  9998
2 63393  89.0229 280.5756 0068557 294.4941  64.9107 14.14478301 91508
CZ-6A DEB
1 63393U 24140ADQ 26139.14523206  .00000355  00000-0  17448-3 0  9999
2 63393  89.0229 280.5756 0068557 294.4941  64.9107 14.14478301 91508
CZ-6A DEB
1 63393U 24140ADQ 26139.35745775  .00000356  00000-0  17509-3 0  9998
2 63393  89.0230 280.5523 0068551 293.7922  65.6087 14.14478457 91537
CZ-6A DEB
1 63393U 24140ADQ 26139.64042507  .00000368  00000-0  18099-3 0  9991
2 63393  89.0232 280.5213 0068539 292.8452  66.5506 14.14478776 91573
CZ-6A DEB
1 63393U 24140ADQ 26139.64042508  .00000368  00000-0  18099-3 0  9992
2 63393  89.0232 280.5213 0068539 292.8452  66.5506 14.14478776 91573
CZ-6A DEB
1 63393U 24140ADQ 26140.34784395  .00000386  00000-0  19053-3 0  9999
2 63393  89.0232 280.4436 0068525 290.4926  68.8915 14.14479390 91677
CZ-6A DEB
1 63393U 24140ADQ 26140.34784395  .00000386  00000-0  19053-3 0  9999
2 63393  89.0232 280.4436 0068525 290.4926  68.8915 14.14479390 91677
CZ-6A DEB
1 63393U 24140ADQ 26141.62119763  .00000408  00000-0  20132-3 0  9997
2 63393  89.0236 280.3038 0068488 286.2639  73.1022 14.14480489 91859
CZ-6A DEB
1 63393U 24140ADQ 26141.83342323  .00000431  00000-0  21310-3 0  9995
2 63393  89.0236 280.2805 0068485 285.5551  73.8082 14.14480791 91884
CZ-6A DEB
1 63393U 24140ADQ 26141.83342324  .00000431  00000-0  21310-3 0  9996
2 63393  89.0236 280.2805 0068485 285.5551  73.8082 14.14480791 91884
CZ-6A DEB
1 63393U 24140ADQ 26142.11639074  .00000429  00000-0  21237-3 0  9994
2 63393  89.0235 280.2493 0068490 284.6079  74.7520 14.14480985 91924
CZ-6A DEB
1 63393U 24140ADQ 26142.82380929  .00000454  00000-0  22497-3 0  9991
2 63393  89.0235 280.1715 0068485 282.2515  77.1009 14.14481718 92029
CZ-6A DEB
1 63393U 24140ADQ 26143.81419519  .00000472  00000-0  23444-3 0  9992
2 63393  89.0236 280.0627 0068460 278.9563  80.3879 14.14482663 92165
CZ-6A DEB
1 63393U 24140ADQ 26144.80458080  .00000507  00000-0  25192-3 0  9999
2 63393  89.0237 279.9540 0068449 275.6580  83.6804 14.14483761 92307
CZ-6A DEB
1 63393U 24140ADQ 26145.79496620  .00000520  00000-0  25892-3 0  9992
2 63393  89.0240 279.8455 0068462 272.3514  86.9836 14.14484779 92447
CZ-6A DEB
1 63393U 24140ADQ 26148.34166966  .00000613  00000-0  30630-3 0  9992
2 63393  89.0243 279.5662 0068548 263.8666  95.4708 14.14488080 92807
CZ-6A DEB
1 63393U 24140ADQ 26148.34166967  .00000613  00000-0  30630-3 0  9993
2 63393  89.0243 279.5662 0068548 263.8666  95.4708 14.14488080 92807
CZ-6A DEB
1 63393U 24140ADQ 26150.32243705  .00000698  00000-0  34929-3 0  9998
2 63393  89.0246 279.3491 0068613 257.3101 102.0410 14.14491066 93087
CZ-6A DEB
1 63393U 24140ADQ 26150.32243706  .00000698  00000-0  34929-3 0  9999
2 63393  89.0246 279.3491 0068613 257.3101 102.0410 14.14491066 93087
CZ-6A DEB
1 63393U 24140ADQ 26151.31281990  .00000725  00000-0  36323-3 0  9997
2 63393  89.0247 279.2404 0068660 254.0299 105.3316 14.14492568 93220
CZ-6A DEB
1 63393U 24140ADQ 26152.30320265  .00000652  00000-0  32605-3 0  9994
2 63393  89.0249 279.1318 0068712 250.7457 108.6288 14.14493442 93363
CZ-6A DEB
1 63393U 24140ADQ 26153.08135988  .00000676  00000-0  33830-3 0  9993
2 63393  89.0251 279.0465 0068740 248.1649 111.2217 14.14494660 93470
CZ-6A DEB
1 63393U 24140ADQ 26156.05250252  .00000763  00000-0  38221-3 0  9991
2 63393  89.0253 278.7209 0068953 238.3114 121.1338 14.14499351 93890
CZ-6A DEB
1 63393U 24140ADQ 26156.05250253  .00000763  00000-0  38221-3 0  9992
2 63393  89.0253 278.7209 0068953 238.3114 121.1338 14.14499351 93890
CZ-6A DEB
1 63393U 24140ADQ 26157.04288204  .00000761  00000-0  38159-3 0  9997
2 63393  89.0254 278.6122 0069036 235.0311 124.4381 14.14500854 94032
CZ-6A DEB
1 63393U 24140ADQ 26157.04288204  .00000761  00000-0  38159-3 0  9997
2 63393  89.0254 278.6122 0069036 235.0311 124.4381 14.14500854 94032
CZ-6A DEB
1 63393U 24140ADQ 26158.59919163  .00000764  00000-0  38300-3 0  9994
2 63393  89.0254 278.4418 0069280 229.9034 129.6067 14.14503102 94254
CZ-6A DEB
1 63393U 24140ADQ 26158.59919164  .00000764  00000-0  38300-3 0  9995
2 63393  89.0254 278.4418 0069280 229.9034 129.6067 14.14503102 94254
CZ-6A DEB
1 63393U 24140ADQ 26159.58956938  .00000713  00000-0  35653-3 0  9997
2 63393  89.0255 278.3331 0069317 226.6462 132.8938 14.14504508 94397
CZ-6A DEB
1 63393U 24140ADQ 26159.58956938  .00000713  00000-0  35653-3 0  9997
2 63393  89.0255 278.3331 0069317 226.6462 132.8938 14.14504508 94397
CZ-6A DEB
1 63393U 24140ADQ 26159.58956938  .00000713  00000-0  35653-3 0  9997
2 63393  89.0255 278.3331 0069317 226.6462 132.8938 14.14504508 94397
CZ-6A DEB
1 63393U 24140ADQ 26160.57994681  .00000613  00000-0  30558-3 0  9993
2 63393  89.0256 278.2247 0069449 223.3997 136.1711 14.14505438 94531
CZ-6A DEB
1 63393U 24140ADQ 26162.06551180  .00000552  00000-0  27463-3 0  9995
2 63393  89.0255 278.0616 0069581 218.5168 141.1043 14.14507280 94745
CZ-6A DEB
1 63393U 24140ADQ 26163.05588808  .00000545  00000-0  27086-3 0  9995
2 63393  89.0255 277.9530 0069692 215.2757 144.3808 14.14508485 94886
CZ-6A DEB
1 63393U 24140ADQ 26166.02701133  .00000684  00000-0  34156-3 0  9993
2 63393  89.0259 277.6277 0070119 205.6146 154.1562 14.14513277 95305
CZ-6A DEB
1 63393U 24140ADQ 26166.02701134  .00000684  00000-0  34156-3 0  9994
2 63393  89.0259 277.6277 0070119 205.6146 154.1562 14.14513277 95305
CZ-6A DEB
1 63393U 24140ADQ 26167.01738479  .00000685  00000-0  34189-3 0  9993
2 63393  89.0258 277.5192 0070236 202.3828 157.4290 14.14514557 95441
CZ-6A DEB
1 63393U 24140ADQ 26167.01738480  .00000685  00000-0  34189-3 0  9995
2 63393  89.0258 277.5192 0070236 202.3829 157.4290 14.14514557 95442
CZ-6A DEB
1 63393U 24140ADQ 26167.58331215  .00000677  00000-0  33807-3 0  9999
2 63393  89.0258 277.4572 0070303 200.5410 159.2948 14.14515262 95527
CZ-6A DEB
1 63393U 24140ADQ 26167.58331216  .00000677  00000-0  33807-3 0  9990
2 63393  89.0258 277.4572 0070303 200.5410 159.2948 14.14515262 95527
CZ-6A DEB
1 63393U 24140ADQ 26168.29072102  .00000648  00000-0  32291-3 0  9999
2 63393  89.0257 277.3797 0070412 198.2519 161.6140 14.14516031 95625
CZ-6A DEB
1 63393U 24140ADQ 26168.29072103  .00000648  00000-0  32291-3 0  9990
2 63393  89.0257 277.3797 0070412 198.2519 161.6140 14.14516031 95625
CZ-6A DEB
1 63393U 24140ADQ 26169.28109266  .00000630  00000-0  31402-3 0  9995
2 63393  89.0257 277.2712 0070554 195.0589 164.8499 14.14517282 95766
CZ-6A DEB
1 63393U 24140ADQ 26169.56405571  .00000623  00000-0  31014-3 0  9995
2 63393  89.0258 277.2402 0070595 194.1456 165.7756 14.14517657 95808
CZ-6A DEB
1 63393U 24140ADQ 26169.56405571  .00000623  00000-0  31014-3 0  9995
2 63393  89.0258 277.2402 0070595 194.1456 165.7756 14.14517657 95808
CZ-6A DEB
1 63393U 24140ADQ 26170.55442645  .00000573  00000-0  28464-3 0  9998
2 63393  89.0258 277.1317 0070744 190.9644 169.0006 14.14518698 95947
CZ-6A DEB
1 63393U 24140ADQ 26173.03035124  .00000481  00000-0  23777-3 0  9994
2 63393  89.0260 276.8607 0071090 183.0402 177.0363 14.14520963 96290
CZ-6A DEB
1 63393U 24140ADQ 26174.23294222  .00000528  00000-0  26142-3 0  9994
2 63393  89.0260 276.7291 0071244 179.1819 180.9498 14.14522325 96462
CZ-6A DEB
1 63393U 24140ADQ 26177.55774693  .00000649  00000-0  32274-3 0  9994
2 63393  89.0261 276.3652 0071661 168.5015 191.7831 14.14526125 96938
CZ-6A DEB
1 63393U 24140ADQ 26177.69922779  .00000643  00000-0  31998-3 0  9995
2 63393  89.0261 276.3496 0071699 168.0579 192.2330 14.14526245 96950
CZ-6A DEB
1 63393U 24140ADQ 26177.69922779  .00000643  00000-0  31998-3 0  9995
2 63393  89.0261 276.3496 0071699 168.0579 192.2330 14.14526245 96950
CZ-6A DEB
1 63393U 24140ADQ 26177.98218926  .00000660  00000-0  32832-3 0  9996
2 63393  89.0264 276.3188 0071762 167.2134 193.0895 14.14526630 96997
CZ-6A DEB
1 63393U 24140ADQ 26178.26515095  .00000661  00000-0  32881-3 0  9990
2 63393  89.0262 276.2877 0071785 166.2910 194.0249 14.14526917 97033
CZ-6A DEB
1 63393U 24140ADQ 26178.26515096  .00000661  00000-0  32881-3 0  9991
2 63393  89.0262 276.2877 0071785 166.2910 194.0249 14.14526917 97033
CZ-6A DEB
1 63393U 24140ADQ 26179.25551580  .00000616  00000-0  30608-3 0  9994
2 63393  89.0263 276.1793 0071916 163.1503 197.2097 14.14527787 97177
CZ-6A DEB
1 63393U 24140ADQ 26183.00474506  .00000581  00000-0  28797-3 0  9991
2 63393  89.0263 275.7690 0072345 151.3625 209.1565 14.14532009 97704
CZ-6A DEB
1 63393U 24140ADQ 26183.49992572  .00000623  00000-0  30942-3 0  9994
2 63393  89.0262 275.7147 0072391 149.7811 210.7582 14.14532647 97771
CZ-6A DEB
1 63393U 24140ADQ 26183.49992572  .00000623  00000-0  30942-3 0  9994
2 63393  89.0262 275.7147 0072391 149.7811 210.7582 14.14532647 97771
CZ-6A DEB
1 63393U 24140ADQ 26184.70250534  .00000635  00000-0  31552-3 0  9995
2 63393  89.0262 275.5831 0072515 145.9784 214.6084 14.14534008 97946
CZ-6A DEB
1 63393U 24140ADQ 26185.19768466  .00000644  00000-0  31994-3 0  9997
2 63393  89.0261 275.5289 0072565 144.4154 216.1904 14.14534593 98018
CZ-6A DEB
1 63393U 24140ADQ 26185.19768467  .00000644  00000-0  31994-3 0  9998
2 63393  89.0261 275.5289 0072565 144.4154 216.1904 14.14534593 98018
CZ-6A DEB
1 63393U 24140ADQ 26185.19768467  .00000644  00000-0  31994-3 0  9998
2 63393  89.0261 275.5289 0072565 144.4154 216.1904 14.14534593 98018
CZ-6A DEB
1 63393U 24140ADQ 26186.68322038  .00000727  00000-0  36207-3 0  9997
2 63393  89.0261 275.3664 0072716 139.7269 220.9337 14.14536890 98223
CZ-6A DEB
1 63393U 24140ADQ 26186.68322039  .00000727  00000-0  36207-3 0  9998
2 63393  89.0261 275.3664 0072716 139.7269 220.9337 14.14536890 98223
CZ-6A DEB
1 63393U 24140ADQ 26189.22984785  .00000463  00000-0  22762-3 0  9991
2 63393  89.0263 275.0884 0072982 131.6910 229.0554 14.14538562 98583
CZ-6A DEB
1 63393U 24140ADQ 26189.22984785  .00000463  00000-0  22762-3 0  9991
2 63393  89.0263 275.0884 0072982 131.6910 229.0554 14.14538562 98583
CZ-6A DEB
1 63393U 24140ADQ 26189.22984785  .00000463  00000-0  22762-3 0  9991
2 63393  89.0263 275.0884 0072982 131.6910 229.0554 14.14538562 98583
CZ-6A DEB
1 63393U 24140ADQ 26190.22020118  .00000417  00000-0  20419-3 0  9990
2 63393  89.0260 274.9800 0073098 128.5387 232.2383 14.14539455 98722
CZ-6A DEB
1 63393U 24140ADQ 26191.21055310  .00000358  00000-0  17430-3 0  9995
2 63393  89.0256 274.8713 0073159 125.4630 235.3415 14.14540254 98868
CZ-6A DEB
1 63393U 24140ADQ 26192.20090389  .00000312  00000-0  15118-3 0  9991
2 63393  89.0251 274.7620 0073240 122.4308 238.3990 14.14541020 99009
CZ-6A DEB
1 63393U 24140ADQ 26192.20090390  .00000312  00000-0  15118-3 0  9993
2 63393  89.0251 274.7620 0073240 122.4308 238.3990 14.14541020 99009
CZ-6A DEB
1 63393U 24140ADQ 26192.20090390  .00000312  00000-0  15118-3 0  9993
2 63393  89.0251 274.7620 0073240 122.4308 238.3990 14.14541020 99009
CZ-6A DEB
1 63393U 24140ADQ 26194.18160376  .00000287  00000-0  13835-3 0  9999
2 63393  89.0255 274.5454 0073241 116.3524 244.5208 14.14542283 99282
CZ-6A DEB
1 63393U 24140ADQ 26194.18160377  .00000287  00000-0  13835-3 0  9990
2 63393  89.0255 274.5454 0073241 116.3524 244.5208 14.14542283 99282
CZ-6A DEB
1 63393U 24140ADQ 26194.67677843  .00000279  00000-0  13409-3 0  9993
2 63393  89.0254 274.4910 0073267 114.8088 246.0743 14.14542508 99352
CZ-6A DEB
1 63393U 24140ADQ 26195.17195301  .00000288  00000-0  13863-3 0  9997
2 63393  89.0254 274.4369 0073287 113.2555 247.6370 14.14542787 99424
CZ-6A DEB
1 63393U 24140ADQ 26195.17195301  .00000288  00000-0  13863-3 0  9997
2 63393  89.0254 274.4369 0073287 113.2555 247.6370 14.14542787 99424
CZ-6A DEB
1 63393U 24140ADQ 26198.63816856  .00000286  00000-0  13781-3 0  9993
2 63393  89.0252 274.0570 0073400 102.5025 258.4387 14.14544430 99911
CZ-6A DEB
1 63393U 24140ADQ 26198.63816857  .00000286  00000-0  13781-3 0  9994
2 63393  89.0252 274.0570 0073400 102.5025 258.4387 14.14544430 99911
CZ-6A DEB
1 63393U 24140ADQ 26198.63816857  .00000286  00000-0  13781-3 0  9994
2 63393  89.0252 274.0570 0073400 102.5025 258.4387 14.14544430 99911
CZ-6A DEB
1 63393U 24140ADQ 26199.20408074  .00000292  00000-0  14096-3 0  9993
2 63393  89.0250 273.9950 0073450 100.6822 260.2647 14.14544730 99999
CZ-6A DEB
1 63393U 24140ADQ 26199.62851432  .00000275  00000-0  13187-3 0  9990
2 63393  89.0249 273.9483 0073449  99.3858 261.5642 14.14544865100057
CZ-6A DEB
1 63393U 24140ADQ 26199.62851432  .00000275  00000-0  13187-3 0  9990
2 63393  89.0249 273.9483 0073449  99.3858 261.5642 14.14544865100057
CZ-6A DEB
1 63393U 24140ADQ 26200.19442566  .00000273  00000-0  13109-3 0  9991
2 63393  89.0248 273.8863 0073447  97.6313 263.3223 14.14545144100137
CZ-6A DEB
1 63393U 24140ADQ 26201.18476986  .00000263  00000-0  12600-3 0  9998
2 63393  89.0248 273.7778 0073448  94.5702 266.3879 14.14545595100275
CZ-6A DEB
1 63393U 24140ADQ 26202.17511299  .00000299  00000-0  14440-3 0  9998
2 63393  89.0248 273.6694 0073392  91.4958 269.4638 14.14546359100410
CZ-6A DEB
1 63393U 24140ADQ 26202.45806860  .00000278  00000-0  13386-3 0  9995
2 63393  89.0251 273.6390 0073400  90.5949 270.3649 14.14546260100455
CZ-6A DEB
1 63393U 24140ADQ 26204.15579746  .00000320  00000-0  15506-3 0  9998
2 63393  89.0250 273.4533 0073297  85.3110 275.6444 14.14547410100692
CZ-6A DEB
1 63393U 24140ADQ 26204.43875198  .00000327  00000-0  15876-3 0  9996
2 63393  89.0250 273.4223 0073284  84.4295 276.5244 14.14547600100732
CZ-6A DEB
1 63393U 24140ADQ 26204.43875198  .00000327  00000-0  15876-3 0  9996
2 63393  89.0250 273.4223 0073284  84.4295 276.5244 14.14547600100732
CZ-6A DEB
1 63393U 24140ADQ 26205.92426181  .00000398  00000-0  19487-3 0  9995
2 63393  89.0248 273.2595 0073233  79.7956 281.1480 14.14548927100944
CZ-6A DEB
1 63393U 24140ADQ 26206.63164661  .00000412  00000-0  20193-3 0  9999
2 63393  89.0248 273.1819 0073193  77.5852 283.3514 14.14549499101047
CZ-6A DEB
1 63393U 24140ADQ 26207.19755378  .00000472  00000-0  23238-3 0  9991
2 63393  89.0247 273.1199 0073153  75.8184 285.1116 14.14550312101125
CZ-6A DEB
1 63393U 24140ADQ 26207.62198407  .00000480  00000-0  23637-3 0  9995
2 63393  89.0247 273.0733 0073136  74.4975 286.4273 14.14550701101188
CZ-6A DEB
1 63393U 24140ADQ 26207.62198407  .00000480  00000-0  23637-3 0  9995
2 63393  89.0247 273.0733 0073136  74.4975 286.4273 14.14550701101188
CZ-6A DEB
1 63393U 24140ADQ 26208.61232061  .00000480  00000-0  23664-3 0  9990
2 63393  89.0246 272.9648 0073092  71.4115 289.4993 14.14551561101327
CZ-6A DEB
1 63393U 24140ADQ 26209.60265587  .00000468  00000-0  23051-3 0  9995
2 63393  89.0244 272.8562 0073043  68.3313 292.5632 14.14552447101464
CZ-6A DEB
1 63393U 24140ADQ 26210.45151354  .00000468  00000-0  23029-3 0  9991
2 63393  89.0242 272.7630 0072958  65.6942 295.1842 14.14553300101583
CZ-6A DEB
1 63393U 24140ADQ 26212.14922647  .00000433  00000-0  21270-3 0  9998
2 63393  89.0238 272.5768 0072815  60.3848 300.4567 14.14554918101824
CZ-6A DEB
1 63393U 24140ADQ 26213.42250906  .00000456  00000-0  22452-3 0  9990
2 63393  89.0239 272.4373 0072664  56.3906 304.4188 14.14556338102000
CZ-6A DEB
1 63393U 24140ADQ 26213.91767398  .00000443  00000-0  21787-3 0  9998
2 63393  89.0237 272.3829 0072637  54.8404 305.9559 14.14556808102076
CZ-6A DEB
1 63393U 24140ADQ 26214.12988747  .00000443  00000-0  21780-3 0  9998
2 63393  89.0237 272.3596 0072615  54.1690 306.6214 14.14557023102103
CZ-6A DEB
1 63393U 24140ADQ 26214.12988747  .00000443  00000-0  21780-3 0  9998
2 63393  89.0237 272.3596 0072615  54.1690 306.6214 14.14557023102103
CZ-6A DEB
1 63393U 24140ADQ 26215.12021651  .00000438  00000-0  21542-3 0  9991
2 63393  89.0236 272.2510 0072515  51.0484 309.7135 14.14557956102249
CZ-6A DEB
1 63393U 24140ADQ 26216.88865860  .00000388  00000-0  18995-3 0  9995
2 63393  89.0233 272.0570 0072318  45.4721 315.2343 14.14559357102499
CZ-6A DEB
1 63393U 24140ADQ 26217.59603470  .00000374  00000-0  18293-3 0  9997
2 63393  89.0232 271.9794 0072238  43.2403 317.4424 14.14559912102590
CZ-6A DEB
1 63393U 24140ADQ 26218.58636063  .00000348  00000-0  16986-3 0  9999
2 63393  89.0231 271.8708 0072139  40.1234 320.5249 14.14560597102738
CZ-6A DEB
1 63393U 24140ADQ 26218.58636063  .00000348  00000-0  16986-3 0  9999
2 63393  89.0231 271.8708 0072139  40.1234 320.5249 14.14560597102738
CZ-6A DEB
1 63393U 24140ADQ 26219.57668581  .00000319  00000-0  15488-3 0  9993
2 63393  89.0231 271.7621 0072012  36.9928 323.6192 14.14561190102870
CZ-6A DEB
1 63393U 24140ADQ 26219.57668582  .00000319  00000-0  15488-3 0  9994
2 63393  89.0231 271.7621 0072012  36.9928 323.6192 14.14561190102870
CZ-6A DEB
1 63393U 24140ADQ 26220.42553565  .00000295  00000-0  14255-3 0  9998
2 63393  89.0230 271.6690 0071922  34.3087 326.2715 14.14561592102990
CZ-6A DEB
1 63393U 24140ADQ 26220.42553565  .00000295  00000-0  14255-3 0  9998
2 63393  89.0230 271.6690 0071922  34.3087 326.2715 14.14561592102990
CZ-6A DEB
1 63393U 24140ADQ 26221.41585955  .00000312  00000-0  15122-3 0  9990
2 63393  89.0229 271.5602 0071807  31.1794 329.3623 14.14562367103132
CZ-6A DEB
1 63393U 24140ADQ 26222.12323359  .00000285  00000-0  13787-3 0  9991
2 63393  89.0228 271.4825 0071693  28.9245 331.5886 14.14562613103236
CZ-6A DEB
1 63393U 24140ADQ 26222.40618317  .00000290  00000-0  14000-3 0  9998
2 63393  89.0228 271.4514 0071654  28.0261 332.4755 14.14562751103279
CZ-6A DEB
1 63393U 24140ADQ 26222.40618318  .00000290  00000-0  14000-3 0  9999
2 63393  89.0228 271.4514 0071654  28.0261 332.4755 14.14562751103279
CZ-6A DEB
1 63393U 24140ADQ 26224.10387933  .00000295  00000-0  14295-3 0  9995
2 63393  89.0227 271.2651 0071404  22.5935 337.8368 14.14563636103517
CZ-6A DEB
1 63393U 24140ADQ 26224.10387934  .00000295  00000-0  14295-3 0  9996
2 63393  89.0227 271.2651 0071404  22.5935 337.8368 14.14563636103517
CZ-6A DEB
1 63393U 24140ADQ 26225.87231179  .00000290  00000-0  14016-3 0  9996
2 63393  89.0226 271.0711 0071162  16.9150 343.4385 14.14564307103763
CZ-6A DEB
1 63393U 24140ADQ 26225.87231180  .00000290  00000-0  14016-3 0  9998
2 63393  89.0226 271.0711 0071162  16.9150 343.4385 14.14564307103763
CZ-6A DEB
1 63393U 24140ADQ 26226.08452354  .00000292  00000-0  14143-3 0  9993
2 63393  89.0226 271.0478 0071136  16.2345 344.1097 14.14564432103793
CZ-6A DEB
1 63393U 24140ADQ 26226.08452355  .00000292  00000-0  14143-3 0  9994
2 63393  89.0226 271.0478 0071136  16.2345 344.1097 14.14564432103793
CZ-6A DEB
1 63393U 24140ADQ 26227.07484470  .00000307  00000-0  14891-3 0  9994
2 63393  89.0226 270.9392 0071004  13.0534 347.2469 14.14565022103934
CZ-6A DEB
1 63393U 24140ADQ 26227.07484471  .00000307  00000-0  14891-3 0  9995
2 63393  89.0226 270.9392 0071004  13.0534 347.2469 14.14565022103934
CZ-6A DEB
1 63393U 24140ADQ 26228.06516558  .00000304  00000-0  14769-3 0  9998
2 63393  89.0223 270.8303 0070878   9.8907 350.3655 14.14565492104076
CZ-6A DEB
1 63393U 24140ADQ 26228.06516558  .00000304  00000-0  14769-3 0  9998
2 63393  89.0223 270.8303 0070878   9.8907 350.3655 14.14565492104076
CZ-6A DEB
1 63393U 24140ADQ 26228.56032594  .00000293  00000-0  14218-3 0  9992
2 63393  89.0223 270.7759 0070813   8.3130 351.9211 14.14565674104146
CZ-6A DEB
1 63393U 24140ADQ 26230.39949185  .00000347  00000-0  16933-3 0  9995
2 63393  89.0219 270.5739 0070604   2.4356 357.7161 14.14566921104403
CZ-6A DEB
1 63393U 24140ADQ 26232.09718212  .00000338  00000-0  16525-3 0  9996
2 63393  89.0217 270.3871 0070363 356.9493   3.1255 14.14567833104642
CZ-6A DEB
1 63393U 24140ADQ 26233.08750070  .00000354  00000-0  17342-3 0  9990
2 63393  89.0217 270.2783 0070222 353.7244   6.3056 14.14568532104782
CZ-6A DEB
1 63393U 24140ADQ 26234.07781890  .00000365  00000-0  17910-3 0  9997
2 63393  89.0216 270.1694 0070091 350.4977   9.4879 14.14569213104922
CZ-6A DEB
1 63393U 24140ADQ 26234.36076685  .00000367  00000-0  18005-3 0  9996
2 63393  89.0217 270.1384 0070051 349.5680  10.4048 14.14569396104961
CZ-6A DEB
1 63393U 24140ADQ 26234.36076686  .00000367  00000-0  18005-3 0  9997
2 63393  89.0217 270.1384 0070051 349.5680  10.4048 14.14569396104961
CZ-6A DEB
1 63393U 24140ADQ 26235.06813664  .00000380  00000-0  18667-3 0  9999
2 63393  89.0215 270.0605 0069970 347.2702  12.6715 14.14569956105061
CZ-6A DEB
1 63393U 24140ADQ 26236.05845397  .00000390  00000-0  19157-3 0  9993
2 63393  89.0214 269.9515 0069855 344.0431  15.8554 14.14570702105206
CZ-6A DEB
1 63393U 24140ADQ 26237.04877078  .00000411  00000-0  20238-3 0  9990
2 63393  89.0213 269.8425 0069746 340.8009  19.0551 14.14571569105348
CZ-6A DEB
1 63393U 24140ADQ 26237.82687650  .00000434  00000-0  21423-3 0  9993
2 63393  89.0213 269.7571 0069649 338.2709  21.5526 14.14572326105453
CZ-6A DEB
1 63393U 24140ADQ 26237.82687651  .00000434  00000-0  21423-3 0  9994
2 63393  89.0213 269.7571 0069649 338.2709  21.5526 14.14572326105453
CZ-6A DEB
1 63393U 24140ADQ 26239.87824507  .00000472  00000-0  23364-3 0  9992
2 63393  89.0211 269.5314 0069405 331.5585  28.1821 14.14574280105746
CZ-6A DEB
1 63393U 24140ADQ 26239.87824507  .00000472  00000-0  23364-3 0  9992
2 63393  89.0211 269.5314 0069405 331.5585  28.1821 14.14574280105746
CZ-6A DEB
1 63393U 24140ADQ 26241.50519155  .00000446  00000-0  22038-3 0  9993
2 63393  89.0206 269.3522 0069211 326.2405  33.4383 14.14575583105970
CZ-6A DEB
1 63393U 24140ADQ 26241.50519156  .00000446  00000-0  22038-3 0  9994
2 63393  89.0207 269.3522 0069211 326.2405  33.4383 14.14575583105971
CZ-6A DEB
1 63393U 24140ADQ 26241.78813858  .00000448  00000-0  22138-3 0  9993
2 63393  89.0205 269.3210 0069178 325.3148  34.3537 14.14575860106014
CZ-6A DEB
1 63393U 24140ADQ 26241.78813858  .00000448  00000-0  22138-3 0  9993
2 63393  89.0205 269.3210 0069178 325.3148  34.3537 14.14575860106014
CZ-6A DEB
1 63393U 24140ADQ 26243.34434734  .00000376  00000-0  18463-3 0  9995
2 63393  89.0203 269.1497 0069021 320.1988  39.4146 14.14576807106237
CZ-6A DEB
1 63393U 24140ADQ 26243.34434734  .00000376  00000-0  18463-3 0  9995
2 63393  89.0203 269.1497 0069021 320.1988  39.4146 14.14576807106237
CZ-6A DEB
1 63393U 24140ADQ 26244.33466164  .00000351  00000-0  17213-3 0  9992
2 63393  89.0201 269.0406 0068929 316.9354  42.6450 14.14577505106375
CZ-6A DEB
1 63393U 24140ADQ 26244.33466165  .00000351  00000-0  17213-3 0  9993
2 63393  89.0201 269.0406 0068929 316.9355  42.6450 14.14577505106376
