TBA - TO BE ASSIGNED
1 64499U 22151AJE 26191.22781544  .00000992  00000-0  56852-3 0  9994
2 64499  98.8836 185.5995 0085409 309.8683  49.4997 14.09975661167072
CZ-6A DEB
1 64499U 22151AJE 26191.22781544  .00000992  00000-0  56852-3 0  9994
2 64499  98.8836 185.5995 0085409 309.8683  49.4997 14.09975661167072
CZ-6A DEB
1 64499U 22151AJE 26193.21475473  .00001034  00000-0  59123-3 0  9998
2 64499  98.8841 187.5618 0085158 304.1112  55.2000 14.09979965167350
CZ-6A DEB
1 64499U 22151AJE 26193.21475474  .00001034  00000-0  59123-3 0  9999
2 64499  98.8841 187.5618 0085158 304.1112  55.2000 14.09979965167350
CZ-6A DEB
1 64499U 22151AJE 26194.42110816  .00001065  00000-0  60861-3 0  9994
2 64499  98.8843 188.7535 0084991 300.6176  58.6633 14.09982839167520
CZ-6A DEB
1 64499U 22151AJE 26194.42110817  .00001065  00000-0  60861-3 0  9995
2 64499  98.8843 188.7535 0084991 300.6176  58.6633 14.09982839167520
CZ-6A DEB
1 64499U 22151AJE 26200.45284796  .00000909  00000-0  52313-3 0  9993
2 64499  98.8840 194.7107 0084180 282.9682  76.2099 14.09996190168374
CZ-6A DEB
1 64499U 22151AJE 26201.44630678  .00001018  00000-0  58281-3 0  9999
2 64499  98.8846 195.6926 0084086 280.0619  79.1072 14.09999142168512
CZ-6A DEB
1 64499U 22151AJE 26202.43976410  .00001268  00000-0  72035-3 0  9996
2 64499  98.8848 196.6740 0083973 277.1462  82.0167 14.10002872168656
CZ-6A DEB
1 64499U 22151AJE 26203.43321927  .00001442  00000-0  81534-3 0  9992
2 64499  98.8851 197.6555 0083895 274.2337  84.9249 14.10006420168797
CZ-6A DEB
1 64499U 22151AJE 26207.76181898  .00002120  00000-0  11871-2 0  9993
2 64499  98.8847 201.9312 0083664 261.4721  97.6962 14.10025060169404
CZ-6A DEB
1 64499U 22151AJE 26211.23885506  .00001870  00000-0  10498-2 0  9992
2 64499  98.8853 205.3662 0083648 251.2338 107.9743 14.10038806169897
CZ-6A DEB
1 64499U 22151AJE 26212.44516723  .00001735  00000-0  97568-3 0  9992
2 64499  98.8850 206.5575 0083576 247.6714 111.5581 14.10043106170068
CZ-6A DEB
1 64499U 22151AJE 26213.22571997  .00001712  00000-0  96325-3 0  9998
2 64499  98.8846 207.3284 0083538 245.2895 113.9562 14.10046639170172
CZ-6A DEB
1 64499U 22151AJE 26213.43859798  .00001708  00000-0  96084-3 0  9996
2 64499  98.8847 207.5383 0083555 244.6477 114.6023 14.10047384170205
CZ-6A DEB
1 64499U 22151AJE 26213.93531280  .00001740  00000-0  97813-3 0  9991
2 64499  98.8846 208.0291 0083581 243.1836 116.0769 14.10049167170271
CZ-6A DEB
1 64499U 22151AJE 26213.93531281  .00001740  00000-0  97813-3 0  9992
2 64499  98.8846 208.0291 0083581 243.1836 116.0769 14.10049167170271
CZ-6A DEB
1 64499U 22151AJE 26214.43202729  .00001659  00000-0  93403-3 0  9990
2 64499  98.8848 208.5198 0083600 241.7126 117.5590 14.10050592170342
CZ-6A DEB
1 64499U 22151AJE 26214.92874088  .00001901  00000-0  10664-2 0  9994
2 64499  98.8847 209.0104 0083629 240.2441 119.0391 14.10053118170410
CZ-6A DEB
1 64499U 22151AJE 26215.42545397  .00001852  00000-0  10394-2 0  9993
2 64499  98.8841 209.5011 0083702 238.7710 120.5240 14.10054733170480
CZ-6A DEB
1 64499U 22151AJE 26217.19942511  .00001781  00000-0  10007-2 0  9990
2 64499  98.8840 211.2533 0083810 233.6071 125.7348 14.10061159170736
CZ-6A DEB
1 64499U 22151AJE 26217.69613572  .00001716  00000-0  96500-3 0  9998
2 64499  98.8843 211.7440 0083817 232.1138 127.2432 14.10062917170808
CZ-6A DEB
1 64499U 22151AJE 26220.25064065  .00001151  00000-0  65472-3 0  9998
2 64499  98.8844 214.2675 0083950 224.6319 134.8073 14.10069943171163
CZ-6A DEB
1 64499U 22151AJE 26220.25064065  .00001151  00000-0  65472-3 0  9998
2 64499  98.8844 214.2675 0083950 224.6319 134.8073 14.10069943171163
CZ-6A DEB
1 64499U 22151AJE 26222.45034336  .00001194  00000-0  67847-3 0  9995
2 64499  98.8851 216.4409 0084163 218.2262 141.2922 14.10076115171471
CZ-6A DEB
1 64499U 22151AJE 26222.45034336  .00001194  00000-0  67847-3 0  9995
2 64499  98.8851 216.4410 0084163 218.2262 141.2922 14.10076115171473
CZ-6A DEB
1 64499U 22151AJE 26223.44375586  .00001163  00000-0  66119-3 0  9997
2 64499  98.8857 217.4226 0084244 215.3051 144.2523 14.10078612171619
CZ-6A DEB
1 64499U 22151AJE 26223.44375586  .00001163  00000-0  66119-3 0  9997
2 64499  98.8857 217.4226 0084244 215.3051 144.2523 14.10078612171619
CZ-6A DEB
1 64499U 22151AJE 26224.22429250  .00001175  00000-0  66755-3 0  9991
2 64499  98.8853 218.1937 0084396 212.9664 146.6228 14.10080881171724
CZ-6A DEB
1 64499U 22151AJE 26224.43716620  .00001158  00000-0  65831-3 0  9999
2 64499  98.8852 218.4041 0084445 212.3569 147.2407 14.10081304171755
CZ-6A DEB
1 64499U 22151AJE 26224.43716621  .00001158  00000-0  65831-3 0  9990
2 64499  98.8852 218.4041 0084445 212.3569 147.2407 14.10081304171755
CZ-6A DEB
1 64499U 22151AJE 26225.43057672  .00001149  00000-0  65325-3 0  9993
2 64499  98.8853 219.3858 0084567 209.4980 150.1405 14.10083351171891
CZ-6A DEB
1 64499U 22151AJE 26225.43057673  .00001149  00000-0  65325-3 0  9994
2 64499  98.8853 219.3858 0084567 209.4980 150.1405 14.10083351171891
CZ-6A DEB
1 64499U 22151AJE 26226.21111183  .00001247  00000-0  70658-3 0  9992
2 64499  98.8851 220.1569 0084665 207.2440 152.4277 14.10085723172005
CZ-6A DEB
1 64499U 22151AJE 26226.21111183  .00001247  00000-0  70658-3 0  9992
2 64499  98.8851 220.1569 0084665 207.2440 152.4277 14.10085723172005
CZ-6A DEB
1 64499U 22151AJE 26226.42398507  .00001236  00000-0  70069-3 0  9996
2 64499  98.8846 220.3669 0084694 206.6700 153.0102 14.10086135172031
CZ-6A DEB
1 64499U 22151AJE 26226.42398507  .00001236  00000-0  70069-3 0  9996
2 64499  98.8846 220.3669 0084694 206.6700 153.0102 14.10086135172031
CZ-6A DEB
1 64499U 22151AJE 26230.25569105  .00001589  00000-0  89308-3 0  9993
2 64499  98.8851 224.1528 0085210 195.5562 164.2988 14.10096734172571
CZ-6A DEB
1 64499U 22151AJE 26231.24909195  .00001582  00000-0  88931-3 0  9994
2 64499  98.8853 225.1343 0085348 192.6875 167.2147 14.10099339172716
CZ-6A DEB
1 64499U 22151AJE 26232.45536296  .00001391  00000-0  78501-3 0  9996
2 64499  98.8861 226.3278 0085469 189.3477 170.6107 14.10101354172883
CZ-6A DEB
1 64499U 22151AJE 26233.23588861  .00001503  00000-0  84599-3 0  9997
2 64499  98.8864 227.0995 0085525 187.1713 172.8240 14.10104270172996
CZ-6A DEB
1 64499U 22151AJE 26233.44875929  .00001423  00000-0  80188-3 0  9995
2 64499  98.8869 227.3104 0085612 186.5518 173.4540 14.10104410173020
CZ-6A DEB
1 64499U 22151AJE 26233.44875930  .00001423  00000-0  80188-3 0  9997
2 64499  98.8869 227.3104 0085612 186.5518 173.4540 14.10104411173021
CZ-6A DEB
1 64499U 22151AJE 26234.44215494  .00001367  00000-0  77111-3 0  9990
2 64499  98.8871 228.2921 0085776 183.6815 176.3734 14.10106673173164
CZ-6A DEB
1 64499U 22151AJE 26234.44215495  .00001367  00000-0  77111-3 0  9991
2 64499  98.8871 228.2921 0085776 183.6815 176.3734 14.10106673173164
CZ-6A DEB
1 64499U 22151AJE 26235.22267773  .00001460  00000-0  82178-3 0  9997
2 64499  98.8876 229.0635 0085929 181.4154 178.6786 14.10109478173272
CZ-6A DEB
1 64499U 22151AJE 26235.43554768  .00001408  00000-0  79351-3 0  9994
2 64499  98.8860 229.2730 0086029 180.8778 179.2255 14.10109696173304
CZ-6A DEB
1 64499U 22151AJE 26236.21606943  .00001479  00000-0  83199-3 0  9997
2 64499  98.8861 230.0443 0086133 178.6449 181.4971 14.10112219173419
CZ-6A DEB
1 64499U 22151AJE 26236.21606944  .00001479  00000-0  83199-3 0  9998
2 64499  98.8861 230.0443 0086133 178.6449 181.4971 14.10112219173419
CZ-6A DEB
1 64499U 22151AJE 26237.20945885  .00001590  00000-0  89254-3 0  9990
2 64499  98.8861 231.0258 0086269 175.8152 184.3759 14.10115616173559
CZ-6A DEB
1 64499U 22151AJE 26237.42232772  .00001599  00000-0  89751-3 0  9999
2 64499  98.8857 231.2359 0086282 175.2451 184.9559 14.10116269173581
CZ-6A DEB
1 64499U 22151AJE 26237.42232772  .00001599  00000-0  89751-3 0  9999
2 64499  98.8857 231.2359 0086282 175.2451 184.9559 14.10116269173581
CZ-6A DEB
1 64499U 22151AJE 26238.20284622  .00001698  00000-0  95155-3 0  9992
2 64499  98.8858 232.0071 0086393 173.0238 187.2157 14.10119025173699
CZ-6A DEB
1 64499U 22151AJE 26238.20284622  .00001698  00000-0  95155-3 0  9992
2 64499  98.8858 232.0071 0086393 173.0238 187.2157 14.10119025173699
CZ-6A DEB
1 64499U 22151AJE 26241.25394808  .00001645  00000-0  92174-3 0  9999
2 64499  98.8861 235.0220 0086831 164.3791 196.0089 14.10128782174127
CZ-6A DEB
1 64499U 22151AJE 26241.25394808  .00001645  00000-0  92174-3 0  9999
2 64499  98.8861 235.0220 0086831 164.3791 196.0089 14.10128782174127
CZ-6A DEB
1 64499U 22151AJE 26241.25394808  .00001645  00000-0  92174-3 0  9999
2 64499  98.8861 235.0220 0086831 164.3791 196.0089 14.10128782174127
CZ-6A DEB
1 64499U 22151AJE 26242.24732549  .00001511  00000-0  84890-3 0  9995
2 64499  98.8866 236.0034 0086913 161.5841 198.8510 14.10131352174263
CZ-6A DEB
1 64499U 22151AJE 26242.24732549  .00001511  00000-0  84890-3 0  9995
2 64499  98.8866 236.0034 0086913 161.5840 198.8510 14.10131352174262
CZ-6A DEB
1 64499U 22151AJE 26243.45356661  .00001328  00000-0  74894-3 0  9995
2 64499  98.8871 237.1961 0086893 158.2529 202.2367 14.10134242174433
CZ-6A DEB
1 64499U 22151AJE 26243.45356661  .00001328  00000-0  74894-3 0  9995
2 64499  98.8871 237.1961 0086893 158.2529 202.2367 14.10134242174433
CZ-6A DEB
1 64499U 22151AJE 26244.23407293  .00001262  00000-0  71219-3 0  9995
2 64499  98.8879 237.9689 0087353 156.0234 204.5042 14.10136570174540
CZ-6A DEB
1 64499U 22151AJE 26244.23407293  .00001262  00000-0  71219-3 0  9995
2 64499  98.8879 237.9689 0087353 156.0234 204.5042 14.10136571174541
CZ-6A DEB
1 64499U 22151AJE 26244.44693840  .00001237  00000-0  69893-3 0  9990
2 64499  98.8878 238.1792 0087411 155.4292 205.1082 14.10137069174577
CZ-6A DEB
1 64499U 22151AJE 26244.44693841  .00001237  00000-0  69893-3 0  9991
2 64499  98.8878 238.1792 0087411 155.4292 205.1082 14.10137069174577
