TBA - TO BE ASSIGNED
1 64633U 24140ADX 25174.80926782  .00002317  00000-0  12583-2 0  9998
2 64633  89.0020 315.8377 0106977 296.0183  63.0016 14.09204519 40326
CZ-6A R/B DEB
1 64633U 24140ADX 25174.80926782  .00002317  00000-0  12583-2 0  9998
2 64633  89.0020 315.8377 0106977 296.0183  63.0016 14.09204519 40326
CZ-6A R/B DEB
1 64633U 24140ADX 25181.62580195  .00002649  00000-0  14388-2 0  9993
2 64633  89.0018 315.0785 0106948 273.6362  85.2596 14.09239674 40167
CZ-6A R/B DEB
1 64633U 24140ADX 25181.62580195  .00002649  00000-0  14388-2 0  9993
2 64633  89.0018 315.0785 0106948 273.6362  85.2596 14.09239674 41281
CZ-6A R/B DEB
1 64633U 24140ADX 25182.76187667  .00003114  00000-0  16919-2 0  9996
2 64633  89.0015 314.9521 0106964 269.9067  88.9860 14.09247522 40321
CZ-6A R/B DEB
1 64633U 24140ADX 25182.76187667  .00003114  00000-0  16919-2 0  9996
2 64633  89.0015 314.9521 0106964 269.9067  88.9860 14.09247522 41445
CZ-6A R/B DEB
1 64633U 24140ADX 25183.32991238  .00002905  00000-0  15780-2 0  9998
2 64633  89.0013 314.8888 0107006 268.0412  90.8515 14.09250190 40409
CZ-6A R/B DEB
1 64633U 24140ADX 25183.75593823  .00003187  00000-0  17315-2 0  9992
2 64633  89.0014 314.8414 0107031 266.6390  92.2546 14.09253611 40469
CZ-6A R/B DEB
1 64633U 24140ADX 25184.32397184  .00003018  00000-0  16391-2 0  9994
2 64633  89.0014 314.7781 0107092 264.7744  94.1212 14.09256526 40542
CZ-6A R/B DEB
1 64633U 24140ADX 25184.32397184  .00003018  00000-0  16391-2 0  9994
2 64633  89.0014 314.7781 0107092 264.7744  94.1212 14.09256526 41666
CZ-6A R/B DEB
1 64633U 24140ADX 25185.31802764  .00003213  00000-0  17451-2 0  9994
2 64633  89.0015 314.6678 0107183 261.5215  97.3810 14.09263282 40687
CZ-6A R/B DEB
1 64633U 24140ADX 25185.74405054  .00003163  00000-0  17178-2 0  9992
2 64633  89.0015 314.6200 0107277 260.1165  98.7896 14.09265640 40747
CZ-6A R/B DEB
1 64633U 24140ADX 25185.74405054  .00003163  00000-0  17178-2 0  9992
2 64633  89.0015 314.6200 0107277 260.1165  98.7896 14.09265640 41861
CZ-6A R/B DEB
1 64633U 24140ADX 25186.31207969  .00003311  00000-0  17980-2 0  9997
2 64633  89.0018 314.5570 0107360 258.2538 100.6585 14.09269758 40825
CZ-6A R/B DEB
1 64633U 24140ADX 25187.30612817  .00003167  00000-0  17193-2 0  9994
2 64633  89.0021 314.4463 0107526 254.9958 103.9305 14.09275608 40964
CZ-6A R/B DEB
1 64633U 24140ADX 25187.30612817  .00003167  00000-0  17193-2 0  9994
2 64633  89.0021 314.4463 0107526 254.9958 103.9305 14.09275608 42089
CZ-6A R/B DEB
1 64633U 24140ADX 25187.80315085  .00003026  00000-0  16422-2 0  9994
2 64633  89.0016 314.3907 0107625 253.3750 105.5595 14.09278427 41033
CZ-6A R/B DEB
1 64633U 24140ADX 25189.29421354  .00002938  00000-0  15935-2 0  9995
2 64633  89.0014 314.2242 0107940 248.5185 110.4463 14.09287675 41247
CZ-6A R/B DEB
1 64633U 24140ADX 25189.29421354  .00002938  00000-0  15935-2 0  9995
2 64633  89.0014 314.2242 0107940 248.5185 110.4463 14.09287675 42361
CZ-6A R/B DEB
1 64633U 24140ADX 25190.57226120  .00002660  00000-0  14413-2 0  9994
2 64633  89.0016 314.0819 0108245 244.3729 114.6241 14.09294533 42549
CZ-6A R/B DEB
1 64633U 24140ADX 25192.77333113  .00002774  00000-0  15021-2 0  9991
2 64633  89.0020 313.8371 0108755 237.2816 121.7847 14.09307234 41732
CZ-6A R/B DEB
1 64633U 24140ADX 25192.77333113  .00002774  00000-0  15021-2 0  9991
2 64633  89.0020 313.8371 0108755 237.2816 121.7847 14.09307234 42856
CZ-6A R/B DEB
1 64633U 24140ADX 25194.76137883  .00003451  00000-0  18687-2 0  9992
2 64633  89.0019 313.6158 0109231 230.9118 128.2313 14.09321252 42014
CZ-6A R/B DEB
1 64633U 24140ADX 25194.76137883  .00003451  00000-0  18687-2 0  9992
2 64633  89.0019 313.6158 0109231 230.9118 128.2313 14.09321252 43138
CZ-6A R/B DEB
1 64633U 24140ADX 25195.32938976  .00003268  00000-0  17690-2 0  9996
2 64633  89.0019 313.5528 0109370 229.0943 130.0731 14.09324295 42096
CZ-6A R/B DEB
1 64633U 24140ADX 25195.75539703  .00003248  00000-0  17577-2 0  9990
2 64633  89.0019 313.5055 0109485 227.7374 131.4487 14.09326965 42157
CZ-6A R/B DEB
1 64633U 24140ADX 25196.82041141  .00003344  00000-0  18093-2 0  9994
2 64633  89.0017 313.3870 0109729 224.3409 134.8949 14.09334536 42301
CZ-6A R/B DEB
1 64633U 24140ADX 25196.82041141  .00003344  00000-0  18093-2 0  9994
2 64633  89.0017 313.3870 0109729 224.3409 134.8949 14.09334536 43425
CZ-6A R/B DEB
1 64633U 24140ADX 25197.31741670  .00003281  00000-0  17746-2 0  9997
2 64633  89.0016 313.3318 0109862 222.7546 136.5054 14.09337606 42373
CZ-6A R/B DEB
1 64633U 24140ADX 25198.31142338  .00003715  00000-0  20093-2 0  9995
2 64633  89.0015 313.2211 0110067 219.5859 139.7252 14.09345886 42513
CZ-6A R/B DEB
1 64633U 24140ADX 25198.31142338  .00003715  00000-0  20093-2 0  9995
2 64633  89.0015 313.2211 0110067 219.5859 139.7252 14.09345886 43637
CZ-6A DEB
1 64633U 24140ADX 25200.58342164  .00003620  00000-0  19563-2 0  9992
2 64633  89.0005 312.9677 0110514 212.3151 147.1233 14.09362104 43950
CZ-6A DEB
1 64633U 24140ADX 25203.99137162  .00004276  00000-0  23090-2 0  9998
2 64633  89.0016 312.5878 0111154 201.4734 158.1769 14.09389646 44438
CZ-6A DEB
1 64633U 24140ADX 25204.55935702  .00004888  00000-0  26399-2 0  9991
2 64633  89.0017 312.5244 0111246 199.6438 160.0445 14.09395387 43393
CZ-6A DEB
1 64633U 24140ADX 25205.69532143  .00004596  00000-0  24809-2 0  9999
2 64633  89.0024 312.3982 0111487 196.0675 163.6964 14.09405176 44674
CZ-6A DEB
1 64633U 24140ADX 25206.54728930  .00004311  00000-0  23259-2 0  9998
2 64633  89.0022 312.3032 0111648 193.3346 166.4883 14.09412683 43673
CZ-6A DEB
1 64633U 24140ADX 25207.04426860  .00004050  00000-0  21842-2 0  9997
2 64633  89.0027 312.2486 0111743 191.7712 168.0858 14.09416652 44867
CZ-6A DEB
1 64633U 24140ADX 25207.47024953  .00004259  00000-0  22967-2 0  9991
2 64633  89.0022 312.2007 0111840 190.4388 169.4474 14.09420941 43802
CZ-6A DEB
1 64633U 24140ADX 25208.53519750  .00004172  00000-0  22490-2 0  9998
2 64633  89.0020 312.0824 0112059 187.0939 172.8666 14.09429812 43955
CZ-6A DEB
1 64633U 24140ADX 25208.53519750  .00004172  00000-0  22490-2 0  9998
2 64633  89.0020 312.0824 0112059 187.0939 172.8666 14.09429812 45070
CZ-6A DEB
1 64633U 24140ADX 25209.03217082  .00004281  00000-0  23070-2 0  9993
2 64633  89.0018 312.0271 0112160 185.5423 174.4529 14.09434299 44022
CZ-6A DEB
1 64633U 24140ADX 25209.67113523  .00003822  00000-0  20589-2 0  9990
2 64633  89.0015 311.9558 0112288 183.5492 176.4910 14.09438212 44115
CZ-6A DEB
1 64633U 24140ADX 25209.67113523  .00003822  00000-0  20589-2 0  9990
2 64633  89.0015 311.9558 0112288 183.5492 176.4910 14.09438212 45239
CZ-6A DEB
1 64633U 24140ADX 25210.66507466  .00004158  00000-0  22392-2 0  9991
2 64633  89.0011 311.8451 0112474 180.4691 179.6407 14.09446896 44254
CZ-6A DEB
1 64633U 24140ADX 25211.65900870  .00004340  00000-0  23368-2 0  9994
2 64633  89.0009 311.7345 0112621 177.3747 182.8053 14.09455236 44399
CZ-6A DEB
1 64633U 24140ADX 25213.00790792  .00004518  00000-0  24319-2 0  9999
2 64633  89.0005 311.5841 0112844 173.2258 187.0484 14.09467826 45702
CZ-6A DEB
1 64633U 24140ADX 25213.43387374  .00004577  00000-0  24635-2 0  9990
2 64633  89.0004 311.5366 0112904 171.9209 188.3829 14.09471814 44642
CZ-6A DEB
1 64633U 24140ADX 25214.49878324  .00004121  00000-0  22165-2 0  9998
2 64633  89.0006 311.4178 0113048 168.6604 191.7168 14.09480333 45917
CZ-6A DEB
1 64633U 24140ADX 25215.98964565  .00003645  00000-0  19590-2 0  9994
2 64633  89.0009 311.2515 0113218 164.0903 196.3887 14.09491506 46121
CZ-6A DEB
1 64633U 24140ADX 25216.41560418  .00003795  00000-0  20398-2 0  9996
2 64633  89.0010 311.2041 0113248 162.7986 197.7087 14.09495031 45062
CZ-6A DEB
1 64633U 24140ADX 25216.69957605  .00003919  00000-0  21066-2 0  9995
2 64633  89.0015 311.1719 0113233 161.9181 198.6083 14.09497484 45105
CZ-6A DEB
1 64633U 24140ADX 25217.48049609  .00003714  00000-0  19957-2 0  9998
2 64633  89.0016 311.0849 0113295 159.5347 201.0432 14.09502772 45210
CZ-6A DEB
1 64633U 24140ADX 25217.48049609  .00003714  00000-0  19957-2 0  9998
2 64633  89.0016 311.0849 0113295 159.5347 201.0432 14.09502772 46334
CZ-6A DEB
1 64633U 24140ADX 25218.47438965  .00003502  00000-0  18810-2 0  9997
2 64633  89.0014 310.9747 0113390 156.5091 204.1332 14.09509501 45357
CZ-6A DEB
1 64633U 24140ADX 25218.47438965  .00003502  00000-0  18810-2 0  9997
2 64633  89.0014 310.9747 0113390 156.5091 204.1332 14.09509501 45357
CZ-6A DEB
1 64633U 24140ADX 25218.97133462  .00003660  00000-0  19655-2 0  9999
2 64633  89.0015 310.9193 0113410 154.9864 205.6877 14.09513357 45428
CZ-6A DEB
1 64633U 24140ADX 25220.81711998  .00004064  00000-0  21826-2 0  9993
2 64633  89.0016 310.7139 0113466 149.3281 211.4602 14.09526283 45680
CZ-6A DEB
1 64633U 24140ADX 25220.81711998  .00004064  00000-0  21826-2 0  9993
2 64633  89.0016 310.7139 0113466 149.3281 211.4602 14.09526283 46805
CZ-6A DEB
1 64633U 24140ADX 25221.52703171  .00004538  00000-0  24378-2 0  9997
2 64633  89.0017 310.6347 0113495 147.1524 213.6782 14.09532754 45783
CZ-6A DEB
1 64633U 24140ADX 25221.81099541  .00004769  00000-0  25618-2 0  9992
2 64633  89.0017 310.6031 0113502 146.2845 214.5627 14.09535670 45821
CZ-6A DEB
1 64633U 24140ADX 25222.80486476  .00004465  00000-0  23980-2 0  9992
2 64633  89.0016 310.4925 0113525 143.2237 217.6806 14.09543427 45964
CZ-6A DEB
1 64633U 24140ADX 25222.80486476  .00004465  00000-0  23980-2 0  9992
2 64633  89.0016 310.4925 0113525 143.2237 217.6806 14.09543427 47089
CZ-6A DEB
1 64633U 24140ADX 25223.72773780  .00004037  00000-0  21671-2 0  9991
2 64633  89.0014 310.3898 0113550 140.3730 220.5823 14.09550406 46096
CZ-6A DEB
1 64633U 24140ADX 25226.21237246  .00003373  00000-0  18086-2 0  9998
2 64633  89.0004 310.1126 0113668 132.6641 228.4191 14.09567193 47561
CZ-6A DEB
1 64633U 24140ADX 25226.49632867  .00003314  00000-0  17768-2 0  9997
2 64633  89.0004 310.0810 0113666 131.7918 229.3046 14.09568841 46485
CZ-6A DEB
1 64633U 24140ADX 25227.49017204  .00003056  00000-0  16374-2 0  9995
2 64633  89.0004 309.9701 0113693 128.7050 232.4368 14.09574928 46625
CZ-6A DEB
1 64633U 24140ADX 25227.49017204  .00003056  00000-0  16374-2 0  9995
2 64633  89.0004 309.9701 0113693 128.7050 232.4368 14.09574928 47749
CZ-6A DEB
1 64633U 24140ADX 25227.91610347  .00002859  00000-0  15314-2 0  9992
2 64633  89.0003 309.9226 0113704 127.3913 233.7689 14.09577190 46682
CZ-6A DEB
1 64633U 24140ADX 25228.62598763  .00002577  00000-0  13792-2 0  9993
2 64633  89.0004 309.8435 0113711 125.1957 235.9940 14.09580668 46785
CZ-6A DEB
1 64633U 24140ADX 25228.62598763  .00002577  00000-0  13792-2 0  9993
2 64633  89.0004 309.8435 0113711 125.1957 235.9940 14.09580668 47900
CZ-6A DEB
1 64633U 24140ADX 25229.61982221  .00002433  00000-0  13019-2 0  9992
2 64633  89.0004 309.7325 0113722 122.1203 239.1079 14.09585309 46927
CZ-6A DEB
1 64633U 24140ADX 25231.18155474  .00002299  00000-0  12296-2 0  9995
2 64633  89.0006 309.5582 0113681 117.3050 243.9764 14.09591910 47146
CZ-6A DEB
1 64633U 24140ADX 25231.18155474  .00002299  00000-0  12296-2 0  9995
2 64633  89.0006 309.5582 0113681 117.3050 243.9764 14.09591910 48260
CZ-6A DEB
1 64633U 24140ADX 25231.60748008  .00002481  00000-0  13277-2 0  9996
2 64633  89.0005 309.5108 0113665 115.9758 245.3188 14.09594465 47201
CZ-6A DEB
1 64633U 24140ADX 25232.17537859  .00002726  00000-0  14592-2 0  9992
2 64633  89.0005 309.4475 0113622 114.2255 247.0852 14.09598218 47289
CZ-6A DEB
1 64633U 24140ADX 25234.44696190  .00002172  00000-0  11613-2 0  9994
2 64633  89.0007 309.1948 0113420 107.2100 254.1537 14.09607330 47601
CZ-6A DEB
1 64633U 24140ADX 25235.44077281  .00002239  00000-0  11976-2 0  9995
2 64633  89.0011 309.0839 0113225 104.1811 257.1983 14.09612060 47741
CZ-6A DEB
1 64633U 24140ADX 25236.15063603  .00002218  00000-0  11862-2 0  9998
2 64633  89.0010 309.0048 0113109 101.9985 259.3903 14.09614890 47840
CZ-6A DEB
1 64633U 24140ADX 25236.93148271  .00002494  00000-0  13349-2 0  9997
2 64633  89.0009 308.9179 0112976  99.6008 261.7962 14.09619145 47953
CZ-6A DEB
1 64633U 24140ADX 25237.92528383  .00002833  00000-0  15176-2 0  9990
2 64633  89.0010 308.8070 0112772  96.5219 264.8818 14.09624827 48091
CZ-6A DEB
1 64633U 24140ADX 25239.48696082  .00003325  00000-0  17828-2 0  9998
2 64633  89.0007 308.6331 0112451  91.6689 269.7379 14.09635121 48316
CZ-6A DEB
1 64633U 24140ADX 25241.19059029  .00003966  00000-0  21281-2 0  9992
2 64633  89.0004 308.4432 0112087  86.3589 275.0405 14.09649601 48552
CZ-6A DEB
1 64633U 24140ADX 25241.68747862  .00003858  00000-0  20698-2 0  9996
2 64633  89.0005 308.3876 0111944  84.8007 276.5941 14.09653241 48627
CZ-6A DEB
1 64633U 24140ADX 25242.89419924  .00004834  00000-0  25957-2 0  9993
2 64633  89.0004 308.2530 0111657  81.0332 280.3471 14.09666520 48796
CZ-6A DEB
1 64633U 24140ADX 25244.17189208  .00005149  00000-0  27652-2 0  9999
2 64633  89.0006 308.1100 0111455  77.0086 284.3515 14.09679069 48972
CZ-6A DEB
1 64633U 24140ADX 25246.44331084  .00006832  00000-0  36702-2 0  9998
2 64633  89.0003 307.8565 0111082  69.8712 291.4382 14.09707455 49299
CZ-6A DEB
1 64633U 24140ADX 25248.43076824  .00004252  00000-0  22821-2 0  9998
2 64633  89.0003 307.6352 0110767  63.6331 297.6175 14.09722672 49576
CZ-6A DEB
1 64633U 24140ADX 25249.14056864  .00003893  00000-0  20891-2 0  9994
2 64633  88.9996 307.5557 0110513  61.3682 299.8564 14.09727343 49671
CZ-6A DEB
1 64633U 24140ADX 25250.13428326  .00003807  00000-0  20430-2 0  9995
2 64633  89.0001 307.4449 0110284  58.2059 302.9809 14.09735205 49817
CZ-6A DEB
1 64633U 24140ADX 25252.40561325  .00002560  00000-0  13718-2 0  9990
2 64633  88.9996 307.1920 0109846  51.0359 310.0549 14.09747222 50135
CZ-6A DEB
1 64633U 24140ADX 25253.89616202  .00002153  00000-0  11529-2 0  9995
2 64633  88.9998 307.0258 0109608  46.3441 314.6766 14.09753626 50344
CZ-6A DEB
1 64633U 24140ADX 25255.88355016  .00001947  00000-0  10418-2 0  9995
2 64633  88.9995 306.8044 0109416  40.0620 320.8568 14.09761250 50620
CZ-6A DEB
1 64633U 24140ADX 25257.94190212  .00002289  00000-0  12267-2 0  9993
2 64633  89.0004 306.5751 0108923  33.4217 327.3779 14.09770190 50916
CZ-6A DEB
1 64633U 24140ADX 25259.07753764  .00002838  00000-0  15229-2 0  9997
2 64633  89.0003 306.4480 0108744  29.8092 330.9227 14.09776771 51071
CZ-6A DEB
1 64633U 24140ADX 25259.92926039  .00002722  00000-0  14605-2 0  9997
2 64633  89.0002 306.3532 0108594  27.0480 333.6305 14.09781175 51195
CZ-6A DEB
1 64633U 24140ADX 25264.11685417  .00003320  00000-0  17834-2 0  9998
2 64633  89.0005 305.8877 0107827  13.3785 347.0217 14.09805502 51785
CZ-6A DEB
1 64633U 24140ADX 25265.82025814  .00005011  00000-0  26950-2 0  9994
2 64633  88.9994 305.6966 0107590   7.9221 352.3631 14.09821865 52025
CZ-6A DEB
1 64633U 24140ADX 25266.10415594  .00005211  00000-0  28026-2 0  9992
2 64633  88.9997 305.6652 0107482   6.9148 353.3488 14.09825264 52069
CZ-6A DEB
1 64633U 24140ADX 25268.09142761  .00005392  00000-0  29000-2 0  9998
2 64633  88.9994 305.4432 0107216   0.4752 359.6514 14.09845771 52340
CZ-6A DEB
1 64633U 24140ADX 25273.05946976  .00006517  00000-0  35048-2 0  9999
2 64633  89.0002 304.8880 0106475 344.5510  15.2431 14.09905415 53045
CZ-6A DEB
1 64633U 24140ADX 25273.05946976  .00006517  00000-0  35048-2 0  9999
2 64633  89.0002 304.8880 0106475 344.5510  15.2431 14.09905415 53045
CZ-6A DEB
1 64633U 24140ADX 25276.04015676  .00007199  00000-0  38697-2 0  9995
2 64633  89.0007 304.5560 0106056 334.9243  24.6811 14.09965196 53467
CZ-6A DEB
1 64633U 24140ADX 25279.51751153  .00004632  00000-0  24867-2 0  9990
2 64633  88.9985 304.1666 0105869 323.4105  35.9879 14.10005616 53951
CZ-6A DEB
1 64633U 24140ADX 25280.01427042  .00004956  00000-0  26612-2 0  9993
2 64633  88.9973 304.1103 0105799 321.8150  37.5572 14.10010489 54029
CZ-6A DEB
1 64633U 24140ADX 25280.51102741  .00004863  00000-0  26107-2 0  9990
2 64633  88.9970 304.0547 0105802 320.1848  39.1606 14.10014952 54090
CZ-6A DEB
1 64633U 24140ADX 25281.50453521  .00005403  00000-0  29006-2 0  9997
2 64633  88.9970 303.9436 0105807 316.9085  42.3851 14.10026511 54234
CZ-6A DEB
1 64633U 24140ADX 25281.50453521  .00005403  00000-0  29006-2 0  9997
2 64633  88.9970 303.9436 0105807 316.9085  42.3851 14.10026511 54234
CZ-6A DEB
1 64633U 24140ADX 25282.07225095  .00005201  00000-0  27919-2 0  9990
2 64633  88.9966 303.8800 0105810 315.0574  44.2080 14.10032645 54319
CZ-6A DEB
1 64633U 24140ADX 25282.07225095  .00005201  00000-0  27919-2 0  9990
2 64633  88.9966 303.8800 0105810 315.0574  44.2080 14.10032645 54319
CZ-6A DEB
1 64633U 24140ADX 25282.49803650  .00004505  00000-0  24173-2 0  9990
2 64633  88.9967 303.8320 0105837 313.6479  45.5964 14.10035439 54379
CZ-6A DEB
1 64633U 24140ADX 25282.49803651  .00004505  00000-0  24173-2 0  9991
2 64633  88.9967 303.8320 0105837 313.6480  45.5964 14.10035439 54371
CZ-6A DEB
1 64633U 24140ADX 25284.05924132  .00004305  00000-0  23088-2 0  9995
2 64633  88.9970 303.6569 0105886 308.5261  50.6467 14.10049543 54592
CZ-6A DEB
1 64633U 24140ADX 25284.05924132  .00004305  00000-0  23088-2 0  9995
2 64633  88.9970 303.6569 0105886 308.5261  50.6467 14.10049543 54592
CZ-6A DEB
1 64633U 24140ADX 25284.34309526  .00004365  00000-0  23409-2 0  9994
2 64633  88.9974 303.6257 0105899 307.6009  51.5596 14.10052069 54639
CZ-6A DEB
1 64633U 24140ADX 25285.26561600  .00005612  00000-0  30110-2 0  9992
2 64633  88.9984 303.5227 0105850 304.5901  54.5333 14.10063824 54767
CZ-6A DEB
1 64633U 24140ADX 25285.54946726  .00005735  00000-0  30770-2 0  9997
2 64633  88.9987 303.4912 0105830 303.6627  55.4498 14.10067269 54807
CZ-6A DEB
1 64633U 24140ADX 25285.90428023  .00006071  00000-0  32571-2 0  9997
2 64633  88.9987 303.4518 0105819 302.4921  56.6069 14.10071963 54858
CZ-6A DEB
1 64633U 24140ADX 25286.18812975  .00006314  00000-0  33874-2 0  9998
2 64633  88.9987 303.4201 0105817 301.5622  57.5264 14.10075976 54892
CZ-6A DEB
1 64633U 24140ADX 25286.47197867  .00005875  00000-0  31512-2 0  9994
2 64633  88.9986 303.3887 0105770 300.6166  58.4621 14.10078836 54931
CZ-6A DEB
1 64633U 24140ADX 25286.89775113  .00005651  00000-0  30310-2 0  9993
2 64633  88.9986 303.3410 0105780 299.2383  59.8256 14.10083486 54990
CZ-6A DEB
1 64633U 24140ADX 25287.18159878  .00005448  00000-0  29218-2 0  9999
2 64633  88.9986 303.3092 0105759 298.3198  60.7349 14.10086501 55037
CZ-6A DEB
1 64633U 24140ADX 25287.89121573  .00004986  00000-0  26730-2 0  9990
2 64633  88.9985 303.2301 0105729 296.0202  63.0125 14.10093350 55135
CZ-6A DEB
1 64633U 24140ADX 25288.45890694  .00005114  00000-0  27416-2 0  9996
2 64633  88.9985 303.1667 0105723 294.1855  64.8307 14.10099436 55217
CZ-6A DEB
1 64633U 24140ADX 25288.81371321  .00005470  00000-0  29328-2 0  9996
2 64633  88.9984 303.1270 0105711 293.0380  65.9685 14.10103230 55268
CZ-6A DEB
1 64633U 24140ADX 25288.88467436  .00005550  00000-0  29757-2 0  9991
2 64633  88.9984 303.1190 0105707 292.8095  66.1951 14.10104058 55273
CZ-6A DEB
1 64633U 24140ADX 25289.02659648  .00005713  00000-0  30633-2 0  9992
2 64633  88.9983 303.1031 0105700 292.3462  66.6546 14.10105806 55291
CZ-6A DEB
1 64633U 24140ADX 25289.52332291  .00005455  00000-0  29245-2 0  9999
2 64633  88.9982 303.0477 0105663 290.7398  68.2488 14.10110218 55365
CZ-6A DEB
1 64633U 24140ADX 25289.94908718  .00007078  00000-0  37950-2 0  9993
2 64633  88.9981 303.0000 0105634 289.3654  69.6134 14.10118316 55420
CZ-6A DEB
1 64633U 24140ADX 25290.02004767  .00007146  00000-0  38319-2 0  9991
2 64633  88.9981 302.9921 0105632 289.1351  69.8422 14.10119273 55436
CZ-6A DEB
1 64633U 24140ADX 25290.23292930  .00005836  00000-0  31289-2 0  9998
2 64633  88.9981 302.9683 0105620 288.4465  70.5262 14.10118359 55464
CZ-6A DEB
1 64633U 24140ADX 25290.44581073  .00006144  00000-0  32939-2 0  9996
2 64633  88.9980 302.9445 0105599 287.7557  71.2125 14.10120686 55493
CZ-6A DEB
1 64633U 24140ADX 25290.80061176  .00006962  00000-0  37328-2 0  9998
2 64633  88.9980 302.9049 0105572 286.6065  72.3548 14.10126195 55544
CZ-6A DEB
1 64633U 24140ADX 25290.94253194  .00007044  00000-0  37768-2 0  9996
2 64633  88.9979 302.8889 0105558 286.1496  72.8090 14.10128075 55568
CZ-6A DEB
1 64633U 24140ADX 25291.01349191  .00007097  00000-0  38052-2 0  9993
2 64633  88.9979 302.8810 0105557 285.9231  73.0342 14.10129095 55572
CZ-6A DEB
1 64633U 24140ADX 25291.22637216  .00006404  00000-0  34334-2 0  9994
2 64633  88.9977 302.8571 0105525 285.2292  73.7244 14.10129838 55606
CZ-6A DEB
1 64633U 24140ADX 25291.79404915  .00007824  00000-0  41947-2 0  9999
2 64633  88.9975 302.7935 0105477 283.3955  75.5489 14.10140141 55687
CZ-6A DEB
1 64633U 24140ADX 25292.21980449  .00009529  00000-0  51081-2 0  9992
2 64633  88.9973 302.7459 0105429 282.0189  76.9195 14.10149078 55742
CZ-6A DEB
1 64633U 24140ADX 25292.85843322  .00008640  00000-0  46309-2 0  9990
2 64633  88.9970 302.6743 0105348 279.9444  78.9863 14.10159074 55834
CZ-6A DEB
1 64633U 24140ADX 25293.14226676  .00008215  00000-0  44029-2 0  9995
2 64633  88.9970 302.6425 0105319 279.0237  79.9040 14.10163532 55876
CZ-6A DEB
1 64633U 24140ADX 25293.21322501  .00008203  00000-0  43967-2 0  9994
2 64633  88.9970 302.6345 0105310 278.7923  80.1348 14.10164693 55881
CZ-6A DEB
1 64633U 24140ADX 25293.49705757  .00007657  00000-0  41035-2 0  9998
2 64633  88.9970 302.6029 0105301 277.8787  81.0456 14.10168749 55929
CZ-6A DEB
1 64633U 24140ADX 25293.70993148  .00007475  00000-0  40058-2 0  9997
2 64633  88.9970 302.5790 0105281 277.1884  81.7341 14.10171737 55955
CZ-6A DEB
1 64633U 24140ADX 25294.49046609  .00006616  00000-0  35443-2 0  9993
2 64633  88.9969 302.4915 0105225 274.6472  84.2701 14.10181610 56066
CZ-6A DEB
1 64633U 24140ADX 25294.77429551  .00006363  00000-0  34087-2 0  9997
2 64633  88.9969 302.4596 0105208 273.7249  85.1910 14.10184864 56105
CZ-6A DEB
1 64633U 24140ADX 25294.91621002  .00006325  00000-0  33880-2 0  9996
2 64633  88.9969 302.4437 0105206 273.2671  85.6482 14.10186729 56124
CZ-6A DEB
1 64633U 24140ADX 25295.05812444  .00006141  00000-0  32892-2 0  9992
2 64633  88.9968 302.4278 0105198 272.8046  86.1102 14.10188259 56144
CZ-6A DEB
1 64633U 24140ADX 25295.27099576  .00005794  00000-0  31030-2 0  9995
2 64633  88.9968 302.4039 0105189 272.1107  86.8035 14.10190162 56171
CZ-6A DEB
1 64633U 24140ADX 25295.48386668  .00005823  00000-0  31184-2 0  9992
2 64633  88.9968 302.3800 0105197 271.4229  87.4906 14.10192762 56208
CZ-6A DEB
1 64633U 24140ADX 25295.90960746  .00005683  00000-0  30433-2 0  9994
2 64633  88.9969 302.3322 0105184 270.0329  88.8802 14.10197640 56266
CZ-6A DEB
1 64633U 24140ADX 25295.98056415  .00005652  00000-0  30264-2 0  9999
2 64633  88.9969 302.3242 0105187 269.8105  89.1026 14.10198445 56275
CZ-6A DEB
1 64633U 24140ADX 25297.75446794  .00005769  00000-0  30882-2 0  9994
2 64633  88.9970 302.1253 0105202 264.0456  94.8731 14.10219778 56528
CZ-6A DEB
1 64633U 24140ADX 25297.96733478  .00005756  00000-0  30809-2 0  9990
2 64633  88.9970 302.1013 0105210 263.3572  95.5629 14.10222366 56556
CZ-6A DEB
1 64633U 24140ADX 25297.96733479  .00005756  00000-0  30809-2 0  9991
2 64633  88.9970 302.1013 0105210 263.3572  95.5629 14.10222366 56556
CZ-6A DEB
1 64633U 24140ADX 25298.96070933  .00005434  00000-0  29078-2 0  9990
2 64633  88.9972 301.9898 0105256 260.1332  98.7957 14.10233047 56697
CZ-6A DEB
1 64633U 24140ADX 25298.96070933  .00005434  00000-0  29078-2 0  9990
2 64633  88.9972 301.9898 0105256 260.1332  98.7957 14.10233047 56697
CZ-6A DEB
1 64633U 24140ADX 25299.45739402  .00005399  00000-0  28886-2 0  9994
2 64633  88.9973 301.9341 0105279 258.5096 100.4252 14.10238509 56769
CZ-6A DEB
1 64633U 24140ADX 25299.45739402  .00005399  00000-0  28886-2 0  9994
2 64633  88.9973 301.9341 0105279 258.5096 100.4252 14.10238509 56769
CZ-6A DEB
1 64633U 24140ADX 25300.02503199  .00005410  00000-0  28939-2 0  9995
2 64633  88.9975 301.8706 0105315 256.6887 102.2537 14.10244353 56842
CZ-6A DEB
1 64633U 24140ADX 25300.02503200  .00005410  00000-0  28939-2 0  9998
2 64633  88.9975 301.8706 0105315 256.6887 102.2537 14.10244353 56842
CZ-6A DEB
1 64633U 24140ADX 25300.45075905  .00005420  00000-0  28986-2 0  9994
2 64633  88.9974 301.8230 0105341 255.3316 103.6173 14.10248690 56901
CZ-6A DEB
1 64633U 24140ADX 25300.94743870  .00005852  00000-0  31301-2 0  9995
2 64633  88.9975 301.7673 0105381 253.7183 105.2390 14.10254843 56973
CZ-6A DEB
1 64633U 24140ADX 25301.01839330  .00005734  00000-0  30664-2 0  9991
2 64633  88.9976 301.7590 0105377 253.5033 105.4553 14.10255015 56985
CZ-6A DEB
1 64633U 24140ADX 25306.26889278  .00004730  00000-0  25257-2 0  9996
2 64633  88.9972 301.1711 0105496 236.5930 122.5129 14.10314498 57722
CZ-6A DEB
1 64633U 24140ADX 25306.26889278  .00004730  00000-0  25257-2 0  9996
2 64633  88.9972 301.1711 0105496 236.5930 122.5129 14.10314498 57722
CZ-6A DEB
1 64633U 24140ADX 25307.97171536  .00005061  00000-0  27017-2 0  9990
2 64633  88.9970 300.9804 0105445 231.0708 128.1042 14.10332347 57962
CZ-6A DEB
1 64633U 24140ADX 25307.97171537  .00005061  00000-0  27017-2 0  9991
2 64633  88.9970 300.9804 0105445 231.0708 128.1042 14.10332347 57962
CZ-6A DEB
1 64633U 24140ADX 25310.95160891  .00005283  00000-0  28196-2 0  9999
2 64633  88.9969 300.6448 0105079 221.4383 137.8800 14.10363828 58380
CZ-6A DEB
1 64633U 24140ADX 25310.95160892  .00005283  00000-0  28196-2 0  9990
2 64633  88.9969 300.6448 0105079 221.4383 137.8800 14.10363828 58380
CZ-6A DEB
1 64633U 24140ADX 25311.94488953  .00006112  00000-0  32621-2 0  9991
2 64633  88.9996 300.5360 0105071 218.2120 141.1586 14.10378753 58525
CZ-6A DEB
1 64633U 24140ADX 25311.94488953  .00006112  00000-0  32621-2 0  9991
2 64633  88.9996 300.5360 0105071 218.2120 141.1586 14.10378753 58525
CZ-6A DEB
1 64633U 24140ADX 25314.71184365  .00005974  00000-0  31867-2 0  9995
2 64633  88.9987 300.2247 0104934 208.9369 150.5974 14.10412037 58916
CZ-6A DEB
1 64633U 24140ADX 25315.42130972  .00006523  00000-0  34792-2 0  9990
2 64633  88.9977 300.1453 0104909 206.6129 152.9649 14.10421114 59017
CZ-6A DEB
1 64633U 24140ADX 25316.91116574  .00010404  00000-0  55474-2 0  9990
2 64633  88.9975 299.9785 0104955 201.7798 157.8909 14.10453532 59222
CZ-6A DEB
1 64633U 24140ADX 25316.91116575  .00010404  00000-0  55474-2 0  9991
2 64633  88.9975 299.9785 0104955 201.7798 157.8909 14.10453532 59222
CZ-6A DEB
1 64633U 24140ADX 25318.68475382  .00005748  00000-0  30611-2 0  9992
2 64633  88.9969 299.7799 0105005 196.0246 163.7610 14.10488981 59477
CZ-6A DEB
1 64633U 24140ADX 25319.39418205  .00005140  00000-0  27363-2 0  9998
2 64633  88.9965 299.7004 0104937 193.6666 166.1674 14.10496923 59577
CZ-6A DEB
1 64633U 24140ADX 25319.39418205  .00005140  00000-0  27363-2 0  9998
2 64633  88.9965 299.7004 0104937 193.6666 166.1674 14.10496923 59577
CZ-6A DEB
1 64633U 24140ADX 25321.66432284  .00005762  00000-0  30665-2 0  9993
2 64633  88.9966 299.4457 0105011 186.3327 173.6539 14.10524471 59892
CZ-6A DEB
1 64633U 24140ADX 25321.66432284  .00005762  00000-0  30665-2 0  9993
2 64633  88.9966 299.4457 0105011 186.3327 173.6539 14.10524471 59892
CZ-6A DEB
1 64633U 24140ADX 25325.42416227  .00004744  00000-0  25219-2 0  9998
2 64633  88.9970 299.0240 0105050 174.1108 186.1340 14.10559312 60420
CZ-6A DEB
1 64633U 24140ADX 25325.92073830  .00004533  00000-0  24093-2 0  9997
2 64633  88.9974 298.9683 0105004 172.4354 187.8445 14.10563621 60495
CZ-6A DEB
1 64633U 24140ADX 25325.92073831  .00004533  00000-0  24093-2 0  9998
2 64633  88.9974 298.9683 0105004 172.4355 187.8446 14.10563621 60497
CZ-6A DEB
1 64633U 24140ADX 25326.91388454  .00004175  00000-0  22178-2 0  9992
2 64633  88.9978 298.8571 0105082 169.1967 191.1511 14.10572488 60632
CZ-6A DEB
1 64633U 24140ADX 25326.91388454  .00004175  00000-0  22178-2 0  9992
2 64633  88.9978 298.8571 0105082 169.1967 191.1511 14.10572488 60632
CZ-6A DEB
1 64633U 24140ADX 25331.66670672  .00004220  00000-0  22388-2 0  9990
2 64633  88.9979 298.3250 0105592 153.6272 207.0343 14.10616939 61300
CZ-6A DEB
1 64633U 24140ADX 25333.86572448  .00004393  00000-0  23292-2 0  9992
2 64633  88.9967 298.0791 0105853 146.4165 214.3790 14.10635380 61617
CZ-6A DEB
1 64633U 24140ADX 25333.86572449  .00004393  00000-0  23292-2 0  9993
2 64633  88.9967 298.0791 0105853 146.4165 214.3790 14.10635380 61617
CZ-6A DEB
1 64633U 24140ADX 25334.85881853  .00004000  00000-0  21193-2 0  9998
2 64633  88.9971 297.9677 0106031 143.1761 217.6768 14.10643234 61751
CZ-6A DEB
1 64633U 24140ADX 25334.85881854  .00004000  00000-0  21193-2 0  9999
2 64633  88.9971 297.9677 0106031 143.1761 217.6768 14.10643235 61752
CZ-6A DEB
1 64633U 24140ADX 25335.63910171  .00004242  00000-0  22476-2 0  9994
2 64633  88.9964 297.8798 0106186 140.6580 220.2381 14.10650829 61869
CZ-6A DEB
1 64633U 24140ADX 25335.63910172  .00004242  00000-0  22476-2 0  9995
2 64633  88.9964 297.8798 0106186 140.6580 220.2381 14.10650829 61869
CZ-6A DEB
1 64633U 24140ADX 25337.34152336  .00005653  00000-0  29956-2 0  9992
2 64633  88.9959 297.6886 0106402 135.1649 225.8195 14.10669564 62103
CZ-6A DEB
1 64633U 24140ADX 25337.34152336  .00005653  00000-0  29956-2 0  9992
2 64633  88.9959 297.6886 0106402 135.1649 225.8195 14.10669564 62103
CZ-6A DEB
1 64633U 24140ADX 25339.61137107  .00007735  00000-0  40964-2 0  9998
2 64633  88.9966 297.4342 0106654 127.7535 233.3372 14.10705615 62420
CZ-6A DEB
1 64633U 24140ADX 25340.88813419  .00006728  00000-0  35614-2 0  9993
2 64633  88.9970 297.2913 0106731 123.6943 237.4474 14.10722821 62607
CZ-6A DEB
1 64633U 24140ADX 25341.88116178  .00005835  00000-0  30871-2 0  9990
2 64633  88.9967 297.1800 0106856 120.4897 240.6892 14.10734122 62740
CZ-6A DEB
1 64633U 24140ADX 25342.87418071  .00005455  00000-0  28842-2 0  9990
2 64633  88.9963 297.0687 0106979 117.2991 243.9136 14.10745306 62881
CZ-6A DEB
1 64633U 24140ADX 25342.87418071  .00005455  00000-0  28842-2 0  9990
2 64633  88.9963 297.0687 0106979 117.2991 243.9136 14.10745306 62881
CZ-6A DEB
1 64633U 24140ADX 25343.37068745  .00006533  00000-0  34548-2 0  9993
2 64633  88.9958 297.0131 0107038 115.6894 245.5391 14.10752653 62952
CZ-6A DEB
1 64633U 24140ADX 25343.37068746  .00006533  00000-0  34548-2 0  9994
2 64633  88.9958 297.0131 0107038 115.6894 245.5391 14.10752653 62952
CZ-6A DEB
1 64633U 24140ADX 25345.85318251  .00006789  00000-0  35868-2 0  9997
2 64633  88.9960 296.7345 0107403 107.7601 253.5340 14.10784711 63305
CZ-6A DEB
1 64633U 24140ADX 25345.85318252  .00006789  00000-0  35868-2 0  9998
2 64633  88.9960 296.7345 0107403 107.7601 253.5340 14.10784711 63305
CZ-6A DEB
1 64633U 24140ADX 25348.12283459  .00005116  00000-0  26984-2 0  9993
2 64633  88.9951 296.4800 0107974 100.4527 260.8847 14.10813890 63627
CZ-6A DEB
1 64633U 24140ADX 25351.31447135  .00003831  00000-0  20171-2 0  9995
2 64633  88.9959 296.1224 0108501  90.3166 271.0452 14.10837785 64070
CZ-6A DEB
1 64633U 24140ADX 25351.81094459  .00003729  00000-0  19624-2 0  9994
2 64633  88.9946 296.0653 0108805  88.7318 272.6329 14.10840378 64148
CZ-6A DEB
1 64633U 24140ADX 25352.80388377  .00003717  00000-0  19555-2 0  9999
2 64633  88.9943 295.9540 0109016  85.5780 275.7851 14.10847539 64286
CZ-6A DEB
1 64633U 24140ADX 25354.29328198  .00003470  00000-0  18243-2 0  9998
2 64633  88.9952 295.7866 0109191  80.8837 280.4683 14.10857488 64493
CZ-6A DEB
1 64633U 24140ADX 25354.29328199  .00003470  00000-0  18243-2 0  9999
2 64633  88.9952 295.7866 0109191  80.8837 280.4683 14.10857488 64493
CZ-6A DEB
1 64633U 24140ADX 25354.78974567  .00003314  00000-0  17419-2 0  9990
2 64633  88.9945 295.7311 0109295  79.2633 282.0834 14.10860372 64561
CZ-6A DEB
1 64633U 24140ADX 25354.78974568  .00003314  00000-0  17419-2 0  9991
2 64633  88.9945 295.7311 0109295  79.2633 282.0834 14.10860372 64561
CZ-6A DEB
1 64633U 24140ADX 25355.28620751  .00003790  00000-0  19929-2 0  9995
2 64633  88.9949 295.6754 0109365  77.7168 283.6237 14.10864887 64636
CZ-6A DEB
1 64633U 24140ADX 25355.28620752  .00003790  00000-0  19929-2 0  9996
2 64633  88.9949 295.6754 0109365  77.7168 283.6237 14.10864887 64636
CZ-6A DEB
1 64633U 24140ADX 25357.55572324  .00004962  00000-0  26095-2 0  9993
2 64633  88.9953 295.4210 0109592  70.5843 290.7147 14.10887316 64955
CZ-6A DEB
1 64633U 24140ADX 25357.55572325  .00004962  00000-0  26095-2 0  9994
2 64633  88.9953 295.4210 0109592  70.5843 290.7147 14.10887316 64955
CZ-6A DEB
1 64633U 24140ADX 25358.26493806  .00005193  00000-0  27305-2 0  9991
2 64633  88.9951 295.3413 0109646  68.3426 292.9394 14.10895491 65052
CZ-6A DEB
1 64633U 24140ADX 25359.11599059  .00005257  00000-0  27638-2 0  9993
2 64633  88.9950 295.2458 0109730  65.6671 295.5924 14.10904569 65173
CZ-6A DEB
1 64633U 24140ADX 25359.11599060  .00005257  00000-0  27638-2 0  9995
2 64633  88.9950 295.2458 0109730  65.6671 295.5925 14.10904569 65174
CZ-6A DEB
1 64633U 24140ADX 25359.82519602  .00005287  00000-0  27786-2 0  9994
2 64633  88.9949 295.1663 0109813  63.4360 297.8030 14.10912616 65277
CZ-6A DEB
1 64633U 24140ADX 25359.82519602  .00005287  00000-0  27786-2 0  9994
2 64633  88.9949 295.1663 0109813  63.4360 297.8030 14.10912616 65277
CZ-6A DEB
1 64633U 24140ADX 25360.25071740  .00005135  00000-0  26985-2 0  9991
2 64633  88.9948 295.1186 0109875  62.0986 299.1274 14.10916935 65333
CZ-6A DEB
1 64633U 24140ADX 25360.25071740  .00005135  00000-0  26985-2 0  9991
2 64633  88.9948 295.1186 0109875  62.0986 299.1274 14.10916935 65333
CZ-6A DEB
1 64633U 24140ADX 25360.81807647  .00005294  00000-0  27814-2 0  9994
2 64633  88.9946 295.0548 0109929  60.3213 300.8862 14.10923741 65411
CZ-6A DEB
1 64633U 24140ADX 25360.81807648  .00005294  00000-0  27814-2 0  9995
2 64633  88.9946 295.0548 0109929  60.3213 300.8862 14.10923741 65411
CZ-6A DEB
1 64633U 24140ADX 25362.80380865  .00006601  00000-0  34668-2 0  9991
2 64633  88.9943 294.8315 0110214  54.1254 307.0104 14.10951251 65697
CZ-6A DEB
1 64633U 24140ADX 25362.80380865  .00006601  00000-0  34668-2 0  9991
2 64633  88.9943 294.8315 0110214  54.1254 307.0104 14.10951251 65697
CZ-6A DEB
1 64633U 24140ADX 25363.79665748  .00008109  00000-0  42582-2 0  9995
2 64633  88.9946 294.7199 0110262  51.0424 310.0523 14.10969351 65832
CZ-6A DEB
1 64633U 24140ADX 25363.79665748  .00008109  00000-0  42582-2 0  9995
2 64633  88.9946 294.7199 0110262  51.0424 310.0523 14.10969351 65832
CZ-6A DEB
1 64633U 24140ADX 25364.78949433  .00008710  00000-0  45717-2 0  9992
2 64633  88.9945 294.6079 0110438  47.9743 313.0778 14.10986818 65977
CZ-6A DEB
1 64633U 24140ADX 25364.78949434  .00008710  00000-0  45717-2 0  9993
2 64633  88.9945 294.6079 0110438  47.9743 313.0778 14.10986818 65977
CZ-6A DEB
1 64633U 24140ADX 25365.56957088  .00009187  00000-0  48205-2 0  9998
2 64633  88.9947 294.5204 0110509  45.5840 315.4324 14.11001256 66080
CZ-6A DEB
1 64633U 24140ADX 26001.77512704  .00010204  00000-0  53521-2 0  9990
2 64633  88.9953 294.3849 0110480  41.8641 319.0927 14.11025052 66254
CZ-6A DEB
1 64633U 24140ADX 26001.77512705  .00010204  00000-0  53521-2 0  9991
2 64633  88.9953 294.3849 0110480  41.8641 319.0927 14.11025052 66254
CZ-6A DEB
1 64633U 24140ADX 26002.76792390  .00009803  00000-0  51395-2 0  9991
2 64633  88.9968 294.2743 0110578  38.8300 322.0763 14.11042574 66393
CZ-6A DEB
1 64633U 24140ADX 26002.76792390  .00009803  00000-0  51395-2 0  9991
2 64633  88.9968 294.2743 0110578  38.8300 322.0763 14.11042574 66393
CZ-6A DEB
1 64633U 24140ADX 26003.19340362  .00010590  00000-0  55513-2 0  9998
2 64633  88.9959 294.2253 0110573  37.4618 323.4207 14.11052086 66455
CZ-6A DEB
1 64633U 24140ADX 26003.19340363  .00010590  00000-0  55513-2 0  9999
2 64633  88.9959 294.2253 0110573  37.4618 323.4207 14.11052086 66455
CZ-6A DEB
1 64633U 24140ADX 26003.76070727  .00009040  00000-0  47376-2 0  9992
2 64633  88.9962 294.1616 0110627  35.7448 325.1077 14.11059682 66535
CZ-6A DEB
1 64633U 24140ADX 26004.25709390  .00007561  00000-0  39617-2 0  9997
2 64633  88.9964 294.1063 0110637  34.2046 326.6201 14.11066670 66600
CZ-6A DEB
1 64633U 24140ADX 26004.25709391  .00007561  00000-0  39617-2 0  9998
2 64633  88.9964 294.1063 0110637  34.2046 326.6201 14.11066670 66600
CZ-6A DEB
1 64633U 24140ADX 26004.54074270  .00007125  00000-0  37325-2 0  9991
2 64633  88.9960 294.0743 0110654  33.3290 327.4798 14.11070227 66647
CZ-6A DEB
1 64633U 24140ADX 26004.82439081  .00007014  00000-0  36736-2 0  9999
2 64633  88.9955 294.0427 0110720  32.4621 328.3310 14.11074372 66681
CZ-6A DEB
1 64633U 24140ADX 26004.82439082  .00007014  00000-0  36736-2 0  9990
2 64633  88.9955 294.0427 0110720  32.4621 328.3310 14.11074372 66681
CZ-6A DEB
1 64633U 24140ADX 26005.24986082  .00006946  00000-0  36382-2 0  9994
2 64633  88.9961 293.9942 0110638  31.1475 329.6205 14.11080380 66749
CZ-6A DEB
1 64633U 24140ADX 26005.24986082  .00006946  00000-0  36382-2 0  9994
2 64633  88.9961 293.9942 0110638  31.1475 329.6205 14.11080381 66740
CZ-6A DEB
1 64633U 24140ADX 26006.24261751  .00006272  00000-0  32837-2 0  9997
2 64633  88.9961 293.8831 0110691  28.0808 332.6287 14.11093214 66888
CZ-6A DEB
1 64633U 24140ADX 26006.24261752  .00006272  00000-0  32837-2 0  9998
2 64633  88.9961 293.8831 0110691  28.0808 332.6287 14.11093214 66888
CZ-6A DEB
1 64633U 24140ADX 26006.80990284  .00006057  00000-0  31705-2 0  9993
2 64633  88.9954 293.8196 0110655  26.3018 334.3726 14.11100329 66960
CZ-6A DEB
1 64633U 24140ADX 26007.23536507  .00005081  00000-0  26587-2 0  9993
2 64633  88.9953 293.7719 0110655  24.9754 335.6728 14.11104185 67028
CZ-6A DEB
1 64633U 24140ADX 26007.51900589  .00004991  00000-0  26114-2 0  9994
2 64633  88.9952 293.7403 0110641  24.0772 336.5529 14.11106947 67064
CZ-6A DEB
1 64633U 24140ADX 26007.51900589  .00004991  00000-0  26114-2 0  9994
2 64633  88.9952 293.7403 0110641  24.0772 336.5529 14.11106947 67064
CZ-6A DEB
1 64633U 24140ADX 26008.22810487  .00005830  00000-0  30510-2 0  9998
2 64633  88.9949 293.6606 0110612  21.8621 338.7230 14.11116212 67160
CZ-6A DEB
1 64633U 24140ADX 26008.22810488  .00005830  00000-0  30510-2 0  9999
2 64633  88.9949 293.6606 0110612  21.8621 338.7230 14.11116212 67160
CZ-6A DEB
1 64633U 24140ADX 26012.26989757  .00004723  00000-0  24689-2 0  9994
2 64633  88.9943 293.2063 0110635   9.3098 351.0102 14.11155805 67731
CZ-6A DEB
1 64633U 24140ADX 26014.18439287  .00002889  00000-0  15080-2 0  9991
2 64633  88.9949 292.9914 0110316   3.1854 357.0008 14.11167886 68000
CZ-6A DEB
1 64633U 24140ADX 26014.75164987  .00002689  00000-0  14031-2 0  9999
2 64633  88.9950 292.9278 0110443   1.5262 358.6238 14.11170360 68082
CZ-6A DEB
1 64633U 24140ADX 26014.75164988  .00002689  00000-0  14031-2 0  9990
2 64633  88.9950 292.9278 0110443   1.5262 358.6238 14.11170360 68082
CZ-6A DEB
1 64633U 24140ADX 26015.17709066  .00002609  00000-0  13608-2 0  9990
2 64633  88.9953 292.8803 0110325   0.1431 359.9766 14.11172269 68147
CZ-6A DEB
1 64633U 24140ADX 26015.17709066  .00002609  00000-0  13608-2 0  9990
2 64633  88.9953 292.8803 0110325   0.1431 359.9766 14.11172269 68147
CZ-6A DEB
1 64633U 24140ADX 26015.74434397  .00002670  00000-0  13928-2 0  9998
2 64633  88.9959 292.8166 0110232 358.3384   1.7418 14.11175493 68224
CZ-6A DEB
1 64633U 24140ADX 26015.74434397  .00002670  00000-0  13928-2 0  9998
2 64633  88.9959 292.8166 0110232 358.3384   1.7418 14.11175493 68224
CZ-6A DEB
1 64633U 24140ADX 26017.02065959  .00004151  00000-0  21688-2 0  9993
2 64633  88.9959 292.6726 0110184 354.4226   5.5723 14.11186314 68407
CZ-6A DEB
1 64633U 24140ADX 26017.72971922  .00004202  00000-0  21956-2 0  9991
2 64633  88.9959 292.5929 0110140 352.2218   7.7254 14.11192049 68506
CZ-6A DEB
1 64633U 24140ADX 26020.70771717  .00012753  00000-0  66662-2 0  9996
2 64633  88.9962 292.2593 0109669 343.0331  16.7197 14.11250246 68928
CZ-6A DEB
1 64633U 24140ADX 26022.69295565  .00007627  00000-0  39848-2 0  9998
2 64633  88.9944 292.0345 0109258 336.7340  22.8919 14.11297442 69205
CZ-6A DEB
1 64633U 24140ADX 26023.47285881  .00007630  00000-0  39863-2 0  9996
2 64633  88.9940 291.9466 0109103 334.2525  25.3252 14.11309315 69313
CZ-6A DEB
1 64633U 24140ADX 26029.00290041  .00007633  00000-0  39851-2 0  9995
2 64633  88.9935 291.3230 0108254 316.6370  42.6334 14.11393872 70099
CZ-6A DEB
1 64633U 24140ADX 26031.69691598  .00004250  00000-0  22168-2 0  9990
2 64633  88.9939 291.0195 0107713 308.1302  51.0210 14.11424265 70470
CZ-6A DEB
1 64633U 24140ADX 26031.69691599  .00004250  00000-0  22168-2 0  9991
2 64633  88.9939 291.0195 0107713 308.1303  51.0210 14.11424265 70471
CZ-6A DEB
1 64633U 24140ADX 26034.17820523  .00004833  00000-0  25223-2 0  9990
2 64633  88.9945 290.7417 0107088 300.2831  58.7790 14.11448799 70829
CZ-6A DEB
1 64633U 24140ADX 26034.17820524  .00004833  00000-0  25223-2 0  9991
2 64633  88.9945 290.7418 0107088 300.2831  58.7790 14.11448799 70820
CZ-6A DEB
1 64633U 24140ADX 26035.95052531  .00005917  00000-0  30881-2 0  9993
2 64633  88.9939 290.5425 0106879 294.4525  64.5541 14.11471052 71075
CZ-6A DEB
1 64633U 24140ADX 26035.95052532  .00005917  00000-0  30881-2 0  9994
2 64633  88.9939 290.5425 0106879 294.4525  64.5541 14.11471052 71075
CZ-6A DEB
1 64633U 24140ADX 26036.65944646  .00007108  00000-0  37108-2 0  9991
2 64633  88.9935 290.4632 0106689 292.2002  66.7891 14.11482143 71171
CZ-6A DEB
1 64633U 24140ADX 26036.65944647  .00007108  00000-0  37108-2 0  9992
2 64633  88.9935 290.4632 0106689 292.2002  66.7891 14.11482143 71171
CZ-6A DEB
1 64633U 24140ADX 26038.14816885  .00005263  00000-0  27464-2 0  9994
2 64633  88.9928 290.2952 0106419 287.3730  71.5839 14.11496919 71385
CZ-6A DEB
1 64633U 24140ADX 26038.14816886  .00005263  00000-0  27464-2 0  9995
2 64633  88.9928 290.2952 0106419 287.3730  71.5839 14.11496919 71385
CZ-6A DEB
1 64633U 24140ADX 26042.68515002  .00004150  00000-0  21636-2 0  9994
2 64633  88.9937 289.7844 0106083 272.6131  86.2914 14.11535236 72022
CZ-6A DEB
1 64633U 24140ADX 26043.67760001  .00003977  00000-0  20733-2 0  9998
2 64633  88.9933 289.6719 0105860 269.4226  89.4829 14.11543719 72169
CZ-6A DEB
1 64633U 24140ADX 26043.67760001  .00003977  00000-0  20733-2 0  9998
2 64633  88.9933 289.6719 0105860 269.4226  89.4829 14.11543719 72169
CZ-6A DEB
1 64633U 24140ADX 26044.24471210  .00004024  00000-0  20979-2 0  9999
2 64633  88.9943 289.6084 0105679 267.5656  91.3428 14.11548575 72240
CZ-6A DEB
1 64633U 24140ADX 26044.24471210  .00004024  00000-0  20979-2 0  9999
2 64633  88.9943 289.6084 0105679 267.5656  91.3428 14.11548575 72240
CZ-6A DEB
1 64633U 24140ADX 26044.74093348  .00003880  00000-0  20225-2 0  9999
2 64633  88.9943 289.5527 0105721 265.9387  92.9709 14.11552465 72312
CZ-6A DEB
1 64633U 24140ADX 26045.02448821  .00004001  00000-0  20860-2 0  9992
2 64633  88.9944 289.5208 0105687 265.0181  93.8933 14.11554997 72358
CZ-6A DEB
1 64633U 24140ADX 26045.59159664  .00003781  00000-0  19707-2 0  9990
2 64633  88.9944 289.4570 0105620 263.1822  95.7337 14.11558986 72437
CZ-6A DEB
1 64633U 24140ADX 26045.59159664  .00003781  00000-0  19707-2 0  9990
2 64633  88.9945 289.4570 0105620 263.1822  95.7337 14.11558986 72438
CZ-6A DEB
1 64633U 24140ADX 26047.64735058  .00004102  00000-0  21386-2 0  9999
2 64633  88.9942 289.2259 0105246 256.4726 102.4716 14.11576514 72725
CZ-6A DEB
1 64633U 24140ADX 26048.07267647  .00004674  00000-0  24374-2 0  9995
2 64633  88.9942 289.1781 0105120 255.0782 103.8745 14.11581252 72780
CZ-6A DEB
1 64633U 24140ADX 26048.07267648  .00004674  00000-0  24374-2 0  9996
2 64633  88.9942 289.1781 0105120 255.0782 103.8745 14.11581252 72780
CZ-6A DEB
1 64633U 24140ADX 26049.06509957  .00003798  00000-0  19798-2 0  9998
2 64633  88.9940 289.0665 0104942 251.8246 107.1491 14.11587612 72925
CZ-6A DEB
1 64633U 24140ADX 26049.06509957  .00003798  00000-0  19798-2 0  9998
2 64633  88.9940 289.0665 0104942 251.8246 107.1491 14.11587613 72926
CZ-6A DEB
1 64633U 24140ADX 26050.62461248  .00003577  00000-0  18641-2 0  9993
2 64633  88.9936 288.8909 0104761 246.6961 112.3172 14.11599051 73142
CZ-6A DEB
1 64633U 24140ADX 26050.62461249  .00003577  00000-0  18641-2 0  9994
2 64633  88.9936 288.8909 0104761 246.6961 112.3172 14.11599051 73142
CZ-6A DEB
1 64633U 24140ADX 26052.04234191  .00003595  00000-0  18733-2 0  9998
2 64633  88.9936 288.7316 0104690 242.0047 117.0515 14.11609389 73340
CZ-6A DEB
1 64633U 24140ADX 26052.04234192  .00003595  00000-0  18733-2 0  9999
2 64633  88.9936 288.7316 0104690 242.0047 117.0516 14.11609389 73341
CZ-6A DEB
1 64633U 24140ADX 26052.60943137  .00003388  00000-0  17653-2 0  9997
2 64633  88.9934 288.6678 0104644 240.1358 118.9397 14.11612994 73424
CZ-6A DEB
1 64633U 24140ADX 26052.60943137  .00003388  00000-0  17653-2 0  9997
2 64633  88.9934 288.6678 0104644 240.1358 118.9397 14.11612994 73424
CZ-6A DEB
1 64633U 24140ADX 26055.58662355  .00003891  00000-0  20268-2 0  9992
2 64633  88.9929 288.3316 0104636 230.3600 128.8317 14.11637737 73846
CZ-6A DEB
1 64633U 24140ADX 26055.58662356  .00003891  00000-0  20268-2 0  9993
2 64633  88.9929 288.3316 0104636 230.3600 128.8317 14.11637737 73846
CZ-6A DEB
1 64633U 24140ADX 26058.56377052  .00004177  00000-0  21756-2 0  9991
2 64633  88.9940 287.9967 0104545 220.5929 138.7429 14.11662353 74263
CZ-6A DEB
1 64633U 24140ADX 26058.56377053  .00004177  00000-0  21756-2 0  9992
2 64633  88.9940 287.9967 0104545 220.5929 138.7429 14.11662353 74263
CZ-6A DEB
1 64633U 24140ADX 26060.61939053  .00004736  00000-0  24659-2 0  9991
2 64633  88.9942 287.7655 0104671 213.8765 145.5706 14.11681312 74552
CZ-6A DEB
1 64633U 24140ADX 26060.61939054  .00004736  00000-0  24659-2 0  9992
2 64633  88.9942 287.7655 0104671 213.8765 145.5706 14.11681312 74552
CZ-6A DEB
1 64633U 24140ADX 26061.04468800  .00004660  00000-0  24264-2 0  9994
2 64633  88.9941 287.7173 0104658 212.4362 147.0364 14.11685093 74613
CZ-6A DEB
1 64633U 24140ADX 26061.04468800  .00004660  00000-0  24264-2 0  9994
2 64633  88.9941 287.7173 0104658 212.4362 147.0364 14.11685093 74613
CZ-6A DEB
1 64633U 24140ADX 26062.60410196  .00005210  00000-0  27119-2 0  9996
2 64633  88.9942 287.5416 0104738 207.2920 152.2740 14.11701269 74837
CZ-6A DEB
1 64633U 24140ADX 26062.60410196  .00005210  00000-0  27119-2 0  9996
2 64633  88.9942 287.5417 0104738 207.2920 152.2740 14.11701269 74838
CZ-6A DEB
1 64633U 24140ADX 26063.59644744  .00005519  00000-0  28727-2 0  9991
2 64633  88.9942 287.4301 0104706 203.9705 155.6588 14.11712248 74979
CZ-6A DEB
1 64633U 24140ADX 26063.59644745  .00005519  00000-0  28727-2 0  9992
2 64633  88.9942 287.4301 0104706 203.9705 155.6588 14.11712248 74979
CZ-6A DEB
1 64633U 24140ADX 26064.58878663  .00005285  00000-0  27501-2 0  9999
2 64633  88.9940 287.3184 0104708 200.6848 159.0086 14.11721729 75111
CZ-6A DEB
1 64633U 24140ADX 26064.58878663  .00005285  00000-0  27501-2 0  9999
2 64633  88.9940 287.3184 0104708 200.6848 159.0086 14.11721729 75111
CZ-6A DEB
1 64633U 24140ADX 26066.57344555  .00005157  00000-0  26820-2 0  9999
2 64633  88.9938 287.0947 0104791 194.1006 165.7249 14.11740482 75399
CZ-6A DEB
1 64633U 24140ADX 26066.57344555  .00005157  00000-0  26820-2 0  9999
2 64633  88.9938 287.0947 0104791 194.1006 165.7249 14.11740482 75399
CZ-6A DEB
1 64633U 24140ADX 26067.56576495  .00005229  00000-0  27189-2 0  9998
2 64633  88.9940 286.9830 0104867 190.8361 169.0567 14.11750260 75533
CZ-6A DEB
1 64633U 24140ADX 26068.55807792  .00004420  00000-0  22971-2 0  9991
2 64633  88.9935 286.8694 0104935 187.7269 172.2305 14.11758331 75670
CZ-6A DEB
1 64633U 24140ADX 26068.55807792  .00004420  00000-0  22971-2 0  9991
2 64633  88.9935 286.8694 0104935 187.7270 172.2305 14.11758331 75672
CZ-6A DEB
1 64633U 24140ADX 26069.55038491  .00004276  00000-0  22214-2 0  9993
2 64633  88.9928 286.7569 0105067 184.4495 175.5767 14.11767008 75819
CZ-6A DEB
1 64633U 24140ADX 26069.55038492  .00004276  00000-0  22214-2 0  9994
2 64633  88.9928 286.7569 0105067 184.4495 175.5768 14.11767008 75810
CZ-6A DEB
1 64633U 24140ADX 26070.54268663  .00004247  00000-0  22052-2 0  9998
2 64633  88.9930 286.6452 0105197 181.1709 178.9247 14.11775012 75957
CZ-6A DEB
1 64633U 24140ADX 26070.54268663  .00004247  00000-0  22052-2 0  9998
2 64633  88.9930 286.6452 0105197 181.1709 178.9247 14.11775012 75957
CZ-6A DEB
1 64633U 24140ADX 26071.60586094  .00004323  00000-0  22445-2 0  9998
2 64633  88.9918 286.5243 0105264 177.8011 182.3660 14.11783684 76103
CZ-6A DEB
1 64633U 24140ADX 26071.60586094  .00004323  00000-0  22445-2 0  9998
2 64633  88.9918 286.5243 0105264 177.8011 182.3660 14.11783684 76103
CZ-6A DEB
1 64633U 24140ADX 26071.96025110  .00004354  00000-0  22602-2 0  9993
2 64633  88.9927 286.4860 0105294 176.4613 183.7342 14.11786658 76154
CZ-6A DEB
1 64633U 24140ADX 26072.31464046  .00004077  00000-0  21155-2 0  9992
2 64633  88.9931 286.4463 0105457 175.3024 184.9178 14.11788468 76200
CZ-6A DEB
1 64633U 24140ADX 26074.58271301  .00003791  00000-0  19656-2 0  9998
2 64633  88.9925 286.1908 0105714 167.9909 192.3835 14.11807229 76524
CZ-6A DEB
1 64633U 24140ADX 26075.57498523  .00003635  00000-0  18840-2 0  9996
2 64633  88.9922 286.0789 0105839 164.7569 195.6848 14.11815239 76667
CZ-6A DEB
1 64633U 24140ADX 26076.07111913  .00003562  00000-0  18458-2 0  9991
2 64633  88.9925 286.0227 0105903 163.0963 197.3796 14.11819211 76732
CZ-6A DEB
1 64633U 24140ADX 26076.07111913  .00003562  00000-0  18458-2 0  9991
2 64633  88.9925 286.0227 0105903 163.0963 197.3796 14.11819211 76732
CZ-6A DEB
1 64633U 24140ADX 26076.56725276  .00003241  00000-0  16782-2 0  9990
2 64633  88.9923 285.9668 0105989 161.4421 199.0677 14.11821632 76807
CZ-6A DEB
1 64633U 24140ADX 26078.55177428  .00003176  00000-0  16438-2 0  9996
2 64633  88.9923 285.7431 0106289 155.0537 205.5840 14.11833676 77081
CZ-6A DEB
1 64633U 24140ADX 26079.54402900  .00003550  00000-0  18374-2 0  9999
2 64633  88.9923 285.6312 0106452 151.8564 208.8433 14.11840001 77224
CZ-6A DEB
1 64633U 24140ADX 26079.54402901  .00003550  00000-0  18374-2 0  9990
2 64633  88.9923 285.6312 0106452 151.8564 208.8433 14.11840001 77224
CZ-6A DEB
1 64633U 24140ADX 26080.53627709  .00004401  00000-0  22792-2 0  9991
2 64633  88.9930 285.5194 0106562 148.6825 212.0768 14.11849071 77364
CZ-6A DEB
1 64633U 24140ADX 26082.52075088  .00003980  00000-0  20591-2 0  9995
2 64633  88.9936 285.2957 0106737 142.3897 218.4815 14.11867132 77640
CZ-6A DEB
1 64633U 24140ADX 26082.52075089  .00003980  00000-0  20591-2 0  9996
2 64633  88.9936 285.2957 0106737 142.3898 218.4815 14.11867132 77641
CZ-6A DEB
1 64633U 24140ADX 26085.00130589  .00003734  00000-0  19297-2 0  9997
2 64633  88.9903 285.0125 0107295 134.5308 226.4706 14.11887855 77999
CZ-6A DEB
1 64633U 24140ADX 26085.00130590  .00003734  00000-0  19297-2 0  9999
2 64633  88.9903 285.0125 0107295 134.5308 226.4706 14.11887855 77999
CZ-6A DEB
1 64633U 24140ADX 26085.99351934  .00004293  00000-0  22179-2 0  9998
2 64633  88.9924 284.9030 0107736 131.2586 229.7943 14.11896509 78139
CZ-6A DEB
1 64633U 24140ADX 26085.99351934  .00004293  00000-0  22179-2 0  9998
2 64633  88.9924 284.9030 0107736 131.2586 229.7943 14.11896509 78139
CZ-6A DEB
1 64633U 24140ADX 26086.98572538  .00004238  00000-0  21888-2 0  9998
2 64633  88.9912 284.7918 0107978 128.1184 232.9797 14.11904497 78270
CZ-6A DEB
1 64633U 24140ADX 26086.98572539  .00004238  00000-0  21888-2 0  9999
2 64633  88.9912 284.7918 0107978 128.1184 232.9797 14.11904497 78270
CZ-6A DEB
1 64633U 24140ADX 26087.26921122  .00004550  00000-0  23503-2 0  9990
2 64633  88.9910 284.7596 0107995 127.2474 233.8622 14.11907636 78311
CZ-6A DEB
1 64633U 24140ADX 26087.97792318  .00004895  00000-0  25283-2 0  9990
2 64633  88.9910 284.6797 0108029 125.0486 236.0892 14.11915047 78411
CZ-6A DEB
1 64633U 24140ADX 26087.97792318  .00004895  00000-0  25283-2 0  9990
2 64633  88.9910 284.6797 0108029 125.0486 236.0893 14.11915047 78412
CZ-6A DEB
1 64633U 24140ADX 26090.52924767  .00005853  00000-0  30221-2 0  9993
2 64633  88.9903 284.3915 0108115 117.0971 244.1294 14.11946350 78774
CZ-6A DEB
1 64633U 24140ADX 26090.52924768  .00005853  00000-0  30221-2 0  9994
2 64633  88.9903 284.3915 0108115 117.0971 244.1294 14.11946350 78774
CZ-6A DEB
1 64633U 24140ADX 26092.93877863  .00007233  00000-0  37325-2 0  9990
2 64633  88.9911 284.1193 0108396 109.5592 251.7337 14.11978113 79118
CZ-6A DEB
1 64633U 24140ADX 26093.50571851  .00007561  00000-0  39018-2 0  9997
2 64633  88.9904 284.0550 0108397 107.7830 253.5219 14.11986118 79193
CZ-6A DEB
1 64633U 24140ADX 26093.50571851  .00007561  00000-0  39018-2 0  9997
2 64633  88.9904 284.0550 0108397 107.7830 253.5219 14.11986118 79193
CZ-6A DEB
1 64633U 24140ADX 26094.49785333  .00006738  00000-0  34750-2 0  9991
2 64633  88.9909 283.9431 0108487 104.6790 256.6451 14.12000087 79336
CZ-6A DEB
1 64633U 24140ADX 26095.48997917  .00005539  00000-0  28548-2 0  9990
2 64633  88.9913 283.8309 0108554 101.5553 259.7844 14.12011163 79474
CZ-6A DEB
1 64633U 24140ADX 26095.48997917  .00005539  00000-0  28548-2 0  9990
2 64633  88.9913 283.8309 0108554 101.5553 259.7844 14.12011163 79474
CZ-6A DEB
1 64633U 24140ADX 26096.48209736  .00005006  00000-0  25790-2 0  9991
2 64633  88.9916 283.7186 0108578  98.4407 262.9103 14.12020856 79616
CZ-6A DEB
1 64633U 24140ADX 26097.47420861  .00004592  00000-0  23646-2 0  9992
2 64633  88.9918 283.6065 0108630  95.3701 265.9889 14.12029245 79755
CZ-6A DEB
1 64633U 24140ADX 26097.97026218  .00003928  00000-0  20216-2 0  9997
2 64633  88.9915 283.5500 0108684  93.8531 267.5088 14.12032016 79825
CZ-6A DEB
1 64633U 24140ADX 26097.97026218  .00003928  00000-0  20216-2 0  9997
2 64633  88.9915 283.5500 0108684  93.8531 267.5088 14.12032016 79825
CZ-6A DEB
1 64633U 24140ADX 26098.96236427  .00003472  00000-0  17863-2 0  9990
2 64633  88.9917 283.4379 0108655  90.8018 270.5618 14.12039093 79965
CZ-6A DEB
1 64633U 24140ADX 26098.96236427  .00003472  00000-0  17863-2 0  9990
2 64633  88.9917 283.4380 0108655  90.8018 270.5618 14.12039093 79967
CZ-6A DEB
1 64633U 24140ADX 26100.94655235  .00004058  00000-0  20884-2 0  9992
2 64633  88.9918 283.2140 0108541  84.5938 276.7618 14.12054282 80243
CZ-6A DEB
1 64633U 24140ADX 26100.94655236  .00004058  00000-0  20884-2 0  9993
2 64633  88.9918 283.2140 0108541  84.5938 276.7618 14.12054282 80243
CZ-6A DEB
1 64633U 24140ADX 26101.44259633  .00003383  00000-0  17397-2 0  9995
2 64633  88.9913 283.1588 0108535  82.9906 278.3609 14.12056070 80316
CZ-6A DEB
1 64633U 24140ADX 26101.51345950  .00003565  00000-0  18337-2 0  9998
2 64633  88.9912 283.1507 0108530  82.7686 278.5822 14.12057067 80321
CZ-6A DEB
1 64633U 24140ADX 26101.93863845  .00003289  00000-0  16913-2 0  9993
2 64633  88.9912 283.1022 0108420  81.4873 279.8582 14.12059205 80384
CZ-6A DEB
1 64633U 24140ADX 26101.93863845  .00003289  00000-0  16913-2 0  9993
2 64633  88.9912 283.1022 0108420  81.4873 279.8582 14.12059205 80384
CZ-6A DEB
1 64633U 24140ADX 26102.43467968  .00002936  00000-0  15091-2 0  9999
2 64633  88.9913 283.0465 0108362  79.9302 281.4089 14.12061442 80454
CZ-6A DEB
1 64633U 24140ADX 26102.93071949  .00002872  00000-0  14761-2 0  9996
2 64633  88.9912 282.9905 0108293  78.3882 282.9436 14.12064395 80529
CZ-6A DEB
1 64633U 24140ADX 26102.93071950  .00002872  00000-0  14761-2 0  9998
2 64633  88.9912 282.9905 0108293  78.3882 282.9436 14.12064395 80529
CZ-6A DEB
1 64633U 24140ADX 26103.92279656  .00002561  00000-0  13154-2 0  9991
2 64633  88.9906 282.8783 0108196  75.2757 286.0390 14.12069013 80665
CZ-6A DEB
1 64633U 24140ADX 26103.92279657  .00002561  00000-0  13154-2 0  9992
2 64633  88.9906 282.8783 0108196  75.2757 286.0390 14.12069013 80665
CZ-6A DEB
1 64633U 24140ADX 26104.91486959  .00002473  00000-0  12702-2 0  9997
2 64633  88.9904 282.7661 0108071  72.1646 289.1293 14.12073693 80803
CZ-6A DEB
1 64633U 24140ADX 26104.91486960  .00002473  00000-0  12702-2 0  9999
2 64633  88.9904 282.7661 0108071  72.1646 289.1293 14.12073693 80803
CZ-6A DEB
1 64633U 24140ADX 26106.47383514  .00002410  00000-0  12374-2 0  9999
2 64633  88.9913 282.5906 0108002  67.2677 293.9880 14.12080357 81021
CZ-6A DEB
1 64633U 24140ADX 26106.47383514  .00002410  00000-0  12374-2 0  9999
2 64633  88.9913 282.5906 0108002  67.2677 293.9880 14.12080357 81021
CZ-6A DEB
1 64633U 24140ADX 26107.89106853  .00002633  00000-0  13524-2 0  9990
2 64633  88.9911 282.4300 0107868  62.8740 298.3397 14.12086914 81226
CZ-6A DEB
1 64633U 24140ADX 26110.44206723  .00002569  00000-0  13200-2 0  9991
2 64633  88.9916 282.1411 0107618  54.8840 306.2376 14.12098943 81586
CZ-6A DEB
1 64633U 24140ADX 26110.44206724  .00002569  00000-0  13200-2 0  9992
2 64633  88.9916 282.1412 0107618  54.8840 306.2376 14.12098943 81587
CZ-6A DEB
1 64633U 24140ADX 26110.44206724  .00002569  00000-0  13200-2 0  9992
2 64633  88.9916 282.1412 0107618  54.8840 306.2376 14.12098943 81587
CZ-6A DEB
1 64633U 24140ADX 26114.41022631  .00002851  00000-0  14660-2 0  9991
2 64633  88.9922 281.6934 0106880  42.3672 318.5704 14.12122541 82148
CZ-6A DEB
1 64633U 24140ADX 26114.90624119  .00003013  00000-0  15494-2 0  9991
2 64633  88.9920 281.6373 0106863  40.8080 320.1045 14.12125905 82212
CZ-6A DEB
1 64633U 24140ADX 26116.89028558  .00003528  00000-0  18161-2 0  9991
2 64633  88.9915 281.4137 0106432  34.4837 326.3193 14.12140744 82493
CZ-6A DEB
1 64633U 24140ADX 26116.89028558  .00003528  00000-0  18161-2 0  9991
2 64633  88.9915 281.4137 0106432  34.4837 326.3193 14.12140744 82493
CZ-6A DEB
1 64633U 24140ADX 26117.88229950  .00003720  00000-0  19154-2 0  9997
2 64633  88.9923 281.3024 0106275  31.2944 329.4508 14.12148642 82630
CZ-6A DEB
1 64633U 24140ADX 26117.88229951  .00003720  00000-0  19154-2 0  9998
2 64633  88.9923 281.3024 0106275  31.2944 329.4508 14.12148642 82630
CZ-6A DEB
1 64633U 24140ADX 26118.87430779  .00003403  00000-0  17517-2 0  9999
2 64633  88.9924 281.1897 0105997  28.1107 332.5746 14.12155032 82778
CZ-6A DEB
1 64633U 24140ADX 26119.15773758  .00003339  00000-0  17186-2 0  9998
2 64633  88.9919 281.1574 0105913  27.2142 333.4539 14.12156918 82810
CZ-6A DEB
1 64633U 24140ADX 26119.15773759  .00003339  00000-0  17186-2 0  9999
2 64633  88.9919 281.1574 0105913  27.2142 333.4539 14.12156918 82810
CZ-6A DEB
1 64633U 24140ADX 26119.44116771  .00003313  00000-0  17052-2 0  9990
2 64633  88.9915 281.1253 0105934  26.3246 334.3268 14.12158778 82857
CZ-6A DEB
1 64633U 24140ADX 26119.44116771  .00003313  00000-0  17052-2 0  9990
2 64633  88.9915 281.1253 0105934  26.3246 334.3268 14.12158778 82857
CZ-6A DEB
1 64633U 24140ADX 26121.85030522  .00003246  00000-0  16711-2 0  9993
2 64633  88.9911 280.8532 0105411  18.6172 341.8823 14.12174240 83191
CZ-6A DEB
1 64633U 24140ADX 26121.85030523  .00003246  00000-0  16711-2 0  9994
2 64633  88.9911 280.8532 0105411  18.6172 341.8823 14.12174240 83191
CZ-6A DEB
1 64633U 24140ADX 26122.41715747  .00003308  00000-0  17035-2 0  9994
2 64633  88.9924 280.7892 0105309  16.8043 343.6587 14.12177951 83274
CZ-6A DEB
1 64633U 24140ADX 26122.41715747  .00003308  00000-0  17035-2 0  9994
2 64633  88.9924 280.7892 0105309  16.8043 343.6587 14.12177951 83274
CZ-6A DEB
1 64633U 24140ADX 26124.89711719  .00003009  00000-0  15491-2 0  9995
2 64633  88.9927 280.5088 0104950   8.8955 351.4058 14.12193348 83623
CZ-6A DEB
1 64633U 24140ADX 26124.89711719  .00003009  00000-0  15491-2 0  9995
2 64633  88.9927 280.5088 0104950   8.8955 351.4058 14.12193348 83623
CZ-6A DEB
1 64633U 24140ADX 26125.39310505  .00003664  00000-0  18876-2 0  9996
2 64633  88.9926 280.4528 0104821   7.2855 352.9824 14.12198342 83692
CZ-6A DEB
1 64633U 24140ADX 26125.39310505  .00003664  00000-0  18876-2 0  9996
2 64633  88.9926 280.4528 0104821   7.2855 352.9824 14.12198342 83692
CZ-6A DEB
1 64633U 24140ADX 26126.88106404  .00002793  00000-0  14379-2 0  9998
2 64633  88.9930 280.2852 0104527   2.4812 357.6869 14.12205497 83903
CZ-6A DEB
1 64633U 24140ADX 26126.88106405  .00002793  00000-0  14379-2 0  9999
2 64633  88.9930 280.2852 0104527   2.4812 357.6870 14.12205497 83905
CZ-6A DEB
1 64633U 24140ADX 26127.87303196  .00002562  00000-0  13182-2 0  9990
2 64633  88.9930 280.1733 0104344 359.2472   0.8540 14.12210464 84041
CZ-6A DEB
1 64633U 24140ADX 26127.87303196  .00002562  00000-0  13182-2 0  9990
2 64633  88.9930 280.1733 0104344 359.2472   0.8540 14.12210464 84041
CZ-6A DEB
1 64633U 24140ADX 26128.36901455  .00002549  00000-0  13114-2 0  9997
2 64633  88.9928 280.1174 0104268 357.6137   2.4537 14.12212837 84110
CZ-6A DEB
1 64633U 24140ADX 26128.36901455  .00002549  00000-0  13114-2 0  9997
2 64633  88.9928 280.1174 0104268 357.6137   2.4537 14.12212837 84110
CZ-6A DEB
1 64633U 24140ADX 26129.36097691  .00002479  00000-0  12757-2 0  9990
2 64633  88.9928 280.0056 0104099 354.3506   5.6496 14.12217876 84256
CZ-6A DEB
1 64633U 24140ADX 26129.85695686  .00002328  00000-0  11973-2 0  9994
2 64633  88.9925 279.9495 0103977 352.6956   7.2709 14.12219868 84327
CZ-6A DEB
1 64633U 24140ADX 26129.85695687  .00002328  00000-0  11973-2 0  9995
2 64633  88.9925 279.9495 0103977 352.6956   7.2709 14.12219868 84327
CZ-6A DEB
1 64633U 24140ADX 26130.35293620  .00002223  00000-0  11435-2 0  9990
2 64633  88.9924 279.8936 0103887 351.0545   8.8785 14.12221902 84392
CZ-6A DEB
1 64633U 24140ADX 26131.13233072  .00002160  00000-0  11108-2 0  9999
2 64633  88.9922 279.8057 0103747 348.4804  11.4007 14.12225376 84506
CZ-6A DEB
1 64633U 24140ADX 26131.13233072  .00002160  00000-0  11108-2 0  9999
2 64633  88.9922 279.8057 0103747 348.4804  11.4007 14.12225376 84506
CZ-6A DEB
1 64633U 24140ADX 26131.41574690  .00002077  00000-0  10681-2 0  9996
2 64633  88.9921 279.7736 0103719 347.5882  12.2750 14.12226398 84546
CZ-6A DEB
1 64633U 24140ADX 26131.41574690  .00002077  00000-0  10681-2 0  9996
2 64633  88.9921 279.7736 0103719 347.5882  12.2750 14.12226398 84546
CZ-6A DEB
1 64633U 24140ADX 26132.83282314  .00002046  00000-0  10518-2 0  9997
2 64633  88.9919 279.6135 0103537 342.9217  16.8492 14.12232263 84747
CZ-6A DEB
1 64633U 24140ADX 26132.83282314  .00002046  00000-0  10518-2 0  9997
2 64633  88.9919 279.6135 0103537 342.9217  16.8492 14.12232263 84747
CZ-6A DEB
1 64633U 24140ADX 26133.39965222  .00001955  00000-0  10048-2 0  9991
2 64633  88.9918 279.5495 0103466 341.0551  18.6796 14.12234246 84825
CZ-6A DEB
1 64633U 24140ADX 26133.82477343  .00002029  00000-0  10432-2 0  9991
2 64633  88.9913 279.5008 0103433 339.6827  20.0256 14.12236198 84885
CZ-6A DEB
1 64633U 24140ADX 26133.82477343  .00002029  00000-0  10432-2 0  9991
2 64633  88.9913 279.5008 0103433 339.6827  20.0256 14.12236198 84885
CZ-6A DEB
1 64633U 24140ADX 26134.39160117  .00002088  00000-0  10740-2 0  9999
2 64633  88.9913 279.4368 0103358 337.8168  21.8561 14.12238554 84962
CZ-6A DEB
1 64633U 24140ADX 26135.80866756  .00002084  00000-0  10720-2 0  9992
2 64633  88.9917 279.2767 0103168 333.1745  26.4126 14.12243723 85161
CZ-6A DEB
1 64633U 24140ADX 26136.37549239  .00002260  00000-0  11630-2 0  9996
2 64633  88.9917 279.2126 0103106 331.3297  28.2243 14.12246617 85248
CZ-6A DEB
1 64633U 24140ADX 26136.80061049  .00002295  00000-0  11809-2 0  9998
2 64633  88.9919 279.1646 0103042 329.9309  29.5984 14.12248449 85300
CZ-6A DEB
1 64633U 24140ADX 26136.87146350  .00002237  00000-0  11509-2 0  9997
2 64633  88.9919 279.1566 0103035 329.7003  29.8249 14.12248565 85319
CZ-6A DEB
1 64633U 24140ADX 26136.87146350  .00002237  00000-0  11509-2 0  9997
2 64633  88.9919 279.1566 0103035 329.7003  29.8249 14.12248565 85319
CZ-6A DEB
1 64633U 24140ADX 26137.36743405  .00002195  00000-0  11297-2 0  9993
2 64633  88.9919 279.1006 0102972 328.0722  31.4248 14.12250469 85388
CZ-6A DEB
1 64633U 24140ADX 26137.36743406  .00002195  00000-0  11297-2 0  9994
2 64633  88.9919 279.1006 0102972 328.0722  31.4248 14.12250469 85388
CZ-6A DEB
1 64633U 24140ADX 26138.35937256  .00002210  00000-0  11372-2 0  9994
2 64633  88.9921 278.9887 0102844 324.7864  34.6554 14.12254957 85520
CZ-6A DEB
1 64633U 24140ADX 26138.35937256  .00002210  00000-0  11372-2 0  9994
2 64633  88.9921 278.9887 0102844 324.7864  34.6554 14.12254957 85520
CZ-6A DEB
1 64633U 24140ADX 26139.35130852  .00002158  00000-0  11104-2 0  9996
2 64633  88.9923 278.8766 0102741 321.5258  37.8633 14.12259318 85669
CZ-6A DEB
1 64633U 24140ADX 26139.84727516  .00002354  00000-0  12117-2 0  9992
2 64633  88.9923 278.8206 0102689 319.8947  39.4688 14.12262329 85736
CZ-6A DEB
1 64633U 24140ADX 26139.84727517  .00002354  00000-0  12117-2 0  9993
2 64633  88.9923 278.8206 0102689 319.8948  39.4688 14.12262329 85737
CZ-6A DEB
1 64633U 24140ADX 26140.34324128  .00002325  00000-0  11969-2 0  9993
2 64633  88.9924 278.7646 0102660 318.2498  41.0886 14.12264537 85807
CZ-6A DEB
1 64633U 24140ADX 26140.34324129  .00002325  00000-0  11969-2 0  9994
2 64633  88.9924 278.7646 0102660 318.2498  41.0886 14.12264537 85807
CZ-6A DEB
1 64633U 24140ADX 26140.83920659  .00002367  00000-0  12188-2 0  9998
2 64633  88.9923 278.7086 0102603 316.5991  42.7148 14.12267000 85874
CZ-6A DEB
1 64633U 24140ADX 26141.61857902  .00002384  00000-0  12275-2 0  9991
2 64633  88.9923 278.6208 0102549 314.0046  45.2720 14.12270849 85983
CZ-6A DEB
1 64633U 24140ADX 26141.83113479  .00002522  00000-0  12987-2 0  9993
2 64633  88.9923 278.5968 0102543 313.3029  45.9638 14.12272386 86010
CZ-6A DEB
1 64633U 24140ADX 26141.83113480  .00002522  00000-0  12987-2 0  9995
2 64633  88.9923 278.5968 0102543 313.3029  45.9638 14.12272386 86010
CZ-6A DEB
1 64633U 24140ADX 26143.31902097  .00002670  00000-0  13750-2 0  9993
2 64633  88.9920 278.4289 0102523 308.3502  50.8503 14.12280675 86229
CZ-6A DEB
1 64633U 24140ADX 26143.38987245  .00002679  00000-0  13798-2 0  9999
2 64633  88.9919 278.4209 0102521 308.1119  51.0855 14.12281116 86234
CZ-6A DEB
1 64633U 24140ADX 26143.81498141  .00002684  00000-0  13825-2 0  9996
2 64633  88.9916 278.3728 0102515 306.6899  52.4899 14.12283362 86291
CZ-6A DEB
1 64633U 24140ADX 26144.80689964  .00002914  00000-0  15010-2 0  9995
2 64633  88.9915 278.2608 0102547 303.3928  55.7479 14.12289568 86438
CZ-6A DEB
1 64633U 24140ADX 26145.30285726  .00003053  00000-0  15729-2 0  9991
2 64633  88.9914 278.2048 0102560 301.7409  57.3813 14.12292913 86502
CZ-6A DEB
1 64633U 24140ADX 26145.30285726  .00003053  00000-0  15729-2 0  9991
2 64633  88.9914 278.2048 0102560 301.7409  57.3813 14.12292913 86502
CZ-6A DEB
1 64633U 24140ADX 26146.29476971  .00003436  00000-0  17706-2 0  9996
2 64633  88.9913 278.0928 0102596 298.4528  60.6351 14.12300126 86644
CZ-6A DEB
1 64633U 24140ADX 26146.36562041  .00003444  00000-0  17749-2 0  9994
2 64633  88.9912 278.0848 0102602 298.2168  60.8687 14.12300627 86651
CZ-6A DEB
1 64633U 24140ADX 26146.79072449  .00003543  00000-0  18261-2 0  9999
2 64633  88.9913 278.0368 0102623 296.7991  62.2726 14.12303537 86719
CZ-6A DEB
1 64633U 24140ADX 26148.84538110  .00004075  00000-0  20999-2 0  9991
2 64633  88.9916 277.8046 0102695 289.9912  69.0238 14.12319943 87002
CZ-6A DEB
1 64633U 24140ADX 26149.34132970  .00004033  00000-0  20784-2 0  9997
2 64633  88.9916 277.7485 0102706 288.3487  70.6549 14.12323622 87070
CZ-6A DEB
1 64633U 24140ADX 26149.34132970  .00004033  00000-0  20784-2 0  9997
2 64633  88.9916 277.7485 0102706 288.3487  70.6549 14.12323622 87070
CZ-6A DEB
1 64633U 24140ADX 26149.83727675  .00004357  00000-0  22452-2 0  9996
2 64633  88.9917 277.6924 0102736 286.6920  72.3010 14.12328392 87143
CZ-6A DEB
1 64633U 24140ADX 26150.33322243  .00004486  00000-0  23116-2 0  9996
2 64633  88.9919 277.6363 0102734 285.0570  73.9266 14.12332996 87217
CZ-6A DEB
1 64633U 24140ADX 26150.33322244  .00004486  00000-0  23116-2 0  9997
2 64633  88.9919 277.6363 0102734 285.0570  73.9266 14.12332997 87218
CZ-6A DEB
1 64633U 24140ADX 26150.82916698  .00004245  00000-0  21870-2 0  9991
2 64633  88.9920 277.5802 0102752 283.4149  75.5600 14.12336605 87288
CZ-6A DEB
1 64633U 24140ADX 26150.82916698  .00004245  00000-0  21870-2 0  9991
2 64633  88.9920 277.5802 0102752 283.4149  75.5600 14.12336604 87287
CZ-6A DEB
1 64633U 24140ADX 26151.32510971  .00004669  00000-0  24058-2 0  9992
2 64633  88.9921 277.5242 0102748 281.7782  77.1892 14.12342133 87358
CZ-6A DEB
1 64633U 24140ADX 26151.75020285  .00004308  00000-0  22195-2 0  9993
2 64633  88.9922 277.4762 0102756 280.3673  78.5943 14.12344860 87416
CZ-6A DEB
1 64633U 24140ADX 26152.31699222  .00003694  00000-0  19019-2 0  9997
2 64633  88.9923 277.4122 0102763 278.4889  80.4661 14.12348242 87497
CZ-6A DEB
1 64633U 24140ADX 26158.05564772  .00004053  00000-0  20841-2 0  9990
2 64633  88.9921 276.7648 0103526 259.5101  99.4407 14.12393417 88308
CZ-6A DEB
1 64633U 24140ADX 26158.05564773  .00004053  00000-0  20841-2 0  9991
2 64633  88.9921 276.7649 0103526 259.5101  99.4407 14.12393417 88309
CZ-6A DEB
1 64633U 24140ADX 26161.59795487  .00003416  00000-0  17535-2 0  9990
2 64633  88.9916 276.3646 0104150 247.9192 111.0910 14.12417133 88808
CZ-6A DEB
1 64633U 24140ADX 26164.57345176  .00003939  00000-0  20208-2 0  9998
2 64633  88.9926 276.0286 0104734 238.2051 120.8902 14.12439547 89220
CZ-6A DEB
1 64633U 24140ADX 26164.57345176  .00003939  00000-0  20208-2 0  9998
2 64633  88.9926 276.0286 0104734 238.2051 120.8902 14.12439547 89220
CZ-6A DEB
1 64633U 24140ADX 26169.24915824  .00002914  00000-0  14910-2 0  9995
2 64633  88.9926 275.5014 0105639 223.0115 136.2779 14.12467500 89886
CZ-6A DEB
1 64633U 24140ADX 26169.24915825  .00002914  00000-0  14910-2 0  9996
2 64633  88.9926 275.5014 0105639 223.0115 136.2779 14.12467500 89886
CZ-6A DEB
1 64633U 24140ADX 26170.73686745  .00003065  00000-0  15680-2 0  9991
2 64633  88.9909 275.3322 0106039 218.2342 141.1291 14.12475851 90097
CZ-6A DEB
1 64633U 24140ADX 26170.73686746  .00003065  00000-0  15680-2 0  9992
2 64633  88.9909 275.3322 0106039 218.2343 141.1291 14.12475851 90098
CZ-6A DEB
1 64633U 24140ADX 26173.28720770  .00003015  00000-0  15409-2 0  9995
2 64633  88.9912 275.0447 0106605 210.1243 149.3786 14.12490391 90451
CZ-6A DEB
1 64633U 24140ADX 26174.70405240  .00003248  00000-0  16596-2 0  9991
2 64633  88.9912 274.8844 0106943 205.6244 153.9621 14.12499623 90652
CZ-6A DEB
1 64633U 24140ADX 26176.68761800  .00004292  00000-0  21934-2 0  9999
2 64633  88.9915 274.6600 0107334 199.3141 160.3964 14.12516901 90935
CZ-6A DEB
1 64633U 24140ADX 26176.68761800  .00004292  00000-0  21934-2 0  9999
2 64633  88.9915 274.6600 0107334 199.3141 160.3964 14.12516901 90935
CZ-6A DEB
1 64633U 24140ADX 26177.67939323  .00003917  00000-0  20004-2 0  9996
2 64633  88.9922 274.5483 0107544 196.1616 163.6132 14.12523469 91072
CZ-6A DEB
1 64633U 24140ADX 26177.67939324  .00003917  00000-0  20004-2 0  9997
2 64633  88.9922 274.5483 0107544 196.1616 163.6132 14.12523470 91074
CZ-6A DEB
1 64633U 24140ADX 26179.66292723  .00003494  00000-0  17825-2 0  9990
2 64633  88.9927 274.3246 0107903 189.8525 170.0548 14.12538195 91355
CZ-6A DEB
1 64633U 24140ADX 26181.71728323  .00003612  00000-0  18417-2 0  9999
2 64633  88.9928 274.0928 0108244 183.3020 176.7465 14.12552356 91646
CZ-6A DEB
1 64633U 24140ADX 26181.71728324  .00003612  00000-0  18417-2 0  9990
2 64633  88.9928 274.0928 0108244 183.3020 176.7465 14.12552356 91646
CZ-6A DEB
1 64633U 24140ADX 26183.70077689  .00004286  00000-0  21844-2 0  9998
2 64633  88.9924 273.8691 0108880 177.3088 182.8709 14.12567961 91927
CZ-6A DEB
1 64633U 24140ADX 26183.70077689  .00004286  00000-0  21844-2 0  9998
2 64633  88.9924 273.8691 0108880 177.3088 182.8709 14.12567961 91927
CZ-6A DEB
1 64633U 24140ADX 26184.69251854  .00004255  00000-0  21682-2 0  9991
2 64633  88.9931 273.7571 0108860 174.0545 186.1963 14.12575093 92061
CZ-6A DEB
1 64633U 24140ADX 26184.97587066  .00004559  00000-0  23231-2 0  9998
2 64633  88.9930 273.7252 0109030 173.3208 186.9462 14.12577897 92105
CZ-6A DEB
1 64633U 24140ADX 26185.18838590  .00004690  00000-0  23896-2 0  9996
2 64633  88.9913 273.7011 0109033 172.5721 187.7113 14.12579967 92138
CZ-6A DEB
1 64633U 24140ADX 26185.18838591  .00004690  00000-0  23896-2 0  9997
2 64633  88.9913 273.7011 0109033 172.5721 187.7113 14.12579967 92138
CZ-6A DEB
1 64633U 24140ADX 26185.18838591  .00004690  00000-0  23896-2 0  9997
2 64633  88.9913 273.7011 0109033 172.5721 187.7113 14.12579967 92138
CZ-6A DEB
1 64633U 24140ADX 26185.68425012  .00006842  00000-0  34877-2 0  9994
2 64633  88.9911 273.6452 0109088 171.0517 189.2648 14.12590217 92200
CZ-6A DEB
1 64633U 24140ADX 26186.18011425  .00005992  00000-0  30537-2 0  9993
2 64633  88.9912 273.5895 0109169 169.5209 190.8291 14.12592653 92276
CZ-6A DEB
1 64633U 24140ADX 26186.18011425  .00005992  00000-0  30537-2 0  9993
2 64633  88.9912 273.5895 0109169 169.5209 190.8290 14.12592653 92275
CZ-6A DEB
1 64633U 24140ADX 26186.67597690  .00005353  00000-0  27271-2 0  9992
2 64633  88.9913 273.5335 0109228 167.9653 192.4183 14.12595840 92344
CZ-6A DEB
1 64633U 24140ADX 26186.95932592  .00004554  00000-0  23190-2 0  9995
2 64633  88.9910 273.5014 0109268 167.1172 193.2847 14.12596842 92380
CZ-6A DEB
1 64633U 24140ADX 26187.24267463  .00004113  00000-0  20934-2 0  9990
2 64633  88.9911 273.4694 0109302 166.2304 194.1907 14.12598664 92426
CZ-6A DEB
1 64633U 24140ADX 26188.23439233  .00002762  00000-0  14034-2 0  9998
2 64633  88.9910 273.3573 0109420 163.1566 197.3301 14.12603672 92561
CZ-6A DEB
1 64633U 24140ADX 26188.23439233  .00002762  00000-0  14034-2 0  9998
2 64633  88.9910 273.3573 0109420 163.1566 197.3301 14.12603672 92561
CZ-6A DEB
1 64633U 24140ADX 26189.50945270  .00002497  00000-0  12676-2 0  9997
2 64633  88.9917 273.2132 0109577 159.2402 201.3287 14.12610072 92747
CZ-6A DEB
1 64633U 24140ADX 26189.50945270  .00002497  00000-0  12676-2 0  9997
2 64633  88.9917 273.2132 0109577 159.2402 201.3287 14.12610072 92747
CZ-6A DEB
1 64633U 24140ADX 26189.50945270  .00002497  00000-0  12676-2 0  9997
2 64633  88.9917 273.2132 0109577 159.2402 201.3287 14.12610072 92747
CZ-6A DEB
1 64633U 24140ADX 26191.20952444  .00002305  00000-0  11691-2 0  9992
2 64633  88.9923 273.0211 0109778 153.9694 206.7072 14.12617932 92986
CZ-6A DEB
1 64633U 24140ADX 26192.20122874  .00001892  00000-0  95792-3 0  9994
2 64633  88.9925 272.9090 0109891 150.8792 209.8584 14.12621340 93129
CZ-6A DEB
1 64633U 24140ADX 26192.20122874  .00001892  00000-0  95792-3 0  9994
2 64633  88.9925 272.9089 0109891 150.8792 209.8584 14.12621340 93127
CZ-6A DEB
1 64633U 24140ADX 26192.20122874  .00001892  00000-0  95792-3 0  9994
2 64633  88.9925 272.9090 0109891 150.8792 209.8584 14.12621340 93129
CZ-6A DEB
1 64633U 24140ADX 26193.68877956  .00001702  00000-0  86081-3 0  9996
2 64633  88.9926 272.7411 0110027 146.2620 214.5633 14.12626446 93330
CZ-6A DEB
1 64633U 24140ADX 26194.18462903  .00001630  00000-0  82422-3 0  9999
2 64633  88.9923 272.6848 0110073 144.6948 216.1593 14.12627816 93409
CZ-6A DEB
1 64633U 24140ADX 26194.18462903  .00001630  00000-0  82422-3 0  9999
2 64633  88.9923 272.6848 0110073 144.6948 216.1593 14.12627816 93409
CZ-6A DEB
1 64633U 24140ADX 26195.17632539  .00001544  00000-0  77998-3 0  9999
2 64633  88.9922 272.5728 0110158 141.6027 219.3066 14.12630770 93541
CZ-6A DEB
1 64633U 24140ADX 26195.17632540  .00001544  00000-0  77998-3 0  9991
2 64633  88.9922 272.5728 0110158 141.6027 219.3066 14.12630770 93541
CZ-6A DEB
1 64633U 24140ADX 26195.67217258  .00001523  00000-0  76926-3 0  9998
2 64633  88.9921 272.5168 0110186 140.0681 220.8676 14.12632235 93618
CZ-6A DEB
1 64633U 24140ADX 26195.67217259  .00001523  00000-0  76926-3 0  9999
2 64633  88.9921 272.5168 0110186 140.0681 220.8676 14.12632235 93618
CZ-6A DEB
1 64633U 24140ADX 26196.16801920  .00001469  00000-0  74156-3 0  9990
2 64633  88.9921 272.4608 0110213 138.5330 222.4285 14.12633545 93686
CZ-6A DEB
1 64633U 24140ADX 26196.52219475  .00001580  00000-0  79805-3 0  9998
2 64633  88.9920 272.4210 0110236 137.4400 223.5396 14.12634983 93733
CZ-6A DEB
1 64633U 24140ADX 26196.52219475  .00001580  00000-0  79805-3 0  9998
2 64633  88.9920 272.4210 0110236 137.4400 223.5396 14.12634983 93733
CZ-6A DEB
1 64633U 24140ADX 26197.15971043  .00001420  00000-0  71639-3 0  9994
2 64633  88.9920 272.3492 0110261 135.4830 225.5282 14.12636247 93828
CZ-6A DEB
1 64633U 24140ADX 26197.15971043  .00001420  00000-0  71639-3 0  9994
2 64633  88.9920 272.3492 0110261 135.4830 225.5282 14.12636247 93828
CZ-6A DEB
1 64633U 24140ADX 26197.65555493  .00001496  00000-0  75556-3 0  9991
2 64633  88.9921 272.2931 0110151 133.9380 227.0961 14.12637899 93899
CZ-6A DEB
1 64633U 24140ADX 26198.15139921  .00001482  00000-0  74833-3 0  9993
2 64633  88.9918 272.2373 0110270 132.4324 228.6254 14.12639206 93963
CZ-6A DEB
1 64633U 24140ADX 26198.15139922  .00001482  00000-0  74833-3 0  9994
2 64633  88.9918 272.2373 0110270 132.4324 228.6254 14.12639206 93963
CZ-6A DEB
1 64633U 24140ADX 26198.64724242  .00001458  00000-0  73587-3 0  9991
2 64633  88.9922 272.1813 0110191 130.8688 230.2112 14.12640634 94031
CZ-6A DEB
1 64633U 24140ADX 26198.64724242  .00001458  00000-0  73587-3 0  9991
2 64633  88.9922 272.1813 0110191 130.8688 230.2112 14.12640634 94031
CZ-6A DEB
1 64633U 24140ADX 26199.14308544  .00001480  00000-0  74736-3 0  9992
2 64633  88.9923 272.1255 0110225 129.3147 231.7875 14.12642144 94101
CZ-6A DEB
1 64633U 24140ADX 26200.13476902  .00001479  00000-0  74657-3 0  9998
2 64633  88.9923 272.0136 0110236 126.2528 234.8907 14.12645020 94240
CZ-6A DEB
1 64633U 24140ADX 26200.63060986  .00001439  00000-0  72591-3 0  9995
2 64633  88.9922 271.9575 0110229 124.7342 236.4285 14.12646225 94316
CZ-6A DEB
1 64633U 24140ADX 26200.63060987  .00001439  00000-0  72591-3 0  9996
2 64633  88.9922 271.9575 0110229 124.7342 236.4285 14.12646225 94316
CZ-6A DEB
1 64633U 24140ADX 26201.19728466  .00001554  00000-0  78456-3 0  9995
2 64633  88.9922 271.8936 0110231 122.9717 238.2125 14.12648364 94392
CZ-6A DEB
1 64633U 24140ADX 26201.48062116  .00001584  00000-0  80016-3 0  9998
2 64633  88.9922 271.8615 0110224 122.1055 239.0888 14.12649449 94430
CZ-6A DEB
1 64633U 24140ADX 26202.61396455  .00001981  00000-0  10024-2 0  9992
2 64633  88.9922 271.7336 0110198 118.6071 242.6255 14.12655470 94593
CZ-6A DEB
1 64633U 24140ADX 26203.60563574  .00002113  00000-0  10698-2 0  9995
2 64633  88.9922 271.6216 0110164 115.5479 245.7146 14.12660014 94739
CZ-6A DEB
1 64633U 24140ADX 26204.17230358  .00002296  00000-0  11629-2 0  9996
2 64633  88.9921 271.5576 0110124 113.7966 247.4813 14.12663197 94817
CZ-6A DEB
1 64633U 24140ADX 26204.59730267  .00002371  00000-0  12012-2 0  9997
2 64633  88.9924 271.5099 0110107 112.4926 248.7962 14.12665616 94876
CZ-6A DEB
1 64633U 24140ADX 26204.59730268  .00002371  00000-0  12012-2 0  9998
2 64633  88.9924 271.5099 0110107 112.4926 248.7962 14.12665616 94876
CZ-6A DEB
1 64633U 24140ADX 26204.95146922  .00002796  00000-0  14175-2 0  9999
2 64633  88.9924 271.4695 0110103 111.4410 249.8562 14.12668268 94920
CZ-6A DEB
1 64633U 24140ADX 26205.16396741  .00003121  00000-0  15832-2 0  9993
2 64633  88.9925 271.4456 0110090 110.7853 250.5169 14.12670967 94958
CZ-6A DEB
1 64633U 24140ADX 26206.15562608  .00003019  00000-0  15310-2 0  9997
2 64633  88.9926 271.3335 0110052 107.7167 253.6068 14.12676670 95091
CZ-6A DEB
1 64633U 24140ADX 26207.14728032  .00002927  00000-0  14840-2 0  9996
2 64633  88.9926 271.2215 0109998 104.6372 256.7040 14.12682136 95232
CZ-6A DEB
1 64633U 24140ADX 26208.13892997  .00002785  00000-0  14115-2 0  9995
2 64633  88.9926 271.1096 0109938 101.5623 259.7930 14.12687208 95378
CZ-6A DEB
1 64633U 24140ADX 26208.63475313  .00002861  00000-0  14503-2 0  9995
2 64633  88.9927 271.0537 0109885 100.0261 261.3346 14.12690069 95448
CZ-6A DEB
1 64633U 24140ADX 26208.63475313  .00002861  00000-0  14503-2 0  9995
2 64633  88.9927 271.0537 0109885 100.0261 261.3346 14.12690069 95448
CZ-6A DEB
1 64633U 24140ADX 26208.91808002  .00002902  00000-0  14714-2 0  9991
2 64633  88.9927 271.0219 0109862  99.1531 262.2103 14.12691695 95489
CZ-6A DEB
1 64633U 24140ADX 26209.62639631  .00002739  00000-0  13886-2 0  9997
2 64633  88.9926 270.9419 0109792  96.9539 264.4150 14.12694792 95581
CZ-6A DEB
1 64633U 24140ADX 26210.90135938  .00002752  00000-0  13951-2 0  9999
2 64633  88.9924 270.7983 0109639  92.9895 268.3843 14.12701557 95764
CZ-6A DEB
1 64633U 24140ADX 26211.11385246  .00002740  00000-0  13889-2 0  9999
2 64633  88.9924 270.7743 0109603  92.3269 269.0471 14.12702728 95797
CZ-6A DEB
1 64633U 24140ADX 26212.60129885  .00002704  00000-0  13705-2 0  9996
2 64633  88.9921 270.6065 0109359  87.7000 273.6702 14.12710463 96007
CZ-6A DEB
1 64633U 24140ADX 26212.60129886  .00002704  00000-0  13705-2 0  9997
2 64633  88.9921 270.6065 0109359  87.7000 273.6702 14.12710463 96007
CZ-6A DEB
1 64633U 24140ADX 26213.09711212  .00002514  00000-0  12737-2 0  9994
2 64633  88.9920 270.5506 0109285  86.1511 275.2161 14.12712530 96074
CZ-6A DEB
1 64633U 24140ADX 26214.58454686  .00002288  00000-0  11590-2 0  9992
2 64633  88.9919 270.3825 0108993  81.5155 279.8366 14.12718775 96289
CZ-6A DEB
1 64633U 24140ADX 26215.15118612  .00002381  00000-0  12063-2 0  9992
2 64633  88.9919 270.3186 0108945  79.7302 281.6146 14.12721891 96368
CZ-6A DEB
1 64633U 24140ADX 26217.13441446  .00001836  00000-0  92884-3 0  9990
2 64633  88.9922 270.0944 0108633  73.5307 287.7784 14.12729172 96648
CZ-6A DEB
1 64633U 24140ADX 26217.55939028  .00001719  00000-0  86921-3 0  9999
2 64633  88.9924 270.0465 0108545  72.1977 289.1016 14.12730538 96707
CZ-6A DEB
1 64633U 24140ADX 26218.55099904  .00001396  00000-0  70439-3 0  9998
2 64633  88.9924 269.9343 0108421  69.0857 292.1894 14.12733024 96840
CZ-6A DEB
1 64633U 24140ADX 26218.62182812  .00001387  00000-0  69988-3 0  9994
2 64633  88.9926 269.9264 0108399  68.8683 292.4048 14.12733233 96859
CZ-6A DEB
1 64633U 24140ADX 26219.11763162  .00001246  00000-0  62787-3 0  9996
2 64633  88.9926 269.8704 0108344  67.3173 293.9424 14.12734209 96921
CZ-6A DEB
1 64633U 24140ADX 26219.40094769  .00001187  00000-0  59778-3 0  9998
2 64633  88.9927 269.8384 0108296  66.4293 294.8223 14.12734678 96966
CZ-6A DEB
1 64633U 24140ADX 26220.10923728  .00001132  00000-0  56990-3 0  9996
2 64633  88.9928 269.7584 0108161  64.2066 297.0232 14.12736034 97068
CZ-6A DEB
1 64633U 24140ADX 26220.10923729  .00001132  00000-0  56990-3 0  9997
2 64633  88.9928 269.7584 0108161  64.2066 297.0232 14.12736034 97068
CZ-6A DEB
1 64633U 24140ADX 26220.60503955  .00001142  00000-0  57535-3 0  9994
2 64633  88.9929 269.7024 0108074  62.6496 298.5640 14.12736929 97130
CZ-6A DEB
1 64633U 24140ADX 26220.60503955  .00001142  00000-0  57535-3 0  9994
2 64633  88.9929 269.7024 0108074  62.6496 298.5640 14.12736929 97130
CZ-6A DEB
1 64633U 24140ADX 26221.10084093  .00001243  00000-0  62655-3 0  9998
2 64633  88.9929 269.6465 0108000  61.0928 300.1040 14.12738336 97206
CZ-6A DEB
1 64633U 24140ADX 26221.10084093  .00001243  00000-0  62655-3 0  9998
2 64633  88.9929 269.6465 0108000  61.0928 300.1040 14.12738336 97206
CZ-6A DEB
1 64633U 24140ADX 26221.59664178  .00001295  00000-0  65325-3 0  9993
2 64633  88.9929 269.5905 0107905  59.5349 301.6441 14.12739563 97277
CZ-6A DEB
1 64633U 24140ADX 26222.09244216  .00001289  00000-0  65037-3 0  9999
2 64633  88.9929 269.5346 0107819  57.9697 303.1909 14.12740648 97348
CZ-6A DEB
1 64633U 24140ADX 26222.58824155  .00001227  00000-0  61890-3 0  9994
2 64633  88.9926 269.4788 0107702  56.3445 304.7957 14.12741994 97412
CZ-6A DEB
1 64633U 24140ADX 26222.58824156  .00001227  00000-0  61890-3 0  9995
2 64633  88.9926 269.4788 0107702  56.3445 304.7957 14.12741994 97412
CZ-6A DEB
1 64633U 24140ADX 26223.08404091  .00001213  00000-0  61164-3 0  9992
2 64633  88.9926 269.4228 0107614  54.7759 306.3443 14.12742983 97487
CZ-6A DEB
1 64633U 24140ADX 26223.08404092  .00001213  00000-0  61164-3 0  9993
2 64633  88.9926 269.4228 0107614  54.7759 306.3443 14.12742983 97487
CZ-6A DEB
1 64633U 24140ADX 26223.57983966  .00001207  00000-0  60889-3 0  9995
2 64633  88.9927 269.3669 0107513  53.2070 307.8923 14.12744032 97558
CZ-6A DEB
1 64633U 24140ADX 26223.57983967  .00001207  00000-0  60889-3 0  9996
2 64633  88.9927 269.3669 0107513  53.2070 307.8923 14.12744032 97558
CZ-6A DEB
1 64633U 24140ADX 26224.07563771  .00001227  00000-0  61916-3 0  9993
2 64633  88.9926 269.3109 0107425  51.6355 309.4423 14.12745279 97621
CZ-6A DEB
1 64633U 24140ADX 26224.57143559  .00001141  00000-0  57498-3 0  9991
2 64633  88.9927 269.2550 0107314  50.0623 310.9931 14.12745848 97699
CZ-6A DEB
1 64633U 24140ADX 26225.06723334  .00001087  00000-0  54730-3 0  9996
2 64633  88.9926 269.1990 0107263  48.4923 312.5406 14.12746518 97760
CZ-6A DEB
1 64633U 24140ADX 26225.06723335  .00001087  00000-0  54730-3 0  9997
2 64633  88.9926 269.1990 0107263  48.4923 312.5406 14.12746518 97760
CZ-6A DEB
1 64633U 24140ADX 26226.05882623  .00001166  00000-0  58804-3 0  9997
2 64633  88.9926 269.0871 0107078  45.3412 315.6440 14.12749155 97908
CZ-6A DEB
1 64633U 24140ADX 26226.05882623  .00001166  00000-0  58804-3 0  9997
2 64633  88.9926 269.0871 0107078  45.3412 315.6439 14.12749155 97906
CZ-6A DEB
1 64633U 24140ADX 26226.55462190  .00001131  00000-0  57019-3 0  9994
2 64633  88.9925 269.0310 0106995  43.7691 317.1914 14.12750117 97973
CZ-6A DEB
1 64633U 24140ADX 26226.55462190  .00001131  00000-0  57019-3 0  9994
2 64633  88.9925 269.0310 0106995  43.7691 317.1914 14.12750117 97973
CZ-6A DEB
1 64633U 24140ADX 26228.11283354  .00001217  00000-0  61443-3 0  9992
2 64633  88.9924 268.8550 0106695  38.8064 322.0722 14.12754063 98192
CZ-6A DEB
1 64633U 24140ADX 26228.11283355  .00001217  00000-0  61443-3 0  9993
2 64633  88.9924 268.8550 0106695  38.8064 322.0722 14.12754063 98192
CZ-6A DEB
1 64633U 24140ADX 26228.53779959  .00001219  00000-0  61546-3 0  9995
2 64633  88.9924 268.8071 0106611  37.4536 323.4017 14.12754999 98254
CZ-6A DEB
1 64633U 24140ADX 26228.60862736  .00001286  00000-0  64948-3 0  9992
2 64633  88.9926 268.7992 0106594  37.2255 323.6259 14.12755454 98261
CZ-6A DEB
1 64633U 24140ADX 26229.52938502  .00001294  00000-0  65395-3 0  9995
2 64633  88.9926 268.6954 0106377  34.2859 326.5133 14.12757709 98396
CZ-6A DEB
1 64633U 24140ADX 26230.09600406  .00001450  00000-0  73349-3 0  9990
2 64633  88.9926 268.6314 0106273  32.4725 328.2939 14.12759985 98473
CZ-6A DEB
1 64633U 24140ADX 26230.52096752  .00001629  00000-0  82512-3 0  9991
2 64633  88.9926 268.5834 0106197  31.1170 329.6246 14.12762155 98530
CZ-6A DEB
1 64633U 24140ADX 26231.08758491  .00001746  00000-0  88476-3 0  9993
2 64633  88.9927 268.5195 0106082  29.2996 331.4082 14.12764395 98614
CZ-6A DEB
1 64633U 24140ADX 26231.08758491  .00001746  00000-0  88476-3 0  9993
2 64633  88.9927 268.5195 0106082  29.2996 331.4082 14.12764395 98614
CZ-6A DEB
1 64633U 24140ADX 26232.07916266  .00001892  00000-0  95960-3 0  9997
2 64633  88.9927 268.4076 0105876  26.1190 334.5283 14.12768324 98751
CZ-6A DEB
1 64633U 24140ADX 26232.36246999  .00001954  00000-0  99151-3 0  9993
2 64633  88.9929 268.3759 0105778  25.1997 335.4296 14.12769576 98793
CZ-6A DEB
1 64633U 24140ADX 26233.07073718  .00002051  00000-0  10411-2 0  9999
2 64633  88.9929 268.2959 0105649  22.9236 337.6615 14.12772635 98892
CZ-6A DEB
1 64633U 24140ADX 26233.84982948  .00002115  00000-0  10741-2 0  9995
2 64633  88.9928 268.2079 0105505  20.4325 340.1033 14.12775816 99008
CZ-6A DEB
1 64633U 24140ADX 26234.55809346  .00002141  00000-0  10875-2 0  9991
2 64633  88.9928 268.1280 0105364  18.1496 342.3405 14.12778698 99106
CZ-6A DEB
1 64633U 24140ADX 26235.05387716  .00002171  00000-0  11026-2 0  9991
2 64633  88.9928 268.0721 0105277  16.5510 343.9069 14.12780871 99173
CZ-6A DEB
1 64633U 24140ADX 26236.04544193  .00002193  00000-0  11142-2 0  9998
2 64633  88.9929 267.9602 0105105  13.3588 347.0341 14.12785227 99314
CZ-6A DEB
1 64633U 24140ADX 26236.54122302  .00002249  00000-0  11430-2 0  9999
2 64633  88.9927 267.9043 0105022  11.7773 348.5832 14.12787733 99389
CZ-6A DEB
1 64633U 24140ADX 26237.03700349  .00002353  00000-0  11965-2 0  9996
2 64633  88.9929 267.8484 0104858  10.2185 350.1098 14.12790209 99459
CZ-6A DEB
1 64633U 24140ADX 26238.09938595  .00002556  00000-0  13004-2 0  9990
2 64633  88.9928 267.7286 0104615   6.7322 353.5240 14.12796124 99606
CZ-6A DEB
1 64633U 24140ADX 26238.09938595  .00002556  00000-0  13004-2 0  9990
2 64633  88.9928 267.7286 0104615   6.7322 353.5240 14.12796124 99606
CZ-6A DEB
1 64633U 24140ADX 26239.51589000  .00002864  00000-0  14578-2 0  9990
2 64633  88.9922 267.5688 0104357   2.1293 358.0316 14.12804126 99802
CZ-6A DEB
1 64633U 24140ADX 26239.51589000  .00002864  00000-0  14578-2 0  9990
2 64633  88.9922 267.5688 0104357   2.1293 358.0316 14.12804126 99802
CZ-6A DEB
1 64633U 24140ADX 26239.87001497  .00002838  00000-0  14445-2 0  9992
2 64633  88.9925 267.5291 0104317   0.9829 359.1542 14.12805785 99852
CZ-6A DEB
1 64633U 24140ADX 26240.08248961  .00002418  00000-0  12302-2 0  9990
2 64633  88.9923 267.5050 0104256   0.2847 359.8380 14.12805653 99882
CZ-6A DEB
1 64633U 24140ADX 26240.08248961  .00002418  00000-0  12302-2 0  9990
2 64633  88.9923 267.5050 0104256   0.2847 359.8380 14.12805653 99882
CZ-6A DEB
1 64633U 24140ADX 26241.49898367  .00002715  00000-0  13821-2 0  9994
2 64633  88.9920 267.3451 0104023 355.6499   4.3771 14.12813639100088
CZ-6A DEB
1 64633U 24140ADX 26241.49898367  .00002715  00000-0  13821-2 0  9994
2 64633  88.9920 267.3451 0104023 355.6499   4.3771 14.12813639100088
CZ-6A DEB
1 64633U 24140ADX 26242.49052507  .00002501  00000-0  12728-2 0  9991
2 64633  88.9919 267.2331 0103859 352.4197   7.5413 14.12818170100227
CZ-6A DEB
1 64633U 24140ADX 26242.49052507  .00002501  00000-0  12728-2 0  9991
2 64633  88.9919 267.2331 0103859 352.4197   7.5413 14.12818170100227
CZ-6A DEB
1 64633U 24140ADX 26243.48206326  .00002361  00000-0  12011-2 0  9990
2 64633  88.9919 267.1213 0103727 349.1805  10.7149 14.12822876100363
CZ-6A DEB
1 64633U 24140ADX 26243.55288730  .00002348  00000-0  11945-2 0  9997
2 64633  88.9919 267.1132 0103715 348.9577  10.9332 14.12823222100376
CZ-6A DEB
1 64633U 24140ADX 26243.55288731  .00002348  00000-0  11945-2 0  9998
2 64633  88.9919 267.1132 0103715 348.9577  10.9332 14.12823222100376
CZ-6A DEB
1 64633U 24140ADX 26244.47359876  .00002116  00000-0  10762-2 0  9998
2 64633  88.9919 267.0091 0103604 345.9966  13.8351 14.12827024100507
CZ-6A DEB
1 64633U 24140ADX 26244.47359877  .00002116  00000-0  10762-2 0  9999
2 64633  88.9919 267.0091 0103604 345.9966  13.8351 14.12827024100507
