CZ-6A R/B DEB
1 64632U 24140ADW 25177.11601297  .00001747  00000-0  71386-3 0  9998
2 64632  89.1605 320.5621 0068412 316.8749  42.7097 14.25700806 40994
TBA - TO BE ASSIGNED
1 64632U 24140ADW 25177.11601297  .00001747  00000-0  71386-3 0  9998
2 64632  89.1605 320.5621 0068412 316.8749  42.7097 14.25700806 40994
CZ-6A R/B DEB
1 64632U 24140ADW 25181.81840909  .00001737  00000-0  70960-3 0  9991
2 64632  89.1607 320.1101 0068240 300.7648  58.6838 14.25716706 41664
CZ-6A R/B DEB
1 64632U 24140ADW 25181.81840909  .00001737  00000-0  70960-3 0  9991
2 64632  89.1607 320.1101 0068240 300.7648  58.6838 14.25716706 41664
CZ-6A R/B DEB
1 64632U 24140ADW 25183.36246930  .00001846  00000-0  75441-3 0  9997
2 64632  89.1608 319.9617 0068224 295.4540  63.9605 14.25722808 41881
CZ-6A R/B DEB
1 64632U 24140ADW 25183.36246930  .00001846  00000-0  75441-3 0  9997
2 64632  89.1608 319.9617 0068224 295.4540  63.9605 14.25722808 41881
CZ-6A R/B DEB
1 64632U 24140ADW 25184.34504992  .00001920  00000-0  78466-3 0  9994
2 64632  89.1606 319.8670 0068223 292.0738  67.3220 14.25726923 42028
CZ-6A R/B DEB
1 64632U 24140ADW 25186.31020393  .00002104  00000-0  86014-3 0  9994
2 64632  89.1604 319.6779 0068246 285.3271  74.0387 14.25735742 42305
CZ-6A R/B DEB
1 64632U 24140ADW 25186.31020393  .00002104  00000-0  86014-3 0  9994
2 64632  89.1604 319.6779 0068246 285.3271  74.0387 14.25735742 42305
CZ-6A R/B DEB
1 64632U 24140ADW 25189.32810102  .00001970  00000-0  80477-3 0  9990
2 64632  89.1607 319.3880 0068360 274.9791  84.3601 14.25747559 42735
CZ-6A R/B DEB
1 64632U 24140ADW 25189.32810102  .00001970  00000-0  80477-3 0  9990
2 64632  89.1607 319.3880 0068360 274.9791  84.3601 14.25747559 42735
CZ-6A R/B DEB
1 64632U 24140ADW 25190.38085100  .00001861  00000-0  75971-3 0  9992
2 64632  89.1606 319.2865 0068409 271.3845  87.9512 14.25751291 42885
CZ-6A R/B DEB
1 64632U 24140ADW 25190.38085100  .00001861  00000-0  75971-3 0  9992
2 64632  89.1606 319.2865 0068409 271.3845  87.9512 14.25751291 42885
CZ-6A R/B DEB
1 64632U 24140ADW 25193.32853796  .00001938  00000-0  79120-3 0  9998
2 64632  89.1607 319.0029 0068667 261.3090  98.0321 14.25763292 43306
CZ-6A R/B DEB
1 64632U 24140ADW 25193.32853796  .00001938  00000-0  79120-3 0  9998
2 64632  89.1607 319.0029 0068667 261.3090  98.0321 14.25763292 43306
CZ-6A R/B DEB
1 64632U 24140ADW 25195.29365236  .00001948  00000-0  79518-3 0  9995
2 64632  89.1607 318.8138 0068908 254.6371 104.7201 14.25770784 43585
CZ-6A R/B DEB
1 64632U 24140ADW 25195.29365236  .00001948  00000-0  79518-3 0  9995
2 64632  89.1607 318.8138 0068908 254.6371 104.7201 14.25770784 43585
CZ-6A R/B DEB
1 64632U 24140ADW 25196.76748141  .00002110  00000-0  86135-3 0  9993
2 64632  89.1607 318.6719 0069102 249.6318 109.7443 14.25777622 43794
CZ-6A R/B DEB
1 64632U 24140ADW 25196.76748141  .00002110  00000-0  86135-3 0  9993
2 64632  89.1607 318.6719 0069102 249.6318 109.7443 14.25777622 43794
CZ-6A R/B DEB
1 64632U 24140ADW 25197.32893976  .00002019  00000-0  82385-3 0  9994
2 64632  89.1607 318.6182 0069116 247.7153 111.6702 14.25779176 43874
CZ-6A R/B DEB
1 64632U 24140ADW 25199.29403303  .00002257  00000-0  92128-3 0  9993
2 64632  89.1604 318.4287 0069388 241.0634 118.3589 14.25789179 44150
CZ-6A R/B DEB
1 64632U 24140ADW 25199.29403303  .00002257  00000-0  92128-3 0  9993
2 64632  89.1604 318.4287 0069388 241.0634 118.3589 14.25789179 44150
CZ-6A R/B DEB
1 64632U 24140ADW 25200.27657568  .00002279  00000-0  93014-3 0  9997
2 64632  89.1601 318.3343 0069594 237.6922 121.7519 14.25794014 44299
CZ-6A R/B DEB
1 64632U 24140ADW 25200.76784569  .00002356  00000-0  96168-3 0  9992
2 64632  89.1600 318.2868 0069688 236.0468 123.4089 14.25796722 44368
CZ-6A R/B DEB
1 64632U 24140ADW 25200.76784569  .00002356  00000-0  96168-3 0  9992
2 64632  89.1600 318.2868 0069688 236.0468 123.4089 14.25796722 44368
CZ-6A R/B DEB
1 64632U 24140ADW 25201.75038342  .00002381  00000-0  97138-3 0  9999
2 64632  89.1601 318.1922 0069855 232.7558 126.7250 14.25801819 44504
CZ-6A DEB
1 64632U 24140ADW 25202.31183252  .00002513  00000-0  10258-2 0  9997
2 64632  89.1604 318.1383 0069878 230.8826 128.6142 14.25805004 44589
CZ-6A DEB
1 64632U 24140ADW 25205.25941957  .00003503  00000-0  14306-2 0  9995
2 64632  89.1610 317.8547 0070398 221.1015 138.4864 14.25824586 45000
CZ-6A DEB
1 64632U 24140ADW 25205.25941957  .00003503  00000-0  14306-2 0  9995
2 64632  89.1610 317.8547 0070398 221.1015 138.4864 14.25824586 45000
CZ-6A DEB
1 64632U 24140ADW 25207.29463587  .00003381  00000-0  13798-2 0  9997
2 64632  89.1609 317.6586 0070714 214.3601 145.3009 14.25838167 45295
CZ-6A DEB
1 64632U 24140ADW 25207.29463587  .00003381  00000-0  13798-2 0  9997
2 64632  89.1609 317.6586 0070714 214.3601 145.3009 14.25838167 45295
CZ-6A DEB
1 64632U 24140ADW 25208.27714679  .00003286  00000-0  13403-2 0  9994
2 64632  89.1611 317.5644 0070907 211.1425 148.5558 14.25844930 45430
CZ-6A DEB
1 64632U 24140ADW 25208.76840061  .00003421  00000-0  13957-2 0  9998
2 64632  89.1606 317.5168 0070990 209.5224 150.1953 14.25848815 45507
CZ-6A DEB
1 64632U 24140ADW 25208.76840061  .00003421  00000-0  13957-2 0  9998
2 64632  89.1606 317.5168 0070990 209.5224 150.1953 14.25848815 45507
CZ-6A DEB
1 64632U 24140ADW 25209.25965358  .00003221  00000-0  13134-2 0  9995
2 64632  89.1609 317.4700 0071023 207.8953 151.8426 14.25851559 45578
CZ-6A DEB
1 64632U 24140ADW 25210.03162043  .00003315  00000-0  13518-2 0  9993
2 64632  89.1605 317.3954 0071176 205.4043 154.3646 14.25856914 45681
CZ-6A DEB
1 64632U 24140ADW 25210.03162043  .00003315  00000-0  13518-2 0  9993
2 64632  89.1605 317.3954 0071176 205.4043 154.3646 14.25856914 45681
CZ-6A DEB
1 64632U 24140ADW 25211.50536787  .00003604  00000-0  14695-2 0  9994
2 64632  89.1605 317.2539 0071394 200.5517 159.2802 14.25867589 45894
CZ-6A DEB
1 64632U 24140ADW 25212.27732559  .00003644  00000-0  14854-2 0  9995
2 64632  89.1601 317.1794 0071539 198.0833 161.7815 14.25873511 46003
CZ-6A DEB
1 64632U 24140ADW 25213.04928121  .00003589  00000-0  14628-2 0  9990
2 64632  89.1595 317.1053 0071687 195.6075 164.2909 14.25878881 46117
CZ-6A DEB
1 64632U 24140ADW 25213.04928121  .00003589  00000-0  14628-2 0  9990
2 64632  89.1595 317.1053 0071687 195.6075 164.2909 14.25878881 46117
CZ-6A DEB
1 64632U 24140ADW 25214.45282833  .00003468  00000-0  14124-2 0  9996
2 64632  89.1599 316.9703 0071882 191.0123 168.9501 14.25889453 46319
CZ-6A DEB
1 64632U 24140ADW 25214.45282833  .00003468  00000-0  14124-2 0  9996
2 64632  89.1599 316.9703 0071882 191.0123 168.9501 14.25889453 46319
CZ-6A DEB
1 64632U 24140ADW 25216.27742657  .00003173  00000-0  12912-2 0  9999
2 64632  89.1600 316.7945 0072156 185.0824 174.9646 14.25901172 46572
CZ-6A DEB
1 64632U 24140ADW 25216.27742657  .00003173  00000-0  12912-2 0  9999
2 64632  89.1600 316.7945 0072156 185.0824 174.9646 14.25901172 46572
CZ-6A DEB
1 64632U 24140ADW 25217.25989626  .00003134  00000-0  12753-2 0  9997
2 64632  89.1601 316.6998 0072302 181.9092 178.1837 14.25907468 46713
CZ-6A DEB
1 64632U 24140ADW 25218.52306557  .00002912  00000-0  11842-2 0  9995
2 64632  89.1601 316.5785 0072532 177.8554 182.2965 14.25914838 46894
CZ-6A DEB
1 64632U 24140ADW 25219.01429663  .00002963  00000-0  12048-2 0  9999
2 64632  89.1604 316.5314 0072621 176.2714 183.9036 14.25917702 46963
CZ-6A DEB
1 64632U 24140ADW 25219.71605306  .00003031  00000-0  12321-2 0  9997
2 64632  89.1608 316.4639 0072717 174.0348 186.1729 14.25922130 47068
CZ-6A DEB
1 64632U 24140ADW 25219.71605306  .00003031  00000-0  12321-2 0  9997
2 64632  89.1608 316.4639 0072717 174.0348 186.1729 14.25922131 47069
CZ-6A DEB
1 64632U 24140ADW 25220.69851022  .00002909  00000-0  11820-2 0  9990
2 64632  89.1608 316.3694 0072862 170.8804 189.3733 14.25926634 47209
CZ-6A DEB
1 64632U 24140ADW 25220.97921088  .00003531  00000-0  14361-2 0  9996
2 64632  89.1607 316.3425 0072875 169.9751 190.2917 14.25930507 47247
CZ-6A DEB
1 64632U 24140ADW 25220.97921088  .00003531  00000-0  14361-2 0  9996
2 64632  89.1607 316.3425 0072875 169.9751 190.2917 14.25930507 47247
CZ-6A DEB
1 64632U 24140ADW 25222.52305818  .00003730  00000-0  15167-2 0  9992
2 64632  89.1610 316.1940 0073109 165.0558 195.2820 14.25941340 47463
CZ-6A DEB
1 64632U 24140ADW 25222.52305818  .00003730  00000-0  15167-2 0  9992
2 64632  89.1610 316.1940 0073109 165.0558 195.2820 14.25941340 47463
CZ-6A DEB
1 64632U 24140ADW 25223.22480260  .00003787  00000-0  15395-2 0  9990
2 64632  89.1607 316.1266 0073179 162.8221 197.5475 14.25946761 47563
CZ-6A DEB
1 64632U 24140ADW 25224.20724059  .00003610  00000-0  14672-2 0  9998
2 64632  89.1605 316.0321 0073286 159.7017 200.7117 14.25953608 47703
CZ-6A DEB
1 64632U 24140ADW 25224.20724059  .00003610  00000-0  14672-2 0  9998
2 64632  89.1605 316.0321 0073286 159.7017 200.7117 14.25953608 47703
CZ-6A DEB
1 64632U 24140ADW 25226.24227606  .00003237  00000-0  13145-2 0  9999
2 64632  89.1600 315.8362 0073501 153.2369 207.2648 14.25966416 47992
CZ-6A DEB
1 64632U 24140ADW 25226.24227606  .00003237  00000-0  13145-2 0  9999
2 64632  89.1600 315.8362 0073501 153.2369 207.2648 14.25966416 47992
CZ-6A DEB
1 64632U 24140ADW 25227.22469990  .00003076  00000-0  12485-2 0  9999
2 64632  89.1599 315.7416 0073618 150.0967 210.4464 14.25972694 48130
CZ-6A DEB
1 64632U 24140ADW 25228.20711937  .00002692  00000-0  10918-2 0  9991
2 64632  89.1598 315.6470 0073706 146.9697 213.6133 14.25978058 48273
CZ-6A DEB
1 64632U 24140ADW 25228.20711937  .00002692  00000-0  10918-2 0  9991
2 64632  89.1598 315.6470 0073706 146.9697 213.6133 14.25978058 48273
CZ-6A DEB
1 64632U 24140ADW 25229.96143067  .00002757  00000-0  11178-2 0  9999
2 64632  89.1598 315.4777 0073842 141.4062 219.2443 14.25987562 48522
CZ-6A DEB
1 64632U 24140ADW 25229.96143067  .00002757  00000-0  11178-2 0  9999
2 64632  89.1598 315.4777 0073842 141.4062 219.2443 14.25987562 48522
CZ-6A DEB
1 64632U 24140ADW 25231.22452661  .00002692  00000-0  10913-2 0  9998
2 64632  89.1599 315.3559 0073857 137.5038 223.1906 14.25994250 48705
CZ-6A DEB
1 64632U 24140ADW 25231.71572891  .00002812  00000-0  11398-2 0  9992
2 64632  89.1604 315.3087 0073862 135.9600 224.7510 14.25997202 48776
CZ-6A DEB
1 64632U 24140ADW 25232.20692974  .00003010  00000-0  12204-2 0  9990
2 64632  89.1601 315.2610 0073853 134.3736 226.3540 14.26000733 48841
CZ-6A DEB
1 64632U 24140ADW 25233.18932903  .00002713  00000-0  10995-2 0  9991
2 64632  89.1595 315.1660 0073870 131.2792 229.4795 14.26005282 48989
CZ-6A DEB
1 64632U 24140ADW 25235.64530919  .00002497  00000-0  10111-2 0  9994
2 64632  89.1590 314.9302 0073932 123.5625 237.2657 14.26018128 49339
CZ-6A DEB
1 64632U 24140ADW 25236.20667285  .00002574  00000-0  10424-2 0  9997
2 64632  89.1592 314.8760 0073910 121.8004 239.0416 14.26021148 49414
CZ-6A DEB
1 64632U 24140ADW 25238.17143433  .00003118  00000-0  12635-2 0  9990
2 64632  89.1586 314.6867 0073880 115.6142 245.2710 14.26033374 49693
CZ-6A DEB
1 64632U 24140ADW 25241.18870403  .00004318  00000-0  17512-2 0  9991
2 64632  89.1586 314.3961 0073769 106.1183 254.8148 14.26058597 50126
CZ-6A DEB
1 64632U 24140ADW 25241.46937733  .00004281  00000-0  17362-2 0  9994
2 64632  89.1582 314.3690 0073689 105.2106 255.7251 14.26060776 50168
CZ-6A DEB
1 64632U 24140ADW 25242.94290199  .00005270  00000-0  21381-2 0  9991
2 64632  89.1582 314.2269 0073649 100.5913 260.3587 14.26076689 50376
CZ-6A DEB
1 64632U 24140ADW 25243.15340409  .00005185  00000-0  21036-2 0  9997
2 64632  89.1585 314.2067 0073616  99.9179 261.0335 14.26078690 50401
CZ-6A DEB
1 64632U 24140ADW 25243.64457451  .00005442  00000-0  22078-2 0  9990
2 64632  89.1586 314.1593 0073580  98.3638 262.5906 14.26084113 50472
CZ-6A DEB
1 64632U 24140ADW 25244.20591026  .00005611  00000-0  22761-2 0  9997
2 64632  89.1585 314.1050 0073548  96.5814 264.3759 14.26089844 50550
CZ-6A DEB
1 64632U 24140ADW 25246.17056160  .00007277  00000-0  29521-2 0  9991
2 64632  89.1589 313.9155 0073418  90.3447 270.6159 14.26115992 50836
CZ-6A DEB
1 64632U 24140ADW 25247.15287464  .00004893  00000-0  19834-2 0  9990
2 64632  89.1590 313.8208 0073326  87.2441 273.7143 14.26123084 50976
CZ-6A DEB
1 64632U 24140ADW 25249.67879127  .00004521  00000-0  18322-2 0  9991
2 64632  89.1589 313.5778 0072958  79.2203 281.7192 14.26145666 51334
CZ-6A DEB
1 64632U 24140ADW 25251.15222349  .00003343  00000-0  13534-2 0  9996
2 64632  89.1585 313.4361 0072690  74.5206 286.4000 14.26156047 51549
CZ-6A DEB
1 64632U 24140ADW 25252.13450634  .00002512  00000-0  10154-2 0  9997
2 64632  89.1580 313.3411 0072607  71.3892 289.5169 14.26160952 51688
CZ-6A DEB
1 64632U 24140ADW 25252.90629731  .00002260  00000-0  91289-3 0  9997
2 64632  89.1572 313.2661 0072567  68.9478 291.9456 14.26164385 51794
CZ-6A DEB
1 64632U 24140ADW 25253.11678516  .00002232  00000-0  90148-3 0  9998
2 64632  89.1581 313.2462 0072488  68.2079 292.6807 14.26165573 51827
CZ-6A DEB
1 64632U 24140ADW 25255.15149340  .00002148  00000-0  86758-3 0  9990
2 64632  89.1580 313.0501 0072134  61.6762 299.1683 14.26175607 52118
CZ-6A DEB
1 64632U 24140ADW 25257.11602494  .00002201  00000-0  88924-3 0  9999
2 64632  89.1578 312.8598 0071825  55.3703 305.4235 14.26184849 52391
CZ-6A DEB
1 64632U 24140ADW 25258.09828574  .00002339  00000-0  94526-3 0  9993
2 64632  89.1573 312.7644 0071728  52.2367 308.5296 14.26189591 52537
CZ-6A DEB
1 64632U 24140ADW 25260.13295424  .00002836  00000-0  11474-2 0  9995
2 64632  89.1574 312.5678 0071389  45.6380 315.0631 14.26202086 52820
CZ-6A DEB
1 64632U 24140ADW 25261.11520194  .00002731  00000-0  11049-2 0  9991
2 64632  89.1575 312.4731 0071233  42.4398 318.2273 14.26207287 52962
CZ-6A DEB
1 64632U 24140ADW 25262.09744547  .00002708  00000-0  10954-2 0  9997
2 64632  89.1575 312.3784 0071067  39.2423 321.3891 14.26212733 53107
CZ-6A DEB
1 64632U 24140ADW 25262.86920597  .00002850  00000-0  11531-2 0  9993
2 64632  89.1574 312.3043 0070917  36.6452 323.9561 14.26217047 53217
CZ-6A DEB
1 64632U 24140ADW 25264.13208086  .00003616  00000-0  14644-2 0  9996
2 64632  89.1573 312.1821 0070726  32.5015 328.0504 14.26226185 53391
CZ-6A DEB
1 64632U 24140ADW 25265.11431063  .00004583  00000-0  18576-2 0  9990
2 64632  89.1571 312.0874 0070572  29.2865 331.2255 14.26235470 53533
CZ-6A DEB
1 64632U 24140ADW 25266.86827564  .00005620  00000-0  22786-2 0  9999
2 64632  89.1567 311.9181 0070230  23.4414 336.9955 14.26253115 53786
CZ-6A DEB
1 64632U 24140ADW 25267.07875029  .00005924  00000-0  24020-2 0  9992
2 64632  89.1567 311.8978 0070185  22.7595 337.6684 14.26255105 53812
CZ-6A DEB
1 64632U 24140ADW 25267.56985574  .00005247  00000-0  21271-2 0  9996
2 64632  89.1560 311.8496 0070064  21.0797 339.3259 14.26258503 53881
CZ-6A DEB
1 64632U 24140ADW 25269.11331750  .00005374  00000-0  21786-2 0  9992
2 64632  89.1560 311.7003 0069825  15.9742 344.3630 14.26275317 54106
CZ-6A DEB
1 64632U 24140ADW 25270.09551201  .00004952  00000-0  20071-2 0  9993
2 64632  89.1560 311.6051 0069663  12.6740 347.6184 14.26283975 54244
CZ-6A DEB
1 64632U 24140ADW 25271.07770091  .00004967  00000-0  20131-2 0  9995
2 64632  89.1563 311.5103 0069532   9.4846 350.7641 14.26292823 54380
CZ-6A DEB
1 64632U 24140ADW 25271.56879263  .00005231  00000-0  21199-2 0  9990
2 64632  89.1562 311.4627 0069464   7.8158 352.4100 14.26298015 54457
CZ-6A DEB
1 64632U 24140ADW 25272.05988198  .00005604  00000-0  22715-2 0  9992
2 64632  89.1561 311.4152 0069405   6.1346 354.0681 14.26304049 54520
CZ-6A DEB
1 64632U 24140ADW 25273.11220852  .00006545  00000-0  26531-2 0  9991
2 64632  89.1561 311.3133 0069241   2.5727 357.5808 14.26318935 54673
CZ-6A DEB
1 64632U 24140ADW 25273.11220852  .00006545  00000-0  26531-2 0  9991
2 64632  89.1561 311.3133 0069241   2.5727 357.5808 14.26318935 54673
CZ-6A DEB
1 64632U 24140ADW 25274.09436677  .00007135  00000-0  28916-2 0  9998
2 64632  89.1558 311.2178 0069150 359.1835   0.9234 14.26336655 54814
CZ-6A DEB
1 64632U 24140ADW 25274.09436678  .00007135  00000-0  28916-2 0  9999
2 64632  89.1558 311.2178 0069150 359.1835   0.9234 14.26336655 54814
CZ-6A DEB
1 64632U 24140ADW 25275.07651304  .00007633  00000-0  30927-2 0  9991
2 64632  89.1572 311.1245 0068998 356.0676   3.9965 14.26355375 54951
CZ-6A DEB
1 64632U 24140ADW 25275.07651305  .00007633  00000-0  30927-2 0  9992
2 64632  89.1572 311.1245 0068998 356.0677   3.9965 14.26355375 54952
CZ-6A DEB
1 64632U 24140ADW 25276.05864945  .00006517  00000-0  26399-2 0  9995
2 64632  89.1576 311.0298 0068878 352.7284   7.2904 14.26368715 55095
CZ-6A DEB
1 64632U 24140ADW 25276.54971447  .00006305  00000-0  25536-2 0  9992
2 64632  89.1570 310.9821 0068800 351.0928   8.9039 14.26375363 55163
CZ-6A DEB
1 64632U 24140ADW 25277.53183922  .00005128  00000-0  20761-2 0  9992
2 64632  89.1568 310.8872 0068711 347.7089  12.2425 14.26384900 55306
CZ-6A DEB
1 64632U 24140ADW 25278.51395786  .00004398  00000-0  17795-2 0  9995
2 64632  89.1561 310.7922 0068615 344.4574  15.4511 14.26393786 55448
CZ-6A DEB
1 64632U 24140ADW 25278.51395787  .00004398  00000-0  17795-2 0  9996
2 64632  89.1561 310.7922 0068615 344.4574  15.4511 14.26393786 55448
CZ-6A DEB
1 64632U 24140ADW 25280.54833163  .00003852  00000-0  15581-2 0  9992
2 64632  89.1557 310.5956 0068411 337.6070  22.2140 14.26408060 55735
CZ-6A DEB
1 64632U 24140ADW 25280.82893279  .00004579  00000-0  18526-2 0  9996
2 64632  89.1557 310.5683 0068417 336.6435  23.1654 14.26411698 55777
CZ-6A DEB
1 64632U 24140ADW 25280.82893279  .00004579  00000-0  18526-2 0  9996
2 64632  89.1557 310.5683 0068417 336.6435  23.1654 14.26411698 55777
CZ-6A DEB
1 64632U 24140ADW 25281.53043431  .00004228  00000-0  17101-2 0  9991
2 64632  89.1560 310.5004 0068391 334.2554  25.5240 14.26416959 55878
CZ-6A DEB
1 64632U 24140ADW 25281.53043431  .00004228  00000-0  17101-2 0  9991
2 64632  89.1560 310.5004 0068391 334.2554  25.5240 14.26416959 55878
CZ-6A DEB
1 64632U 24140ADW 25282.02148380  .00004109  00000-0  16620-2 0  9998
2 64632  89.1558 310.4528 0068345 332.6085  27.1511 14.26420913 55947
CZ-6A DEB
1 64632U 24140ADW 25282.02148380  .00004109  00000-0  16620-2 0  9998
2 64632  89.1558 310.4528 0068345 332.6085  27.1511 14.26420913 55947
CZ-6A DEB
1 64632U 24140ADW 25285.31850115  .00004242  00000-0  17154-2 0  9990
2 64632  89.1562 310.1332 0068117 321.4605  38.1735 14.26445669 56411
CZ-6A DEB
1 64632U 24140ADW 25285.52894686  .00004377  00000-0  17702-2 0  9992
2 64632  89.1557 310.1125 0068032 320.7966  38.8310 14.26447982 56442
CZ-6A DEB
1 64632U 24140ADW 25286.01998610  .00004624  00000-0  18701-2 0  9994
2 64632  89.1554 310.0649 0068054 319.1286  40.4815 14.26452843 56519
CZ-6A DEB
1 64632U 24140ADW 25287.49309509  .00003911  00000-0  15808-2 0  9993
2 64632  89.1555 309.9221 0067975 314.1430  45.4186 14.26464745 56723
CZ-6A DEB
1 64632U 24140ADW 25289.03634037  .00004600  00000-0  18597-2 0  9996
2 64632  89.1552 309.7727 0067939 308.9110  50.6037 14.26478604 56941
CZ-6A DEB
1 64632U 24140ADW 25289.03634038  .00004600  00000-0  18597-2 0  9997
2 64632  89.1552 309.7727 0067939 308.9110  50.6037 14.26478604 56941
CZ-6A DEB
1 64632U 24140ADW 25290.79001339  .00005128  00000-0  20728-2 0  9999
2 64632  89.1564 309.6038 0067993 302.9884  56.4786 14.26493405 57199
CZ-6A DEB
1 64632U 24140ADW 25290.79001340  .00005128  00000-0  20728-2 0  9991
2 64632  89.1564 309.6039 0067993 302.9884  56.4786 14.26493405 57190
CZ-6A DEB
1 64632U 24140ADW 25291.49147766  .00005562  00000-0  22480-2 0  9991
2 64632  89.1568 309.5359 0068004 300.6136  58.8362 14.26500261 57293
CZ-6A DEB
1 64632U 24140ADW 25293.03468295  .00006487  00000-0  26218-2 0  9996
2 64632  89.1541 309.3853 0067934 295.3806  64.0364 14.26520556 57511
CZ-6A DEB
1 64632U 24140ADW 25293.03468296  .00006487  00000-0  26218-2 0  9997
2 64632  89.1541 309.3853 0067934 295.3806  64.0364 14.26520556 57511
CZ-6A DEB
1 64632U 24140ADW 25293.31526333  .00006421  00000-0  25949-2 0  9993
2 64632  89.1539 309.3581 0067917 294.3957  65.0159 14.26524015 57554
CZ-6A DEB
1 64632U 24140ADW 25294.50772433  .00005321  00000-0  21491-2 0  9995
2 64632  89.1539 309.2424 0067984 290.3584  69.0315 14.26536312 57725
CZ-6A DEB
1 64632U 24140ADW 25294.50772434  .00005321  00000-0  21491-2 0  9996
2 64632  89.1539 309.2424 0067984 290.3584  69.0315 14.26536312 57725
CZ-6A DEB
1 64632U 24140ADW 25294.99873494  .00004901  00000-0  19791-2 0  9990
2 64632  89.1539 309.1947 0067975 288.7074  70.6750 14.26540954 57794
CZ-6A DEB
1 64632U 24140ADW 25294.99873495  .00004901  00000-0  19791-2 0  9991
2 64632  89.1539 309.1947 0067975 288.7074  70.6750 14.26540954 57794
CZ-6A DEB
1 64632U 24140ADW 25296.47175847  .00004566  00000-0  18430-2 0  9998
2 64632  89.1535 309.0512 0067996 283.7522  75.6110 14.26554449 58007
CZ-6A DEB
1 64632U 24140ADW 25296.47175848  .00004566  00000-0  18430-2 0  9999
2 64632  89.1535 309.0512 0067996 283.7522  75.6110 14.26554449 58007
CZ-6A DEB
1 64632U 24140ADW 25297.03290700  .00004547  00000-0  18353-2 0  9990
2 64632  89.1543 308.9970 0067950 281.8653  77.4926 14.26559675 58085
CZ-6A DEB
1 64632U 24140ADW 25298.01491220  .00004552  00000-0  18369-2 0  9992
2 64632  89.1543 308.9017 0067949 278.5439  80.8059 14.26568764 58220
CZ-6A DEB
1 64632U 24140ADW 25298.29548385  .00004753  00000-0  19183-2 0  9995
2 64632  89.1545 308.8746 0067924 277.5866  81.7616 14.26571820 58266
CZ-6A DEB
1 64632U 24140ADW 25298.29548386  .00004753  00000-0  19183-2 0  9996
2 64632  89.1545 308.8746 0067924 277.5866  81.7616 14.26571820 58266
CZ-6A DEB
1 64632U 24140ADW 25298.78648363  .00004276  00000-0  17250-2 0  9999
2 64632  89.1543 308.8264 0067959 275.9230  83.4221 14.26575245 58338
CZ-6A DEB
1 64632U 24140ADW 25298.78648364  .00004276  00000-0  17250-2 0  9990
2 64632  89.1543 308.8264 0067959 275.9230  83.4221 14.26575245 58338
CZ-6A DEB
1 64632U 24140ADW 25298.99691161  .00004275  00000-0  17243-2 0  9997
2 64632  89.1544 308.8061 0067973 275.2276  84.1163 14.26577271 58360
CZ-6A DEB
1 64632U 24140ADW 25298.99691162  .00004275  00000-0  17243-2 0  9998
2 64632  89.1544 308.8061 0067973 275.2276  84.1163 14.26577271 58360
CZ-6A DEB
1 64632U 24140ADW 25299.97890605  .00004439  00000-0  17906-2 0  9998
2 64632  89.1548 308.7109 0067987 271.9325  87.4083 14.26586022 58506
CZ-6A DEB
1 64632U 24140ADW 25300.04904839  .00004444  00000-0  17925-2 0  9991
2 64632  89.1545 308.7039 0067976 271.6891  87.6518 14.26586590 58514
CZ-6A DEB
1 64632U 24140ADW 25300.25947513  .00004338  00000-0  17496-2 0  9995
2 64632  89.1545 308.6835 0067976 270.9785  88.3621 14.26587970 58540
CZ-6A DEB
1 64632U 24140ADW 25300.25947513  .00004338  00000-0  17496-2 0  9995
2 64632  89.1545 308.6836 0067976 270.9785  88.3621 14.26587970 58541
CZ-6A DEB
1 64632U 24140ADW 25301.03103760  .00004672  00000-0  18842-2 0  9997
2 64632  89.1546 308.6087 0067975 268.3794  90.9613 14.26595145 58655
CZ-6A DEB
1 64632U 24140ADW 25303.27556290  .00004933  00000-0  19891-2 0  9990
2 64632  89.1545 308.3909 0068025 260.8602  98.4891 14.26615610 58972
CZ-6A DEB
1 64632U 24140ADW 25303.97697017  .00005093  00000-0  20534-2 0  9994
2 64632  89.1543 308.3228 0068033 258.4729 100.8821 14.26623215 59079
CZ-6A DEB
1 64632U 24140ADW 25306.99298850  .00003892  00000-0  15674-2 0  9995
2 64632  89.1532 308.0297 0068078 248.3364 111.0570 14.26648775 59503
CZ-6A DEB
1 64632U 24140ADW 25308.95688196  .00003572  00000-0  14376-2 0  9992
2 64632  89.1530 307.8387 0068145 241.7698 117.6605 14.26663763 59785
CZ-6A DEB
1 64632U 24140ADW 25311.97281644  .00005201  00000-0  20937-2 0  9996
2 64632  89.1551 307.5473 0068193 232.0118 127.4905 14.26695813 60217
CZ-6A DEB
1 64632U 24140ADW 25312.25336434  .00005096  00000-0  20511-2 0  9996
2 64632  89.1562 307.5189 0068319 230.7057 128.8067 14.26698669 60250
CZ-6A DEB
1 64632U 24140ADW 25312.25336435  .00005096  00000-0  20511-2 0  9997
2 64632  89.1562 307.5189 0068319 230.7057 128.8067 14.26698669 60250
CZ-6A DEB
1 64632U 24140ADW 25314.42759902  .00005176  00000-0  20823-2 0  9991
2 64632  89.1542 307.3050 0068374 223.4029 136.1770 14.26721274 60568
CZ-6A DEB
1 64632U 24140ADW 25315.97058369  .00005178  00000-0  20821-2 0  9991
2 64632  89.1547 307.1555 0068327 218.2125 141.4215 14.26737739 60788
CZ-6A DEB
1 64632U 24140ADW 25316.95246697  .00009105  00000-0  36617-2 0  9997
2 64632  89.1547 307.0601 0068338 214.9458 144.7241 14.26762142 60920
CZ-6A DEB
1 64632U 24140ADW 25316.95246697  .00009105  00000-0  36617-2 0  9997
2 64632  89.1547 307.0601 0068338 214.9458 144.7242 14.26762142 60921
CZ-6A DEB
1 64632U 24140ADW 25319.96817537  .00005065  00000-0  20333-2 0  9997
2 64632  89.1549 306.7676 0068727 204.7821 155.0067 14.26806581 61358
CZ-6A DEB
1 64632U 24140ADW 25320.95001987  .00005571  00000-0  22362-2 0  9998
2 64632  89.1546 306.6725 0068739 201.5095 158.3209 14.26817787 61499
CZ-6A DEB
1 64632U 24140ADW 25321.93185771  .00004099  00000-0  16437-2 0  9991
2 64632  89.1570 306.5795 0068810 198.5068 161.3622 14.26825961 61639
CZ-6A DEB
1 64632U 24140ADW 25321.93185771  .00004099  00000-0  16437-2 0  9991
2 64632  89.1570 306.5795 0068810 198.5068 161.3623 14.26825961 61630
CZ-6A DEB
1 64632U 24140ADW 25322.91369008  .00003551  00000-0  14233-2 0  9991
2 64632  89.1571 306.4845 0068803 195.3580 164.5527 14.26833787 61770
CZ-6A DEB
1 64632U 24140ADW 25323.40460472  .00003430  00000-0  13744-2 0  9995
2 64632  89.1532 306.4333 0068941 193.3766 166.5603 14.26836884 61842
CZ-6A DEB
1 64632U 24140ADW 25323.68512700  .00003354  00000-0  13436-2 0  9990
2 64632  89.1534 306.4060 0068930 192.4280 167.5217 14.26838394 61884
CZ-6A DEB
1 64632U 24140ADW 25323.68512701  .00003354  00000-0  13436-2 0  9991
2 64632  89.1534 306.4060 0068930 192.4280 167.5217 14.26838394 61884
CZ-6A DEB
1 64632U 24140ADW 25324.45656174  .00003070  00000-0  12295-2 0  9997
2 64632  89.1539 306.3312 0068984 189.7736 170.2122 14.26842794 61999
CZ-6A DEB
1 64632U 24140ADW 25324.45656174  .00003070  00000-0  12295-2 0  9997
2 64632  89.1539 306.3312 0068984 189.7736 170.2122 14.26842794 61999
CZ-6A DEB
1 64632U 24140ADW 25325.36825207  .00003788  00000-0  15175-2 0  9999
2 64632  89.1539 306.2424 0069091 186.7632 173.2637 14.26851080 62122
CZ-6A DEB
1 64632U 24140ADW 25325.36825208  .00003788  00000-0  15175-2 0  9990
2 64632  89.1539 306.2424 0069091 186.7633 173.2637 14.26851080 62123
CZ-6A DEB
1 64632U 24140ADW 25327.40200955  .00003198  00000-0  12801-2 0  9991
2 64632  89.1542 306.0451 0069163 179.9471 180.1743 14.26864461 62413
CZ-6A DEB
1 64632U 24140ADW 25327.96304315  .00003397  00000-0  13601-2 0  9997
2 64632  89.1541 305.9907 0069088 177.9833 182.1653 14.26868700 62492
CZ-6A DEB
1 64632U 24140ADW 25327.96304315  .00003397  00000-0  13601-2 0  9997
2 64632  89.1541 305.9907 0069088 177.9833 182.1653 14.26868700 62492
CZ-6A DEB
1 64632U 24140ADW 25329.22536190  .00003855  00000-0  15432-2 0  9999
2 64632  89.1543 305.8676 0069440 173.9373 186.2678 14.26877668 62678
CZ-6A DEB
1 64632U 24140ADW 25329.22536190  .00003855  00000-0  15432-2 0  9999
2 64632  89.1543 305.8676 0069440 173.9373 186.2678 14.26877668 62678
CZ-6A DEB
1 64632U 24140ADW 25332.38112308  .00003297  00000-0  13186-2 0  9995
2 64632  89.1536 305.5615 0069490 163.2923 197.0583 14.26899451 63128
CZ-6A DEB
1 64632U 24140ADW 25332.66163097  .00003249  00000-0  12988-2 0  9993
2 64632  89.1542 305.5341 0069743 162.5372 197.8245 14.26902123 63160
CZ-6A DEB
1 64632U 24140ADW 25334.90569349  .00003463  00000-0  13843-2 0  9991
2 64632  89.1541 305.3161 0070005 155.0987 205.3612 14.26918089 63485
CZ-6A DEB
1 64632U 24140ADW 25335.18619947  .00003404  00000-0  13602-2 0  9990
2 64632  89.1543 305.2891 0070046 154.2078 206.2636 14.26919763 63524
CZ-6A DEB
1 64632U 24140ADW 25336.37834477  .00003995  00000-0  15971-2 0  9995
2 64632  89.1544 305.1732 0070176 150.2968 210.2240 14.26929961 63691
CZ-6A DEB
1 64632U 24140ADW 25336.37834477  .00003995  00000-0  15971-2 0  9995
2 64632  89.1544 305.1732 0070176 150.2968 210.2240 14.26929961 63691
CZ-6A DEB
1 64632U 24140ADW 25339.88459119  .00005879  00000-0  23494-2 0  9992
2 64632  89.1547 304.8319 0070588 138.8289 221.8261 14.26971337 64197
CZ-6A DEB
1 64632U 24140ADW 25344.16207664  .00005177  00000-0  20662-2 0  9990
2 64632  89.1538 304.4164 0071054 124.9269 235.8628 14.27014104 64805
CZ-6A DEB
1 64632U 24140ADW 25344.16207665  .00005177  00000-0  20662-2 0  9991
2 64632  89.1538 304.4164 0071054 124.9269 235.8628 14.27014104 64805
CZ-6A DEB
1 64632U 24140ADW 25345.63462201  .00005461  00000-0  21784-2 0  9995
2 64632  89.1553 304.2740 0071222 120.1403 240.6874 14.27030208 65019
CZ-6A DEB
1 64632U 24140ADW 25345.84498433  .00005453  00000-0  21752-2 0  9990
2 64632  89.1539 304.2536 0071292 119.4489 241.3844 14.27032550 65048
CZ-6A DEB
1 64632U 24140ADW 25345.84498433  .00005453  00000-0  21752-2 0  9990
2 64632  89.1539 304.2536 0071292 119.4489 241.3844 14.27032550 65048
CZ-6A DEB
1 64632U 24140ADW 25348.86013657  .00002799  00000-0  11131-2 0  9996
2 64632  89.1533 303.9606 0071634 109.6917 251.2024 14.27059289 65478
CZ-6A DEB
1 64632U 24140ADW 25349.14061312  .00002766  00000-0  11000-2 0  9998
2 64632  89.1530 303.9330 0071616 108.8352 252.0626 14.27060501 65514
CZ-6A DEB
1 64632U 24140ADW 25351.31429648  .00002862  00000-0  11377-2 0  9994
2 64632  89.1524 303.7209 0071795 101.8655 259.0602 14.27073312 65826
CZ-6A DEB
1 64632U 24140ADW 25353.83854699  .00002547  00000-0  10117-2 0  9992
2 64632  89.1527 303.4750 0071986  93.7612 267.1817 14.27087323 66186
CZ-6A DEB
1 64632U 24140ADW 25353.83854700  .00002547  00000-0  10117-2 0  9995
2 64632  89.1527 303.4750 0071986  93.7612 267.1817 14.27087323 66186
CZ-6A DEB
1 64632U 24140ADW 25358.11568010  .00003908  00000-0  15538-2 0  9991
2 64632  89.1534 303.0595 0072296  80.0771 280.8573 14.27117630 66790
CZ-6A DEB
1 64632U 24140ADW 25358.11568011  .00003908  00000-0  15538-2 0  9992
2 64632  89.1534 303.0595 0072296  80.0771 280.8574 14.27117630 66791
CZ-6A DEB
1 64632U 24140ADW 25358.81683865  .00003873  00000-0  15396-2 0  9997
2 64632  89.1533 302.9913 0072316  77.8341 283.0941 14.27123603 66893
CZ-6A DEB
1 64632U 24140ADW 25358.81683865  .00003873  00000-0  15396-2 0  9997
2 64632  89.1533 302.9913 0072316  77.8341 283.0941 14.27123603 66893
CZ-6A DEB
1 64632U 24140ADW 25359.58810948  .00004194  00000-0  16674-2 0  9993
2 64632  89.1545 302.9179 0072391  75.4022 285.5185 14.27130737 67000
CZ-6A DEB
1 64632U 24140ADW 25359.58810948  .00004194  00000-0  16674-2 0  9993
2 64632  89.1545 302.9179 0072391  75.4022 285.5185 14.27130737 67000
CZ-6A DEB
1 64632U 24140ADW 25359.79845514  .00004127  00000-0  16406-2 0  9992
2 64632  89.1544 302.8974 0072359  74.7223 286.1955 14.27132527 67034
CZ-6A DEB
1 64632U 24140ADW 25359.79845514  .00004127  00000-0  16406-2 0  9992
2 64632  89.1544 302.8974 0072359  74.7223 286.1955 14.27132527 67034
CZ-6A DEB
1 64632U 24140ADW 25360.85018000  .00004256  00000-0  16918-2 0  9994
2 64632  89.1540 302.7954 0072416  71.3862 289.5178 14.27142290 67181
CZ-6A DEB
1 64632U 24140ADW 25360.85018000  .00004256  00000-0  16918-2 0  9994
2 64632  89.1540 302.7954 0072416  71.3862 289.5178 14.27142290 67181
CZ-6A DEB
1 64632U 24140ADW 25362.11223872  .00005186  00000-0  20616-2 0  9993
2 64632  89.1544 302.6734 0072434  67.3812 293.5023 14.27156417 67360
CZ-6A DEB
1 64632U 24140ADW 25362.25246641  .00005478  00000-0  21779-2 0  9992
2 64632  89.1541 302.6596 0072449  66.9321 293.9490 14.27158744 67388
CZ-6A DEB
1 64632U 24140ADW 25362.25246642  .00005478  00000-0  21779-2 0  9993
2 64632  89.1541 302.6596 0072449  66.9321 293.9490 14.27158744 67388
CZ-6A DEB
1 64632U 24140ADW 25363.86507433  .00006658  00000-0  26470-2 0  9993
2 64632  89.1541 302.5028 0072453  61.8099 299.0388 14.27179987 67619
CZ-6A DEB
1 64632U 24140ADW 25363.86507433  .00006658  00000-0  26470-2 0  9993
2 64632  89.1541 302.5028 0072453  61.8099 299.0388 14.27179987 67619
CZ-6A DEB
1 64632U 24140ADW 25364.56619992  .00007245  00000-0  28800-2 0  9997
2 64632  89.1540 302.4346 0072453  59.6046 301.2283 14.27190279 67715
CZ-6A DEB
1 64632U 24140ADW 25364.77653660  .00007216  00000-0  28683-2 0  9997
2 64632  89.1539 302.4142 0072456  58.9376 301.8903 14.27193254 67742
CZ-6A DEB
1 64632U 24140ADW 25364.77653660  .00007216  00000-0  28683-2 0  9997
2 64632  89.1539 302.4142 0072456  58.9376 301.8903 14.27193254 67742
CZ-6A DEB
1 64632U 24140ADW 25365.82821277  .00007773  00000-0  30890-2 0  9996
2 64632  89.1542 302.3118 0072432  55.6098 305.1917 14.27209383 67896
CZ-6A DEB
1 64632U 24140ADW 26001.80976611  .00007611  00000-0  30238-2 0  9992
2 64632  89.1542 302.2161 0072336  52.5082 308.2660 14.27223592 68039
CZ-6A DEB
1 64632U 24140ADW 26001.80976611  .00007611  00000-0  30238-2 0  9992
2 64632  89.1542 302.2161 0072336  52.5082 308.2660 14.27223592 68039
CZ-6A DEB
1 64632U 24140ADW 26003.56251559  .00007327  00000-0  29094-2 0  9996
2 64632  89.1545 302.0457 0072315  46.9417 313.7801 14.27248204 68286
CZ-6A DEB
1 64632U 24140ADW 26003.77284340  .00007246  00000-0  28771-2 0  9994
2 64632  89.1545 302.0253 0072327  46.2869 314.4285 14.27251219 68315
CZ-6A DEB
1 64632U 24140ADW 26004.82447626  .00005611  00000-0  22267-2 0  9997
2 64632  89.1547 301.9234 0072298  42.9451 317.7356 14.27262897 68466
CZ-6A DEB
1 64632U 24140ADW 26004.82447626  .00005611  00000-0  22267-2 0  9997
2 64632  89.1547 301.9234 0072298  42.9451 317.7356 14.27262897 68466
CZ-6A DEB
1 64632U 24140ADW 26005.24512669  .00005664  00000-0  22474-2 0  9992
2 64632  89.1546 301.8825 0072275  41.6141 319.0522 14.27268079 68522
CZ-6A DEB
1 64632U 24140ADW 26005.24512669  .00005664  00000-0  22474-2 0  9992
2 64632  89.1546 301.8825 0072275  41.6141 319.0522 14.27268079 68522
CZ-6A DEB
1 64632U 24140ADW 26006.29674714  .00004783  00000-0  18970-2 0  9995
2 64632  89.1542 301.7804 0072216  38.2596 322.3690 14.27278327 68671
CZ-6A DEB
1 64632U 24140ADW 26006.29674714  .00004783  00000-0  18970-2 0  9995
2 64632  89.1542 301.7804 0072216  38.2596 322.3690 14.27278327 68671
CZ-6A DEB
1 64632U 24140ADW 26006.78750100  .00004835  00000-0  19176-2 0  9990
2 64632  89.1540 301.7328 0072246  36.6971 323.9139 14.27283051 68745
CZ-6A DEB
1 64632U 24140ADW 26007.76900358  .00004024  00000-0  15948-2 0  9994
2 64632  89.1538 301.6375 0072218  33.5876 326.9865 14.27290830 68889
CZ-6A DEB
1 64632U 24140ADW 26007.76900358  .00004024  00000-0  15948-2 0  9994
2 64632  89.1538 301.6375 0072218  33.5876 326.9865 14.27290830 68889
CZ-6A DEB
1 64632U 24140ADW 26008.25975233  .00004632  00000-0  18366-2 0  9995
2 64632  89.1538 301.5899 0072137  32.0167 328.5379 14.27296398 68957
CZ-6A DEB
1 64632U 24140ADW 26008.25975233  .00004632  00000-0  18366-2 0  9995
2 64632  89.1538 301.5899 0072137  32.0167 328.5379 14.27296398 68957
CZ-6A DEB
1 64632U 24140ADW 26008.82060595  .00005203  00000-0  20634-2 0  9990
2 64632  89.1539 301.5355 0072083  30.2297 330.3026 14.27302685 69036
CZ-6A DEB
1 64632U 24140ADW 26008.82060595  .00005203  00000-0  20634-2 0  9990
2 64632  89.1539 301.5355 0072083  30.2297 330.3026 14.27302686 69037
CZ-6A DEB
1 64632U 24140ADW 26010.78357946  .00003959  00000-0  15689-2 0  9997
2 64632  89.1537 301.3448 0071746  23.9336 336.5166 14.27316875 69313
CZ-6A DEB
1 64632U 24140ADW 26013.23726432  .00003323  00000-0  13160-2 0  9997
2 64632  89.1531 301.1029 0071452  15.8315 344.5089 14.27335282 69665
CZ-6A DEB
1 64632U 24140ADW 26013.23726432  .00003323  00000-0  13160-2 0  9997
2 64632  89.1531 301.1029 0071452  15.8315 344.5089 14.27335282 69665
CZ-6A DEB
1 64632U 24140ADW 26014.21872971  .00002595  00000-0  10266-2 0  9990
2 64632  89.1537 301.0079 0071358  12.6130 347.6828 14.27340556 69801
CZ-6A DEB
1 64632U 24140ADW 26015.76103179  .00002250  00000-0  88921-3 0  9990
2 64632  89.1543 300.8598 0071559   8.0884 352.1446 14.27346162 70021
CZ-6A DEB
1 64632U 24140ADW 26015.76103179  .00002250  00000-0  88921-3 0  9990
2 64632  89.1543 300.8598 0071559   8.0884 352.1446 14.27346162 70021
CZ-6A DEB
1 64632U 24140ADW 26016.74249071  .00002868  00000-0  11347-2 0  9993
2 64632  89.1546 300.7655 0071391   4.9650 355.2236 14.27352095 70165
CZ-6A DEB
1 64632U 24140ADW 26019.19611512  .00004353  00000-0  17245-2 0  9992
2 64632  89.1544 300.5272 0071129 357.1046   2.9726 14.27372732 70516
CZ-6A DEB
1 64632U 24140ADW 26024.73404163  .00006156  00000-0  24375-2 0  9995
2 64632  89.1521 299.9883 0070316 339.1430  20.6898 14.27467494 71309
CZ-6A DEB
1 64632U 24140ADW 26025.71541472  .00006387  00000-0  25291-2 0  9993
2 64632  89.1534 299.8948 0070088 335.9398  23.8526 14.27480896 71446
CZ-6A DEB
1 64632U 24140ADW 26025.71541472  .00006387  00000-0  25291-2 0  9993
2 64632  89.1534 299.8949 0070088 335.9398  23.8526 14.27480896 71447
CZ-6A DEB
1 64632U 24140ADW 26026.69677949  .00006163  00000-0  24397-2 0  9998
2 64632  89.1536 299.7995 0069958 332.7321  27.0207 14.27493189 71580
CZ-6A DEB
1 64632U 24140ADW 26026.69677950  .00006163  00000-0  24397-2 0  9990
2 64632  89.1536 299.7995 0069958 332.7321  27.0207 14.27493190 71582
CZ-6A DEB
1 64632U 24140ADW 26028.72958144  .00006066  00000-0  24009-2 0  9995
2 64632  89.1557 299.6028 0069637 326.1584  33.5175 14.27517970 71874
CZ-6A DEB
1 64632U 24140ADW 26030.20158918  .00005611  00000-0  22206-2 0  9994
2 64632  89.1548 299.4586 0069161 321.6824  37.9466 14.27535673 72085
CZ-6A DEB
1 64632U 24140ADW 26030.20158918  .00005611  00000-0  22206-2 0  9994
2 64632  89.1548 299.4586 0069161 321.6824  37.9466 14.27535673 72085
CZ-6A DEB
1 64632U 24140ADW 26030.76234864  .00004452  00000-0  17607-2 0  9991
2 64632  89.1559 299.4049 0069330 319.7713  39.8361 14.27541129 72161
CZ-6A DEB
1 64632U 24140ADW 26031.74367485  .00003642  00000-0  14396-2 0  9998
2 64632  89.1557 299.3095 0069103 316.5251  43.0506 14.27548392 72302
CZ-6A DEB
1 64632U 24140ADW 26031.74367486  .00003642  00000-0  14396-2 0  9999
2 64632  89.1557 299.3095 0069103 316.5251  43.0506 14.27548392 72302
CZ-6A DEB
1 64632U 24140ADW 26032.72499694  .00003233  00000-0  12773-2 0  9998
2 64632  89.1546 299.2133 0068861 313.0315  46.5123 14.27554597 72447
CZ-6A DEB
1 64632U 24140ADW 26033.14556197  .00003148  00000-0  12436-2 0  9998
2 64632  89.1541 299.1721 0068894 311.5664  47.9636 14.27557613 72503
CZ-6A DEB
1 64632U 24140ADW 26033.70631390  .00003693  00000-0  14596-2 0  9993
2 64632  89.1539 299.1177 0068832 309.7165  49.7974 14.27563128 72583
CZ-6A DEB
1 64632U 24140ADW 26034.68762495  .00004124  00000-0  16303-2 0  9990
2 64632  89.1538 299.0227 0068713 306.3998  53.0871 14.27572513 72720
CZ-6A DEB
1 64632U 24140ADW 26036.15958031  .00004814  00000-0  19033-2 0  9996
2 64632  89.1534 298.8800 0068532 301.4210  58.0295 14.27587589 72939
CZ-6A DEB
1 64632U 24140ADW 26036.15958031  .00004814  00000-0  19033-2 0  9996
2 64632  89.1534 298.8800 0068532 301.4210  58.0295 14.27587589 72939
CZ-6A DEB
1 64632U 24140ADW 26037.14087588  .00004962  00000-0  19620-2 0  9992
2 64632  89.1530 298.7843 0068338 298.1760  61.2542 14.27597881 73070
CZ-6A DEB
1 64632U 24140ADW 26037.14087589  .00004962  00000-0  19620-2 0  9993
2 64632  89.1530 298.7843 0068338 298.1760  61.2542 14.27597881 73070
CZ-6A DEB
1 64632U 24140ADW 26040.71555741  .00003288  00000-0  12985-2 0  9997
2 64632  89.1524 298.4359 0067789 286.2821  73.0924 14.27622194 73584
CZ-6A DEB
1 64632U 24140ADW 26040.71555741  .00003288  00000-0  12985-2 0  9997
2 64632  89.1524 298.4359 0067789 286.2821  73.0924 14.27622194 73584
CZ-6A DEB
1 64632U 24140ADW 26042.67810482  .00003107  00000-0  12267-2 0  9993
2 64632  89.1529 298.2447 0067487 279.7165  79.6411 14.27634567 73869
CZ-6A DEB
1 64632U 24140ADW 26043.16873946  .00003280  00000-0  12952-2 0  9995
2 64632  89.1530 298.1971 0067407 278.0616  81.2934 14.27637952 73935
CZ-6A DEB
1 64632U 24140ADW 26043.16873946  .00003280  00000-0  12952-2 0  9995
2 64632  89.1530 298.1971 0067407 278.0616  81.2934 14.27637952 73935
CZ-6A DEB
1 64632U 24140ADW 26043.65937264  .00002975  00000-0  11744-2 0  9991
2 64632  89.1529 298.1491 0067394 276.3685  82.9837 14.27640589 74001
CZ-6A DEB
1 64632U 24140ADW 26045.13126806  .00002910  00000-0  11486-2 0  9990
2 64632  89.1537 298.0059 0067178 271.3672  87.9827 14.27649407 74215
CZ-6A DEB
1 64632U 24140ADW 26046.11252770  .00002460  00000-0  97028-3 0  9996
2 64632  89.1533 297.9105 0067105 268.0467  91.3041 14.27653820 74352
CZ-6A DEB
1 64632U 24140ADW 26046.11252771  .00002460  00000-0  97028-3 0  9997
2 64632  89.1533 297.9105 0067105 268.0467  91.3041 14.27653820 74352
CZ-6A DEB
1 64632U 24140ADW 26046.67324570  .00003123  00000-0  12329-2 0  9992
2 64632  89.1532 297.8560 0067066 266.1436  93.2089 14.27658596 74433
CZ-6A DEB
1 64632U 24140ADW 26046.67324570  .00003123  00000-0  12329-2 0  9992
2 64632  89.1532 297.8560 0067066 266.1436  93.2089 14.27658596 74433
CZ-6A DEB
1 64632U 24140ADW 26047.65449980  .00002886  00000-0  11389-2 0  9994
2 64632  89.1530 297.7607 0067006 262.8104  96.5469 14.27663706 74573
CZ-6A DEB
1 64632U 24140ADW 26048.63575054  .00002641  00000-0  10416-2 0  9994
2 64632  89.1528 297.6653 0066956 259.4759  99.8887 14.27668584 74716
CZ-6A DEB
1 64632U 24140ADW 26048.63575054  .00002641  00000-0  10416-2 0  9994
2 64632  89.1528 297.6654 0066956 259.4759  99.8887 14.27668584 74717
CZ-6A DEB
1 64632U 24140ADW 26049.12637450  .00002710  00000-0  10689-2 0  9997
2 64632  89.1525 297.6176 0066894 257.7799 101.5899 14.27671694 74786
CZ-6A DEB
1 64632U 24140ADW 26049.12637451  .00002710  00000-0  10689-2 0  9998
2 64632  89.1525 297.6176 0066894 257.7799 101.5899 14.27671694 74786
CZ-6A DEB
1 64632U 24140ADW 26049.68708717  .00002642  00000-0  10421-2 0  9991
2 64632  89.1523 297.5629 0066803 255.8794 103.4970 14.27674564 74869
CZ-6A DEB
1 64632U 24140ADW 26050.10762096  .00002457  00000-0  96869-3 0  9995
2 64632  89.1521 297.5219 0066787 254.4438 104.9377 14.27676226 74924
CZ-6A DEB
1 64632U 24140ADW 26050.10762096  .00002457  00000-0  96869-3 0  9995
2 64632  89.1521 297.5219 0066787 254.4438 104.9377 14.27676226 74924
CZ-6A DEB
1 64632U 24140ADW 26050.66833171  .00002508  00000-0  98882-3 0  9993
2 64632  89.1520 297.4673 0066750 252.5334 106.8557 14.27679348 75009
CZ-6A DEB
1 64632U 24140ADW 26050.66833172  .00002508  00000-0  98882-3 0  9994
2 64632  89.1520 297.4673 0066750 252.5334 106.8557 14.27679348 75009
CZ-6A DEB
1 64632U 24140ADW 26052.63081306  .00002325  00000-0  91609-3 0  9994
2 64632  89.1519 297.2765 0066707 245.8487 113.5723 14.27688240 75284
CZ-6A DEB
1 64632U 24140ADW 26052.63081307  .00002325  00000-0  91609-3 0  9995
2 64632  89.1519 297.2765 0066707 245.8487 113.5723 14.27688240 75284
CZ-6A DEB
1 64632U 24140ADW 26053.12143173  .00002279  00000-0  89797-3 0  9993
2 64632  89.1518 297.2286 0066685 244.1626 115.2681 14.27690405 75359
CZ-6A DEB
1 64632U 24140ADW 26053.68213728  .00002790  00000-0  11003-2 0  9990
2 64632  89.1515 297.1737 0066655 242.2369 117.2056 14.27694912 75430
CZ-6A DEB
1 64632U 24140ADW 26053.68213728  .00002790  00000-0  11003-2 0  9990
2 64632  89.1515 297.1737 0066655 242.2369 117.2056 14.27694912 75430
CZ-6A DEB
1 64632U 24140ADW 26055.08389678  .00002655  00000-0  10466-2 0  9996
2 64632  89.1517 297.0372 0066587 237.4251 122.0503 14.27702140 75632
CZ-6A DEB
1 64632U 24140ADW 26056.62582449  .00002395  00000-0  94343-3 0  9996
2 64632  89.1518 296.8869 0066605 232.1690 127.3465 14.27709886 75854
CZ-6A DEB
1 64632U 24140ADW 26056.62582450  .00002395  00000-0  94343-3 0  9998
2 64632  89.1518 296.8869 0066605 232.1690 127.3465 14.27709886 75854
CZ-6A DEB
1 64632U 24140ADW 26058.09765704  .00002619  00000-0  10321-2 0  9998
2 64632  89.1520 296.7434 0066621 227.1380 132.4208 14.27718535 76069
CZ-6A DEB
1 64632U 24140ADW 26058.09765704  .00002619  00000-0  10321-2 0  9998
2 64632  89.1520 296.7434 0066621 227.1380 132.4208 14.27718535 76069
CZ-6A DEB
1 64632U 24140ADW 26058.65835340  .00002629  00000-0  10361-2 0  9999
2 64632  89.1518 296.6887 0066606 225.2178 134.3588 14.27721504 76145
CZ-6A DEB
1 64632U 24140ADW 26058.65835340  .00002629  00000-0  10361-2 0  9999
2 64632  89.1518 296.6887 0066606 225.2178 134.3588 14.27721504 76145
CZ-6A DEB
1 64632U 24140ADW 26059.07887473  .00002782  00000-0  10967-2 0  9992
2 64632  89.1520 296.6479 0066619 223.7899 135.8002 14.27724301 76204
CZ-6A DEB
1 64632U 24140ADW 26059.07887474  .00002782  00000-0  10967-2 0  9993
2 64632  89.1520 296.6479 0066619 223.7899 135.8002 14.27724302 76205
CZ-6A DEB
1 64632U 24140ADW 26059.63956937  .00002760  00000-0  10875-2 0  9990
2 64632  89.1520 296.5935 0066608 221.8724 137.7366 14.27727139 76288
CZ-6A DEB
1 64632U 24140ADW 26059.63956938  .00002760  00000-0  10875-2 0  9991
2 64632  89.1520 296.5935 0066608 221.8724 137.7366 14.27727140 76280
CZ-6A DEB
1 64632U 24140ADW 26060.06008923  .00002825  00000-0  11133-2 0  9992
2 64632  89.1520 296.5525 0066632 220.4438 139.1794 14.27729719 76341
CZ-6A DEB
1 64632U 24140ADW 26060.06008923  .00002825  00000-0  11133-2 0  9992
2 64632  89.1520 296.5525 0066632 220.4438 139.1794 14.27729720 76343
CZ-6A DEB
1 64632U 24140ADW 26061.11138633  .00002882  00000-0  11359-2 0  9994
2 64632  89.1517 296.4501 0066642 216.8542 142.8064 14.27735858 76494
CZ-6A DEB
1 64632U 24140ADW 26061.60199006  .00003062  00000-0  12069-2 0  9999
2 64632  89.1516 296.4024 0066693 215.1904 144.4878 14.27739194 76569
CZ-6A DEB
1 64632U 24140ADW 26061.60199006  .00003062  00000-0  12069-2 0  9999
2 64632  89.1516 296.4024 0066693 215.1904 144.4878 14.27739194 76569
CZ-6A DEB
1 64632U 24140ADW 26062.09259282  .00002971  00000-0  11709-2 0  9994
2 64632  89.1515 296.3545 0066756 213.5322 146.1639 14.27741771 76637
CZ-6A DEB
1 64632U 24140ADW 26062.65328034  .00003327  00000-0  13115-2 0  9997
2 64632  89.1515 296.3000 0066810 211.6396 148.0776 14.27746262 76716
CZ-6A DEB
1 64632U 24140ADW 26062.65328034  .00003327  00000-0  13115-2 0  9997
2 64632  89.1515 296.3000 0066810 211.6396 148.0776 14.27746262 76716
CZ-6A DEB
1 64632U 24140ADW 26063.07379512  .00003584  00000-0  14128-2 0  9991
2 64632  89.1515 296.2590 0066838 210.2103 149.5232 14.27749664 76778
CZ-6A DEB
1 64632U 24140ADW 26063.63448013  .00003566  00000-0  14057-2 0  9997
2 64632  89.1513 296.2042 0066885 208.2909 151.4647 14.27753293 76855
CZ-6A DEB
1 64632U 24140ADW 26063.63448013  .00003566  00000-0  14057-2 0  9997
2 64632  89.1513 296.2042 0066885 208.2909 151.4647 14.27753293 76855
CZ-6A DEB
1 64632U 24140ADW 26064.05499317  .00003277  00000-0  12913-2 0  9995
2 64632  89.1513 296.1633 0066909 206.8582 152.9144 14.27755147 76913
CZ-6A DEB
1 64632U 24140ADW 26064.05499318  .00003277  00000-0  12913-2 0  9996
2 64632  89.1513 296.1633 0066909 206.8582 152.9144 14.27755147 76913
CZ-6A DEB
1 64632U 24140ADW 26064.61567623  .00003571  00000-0  14076-2 0  9992
2 64632  89.1513 296.1086 0066931 204.9602 154.8352 14.27759581 76998
CZ-6A DEB
1 64632U 24140ADW 26064.61567624  .00003571  00000-0  14076-2 0  9993
2 64632  89.1513 296.1086 0066931 204.9602 154.8352 14.27759581 76998
CZ-6A DEB
1 64632U 24140ADW 26065.59686809  .00003466  00000-0  13657-2 0  9995
2 64632  89.1511 296.0128 0066979 201.6075 158.2291 14.27765717 77137
CZ-6A DEB
1 64632U 24140ADW 26066.08746251  .00002957  00000-0  11641-2 0  9993
2 64632  89.1511 295.9650 0067024 199.9336 159.9239 14.27767363 77203
CZ-6A DEB
1 64632U 24140ADW 26066.08746252  .00002957  00000-0  11641-2 0  9994
2 64632  89.1511 295.9650 0067024 199.9336 159.9239 14.27767363 77203
CZ-6A DEB
1 64632U 24140ADW 26066.57805559  .00003497  00000-0  13775-2 0  9994
2 64632  89.1510 295.9171 0067067 198.2706 161.6079 14.27772237 77275
CZ-6A DEB
1 64632U 24140ADW 26066.57805559  .00003497  00000-0  13775-2 0  9994
2 64632  89.1510 295.9171 0067067 198.2706 161.6080 14.27772237 77277
CZ-6A DEB
1 64632U 24140ADW 26068.04982812  .00003467  00000-0  13655-2 0  9990
2 64632  89.1509 295.7733 0067201 193.2555 166.6877 14.27782118 77485
CZ-6A DEB
1 64632U 24140ADW 26069.59167495  .00002964  00000-0  11661-2 0  9999
2 64632  89.1511 295.6227 0067359 188.0196 171.9928 14.27791507 77705
CZ-6A DEB
1 64632U 24140ADW 26069.59167496  .00002964  00000-0  11661-2 0  9990
2 64632  89.1511 295.6227 0067359 188.0196 171.9928 14.27791507 77705
CZ-6A DEB
1 64632U 24140ADW 26070.08226028  .00002884  00000-0  11343-2 0  9991
2 64632  89.1514 295.5749 0067417 186.3858 173.6485 14.27794496 77771
CZ-6A DEB
1 64632U 24140ADW 26070.08226028  .00002884  00000-0  11343-2 0  9991
2 64632  89.1514 295.5749 0067417 186.3858 173.6485 14.27794496 77771
CZ-6A DEB
1 64632U 24140ADW 26070.57284482  .00002910  00000-0  11447-2 0  9998
2 64632  89.1513 295.5270 0067468 184.7395 175.3170 14.27797466 77841
CZ-6A DEB
1 64632U 24140ADW 26070.57284482  .00002910  00000-0  11447-2 0  9998
2 64632  89.1513 295.5270 0067468 184.7395 175.3170 14.27797466 77841
CZ-6A DEB
1 64632U 24140ADW 26071.62409417  .00002992  00000-0  11768-2 0  9998
2 64632  89.1514 295.4246 0067589 181.1979 178.9065 14.27803754 77993
CZ-6A DEB
1 64632U 24140ADW 26071.62409418  .00002992  00000-0  11768-2 0  9999
2 64632  89.1514 295.4246 0067589 181.1979 178.9065 14.27803754 77993
CZ-6A DEB
1 64632U 24140ADW 26072.04459272  .00002984  00000-0  11736-2 0  9995
2 64632  89.1511 295.3835 0067656 179.8733 180.2491 14.27806028 78054
CZ-6A DEB
1 64632U 24140ADW 26072.88558800  .00002900  00000-0  11400-2 0  9990
2 64632  89.1511 295.3015 0067757 177.0131 183.1482 14.27810434 78179
CZ-6A DEB
1 64632U 24140ADW 26073.58641441  .00003242  00000-0  12749-2 0  9999
2 64632  89.1510 295.2332 0067849 174.6770 185.5161 14.27815802 78278
CZ-6A DEB
1 64632U 24140ADW 26074.56756869  .00002539  00000-0  99695-3 0  9993
2 64632  89.1509 295.1375 0067986 171.3815 188.8565 14.27819423 78411
CZ-6A DEB
1 64632U 24140ADW 26075.33847269  .00002747  00000-0  10789-2 0  9991
2 64632  89.1508 295.0623 0068108 168.7713 191.5021 14.27824650 78527
CZ-6A DEB
1 64632U 24140ADW 26076.59994762  .00002334  00000-0  91572-3 0  9993
2 64632  89.1503 294.9392 0068283 164.6101 195.7192 14.27830210 78707
CZ-6A DEB
1 64632U 24140ADW 26077.58109182  .00002376  00000-0  93211-3 0  9995
2 64632  89.1500 294.8435 0068435 161.3310 199.0419 14.27834745 78847
CZ-6A DEB
1 64632U 24140ADW 26077.58109182  .00002376  00000-0  93211-3 0  9995
2 64632  89.1500 294.8435 0068435 161.3310 199.0419 14.27834745 78847
CZ-6A DEB
1 64632U 24140ADW 26078.56223323  .00002253  00000-0  88357-3 0  9997
2 64632  89.1497 294.7477 0068584 158.1207 202.2942 14.27838290 78983
CZ-6A DEB
1 64632U 24140ADW 26078.56223324  .00002253  00000-0  88357-3 0  9998
2 64632  89.1497 294.7477 0068584 158.1207 202.2942 14.27838290 78983
CZ-6A DEB
1 64632U 24140ADW 26079.05280306  .00002442  00000-0  95768-3 0  9990
2 64632  89.1501 294.7004 0068660 156.4932 203.9427 14.27840743 79057
CZ-6A DEB
1 64632U 24140ADW 26079.05280306  .00002442  00000-0  95768-3 0  9990
2 64632  89.1501 294.7004 0068660 156.4932 203.9427 14.27840743 79057
CZ-6A DEB
1 64632U 24140ADW 26080.59458671  .00003058  00000-0  12003-2 0  9997
2 64632  89.1499 294.5498 0068881 151.4758 209.0234 14.27849666 79274
CZ-6A DEB
1 64632U 24140ADW 26081.85603678  .00003219  00000-0  12634-2 0  9995
2 64632  89.1498 294.4262 0069018 147.4170 213.1313 14.27857810 79451
CZ-6A DEB
1 64632U 24140ADW 26082.55683948  .00002931  00000-0  11500-2 0  9992
2 64632  89.1504 294.3582 0069060 145.2365 215.3372 14.27861256 79551
CZ-6A DEB
1 64632U 24140ADW 26082.55683949  .00002931  00000-0  11500-2 0  9993
2 64632  89.1504 294.3582 0069060 145.2365 215.3372 14.27861256 79551
CZ-6A DEB
1 64632U 24140ADW 26083.53795703  .00002939  00000-0  11527-2 0  9991
2 64632  89.1478 294.2608 0069210 141.8666 218.7456 14.27869249 79697
CZ-6A DEB
1 64632U 24140ADW 26083.53795703  .00002939  00000-0  11527-2 0  9991
2 64632  89.1478 294.2608 0069210 141.8666 218.7456 14.27869249 79697
CZ-6A DEB
1 64632U 24140ADW 26084.02851448  .00002833  00000-0  11109-2 0  9994
2 64632  89.1481 294.2128 0069304 140.2626 220.3676 14.27872362 79762
CZ-6A DEB
1 64632U 24140ADW 26085.99073469  .00003022  00000-0  11846-2 0  9999
2 64632  89.1489 294.0212 0069648 133.8592 226.8387 14.27884759 80049
CZ-6A DEB
1 64632U 24140ADW 26085.99073470  .00003022  00000-0  11846-2 0  9991
2 64632  89.1489 294.0212 0069648 133.8592 226.8387 14.27884759 80049
CZ-6A DEB
1 64632U 24140ADW 26086.55136608  .00002849  00000-0  11163-2 0  9995
2 64632  89.1492 293.9665 0069710 132.0469 228.6686 14.27887386 80127
CZ-6A DEB
1 64632U 24140ADW 26086.55136609  .00002849  00000-0  11163-2 0  9996
2 64632  89.1492 293.9665 0069710 132.0469 228.6686 14.27887386 80127
CZ-6A DEB
1 64632U 24140ADW 26087.53246701  .00003217  00000-0  12610-2 0  9998
2 64632  89.1490 293.8707 0069831 128.8918 231.8533 14.27894395 80267
CZ-6A DEB
1 64632U 24140ADW 26087.53246702  .00003217  00000-0  12610-2 0  9999
2 64632  89.1490 293.8707 0069831 128.8918 231.8533 14.27894395 80267
CZ-6A DEB
1 64632U 24140ADW 26088.02301579  .00003367  00000-0  13200-2 0  9990
2 64632  89.1495 293.8231 0069850 127.3323 233.4264 14.27897832 80335
CZ-6A DEB
1 64632U 24140ADW 26089.00410840  .00004161  00000-0  16321-2 0  9991
2 64632  89.1494 293.7275 0070010 124.1722 236.6136 14.27906668 80475
CZ-6A DEB
1 64632U 24140ADW 26089.00410841  .00004161  00000-0  16321-2 0  9992
2 64632  89.1494 293.7275 0070010 124.1722 236.6136 14.27906668 80475
CZ-6A DEB
1 64632U 24140ADW 26089.98519487  .00004242  00000-0  16634-2 0  9992
2 64632  89.1491 293.6316 0070144 121.0194 239.7914 14.27914867 80618
CZ-6A DEB
1 64632U 24140ADW 26089.98519488  .00004242  00000-0  16634-2 0  9993
2 64632  89.1491 293.6316 0070144 121.0194 239.7914 14.27914867 80618
CZ-6A DEB
1 64632U 24140ADW 26090.54581299  .00004174  00000-0  16367-2 0  9993
2 64632  89.1487 293.5767 0070139 119.2422 241.5809 14.27919333 80694
CZ-6A DEB
1 64632U 24140ADW 26090.54581299  .00004174  00000-0  16367-2 0  9993
2 64632  89.1487 293.5767 0070139 119.2423 241.5809 14.27919333 80695
CZ-6A DEB
1 64632U 24140ADW 26091.52689012  .00003493  00000-0  13683-2 0  9995
2 64632  89.1484 293.4808 0070276 116.1190 244.7257 14.27925885 80833
CZ-6A DEB
1 64632U 24140ADW 26091.52689012  .00003493  00000-0  13683-2 0  9995
2 64632  89.1484 293.4808 0070276 116.1190 244.7257 14.27925885 80833
CZ-6A DEB
1 64632U 24140ADW 26092.01742676  .00003426  00000-0  13419-2 0  9999
2 64632  89.1486 293.4328 0070297 114.5549 246.2993 14.27929531 80909
CZ-6A DEB
1 64632U 24140ADW 26092.29773256  .00004410  00000-0  17287-2 0  9998
2 64632  89.1485 293.4054 0070293 113.6572 247.2022 14.27933924 80945
CZ-6A DEB
1 64632U 24140ADW 26092.99849372  .00005388  00000-0  21127-2 0  9991
2 64632  89.1485 293.3367 0070339 111.4159 249.4559 14.27942834 81040
CZ-6A DEB
1 64632U 24140ADW 26093.97955336  .00005967  00000-0  23395-2 0  9990
2 64632  89.1484 293.2406 0070429 108.2666 252.6209 14.27954104 81185
CZ-6A DEB
1 64632U 24140ADW 26095.80150087  .00004186  00000-0  16392-2 0  9995
2 64632  89.1484 293.0622 0070450 102.4890 258.4198 14.27969126 81442
CZ-6A DEB
1 64632U 24140ADW 26095.80150087  .00004186  00000-0  16392-2 0  9995
2 64632  89.1484 293.0622 0070450 102.4890 258.4198 14.27969126 81442
CZ-6A DEB
1 64632U 24140ADW 26096.01172423  .00003962  00000-0  15512-2 0  9991
2 64632  89.1481 293.0415 0070491 101.8298 259.0814 14.27970682 81473
CZ-6A DEB
1 64632U 24140ADW 26096.78254147  .00003748  00000-0  14671-2 0  9996
2 64632  89.1483 292.9658 0070497  99.3773 261.5401 14.27976257 81583
CZ-6A DEB
1 64632U 24140ADW 26096.99276388  .00003493  00000-0  13666-2 0  9990
2 64632  89.1484 292.9452 0070509  98.7195 262.1994 14.27977272 81617
CZ-6A DEB
1 64632U 24140ADW 26096.99276388  .00003493  00000-0  13666-2 0  9990
2 64632  89.1484 292.9452 0070509  98.7195 262.1994 14.27977272 81617
CZ-6A DEB
1 64632U 24140ADW 26097.97379931  .00002926  00000-0  11437-2 0  9991
2 64632  89.1487 292.8491 0070558  95.6153 265.3093 14.27982344 81752
CZ-6A DEB
1 64632U 24140ADW 26097.97379931  .00002926  00000-0  11437-2 0  9991
2 64632  89.1487 292.8491 0070558  95.6153 265.3093 14.27982344 81752
CZ-6A DEB
1 64632U 24140ADW 26098.53438909  .00002691  00000-0  10516-2 0  9991
2 64632  89.1489 292.7942 0070586  93.8362 267.0907 14.27985174 81833
CZ-6A DEB
1 64632U 24140ADW 26099.51541771  .00002881  00000-0  11258-2 0  9997
2 64632  89.1492 292.6981 0070603  90.7550 270.1735 14.27991219 81970
CZ-6A DEB
1 64632U 24140ADW 26099.51541772  .00002881  00000-0  11258-2 0  9998
2 64632  89.1492 292.6981 0070603  90.7550 270.1736 14.27991219 81971
CZ-6A DEB
1 64632U 24140ADW 26100.49644206  .00003050  00000-0  11921-2 0  9990
2 64632  89.1490 292.6021 0070601  87.6701 273.2575 14.27997114 82117
CZ-6A DEB
1 64632U 24140ADW 26100.49644207  .00003050  00000-0  11921-2 0  9991
2 64632  89.1490 292.6021 0070601  87.6701 273.2575 14.27997114 82117
CZ-6A DEB
1 64632U 24140ADW 26100.98695285  .00002943  00000-0  11501-2 0  9991
2 64632  89.1492 292.5543 0070563  86.0950 274.8308 14.27999474 82182
CZ-6A DEB
1 64632U 24140ADW 26101.26724450  .00002447  00000-0  95524-3 0  9997
2 64632  89.1490 292.5267 0070554  85.1995 275.7251 14.27999608 82223
CZ-6A DEB
1 64632U 24140ADW 26101.26724451  .00002447  00000-0  95524-3 0  9998
2 64632  89.1490 292.5267 0070554  85.1995 275.7251 14.27999608 82223
CZ-6A DEB
1 64632U 24140ADW 26101.96797197  .00002404  00000-0  93848-3 0  9992
2 64632  89.1489 292.4582 0070561  82.9919 277.9294 14.28003046 82324
CZ-6A DEB
1 64632U 24140ADW 26101.96797197  .00002404  00000-0  93848-3 0  9992
2 64632  89.1489 292.4582 0070561  82.9919 277.9294 14.28003046 82324
CZ-6A DEB
1 64632U 24140ADW 26102.52855250  .00002187  00000-0  85333-3 0  9998
2 64632  89.1483 292.4034 0070533  81.2183 279.6991 14.28005094 82401
CZ-6A DEB
1 64632U 24140ADW 26102.94898752  .00002114  00000-0  82454-3 0  9999
2 64632  89.1483 292.3621 0070531  79.8862 281.0279 14.28006702 82466
CZ-6A DEB
1 64632U 24140ADW 26102.94898753  .00002114  00000-0  82454-3 0  9990
2 64632  89.1483 292.3621 0070531  79.8862 281.0279 14.28006702 82466
CZ-6A DEB
1 64632U 24140ADW 26103.93000032  .00001921  00000-0  74872-3 0  9995
2 64632  89.1485 292.2662 0070492  76.7628 284.1418 14.28010154 82605
CZ-6A DEB
1 64632U 24140ADW 26103.93000033  .00001921  00000-0  74872-3 0  9996
2 64632  89.1485 292.2662 0070492  76.7628 284.1418 14.28010154 82605
CZ-6A DEB
1 64632U 24140ADW 26104.98108199  .00001883  00000-0  73369-3 0  9991
2 64632  89.1480 292.1632 0070444  73.4263 287.4654 14.28014175 82753
CZ-6A DEB
1 64632U 24140ADW 26104.98108200  .00001883  00000-0  73369-3 0  9994
2 64632  89.1480 292.1632 0070444  73.4263 287.4654 14.28014175 82753
CZ-6A DEB
1 64632U 24140ADW 26105.96208899  .00001780  00000-0  69315-3 0  9990
2 64632  89.1481 292.0671 0070381  70.3260 290.5511 14.28017279 82899
CZ-6A DEB
1 64632U 24140ADW 26106.94309355  .00001966  00000-0  76616-3 0  9996
2 64632  89.1477 291.9708 0070319  67.2406 293.6199 14.28020990 83038
CZ-6A DEB
1 64632U 24140ADW 26110.23644361  .00002055  00000-0  80149-3 0  9998
2 64632  89.1478 291.6476 0069983  56.7942 303.9936 14.28033306 83502
CZ-6A DEB
1 64632U 24140ADW 26110.44665624  .00002062  00000-0  80411-3 0  9996
2 64632  89.1479 291.6270 0069964  56.1192 304.6632 14.28034205 83538
CZ-6A DEB
1 64632U 24140ADW 26110.44665625  .00002062  00000-0  80411-3 0  9997
2 64632  89.1479 291.6270 0069964  56.1192 304.6632 14.28034205 83538
CZ-6A DEB
1 64632U 24140ADW 26111.91813911  .00002226  00000-0  86848-3 0  9995
2 64632  89.1482 291.4828 0069796  51.4229 309.3190 14.28041526 83749
CZ-6A DEB
1 64632U 24140ADW 26111.91813912  .00002226  00000-0  86848-3 0  9996
2 64632  89.1482 291.4828 0069796  51.4229 309.3190 14.28041526 83749
CZ-6A DEB
1 64632U 24140ADW 26112.47870213  .00002056  00000-0  80166-3 0  9993
2 64632  89.1482 291.4278 0069708  49.6303 311.0949 14.28043521 83821
CZ-6A DEB
1 64632U 24140ADW 26112.47870213  .00002056  00000-0  80166-3 0  9993
2 64632  89.1482 291.4278 0069708  49.6303 311.0949 14.28043521 83821
CZ-6A DEB
1 64632U 24140ADW 26114.93115241  .00002376  00000-0  92754-3 0  9990
2 64632  89.1479 291.1873 0069374  41.7477 318.8981 14.28055463 84177
CZ-6A DEB
1 64632U 24140ADW 26115.91212536  .00003028  00000-0  11834-2 0  9998
2 64632  89.1493 291.0925 0069277  38.5933 322.0184 14.28062484 84312
CZ-6A DEB
1 64632U 24140ADW 26116.89309436  .00002881  00000-0  11259-2 0  9999
2 64632  89.1490 290.9961 0069065  35.4390 325.1364 14.28067346 84456
CZ-6A DEB
1 64632U 24140ADW 26116.89309437  .00002881  00000-0  11259-2 0  9990
2 64632  89.1490 290.9961 0069065  35.4390 325.1364 14.28067346 84456
CZ-6A DEB
1 64632U 24140ADW 26117.94412751  .00003118  00000-0  12189-2 0  9998
2 64632  89.1484 290.8927 0069004  32.0199 328.5159 14.28074419 84608
CZ-6A DEB
1 64632U 24140ADW 26117.94412752  .00003118  00000-0  12189-2 0  9999
2 64632  89.1484 290.8927 0069004  32.0199 328.5159 14.28074419 84608
CZ-6A DEB
1 64632U 24140ADW 26118.92508800  .00002890  00000-0  11291-2 0  9997
2 64632  89.1481 290.7967 0068907  28.8411 331.6564 14.28079439 84746
CZ-6A DEB
1 64632U 24140ADW 26118.92508800  .00002890  00000-0  11291-2 0  9997
2 64632  89.1481 290.7967 0068907  28.8411 331.6564 14.28079439 84746
CZ-6A DEB
1 64632U 24140ADW 26119.90604332  .00002943  00000-0  11501-2 0  9996
2 64632  89.1484 290.7009 0068626  25.6713 334.7862 14.28085433 84885
CZ-6A DEB
1 64632U 24140ADW 26119.90604333  .00002943  00000-0  11501-2 0  9997
2 64632  89.1484 290.7009 0068626  25.6713 334.7862 14.28085433 84885
CZ-6A DEB
1 64632U 24140ADW 26121.72780645  .00003071  00000-0  12005-2 0  9994
2 64632  89.1481 290.5221 0068143  19.6543 340.7254 14.28096670 85141
CZ-6A DEB
1 64632U 24140ADW 26121.72780645  .00003071  00000-0  12005-2 0  9994
2 64632  89.1481 290.5221 0068143  19.6543 340.7254 14.28096670 85141
CZ-6A DEB
1 64632U 24140ADW 26122.91895201  .00002919  00000-0  11409-2 0  9998
2 64632  89.1482 290.4054 0067884  15.6676 344.6597 14.28103350 85315
CZ-6A DEB
1 64632U 24140ADW 26123.19922050  .00003014  00000-0  11784-2 0  9995
2 64632  89.1489 290.3778 0067825  14.7430 345.5721 14.28105398 85354
CZ-6A DEB
1 64632U 24140ADW 26123.19922050  .00003014  00000-0  11784-2 0  9995
2 64632  89.1489 290.3778 0067825  14.7430 345.5721 14.28105398 85354
CZ-6A DEB
1 64632U 24140ADW 26123.89989069  .00002791  00000-0  10906-2 0  9991
2 64632  89.1491 290.3091 0067703  12.4285 347.8559 14.28109017 85450
CZ-6A DEB
1 64632U 24140ADW 26123.89989070  .00002791  00000-0  10906-2 0  9993
2 64632  89.1491 290.3091 0067703  12.4285 347.8559 14.28109017 85450
CZ-6A DEB
1 64632U 24140ADW 26124.46042524  .00002550  00000-0  99603-3 0  9996
2 64632  89.1492 290.2544 0067577  10.5531 349.7063 14.28111671 85534
CZ-6A DEB
1 64632U 24140ADW 26124.46042525  .00002550  00000-0  99603-3 0  9997
2 64632  89.1492 290.2544 0067577  10.5531 349.7063 14.28111671 85534
CZ-6A DEB
1 64632U 24140ADW 26124.88082523  .00002607  00000-0  10187-2 0  9997
2 64632  89.1494 290.2131 0067504   9.1702 351.0708 14.28114421 85596
CZ-6A DEB
1 64632U 24140ADW 26124.88082524  .00002607  00000-0  10187-2 0  9998
2 64632  89.1494 290.2131 0067504   9.1702 351.0708 14.28114421 85596
CZ-6A DEB
1 64632U 24140ADW 26125.44135730  .00002900  00000-0  11336-2 0  9992
2 64632  89.1496 290.1582 0067403   7.3082 352.9079 14.28118725 85677
CZ-6A DEB
1 64632U 24140ADW 26125.86175566  .00002739  00000-0  10703-2 0  9996
2 64632  89.1497 290.1171 0067312   5.9086 354.2887 14.28120687 85738
CZ-6A DEB
1 64632U 24140ADW 26125.86175567  .00002739  00000-0  10703-2 0  9997
2 64632  89.1497 290.1171 0067312   5.9086 354.2887 14.28120687 85738
CZ-6A DEB
1 64632U 24140ADW 26127.40321139  .00002357  00000-0  92050-3 0  9999
2 64632  89.1498 289.9664 0067039   0.7654 359.3631 14.28127847 85954
CZ-6A DEB
1 64632U 24140ADW 26127.89367299  .00002275  00000-0  88847-3 0  9997
2 64632  89.1499 289.9184 0066948 359.1281   0.9786 14.28130051 86027
CZ-6A DEB
1 64632U 24140ADW 26127.89367299  .00002275  00000-0  88847-3 0  9997
2 64632  89.1499 289.9184 0066948 359.1281   0.9786 14.28130051 86027
CZ-6A DEB
1 64632U 24140ADW 26128.87459392  .00002255  00000-0  88048-3 0  9993
2 64632  89.1497 289.8225 0066768 355.8507   4.2125 14.28134598 86163
CZ-6A DEB
1 64632U 24140ADW 26128.87459393  .00002255  00000-0  88048-3 0  9994
2 64632  89.1497 289.8225 0066768 355.8507   4.2125 14.28134598 86163
CZ-6A DEB
1 64632U 24140ADW 26129.43511878  .00002127  00000-0  83045-3 0  9994
2 64632  89.1497 289.7677 0066643 353.9455   6.0926 14.28136694 86243
CZ-6A DEB
1 64632U 24140ADW 26129.85551222  .00001964  00000-0  76631-3 0  9998
2 64632  89.1497 289.7267 0066557 352.5173   7.5022 14.28137833 86300
CZ-6A DEB
1 64632U 24140ADW 26129.85551223  .00001964  00000-0  76631-3 0  9999
2 64632  89.1497 289.7267 0066557 352.5173   7.5022 14.28137833 86300
CZ-6A DEB
1 64632U 24140ADW 26130.41603620  .00001889  00000-0  73705-3 0  9997
2 64632  89.1494 289.6719 0066505 350.6584   9.3368 14.28139831 86387
CZ-6A DEB
1 64632U 24140ADW 26130.69629767  .00001920  00000-0  74894-3 0  9993
2 64632  89.1493 289.6444 0066455 349.7177  10.2653 14.28141048 86428
CZ-6A DEB
1 64632U 24140ADW 26130.69629768  .00001920  00000-0  74894-3 0  9994
2 64632  89.1493 289.6444 0066455 349.7177  10.2653 14.28141048 86428
CZ-6A DEB
1 64632U 24140ADW 26131.18675486  .00001835  00000-0  71559-3 0  9997
2 64632  89.1490 289.5962 0066367 348.0691  11.8927 14.28142775 86490
CZ-6A DEB
1 64632U 24140ADW 26131.39695066  .00001813  00000-0  70690-3 0  9997
2 64632  89.1489 289.5756 0066336 347.3581  12.5946 14.28143544 86523
CZ-6A DEB
1 64632U 24140ADW 26131.39695067  .00001813  00000-0  70690-3 0  9998
2 64632  89.1489 289.5756 0066336 347.3581  12.5946 14.28143544 86523
CZ-6A DEB
1 64632U 24140ADW 26132.37786306  .00001820  00000-0  70967-3 0  9999
2 64632  89.1489 289.4798 0066187 344.0333  15.8774 14.28147178 86668
CZ-6A DEB
1 64632U 24140ADW 26132.37786306  .00001820  00000-0  70967-3 0  9999
2 64632  89.1489 289.4797 0066187 344.0333  15.8774 14.28147178 86667
CZ-6A DEB
1 64632U 24140ADW 26133.84922759  .00001824  00000-0  71139-3 0  9992
2 64632  89.1486 289.3357 0065972 339.0297  20.8193 14.28152305 86871
CZ-6A DEB
1 64632U 24140ADW 26133.84922760  .00001824  00000-0  71139-3 0  9994
2 64632  89.1486 289.3357 0065972 339.0297  20.8193 14.28152305 86871
CZ-6A DEB
1 64632U 24140ADW 26134.69000545  .00001834  00000-0  71550-3 0  9994
2 64632  89.1485 289.2532 0065857 336.1559  23.6587 14.28155040 86995
CZ-6A DEB
1 64632U 24140ADW 26135.88110459  .00001860  00000-0  72555-3 0  9997
2 64632  89.1485 289.1365 0065698 332.0865  27.6810 14.28159165 87161
CZ-6A DEB
1 64632U 24140ADW 26136.37155533  .00001856  00000-0  72415-3 0  9994
2 64632  89.1487 289.0885 0065733 330.4170  29.3311 14.28161504 87233
CZ-6A DEB
1 64632U 24140ADW 26136.86200650  .00001797  00000-0  70086-3 0  9995
2 64632  89.1487 289.0404 0065670 328.7484  30.9813 14.28162870 87308
CZ-6A DEB
1 64632U 24140ADW 26136.86200650  .00001797  00000-0  70086-3 0  9995
2 64632  89.1487 289.0404 0065670 328.7484  30.9813 14.28162870 87308
CZ-6A DEB
1 64632U 24140ADW 26136.86200651  .00001797  00000-0  70086-3 0  9996
2 64632  89.1487 289.0404 0065670 328.7484  30.9813 14.28162870 87308
CZ-6A DEB
1 64632U 24140ADW 26137.42252168  .00001775  00000-0  69219-3 0  9991
2 64632  89.1487 288.9856 0065604 326.8428  32.8662 14.28164612 87388
CZ-6A DEB
1 64632U 24140ADW 26137.42252168  .00001775  00000-0  69219-3 0  9991
2 64632  89.1487 288.9856 0065604 326.8428  32.8662 14.28164612 87388
CZ-6A DEB
1 64632U 24140ADW 26137.84290718  .00001823  00000-0  71128-3 0  9996
2 64632  89.1487 288.9444 0065550 325.4082  34.2856 14.28166398 87443
CZ-6A DEB
1 64632U 24140ADW 26137.84290718  .00001823  00000-0  71128-3 0  9996
2 64632  89.1487 288.9444 0065550 325.4082  34.2856 14.28166398 87443
CZ-6A DEB
1 64632U 24140ADW 26139.87476531  .00001866  00000-0  72791-3 0  9994
2 64632  89.1487 288.7454 0065350 318.4324  41.1911 14.28173957 87731
CZ-6A DEB
1 64632U 24140ADW 26139.87476532  .00001866  00000-0  72791-3 0  9995
2 64632  89.1487 288.7454 0065350 318.4324  41.1911 14.28173957 87731
CZ-6A DEB
1 64632U 24140ADW 26141.34610468  .00001908  00000-0  74439-3 0  9996
2 64632  89.1488 288.6014 0065240 313.3717  46.2053 14.28179724 87945
CZ-6A DEB
1 64632U 24140ADW 26141.34610468  .00001908  00000-0  74439-3 0  9996
2 64632  89.1488 288.6014 0065240 313.3717  46.2053 14.28179724 87945
CZ-6A DEB
1 64632U 24140ADW 26142.11680376  .00001969  00000-0  76860-3 0  9994
2 64632  89.1489 288.5260 0065181 310.7134  48.8410 14.28183142 88053
CZ-6A DEB
1 64632U 24140ADW 26142.67731113  .00002015  00000-0  78636-3 0  9997
2 64632  89.1489 288.4711 0065151 308.7776  50.7609 14.28185673 88131
CZ-6A DEB
1 64632U 24140ADW 26142.67731114  .00002015  00000-0  78636-3 0  9998
2 64632  89.1489 288.4711 0065151 308.7776  50.7609 14.28185673 88131
CZ-6A DEB
1 64632U 24140ADW 26143.37794440  .00002104  00000-0  82167-3 0  9990
2 64632  89.1490 288.4026 0065118 306.3463  53.1732 14.28188992 88234
CZ-6A DEB
1 64632U 24140ADW 26144.35882901  .00002170  00000-0  84728-3 0  9997
2 64632  89.1490 288.3066 0065081 302.9581  56.5366 14.28193333 88379
CZ-6A DEB
1 64632U 24140ADW 26145.33970990  .00002432  00000-0  95007-3 0  9995
2 64632  89.1491 288.2107 0065055 299.5706  59.9015 14.28199189 88515
CZ-6A DEB
1 64632U 24140ADW 26145.33970990  .00002432  00000-0  95007-3 0  9995
2 64632  89.1491 288.2107 0065055 299.5706  59.9015 14.28199189 88515
CZ-6A DEB
1 64632U 24140ADW 26146.81102641  .00003039  00000-0  11884-2 0  9993
2 64632  89.1488 288.0669 0064978 294.4078  65.0345 14.28207876 88721
CZ-6A DEB
1 64632U 24140ADW 26147.37152501  .00003404  00000-0  13315-2 0  9992
2 64632  89.1487 288.0121 0064994 292.4627  66.9694 14.28212385 88806
CZ-6A DEB
1 64632U 24140ADW 26147.37152502  .00003404  00000-0  13315-2 0  9993
2 64632  89.1487 288.0121 0064994 292.4627  66.9694 14.28212385 88806
CZ-6A DEB
1 64632U 24140ADW 26148.14220914  .00003270  00000-0  12790-2 0  9999
2 64632  89.1487 287.9366 0065032 289.7768  69.6422 14.28216483 88918
CZ-6A DEB
1 64632U 24140ADW 26148.14220915  .00003270  00000-0  12790-2 0  9990
2 64632  89.1488 287.9366 0065032 289.7768  69.6422 14.28216484 88910
CZ-6A DEB
1 64632U 24140ADW 26148.35239522  .00003381  00000-0  13223-2 0  9992
2 64632  89.1487 287.9160 0065036 289.0539  70.3619 14.28218189 88948
CZ-6A DEB
1 64632U 24140ADW 26148.84282840  .00003548  00000-0  13879-2 0  9999
2 64632  89.1488 287.8680 0065050 287.3586  72.0501 14.28222022 89013
CZ-6A DEB
1 64632U 24140ADW 26148.84282841  .00003548  00000-0  13879-2 0  9990
2 64632  89.1488 287.8680 0065050 287.3586  72.0501 14.28222022 89013
CZ-6A DEB
1 64632U 24140ADW 26149.82369183  .00003731  00000-0  14592-2 0  9991
2 64632  89.1487 287.7716 0065106 283.9274  75.4686 14.28229221 89153
CZ-6A DEB
1 64632U 24140ADW 26150.80455094  .00003662  00000-0  14322-2 0  9992
2 64632  89.1488 287.6755 0065155 280.5374  78.8485 14.28236006 89292
CZ-6A DEB
1 64632U 24140ADW 26150.80455094  .00003662  00000-0  14322-2 0  9992
2 64632  89.1488 287.6755 0065155 280.5374  78.8485 14.28236006 89292
CZ-6A DEB
1 64632U 24140ADW 26151.36503977  .00003990  00000-0  15608-2 0  9990
2 64632  89.1489 287.6206 0065097 278.7018  80.6807 14.28241343 89371
CZ-6A DEB
1 64632U 24140ADW 26151.36503977  .00003990  00000-0  15608-2 0  9990
2 64632  89.1489 287.6206 0065097 278.7018  80.6807 14.28241343 89371
CZ-6A DEB
1 64632U 24140ADW 26152.34589228  .00003198  00000-0  12496-2 0  9994
2 64632  89.1491 287.5247 0065182 275.2962  84.0798 14.28245803 89511
CZ-6A DEB
1 64632U 24140ADW 26152.34589228  .00003198  00000-0  12496-2 0  9994
2 64632  89.1491 287.5247 0065182 275.2962  84.0798 14.28245803 89511
CZ-6A DEB
1 64632U 24140ADW 26163.34519134  .00003097  00000-0  12074-2 0  9995
2 64632  89.1492 286.4490 0066434 237.7061 121.7688 14.28313741 91083
CZ-6A DEB
1 64632U 24140ADW 26170.28083624  .00002610  00000-0  10150-2 0  9999
2 64632  89.1501 285.7718 0067782 214.4302 145.2493 14.28349298 92077
CZ-6A DEB
1 64632U 24140ADW 26170.77123047  .00002546  00000-0  98981-3 0  9994
2 64632  89.1493 285.7209 0067908 212.9720 146.7232 14.28351166 92141
CZ-6A DEB
1 64632U 24140ADW 26171.26162324  .00002536  00000-0  98551-3 0  9992
2 64632  89.1491 285.6726 0068029 211.4273 148.2849 14.28353600 92218
CZ-6A DEB
1 64632U 24140ADW 26171.26162325  .00002536  00000-0  98551-3 0  9993
2 64632  89.1491 285.6726 0068029 211.4273 148.2849 14.28353600 92218
CZ-6A DEB
1 64632U 24140ADW 26172.73279660  .00002355  00000-0  91475-3 0  9994
2 64632  89.1478 285.5299 0068253 206.4604 153.3100 14.28360543 92422
CZ-6A DEB
1 64632U 24140ADW 26174.76440736  .00002538  00000-0  98546-3 0  9992
2 64632  89.1488 285.3314 0068632 199.7171 160.1369 14.28370638 92714
CZ-6A DEB
1 64632U 24140ADW 26176.72594634  .00003514  00000-0  13659-2 0  9993
2 64632  89.1487 285.1390 0068962 193.3168 166.6210 14.28384780 92996
CZ-6A DEB
1 64632U 24140ADW 26176.72594635  .00003514  00000-0  13659-2 0  9994
2 64632  89.1487 285.1390 0068962 193.3168 166.6210 14.28384780 92996
CZ-6A DEB
1 64632U 24140ADW 26178.26714367  .00003454  00000-0  13420-2 0  9990
2 64632  89.1492 284.9882 0069196 188.2703 171.7358 14.28394648 93213
CZ-6A DEB
1 64632U 24140ADW 26178.26714368  .00003454  00000-0  13420-2 0  9991
2 64632  89.1492 284.9882 0069196 188.2703 171.7358 14.28394649 93214
CZ-6A DEB
1 64632U 24140ADW 26179.73827659  .00003000  00000-0  11643-2 0  9994
2 64632  89.1495 284.8441 0069438 183.5052 176.5666 14.28402968 93423
CZ-6A DEB
1 64632U 24140ADW 26180.71902677  .00003186  00000-0  12365-2 0  9995
2 64632  89.1498 284.7482 0069635 180.3630 179.7526 14.28409484 93561
CZ-6A DEB
1 64632U 24140ADW 26180.71902677  .00003186  00000-0  12365-2 0  9995
2 64632  89.1498 284.7482 0069635 180.3630 179.7526 14.28409484 93561
CZ-6A DEB
1 64632U 24140ADW 26182.75056767  .00003541  00000-0  13743-2 0  9997
2 64632  89.1498 284.5496 0069960 173.8250 186.3825 14.28422941 93851
CZ-6A DEB
1 64632U 24140ADW 26183.73130513  .00003921  00000-0  15217-2 0  9998
2 64632  89.1499 284.4538 0070098 170.6737 189.5779 14.28430205 93997
CZ-6A DEB
1 64632U 24140ADW 26183.73130513  .00003921  00000-0  15217-2 0  9998
2 64632  89.1499 284.4538 0070098 170.6737 189.5779 14.28430205 93997
CZ-6A DEB
1 64632U 24140ADW 26184.71203769  .00003785  00000-0  14687-2 0  9999
2 64632  89.1500 284.3580 0070224 167.5170 192.7786 14.28436357 94138
CZ-6A DEB
1 64632U 24140ADW 26184.71203769  .00003785  00000-0  14687-2 0  9999
2 64632  89.1500 284.3580 0070224 167.5170 192.7786 14.28436357 94138
CZ-6A DEB
1 64632U 24140ADW 26185.69276215  .00005477  00000-0  21264-2 0  9992
2 64632  89.1497 284.2622 0070349 164.4311 195.9071 14.28449795 94277
CZ-6A DEB
1 64632U 24140ADW 26186.25317593  .00005137  00000-0  19939-2 0  9999
2 64632  89.1498 284.2076 0070441 162.6254 197.7376 14.28451727 94355
CZ-6A DEB
1 64632U 24140ADW 26186.25317593  .00005137  00000-0  19939-2 0  9999
2 64632  89.1498 284.2076 0070441 162.6254 197.7376 14.28451727 94355
CZ-6A DEB
1 64632U 24140ADW 26186.53338172  .00004515  00000-0  17517-2 0  9995
2 64632  89.1497 284.1802 0070487 161.7677 198.6069 14.28452361 94397
CZ-6A DEB
1 64632U 24140ADW 26186.53338173  .00004515  00000-0  17517-2 0  9996
2 64632  89.1497 284.1802 0070487 161.7677 198.6069 14.28452361 94397
CZ-6A DEB
1 64632U 24140ADW 26187.23389359  .00003424  00000-0  13270-2 0  9996
2 64632  89.1496 284.1117 0070583 159.5485 200.8562 14.28456007 94490
CZ-6A DEB
1 64632U 24140ADW 26187.72425066  .00002523  00000-0  97620-3 0  9997
2 64632  89.1490 284.0635 0070682 157.9974 202.4282 14.28457722 94563
CZ-6A DEB
1 64632U 24140ADW 26187.72425066  .00002523  00000-0  97620-3 0  9997
2 64632  89.1490 284.0635 0070682 157.9974 202.4282 14.28457722 94563
CZ-6A DEB
1 64632U 24140ADW 26190.24607645  .00002063  00000-0  79675-3 0  9992
2 64632  89.1488 283.8164 0070986 150.0026 210.5266 14.28468590 94920
CZ-6A DEB
1 64632U 24140ADW 26191.22678164  .00001926  00000-0  74367-3 0  9995
2 64632  89.1490 283.7204 0071068 146.8407 213.7274 14.28472110 95068
CZ-6A DEB
1 64632U 24140ADW 26193.67853308  .00001650  00000-0  63589-3 0  9999
2 64632  89.1496 283.4806 0071288 139.0467 221.6114 14.28480271 95410
CZ-6A DEB
1 64632U 24140ADW 26193.67853309  .00001650  00000-0  63589-3 0  9990
2 64632  89.1496 283.4806 0071288 139.0467 221.6114 14.28480271 95410
CZ-6A DEB
1 64632U 24140ADW 26194.51912933  .00001616  00000-0  62277-3 0  9998
2 64632  89.1495 283.3982 0071323 136.4784 224.2070 14.28483015 95538
CZ-6A DEB
1 64632U 24140ADW 26194.51912934  .00001616  00000-0  62277-3 0  9999
2 64632  89.1495 283.3982 0071323 136.4784 224.2070 14.28483015 95538
CZ-6A DEB
1 64632U 24140ADW 26195.21962514  .00001597  00000-0  61531-3 0  9996
2 64632  89.1495 283.3298 0071367 134.2725 226.4357 14.28485331 95633
CZ-6A DEB
1 64632U 24140ADW 26195.21962515  .00001597  00000-0  61531-3 0  9997
2 64632  89.1495 283.3298 0071367 134.2725 226.4357 14.28485331 95633
CZ-6A DEB
1 64632U 24140ADW 26196.20031734  .00001514  00000-0  58294-3 0  9998
2 64632  89.1495 283.2338 0071405 131.1756 229.5628 14.28488226 95776
CZ-6A DEB
1 64632U 24140ADW 26196.20031734  .00001514  00000-0  58294-3 0  9998
2 64632  89.1495 283.2338 0071405 131.1756 229.5628 14.28488226 95776
CZ-6A DEB
1 64632U 24140ADW 26197.67135066  .00001489  00000-0  57297-3 0  9996
2 64632  89.1493 283.0901 0071485 126.5491 234.2313 14.28492893 95982
CZ-6A DEB
1 64632U 24140ADW 26197.67135066  .00001489  00000-0  57297-3 0  9996
2 64632  89.1493 283.0900 0071485 126.5491 234.2313 14.28492893 95981
CZ-6A DEB
1 64632U 24140ADW 26198.65203675  .00001409  00000-0  54180-3 0  9997
2 64632  89.1491 282.9941 0071460 123.4334 237.3722 14.28495194 96129
CZ-6A DEB
1 64632U 24140ADW 26198.65203675  .00001409  00000-0  54180-3 0  9997
2 64632  89.1491 282.9941 0071460 123.4334 237.3722 14.28495194 96129
CZ-6A DEB
1 64632U 24140ADW 26199.21242759  .00001413  00000-0  54342-3 0  9991
2 64632  89.1490 282.9395 0071514 121.7203 239.0989 14.28497271 96208
CZ-6A DEB
1 64632U 24140ADW 26200.19311010  .00001413  00000-0  54349-3 0  9995
2 64632  89.1490 282.8432 0071472 118.5817 242.2594 14.28499879 96346
CZ-6A DEB
1 64632U 24140ADW 26200.47330461  .00001409  00000-0  54184-3 0  9999
2 64632  89.1490 282.8156 0071472 117.7006 243.1465 14.28500671 96384
CZ-6A DEB
1 64632U 24140ADW 26200.68345017  .00001361  00000-0  52325-3 0  9997
2 64632  89.1489 282.7949 0071471 117.0462 243.8050 14.28501120 96410
CZ-6A DEB
1 64632U 24140ADW 26200.68345018  .00001361  00000-0  52325-3 0  9998
2 64632  89.1489 282.7949 0071471 117.0463 243.8050 14.28501120 96411
CZ-6A DEB
1 64632U 24140ADW 26202.22451510  .00001849  00000-0  71260-3 0  9995
2 64632  89.1487 282.6441 0071466 112.1776 248.7022 14.28508409 96636
CZ-6A DEB
1 64632U 24140ADW 26203.48537887  .00002083  00000-0  80377-3 0  9996
2 64632  89.1487 282.5207 0071449 108.2070 252.6919 14.28514437 96816
CZ-6A DEB
1 64632U 24140ADW 26204.18585691  .00002290  00000-0  88391-3 0  9994
2 64632  89.1486 282.4521 0071441 105.9828 254.9252 14.28518191 96917
CZ-6A DEB
1 64632U 24140ADW 26205.16652055  .00002730  00000-0  10548-2 0  9999
2 64632  89.1486 282.3561 0071405 102.8831 258.0352 14.28525261 97058
CZ-6A DEB
1 64632U 24140ADW 26206.21722984  .00002762  00000-0  10673-2 0  9999
2 64632  89.1487 282.2531 0071410  99.6243 261.3030 14.28529958 97205
CZ-6A DEB
1 64632U 24140ADW 26206.63751142  .00002746  00000-0  10609-2 0  9994
2 64632  89.1490 282.2120 0071401  98.2959 262.6340 14.28532307 97268
CZ-6A DEB
1 64632U 24140ADW 26207.19788561  .00002934  00000-0  11338-2 0  9990
2 64632  89.1489 282.1571 0071370  96.5195 264.4131 14.28536036 97343
CZ-6A DEB
1 64632U 24140ADW 26207.47807210  .00002989  00000-0  11552-2 0  9992
2 64632  89.1489 282.1296 0071349  95.6397 265.2939 14.28537765 97386
CZ-6A DEB
1 64632U 24140ADW 26208.17853722  .00002825  00000-0  10912-2 0  9997
2 64632  89.1489 282.0610 0071294  93.4284 267.5070 14.28541089 97481
CZ-6A DEB
1 64632U 24140ADW 26208.94904647  .00002874  00000-0  11105-2 0  9994
2 64632  89.1490 281.9858 0071222  91.0023 269.9333 14.28545257 97592
CZ-6A DEB
1 64632U 24140ADW 26209.64950727  .00002725  00000-0  10528-2 0  9995
2 64632  89.1491 281.9174 0071152  88.7907 272.1439 14.28548503 97691
CZ-6A DEB
1 64632U 24140ADW 26210.20987427  .00002740  00000-0  10583-2 0  9994
2 64632  89.1490 281.8626 0071108  87.0165 273.9164 14.28551589 97771
CZ-6A DEB
1 64632U 24140ADW 26210.91033145  .00002633  00000-0  10167-2 0  9990
2 64632  89.1487 281.7940 0071044  84.7996 276.1302 14.28554882 97879
CZ-6A DEB
1 64632U 24140ADW 26211.68083159  .00002723  00000-0  10517-2 0  9994
2 64632  89.1485 281.7185 0070872  82.3683 278.5554 14.28559274 97980
CZ-6A DEB
1 64632U 24140ADW 26212.17114902  .00002327  00000-0  89806-3 0  9998
2 64632  89.1484 281.6706 0070847  80.8121 280.1080 14.28560571 98053
CZ-6A DEB
1 64632U 24140ADW 26213.15178055  .00002369  00000-0  91433-3 0  9991
2 64632  89.1481 281.5746 0070766  77.6867 283.2239 14.28565828 98199
CZ-6A DEB
1 64632U 24140ADW 26214.13240897  .00002333  00000-0  90032-3 0  9999
2 64632  89.1480 281.4785 0070647  74.5695 286.3289 14.28570268 98332
CZ-6A DEB
1 64632U 24140ADW 26214.13240897  .00002333  00000-0  90032-3 0  9999
2 64632  89.1480 281.4785 0070647  74.5695 286.3289 14.28570268 98332
CZ-6A DEB
1 64632U 24140ADW 26214.62272217  .00002191  00000-0  84506-3 0  9995
2 64632  89.1479 281.4305 0070607  73.0097 287.8821 14.28571916 98401
CZ-6A DEB
1 64632U 24140ADW 26214.62272217  .00002191  00000-0  84506-3 0  9995
2 64632  89.1479 281.4305 0070607  73.0097 287.8821 14.28571916 98401
CZ-6A DEB
1 64632U 24140ADW 26217.14431733  .00001837  00000-0  70796-3 0  9997
2 64632  89.1472 281.1830 0070316  64.9476 295.8997 14.28582348 98764
CZ-6A DEB
1 64632U 24140ADW 26221.13680823  .00001365  00000-0  52465-3 0  9996
2 64632  89.1476 280.7913 0069725  52.1186 308.6287 14.28593643 99333
CZ-6A DEB
1 64632U 24140ADW 26221.13680823  .00001365  00000-0  52465-3 0  9996
2 64632  89.1476 280.7913 0069725  52.1186 308.6287 14.28593643 99333
CZ-6A DEB
1 64632U 24140ADW 26221.62711171  .00001359  00000-0  52221-3 0  9994
2 64632  89.1476 280.7434 0069647  50.5409 310.1920 14.28594913 99405
CZ-6A DEB
1 64632U 24140ADW 26222.11741448  .00001371  00000-0  52713-3 0  9999
2 64632  89.1477 280.6953 0069561  48.9471 311.7706 14.28596323 99479
CZ-6A DEB
1 64632U 24140ADW 26222.60771691  .00001337  00000-0  51371-3 0  9997
2 64632  89.1477 280.6473 0069483  47.3580 313.3442 14.28597526 99542
CZ-6A DEB
1 64632U 24140ADW 26222.60771692  .00001337  00000-0  51371-3 0  9998
2 64632  89.1477 280.6473 0069483  47.3580 313.3442 14.28597526 99542
CZ-6A DEB
1 64632U 24140ADW 26223.58832022  .00001284  00000-0  49340-3 0  9995
2 64632  89.1475 280.5515 0069398  44.1387 316.5316 14.28599858 99681
CZ-6A DEB
1 64632U 24140ADW 26223.58832023  .00001284  00000-0  49340-3 0  9996
2 64632  89.1475 280.5515 0069398  44.1387 316.5316 14.28599858 99681
CZ-6A DEB
1 64632U 24140ADW 26224.42883545  .00001217  00000-0  46722-3 0  9992
2 64632  89.1475 280.4690 0069189  41.4056 319.2353 14.28601667 99802
CZ-6A DEB
1 64632U 24140ADW 26224.42883546  .00001217  00000-0  46722-3 0  9993
2 64632  89.1475 280.4690 0069189  41.4056 319.2353 14.28601667 99802
CZ-6A DEB
1 64632U 24140ADW 26225.40943495  .00001267  00000-0  48673-3 0  9994
2 64632  89.1475 280.3730 0069015  38.2107 322.3950 14.28604463 99945
CZ-6A DEB
1 64632U 24140ADW 26225.40943496  .00001267  00000-0  48673-3 0  9995
2 64632  89.1475 280.3730 0069015  38.2107 322.3950 14.28604463 99945
CZ-6A DEB
1 64632U 24140ADW 26226.10986186  .00001288  00000-0  49513-3 0  9993
2 64632  89.1473 280.3041 0068920  35.9327 324.6473 14.28606447100043
CZ-6A DEB
1 64632U 24140ADW 26226.10986187  .00001288  00000-0  49513-3 0  9994
2 64632  89.1473 280.3041 0068920  35.9327 324.6473 14.28606447100043
CZ-6A DEB
1 64632U 24140ADW 26227.16050045  .00001330  00000-0  51140-3 0  9993
2 64632  89.1471 280.2011 0068745  32.5052 328.0347 14.28609379100191
CZ-6A DEB
1 64632U 24140ADW 26227.16050046  .00001330  00000-0  51140-3 0  9994
2 64632  89.1471 280.2011 0068745  32.5052 328.0347 14.28609379100191
CZ-6A DEB
1 64632U 24140ADW 26228.56134792  .00001431  00000-0  55065-3 0  9992
2 64632  89.1470 280.0638 0068506  27.9310 332.5535 14.28613621100399
CZ-6A DEB
1 64632U 24140ADW 26229.12168580  .00001544  00000-0  59461-3 0  9996
2 64632  89.1470 280.0088 0068418  26.0906 334.3710 14.28615704100479
CZ-6A DEB
1 64632U 24140ADW 26230.10227479  .00001688  00000-0  65064-3 0  9994
2 64632  89.1470 279.9127 0068237  22.8533 337.5674 14.28619316100612
CZ-6A DEB
1 64632U 24140ADW 26230.59256809  .00001866  00000-0  72000-3 0  9992
2 64632  89.1470 279.8646 0068155  21.2363 339.1636 14.28621838100685
CZ-6A DEB
1 64632U 24140ADW 26231.08286117  .00001936  00000-0  74726-3 0  9997
2 64632  89.1469 279.8165 0068090  19.6333 340.7460 14.28623723100751
CZ-6A DEB
1 64632U 24140ADW 26231.08286117  .00001936  00000-0  74726-3 0  9997
2 64632  89.1469 279.8165 0068090  19.6333 340.7460 14.28623723100751
CZ-6A DEB
1 64632U 24140ADW 26232.55373594  .00001949  00000-0  75213-3 0  9992
2 64632  89.1467 279.6720 0067836  14.7786 345.5371 14.28628735100964
CZ-6A DEB
1 64632U 24140ADW 26233.11406722  .00002055  00000-0  79356-3 0  9996
2 64632  89.1467 279.6170 0067749  12.9321 347.3591 14.28631414101043
CZ-6A DEB
1 64632U 24140ADW 26234.09464536  .00002046  00000-0  78992-3 0  9996
2 64632  89.1467 279.5208 0067577   9.6700 350.5777 14.28634975101189
CZ-6A DEB
1 64632U 24140ADW 26235.07522082  .00002020  00000-0  78016-3 0  9995
2 64632  89.1467 279.4246 0067425   6.4102 353.7940 14.28638576101327
CZ-6A DEB
1 64632U 24140ADW 26235.56550746  .00001991  00000-0  76874-3 0  9993
2 64632  89.1467 279.3765 0067337   4.7702 355.4120 14.28640341101390
CZ-6A DEB
1 64632U 24140ADW 26236.40599694  .00002014  00000-0  77777-3 0  9992
2 64632  89.1468 279.2941 0067184   1.9524 358.1920 14.28643843101519
CZ-6A DEB
1 64632U 24140ADW 26236.54607840  .00002004  00000-0  77371-3 0  9999
2 64632  89.1468 279.2804 0067156   1.4827 358.6555 14.28644351101533
CZ-6A DEB
1 64632U 24140ADW 26238.57725301  .00002281  00000-0  88181-3 0  9995
2 64632  89.1467 279.0810 0066837 354.6749   5.3727 14.28653848101828
CZ-6A DEB
1 64632U 24140ADW 26238.57725302  .00002281  00000-0  88181-3 0  9996
2 64632  89.1467 279.0810 0066837 354.6749   5.3727 14.28653848101828
CZ-6A DEB
1 64632U 24140ADW 26239.55781582  .00002329  00000-0  90045-3 0  9992
2 64632  89.1468 278.9850 0066734 351.3586   8.6453 14.28658077101966
CZ-6A DEB
1 64632U 24140ADW 26239.55781583  .00002329  00000-0  90045-3 0  9993
2 64632  89.1468 278.9850 0066734 351.3586   8.6453 14.28658077101966
CZ-6A DEB
1 64632U 24140ADW 26240.53837705  .00002125  00000-0  82105-3 0  9993
2 64632  89.1467 278.8887 0066591 348.0616  11.8997 14.28660649102106
CZ-6A DEB
1 64632U 24140ADW 26240.53837705  .00002125  00000-0  82105-3 0  9993
2 64632  89.1467 278.8887 0066591 348.0616  11.8997 14.28660649102106
CZ-6A DEB
1 64632U 24140ADW 26243.55008153  .00001936  00000-0  74749-3 0  9999
2 64632  89.1463 278.5930 0066185 337.8835  21.9506 14.28671964102533
CZ-6A DEB
1 64632U 24140ADW 26243.55008153  .00001936  00000-0  74749-3 0  9999
2 64632  89.1463 278.5930 0066185 337.8835  21.9506 14.28671964102533
CZ-6A DEB
1 64632U 24140ADW 26244.53063102  .00001711  00000-0  66005-3 0  9990
2 64632  89.1461 278.4969 0066000 334.4892  25.3049 14.28675877102676
CZ-6A DEB
1 64632U 24140ADW 26244.53063103  .00001711  00000-0  66005-3 0  9991
2 64632  89.1461 278.4969 0066000 334.4892  25.3049 14.28675877102676
