CZ-6A R/B DEB
1 64637U 24140AEB 25176.41114585  .00003631  00000-0  13002-2 0  9998
2 64637  89.0191 314.8610 0008585 244.8321 115.1987 14.33820149 40190
TBA - TO BE ASSIGNED
1 64637U 24140AEB 25176.41114585  .00003631  00000-0  13002-2 0  9998
2 64637  89.0191 314.8610 0008585 244.8321 115.1987 14.33820149 40190
CZ-6A R/B DEB
1 64637U 24140AEB 25181.85458724  .00003982  00000-0  14252-2 0  9995
2 64637  89.0194 314.2422 0009498 223.8739 136.1705 14.33862130 40975
CZ-6A R/B DEB
1 64637U 24140AEB 25181.85458724  .00003982  00000-0  14252-2 0  9995
2 64637  89.0194 314.2422 0009498 223.8739 136.1705 14.33862130 40975
CZ-6A R/B DEB
1 64637U 24140AEB 25183.32010160  .00004001  00000-0  14314-2 0  9999
2 64637  89.0190 314.0749 0009745 218.1611 141.8898 14.33873930 41182
CZ-6A R/B DEB
1 64637U 24140AEB 25183.32010160  .00004001  00000-0  14314-2 0  9999
2 64637  89.0190 314.0749 0009745 218.1611 141.8898 14.33873930 41182
CZ-6A R/B DEB
1 64637U 24140AEB 25184.08774638  .00004676  00000-0  16734-2 0  9996
2 64637  89.0188 313.9874 0009886 215.4591 144.5951 14.33882126 41298
CZ-6A R/B DEB
1 64637U 24140AEB 25185.06474399  .00004479  00000-0  16027-2 0  9992
2 64637  89.0185 313.8761 0010072 212.0583 148.0003 14.33890073 41435
CZ-6A R/B DEB
1 64637U 24140AEB 25185.41366998  .00004721  00000-0  16893-2 0  9997
2 64637  89.0186 313.8365 0010142 210.8881 149.1721 14.33893936 41486
CZ-6A R/B DEB
1 64637U 24140AEB 25186.32087420  .00004864  00000-0  17402-2 0  9993
2 64637  89.0187 313.7331 0010333 207.9687 152.0957 14.33902706 41617
CZ-6A R/B DEB
1 64637U 24140AEB 25186.32087420  .00004864  00000-0  17402-2 0  9993
2 64637  89.0187 313.7331 0010333 207.9687 152.0957 14.33902706 41617
CZ-6A R/B DEB
1 64637U 24140AEB 25188.83310415  .00004075  00000-0  14566-2 0  9996
2 64637  89.0189 313.4467 0010820 199.8432 160.2346 14.33924667 41976
CZ-6A R/B DEB
1 64637U 24140AEB 25188.83310415  .00004075  00000-0  14566-2 0  9996
2 64637  89.0189 313.4467 0010820 199.8432 160.2346 14.33924667 41976
CZ-6A R/B DEB
1 64637U 24140AEB 25189.32158895  .00003945  00000-0  14097-2 0  9997
2 64637  89.0190 313.3911 0010910 198.3621 161.7185 14.33928624 42048
CZ-6A R/B DEB
1 64637U 24140AEB 25189.87985548  .00003745  00000-0  13379-2 0  9990
2 64637  89.0190 313.3273 0011015 196.5662 163.5178 14.33933112 42120
CZ-6A R/B DEB
1 64637U 24140AEB 25190.08920504  .00003676  00000-0  13132-2 0  9996
2 64637  89.0191 313.3034 0011056 195.9120 164.1732 14.33934630 42155
CZ-6A R/B DEB
1 64637U 24140AEB 25190.29855443  .00003620  00000-0  12930-2 0  9992
2 64637  89.0191 313.2796 0011088 195.2523 164.8342 14.33936214 42181
CZ-6A R/B DEB
1 64637U 24140AEB 25191.06616698  .00003311  00000-0  11821-2 0  9990
2 64637  89.0192 313.1920 0011239 192.8741 167.2171 14.33941306 42290
CZ-6A R/B DEB
1 64637U 24140AEB 25192.60138425  .00003381  00000-0  12067-2 0  9998
2 64637  89.0195 313.0172 0011527 188.2412 171.8598 14.33951765 42514
CZ-6A R/B DEB
1 64637U 24140AEB 25192.60138425  .00003381  00000-0  12067-2 0  9998
2 64637  89.0195 313.0172 0011527 188.2412 171.8598 14.33951765 42514
CZ-6A R/B DEB
1 64637U 24140AEB 25193.36898833  .00004013  00000-0  14331-2 0  9997
2 64637  89.0195 312.9299 0011681 186.1728 173.9327 14.33958608 42628
CZ-6A R/B DEB
1 64637U 24140AEB 25193.71789846  .00003829  00000-0  13672-2 0  9990
2 64637  89.0194 312.8901 0011747 185.1441 174.9638 14.33960575 42677
CZ-6A R/B DEB
1 64637U 24140AEB 25193.71789846  .00003829  00000-0  13672-2 0  9990
2 64637  89.0194 312.8901 0011747 185.1441 174.9638 14.33960575 42677
CZ-6A R/B DEB
1 64637U 24140AEB 25194.27615244  .00004316  00000-0  15413-2 0  9999
2 64637  89.0197 312.8268 0011841 183.5039 176.6078 14.33966340 42758
CZ-6A R/B DEB
1 64637U 24140AEB 25195.39265576  .00003799  00000-0  13561-2 0  9998
2 64637  89.0196 312.6998 0012030 180.2107 179.9088 14.33974365 42917
CZ-6A R/B DEB
1 64637U 24140AEB 25195.39265576  .00003799  00000-0  13561-2 0  9998
2 64637  89.0196 312.6998 0012030 180.2107 179.9088 14.33974365 42917
CZ-6A R/B DEB
1 64637U 24140AEB 25196.57893228  .00004268  00000-0  15234-2 0  9991
2 64637  89.0194 312.5648 0012225 176.8619 183.2658 14.33985354 43081
CZ-6A R/B DEB
1 64637U 24140AEB 25196.71849364  .00004259  00000-0  15204-2 0  9996
2 64637  89.0193 312.5489 0012251 176.4746 183.6540 14.33986599 43108
CZ-6A R/B DEB
1 64637U 24140AEB 25197.55586004  .00004138  00000-0  14768-2 0  9998
2 64637  89.0190 312.4535 0012380 174.0998 186.0348 14.33993027 43222
CZ-6A R/B DEB
1 64637U 24140AEB 25200.27726932  .00004149  00000-0  14798-2 0  9993
2 64637  89.0184 312.1433 0012785 166.7393 193.4143 14.34017584 43619
CZ-6A R/B DEB
1 64637U 24140AEB 25200.27726932  .00004149  00000-0  14798-2 0  9993
2 64637  89.0184 312.1433 0012785 166.7393 193.4143 14.34017584 43619
CZ-6A R/B DEB
1 64637U 24140AEB 25201.25417338  .00004370  00000-0  15585-2 0  9990
2 64637  89.0186 312.0319 0012904 163.9139 196.2471 14.34027532 43757
CZ-6A R/B DEB
1 64637U 24140AEB 25201.74262334  .00004236  00000-0  15106-2 0  9998
2 64637  89.0187 311.9762 0012974 162.6049 197.5596 14.34031657 43824
CZ-6A R/B DEB
1 64637U 24140AEB 25201.74262334  .00004236  00000-0  15106-2 0  9998
2 64637  89.0187 311.9762 0012974 162.6049 197.5596 14.34031657 43824
CZ-6A R/B DEB
1 64637U 24140AEB 25202.57996209  .00004457  00000-0  15894-2 0  9994
2 64637  89.0189 311.8807 0013073 160.3339 199.8365 14.34039917 43942
CZ-6A DEB
1 64637U 24140AEB 25203.20796346  .00004642  00000-0  16550-2 0  9991
2 64637  89.0190 311.8090 0013147 158.6768 201.4980 14.34046042 44037
CZ-6A R/B DEB
1 64637U 24140AEB 25203.20796346  .00004642  00000-0  16550-2 0  9991
2 64637  89.0190 311.8090 0013147 158.6768 201.4980 14.34046042 44037
CZ-6A DEB
1 64637U 24140AEB 25204.25462541  .00006069  00000-0  21647-2 0  9992
2 64637  89.0195 311.6900 0013237 156.0646 204.1169 14.34059699 44184
CZ-6A DEB
1 64637U 24140AEB 25204.25462541  .00006069  00000-0  21647-2 0  9992
2 64637  89.0195 311.6900 0013237 156.0646 204.1169 14.34059699 44184
CZ-6A DEB
1 64637U 24140AEB 25205.30127761  .00006463  00000-0  23045-2 0  9993
2 64637  89.0197 311.5709 0013332 153.3479 206.8407 14.34072824 44338
CZ-6A DEB
1 64637U 24140AEB 25205.30127761  .00006463  00000-0  23045-2 0  9993
2 64637  89.0197 311.5709 0013332 153.3479 206.8407 14.34072824 44338
CZ-6A DEB
1 64637U 24140AEB 25206.48747111  .00005683  00000-0  20256-2 0  9994
2 64637  89.0199 311.4359 0013456 150.1260 210.0709 14.34087124 44500
CZ-6A DEB
1 64637U 24140AEB 25206.48747111  .00005683  00000-0  20256-2 0  9994
2 64637  89.0199 311.4359 0013456 150.1260 210.0709 14.34087124 44500
CZ-6A DEB
1 64637U 24140AEB 25207.53410302  .00005484  00000-0  19540-2 0  9993
2 64637  89.0195 311.3164 0013509 147.3646 212.8389 14.34099144 44659
CZ-6A DEB
1 64637U 24140AEB 25208.51095119  .00005688  00000-0  20264-2 0  9998
2 64637  89.0193 311.2054 0013579 144.7985 215.4112 14.34110821 44792
CZ-6A DEB
1 64637U 24140AEB 25208.72027485  .00005714  00000-0  20355-2 0  9993
2 64637  89.0193 311.1815 0013600 144.2581 215.9530 14.34113351 44822
CZ-6A DEB
1 64637U 24140AEB 25208.72027485  .00005714  00000-0  20355-2 0  9993
2 64637  89.0193 311.1815 0013600 144.2581 215.9530 14.34113351 44822
CZ-6A DEB
1 64637U 24140AEB 25209.27846935  .00005182  00000-0  18455-2 0  9990
2 64637  89.0192 311.1181 0013631 142.9052 217.3091 14.34118849 44903
CZ-6A DEB
1 64637U 24140AEB 25210.46462532  .00005533  00000-0  19702-2 0  9996
2 64637  89.0187 310.9832 0013698 139.9662 220.2548 14.34132382 45070
CZ-6A DEB
1 64637U 24140AEB 25210.46462532  .00005533  00000-0  19702-2 0  9996
2 64637  89.0187 310.9832 0013698 139.9662 220.2548 14.34132382 45070
CZ-6A DEB
1 64637U 24140AEB 25211.51122425  .00005898  00000-0  20996-2 0  9998
2 64637  89.0185 310.8640 0013733 137.2717 222.9551 14.34144717 45221
CZ-6A DEB
1 64637U 24140AEB 25211.51122425  .00005898  00000-0  20996-2 0  9998
2 64637  89.0185 310.8640 0013733 137.2717 222.9551 14.34144717 45221
CZ-6A DEB
1 64637U 24140AEB 25214.02302192  .00005473  00000-0  19470-2 0  9992
2 64637  89.0182 310.5777 0013792 130.7802 229.4595 14.34175224 45580
CZ-6A DEB
1 64637U 24140AEB 25214.44164962  .00005350  00000-0  19029-2 0  9993
2 64637  89.0181 310.5298 0013806 129.7412 230.5005 14.34180086 45646
CZ-6A DEB
1 64637U 24140AEB 25215.69752520  .00004795  00000-0  17046-2 0  9993
2 64637  89.0182 310.3863 0013819 126.5344 233.7129 14.34193127 45828
CZ-6A DEB
1 64637U 24140AEB 25215.69752520  .00004795  00000-0  17046-2 0  9993
2 64637  89.0182 310.3863 0013819 126.5344 233.7129 14.34193127 45828
CZ-6A DEB
1 64637U 24140AEB 25216.46499990  .00004919  00000-0  17486-2 0  9994
2 64637  89.0184 310.2989 0013849 124.4518 235.7991 14.34200667 45930
CZ-6A DEB
1 64637U 24140AEB 25217.02316051  .00004870  00000-0  17309-2 0  9993
2 64637  89.0185 310.2352 0013849 123.0895 237.1635 14.34206085 46019
CZ-6A DEB
1 64637U 24140AEB 25217.44177949  .00004750  00000-0  16882-2 0  9992
2 64637  89.0186 310.1876 0013835 122.0599 238.1944 14.34209943 46071
CZ-6A DEB
1 64637U 24140AEB 25218.48832221  .00004493  00000-0  15961-2 0  9999
2 64637  89.0188 310.0682 0013822 119.4275 240.8305 14.34219449 46224
CZ-6A DEB
1 64637U 24140AEB 25219.25578243  .00004446  00000-0  15791-2 0  9995
2 64637  89.0189 309.9808 0013811 117.5099 242.7505 14.34226467 46336
CZ-6A DEB
1 64637U 24140AEB 25219.95347079  .00004582  00000-0  16275-2 0  9992
2 64637  89.0190 309.9013 0013791 115.7543 244.5080 14.34232482 46430
CZ-6A DEB
1 64637U 24140AEB 25220.44185120  .00004386  00000-0  15575-2 0  9999
2 64637  89.0190 309.8458 0013762 114.5082 245.7552 14.34236046 46500
CZ-6A DEB
1 64637U 24140AEB 25221.20930168  .00005058  00000-0  17964-2 0  9995
2 64637  89.0189 309.7585 0013707 112.6130 247.6520 14.34244857 46617
CZ-6A DEB
1 64637U 24140AEB 25221.20930168  .00005058  00000-0  17964-2 0  9995
2 64637  89.0189 309.7585 0013707 112.6130 247.6520 14.34244857 46617
CZ-6A DEB
1 64637U 24140AEB 25222.46511934  .00005954  00000-0  21149-2 0  9995
2 64637  89.0188 309.6156 0013647 109.4550 250.8124 14.34260575 46792
CZ-6A DEB
1 64637U 24140AEB 25222.46511934  .00005954  00000-0  21149-2 0  9995
2 64637  89.0188 309.6156 0013647 109.4550 250.8124 14.34260575 46792
CZ-6A DEB
1 64637U 24140AEB 25222.95348911  .00006110  00000-0  21699-2 0  9997
2 64637  89.0186 309.5600 0013645 108.1359 252.1326 14.34267057 46863
CZ-6A DEB
1 64637U 24140AEB 25223.99998940  .00005418  00000-0  19233-2 0  9996
2 64637  89.0184 309.4408 0013579 105.4780 254.7919 14.34278001 47015
CZ-6A DEB
1 64637U 24140AEB 25224.48835396  .00005474  00000-0  19431-2 0  9998
2 64637  89.0182 309.3851 0013538 104.1666 256.1037 14.34282884 47086
CZ-6A DEB
1 64637U 24140AEB 25225.46507733  .00004676  00000-0  16592-2 0  9996
2 64637  89.0178 309.2736 0013477 101.6574 258.6137 14.34291455 47222
CZ-6A DEB
1 64637U 24140AEB 25225.46507733  .00004676  00000-0  16592-2 0  9996
2 64637  89.0178 309.2736 0013477 101.6574 258.6137 14.34291455 47222
CZ-6A DEB
1 64637U 24140AEB 25225.95343643  .00004885  00000-0  17333-2 0  9994
2 64637  89.0176 309.2180 0013446 100.3494 259.9221 14.34296887 47295
CZ-6A DEB
1 64637U 24140AEB 25227.20921013  .00004695  00000-0  16653-2 0  9990
2 64637  89.0174 309.0746 0013353  97.1067 263.1650 14.34308872 47476
CZ-6A DEB
1 64637U 24140AEB 25227.48826936  .00004625  00000-0  16402-2 0  9993
2 64637  89.0174 309.0426 0013357  96.4040 263.8680 14.34311442 47510
CZ-6A DEB
1 64637U 24140AEB 25228.25567998  .00004060  00000-0  14394-2 0  9990
2 64637  89.0174 308.9549 0013269  94.3880 265.8834 14.34317653 47620
CZ-6A DEB
1 64637U 24140AEB 25228.25567998  .00004060  00000-0  14394-2 0  9990
2 64637  89.0174 308.9549 0013269  94.3880 265.8834 14.34317653 47620
CZ-6A DEB
1 64637U 24140AEB 25230.48812878  .00004005  00000-0  14191-2 0  9992
2 64637  89.0178 308.7001 0013051  88.4398 271.8295 14.34335478 47940
CZ-6A DEB
1 64637U 24140AEB 25230.48812878  .00004005  00000-0  14191-2 0  9992
2 64637  89.0178 308.7001 0013051  88.4398 271.8295 14.34335478 47940
CZ-6A DEB
1 64637U 24140AEB 25230.97647298  .00004452  00000-0  15781-2 0  9990
2 64637  89.0179 308.6444 0012994  87.1265 273.1420 14.34340502 48013
CZ-6A DEB
1 64637U 24140AEB 25232.23220872  .00004887  00000-0  17322-2 0  9991
2 64637  89.0181 308.5010 0012857  83.7327 276.5336 14.34352188 48198
CZ-6A DEB
1 64637U 24140AEB 25232.23220872  .00004887  00000-0  17322-2 0  9991
2 64637  89.0181 308.5010 0012857  83.7327 276.5336 14.34352188 48198
CZ-6A DEB
1 64637U 24140AEB 25232.92983558  .00004527  00000-0  16042-2 0  9993
2 64637  89.0179 308.4213 0012725  81.8390 278.4251 14.34357335 48299
CZ-6A DEB
1 64637U 24140AEB 25234.39484218  .00003944  00000-0  13967-2 0  9990
2 64637  89.0180 308.2545 0012518  77.8633 282.3967 14.34368862 48501
CZ-6A DEB
1 64637U 24140AEB 25235.92959912  .00003854  00000-0  13645-2 0  9991
2 64637  89.0177 308.0798 0012346  73.4639 286.7914 14.34380398 48724
CZ-6A DEB
1 64637U 24140AEB 25236.20864446  .00003910  00000-0  13843-2 0  9993
2 64637  89.0176 308.0480 0012305  72.7113 287.5430 14.34382686 48763
CZ-6A DEB
1 64637U 24140AEB 25236.97601674  .00004320  00000-0  15297-2 0  9990
2 64637  89.0174 307.9605 0012212  70.5925 289.6592 14.34389513 48872
CZ-6A DEB
1 64637U 24140AEB 25237.95266674  .00005026  00000-0  17800-2 0  9992
2 64637  89.0171 307.8491 0012058  67.8250 292.4226 14.34399431 49012
CZ-6A DEB
1 64637U 24140AEB 25238.92931012  .00005399  00000-0  19121-2 0  9996
2 64637  89.0168 307.7377 0011897  65.0688 295.1745 14.34409446 49154
CZ-6A DEB
1 64637U 24140AEB 25241.16160564  .00006993  00000-0  24762-2 0  9990
2 64637  89.0165 307.4826 0011527  58.4493 301.7830 14.34439970 49476
CZ-6A DEB
1 64637U 24140AEB 25241.44063933  .00007061  00000-0  25004-2 0  9990
2 64637  89.0164 307.4508 0011482  57.6550 302.5759 14.34443664 49516
CZ-6A DEB
1 64637U 24140AEB 25241.92894605  .00006990  00000-0  24749-2 0  9996
2 64637  89.0165 307.3949 0011379  56.1368 304.0912 14.34450407 49589
CZ-6A DEB
1 64637U 24140AEB 25243.18457993  .00008232  00000-0  29137-2 0  9998
2 64637  89.0165 307.2513 0011191  52.3767 307.8445 14.34471805 49765
CZ-6A DEB
1 64637U 24140AEB 25244.16117216  .00008620  00000-0  30501-2 0  9996
2 64637  89.0166 307.1395 0011069  49.5950 310.6212 14.34487709 49909
CZ-6A DEB
1 64637U 24140AEB 25244.44019658  .00008681  00000-0  30715-2 0  9992
2 64637  89.0167 307.1077 0011010  48.7219 311.4925 14.34491663 49940
CZ-6A DEB
1 64637U 24140AEB 25244.92848735  .00010024  00000-0  35465-2 0  9992
2 64637  89.0168 307.0520 0010907  47.0769 313.1342 14.34501124 50015
CZ-6A DEB
1 64637U 24140AEB 25247.16062608  .00007708  00000-0  27244-2 0  9999
2 64637  89.0173 306.7973 0010501  39.9813 320.2156 14.34544184 50339
CZ-6A DEB
1 64637U 24140AEB 25248.13716808  .00007149  00000-0  25260-2 0  9990
2 64637  89.0172 306.6860 0010277  36.4235 323.7660 14.34558863 50474
CZ-6A DEB
1 64637U 24140AEB 25249.88097065  .00008622  00000-0  30454-2 0  9998
2 64637  89.0170 306.4874 0009944  30.4695 329.7079 14.34584883 50727
CZ-6A DEB
1 64637U 24140AEB 25251.13649086  .00005407  00000-0  19085-2 0  9990
2 64637  89.0167 306.3442 0009696  26.0345 334.1339 14.34597211 50908
CZ-6A DEB
1 64637U 24140AEB 25251.41549366  .00005156  00000-0  18195-2 0  9993
2 64637  89.0157 306.3112 0009720  25.2480 334.9191 14.34600109 50949
CZ-6A DEB
1 64637U 24140AEB 25252.11299875  .00004300  00000-0  15165-2 0  9992
2 64637  89.0158 306.2315 0009610  22.8673 337.2951 14.34605929 51046
CZ-6A DEB
1 64637U 24140AEB 25254.41474522  .00003686  00000-0  12989-2 0  9998
2 64637  89.0169 305.9694 0009235  15.1742 344.9731 14.34624589 51379
CZ-6A DEB
1 64637U 24140AEB 25257.90218633  .00003981  00000-0  14026-2 0  9996
2 64637  89.0157 305.5687 0008681   2.0623 358.0610 14.34651285 51871
CZ-6A DEB
1 64637U 24140AEB 25259.08789799  .00005326  00000-0  18776-2 0  9994
2 64637  89.0162 305.4333 0008500 356.2478   3.8655 14.34665853 52046
CZ-6A DEB
1 64637U 24140AEB 25259.57612986  .00005213  00000-0  18375-2 0  9991
2 64637  89.0164 305.3778 0008463 354.1962   5.9137 14.34670365 52113
CZ-6A DEB
1 64637U 24140AEB 25262.85421758  .00004864  00000-0  17131-2 0  9991
2 64637  89.0159 305.0030 0008101 342.4143  17.6773 14.34700841 52585
CZ-6A DEB
1 64637U 24140AEB 25265.08606266  .00008301  00000-0  29239-2 0  9990
2 64637  89.0153 304.7478 0007883 332.2837  27.7940 14.34732025 52907
CZ-6A DEB
1 64637U 24140AEB 25265.85324795  .00010091  00000-0  35539-2 0  9998
2 64637  89.0151 304.6599 0007854 328.5817  31.4911 14.34746456 53018
CZ-6A DEB
1 64637U 24140AEB 25269.06139247  .00009754  00000-0  34312-2 0  9993
2 64637  89.0133 304.2917 0007634 314.4432  45.6141 14.34804932 53477
CZ-6A DEB
1 64637U 24140AEB 25271.08385458  .00008757  00000-0  30784-2 0  9996
2 64637  89.0137 304.0596 0007604 305.2225  54.8261 14.34836290 53766
CZ-6A DEB
1 64637U 24140AEB 25279.10328301  .00006695  00000-0  23443-2 0  9994
2 64637  89.0131 303.1412 0007781 270.3446  89.6861 14.35023935 54915
CZ-6A DEB
1 64637U 24140AEB 25280.00977225  .00006901  00000-0  24160-2 0  9997
2 64637  89.0140 303.0382 0007967 266.9409  93.0878 14.35035394 55040
CZ-6A DEB
1 64637U 24140AEB 25281.33462708  .00007572  00000-0  26501-2 0  9995
2 64637  89.0133 302.8857 0008014 261.1958  98.8333 14.35054122 55236
CZ-6A DEB
1 64637U 24140AEB 25281.33462709  .00007572  00000-0  26501-2 0  9996
2 64637  89.0133 302.8857 0008014 261.1958  98.8333 14.35054122 55236
CZ-6A DEB
1 64637U 24140AEB 25282.03191154  .00007188  00000-0  25149-2 0  9997
2 64637  89.0132 302.8056 0008085 258.2960 101.7332 14.35064380 55335
CZ-6A DEB
1 64637U 24140AEB 25282.03191154  .00007188  00000-0  25149-2 0  9997
2 64637  89.0132 302.8056 0008085 258.2960 101.7332 14.35064380 55335
CZ-6A DEB
1 64637U 24140AEB 25283.49619523  .00005732  00000-0  20043-2 0  9994
2 64637  89.0133 302.6371 0008257 252.5621 107.4675 14.35081406 55540
CZ-6A DEB
1 64637U 24140AEB 25283.49619524  .00005732  00000-0  20043-2 0  9995
2 64637  89.0133 302.6372 0008257 252.5621 107.4676 14.35081406 55542
CZ-6A DEB
1 64637U 24140AEB 25286.00634910  .00008674  00000-0  30318-2 0  9995
2 64637  89.0137 302.3487 0008464 242.5925 117.4413 14.35121219 55903
CZ-6A DEB
1 64637U 24140AEB 25286.49442586  .00008207  00000-0  28680-2 0  9995
2 64637  89.0133 302.2923 0008469 240.3941 119.6414 14.35129318 55972
CZ-6A DEB
1 64637U 24140AEB 25286.77332586  .00007775  00000-0  27166-2 0  9991
2 64637  89.0132 302.2601 0008496 239.5566 120.4793 14.35133236 56017
CZ-6A DEB
1 64637U 24140AEB 25287.05222523  .00007352  00000-0  25684-2 0  9996
2 64637  89.0130 302.2282 0008474 238.3813 121.6559 14.35137146 56059
CZ-6A DEB
1 64637U 24140AEB 25288.30726171  .00006943  00000-0  24247-2 0  9992
2 64637  89.0130 302.0840 0008571 233.6697 126.3711 14.35155202 56238
CZ-6A DEB
1 64637U 24140AEB 25289.00449853  .00007450  00000-0  26013-2 0  9996
2 64637  89.0126 302.0041 0008650 230.8945 129.1485 14.35164807 56330
CZ-6A DEB
1 64637U 24140AEB 25289.00449854  .00007450  00000-0  26013-2 0  9997
2 64637  89.0126 302.0041 0008650 230.8945 129.1485 14.35164807 56330
CZ-6A DEB
1 64637U 24140AEB 25290.74757019  .00009159  00000-0  31970-2 0  9991
2 64637  89.0122 301.8043 0008829 224.3306 135.7186 14.35190378 56582
CZ-6A DEB
1 64637U 24140AEB 25290.74757019  .00009159  00000-0  31970-2 0  9991
2 64637  89.0122 301.8043 0008829 224.3306 135.7186 14.35190378 56582
CZ-6A DEB
1 64637U 24140AEB 25292.76948273  .00011649  00000-0  40619-2 0  9996
2 64637  89.0116 301.5721 0009047 216.8385 143.2193 14.35235339 56872
CZ-6A DEB
1 64637U 24140AEB 25293.46667799  .00011115  00000-0  38747-2 0  9992
2 64637  89.0116 301.4920 0009116 214.4350 145.6259 14.35251714 56970
CZ-6A DEB
1 64637U 24140AEB 25294.30330409  .00009284  00000-0  32355-2 0  9994
2 64637  89.0114 301.3958 0009226 211.3343 148.7307 14.35266017 57092
CZ-6A DEB
1 64637U 24140AEB 25295.00048582  .00008825  00000-0  30746-2 0  9992
2 64637  89.0115 301.3154 0009217 208.9853 151.0835 14.35278689 57191
CZ-6A DEB
1 64637U 24140AEB 25295.27935711  .00008173  00000-0  28471-2 0  9998
2 64637  89.0114 301.2834 0009287 207.8903 152.1799 14.35282118 57233
CZ-6A DEB
1 64637U 24140AEB 25295.27935711  .00008173  00000-0  28471-2 0  9998
2 64637  89.0114 301.2834 0009287 207.8903 152.1799 14.35282119 57234
CZ-6A DEB
1 64637U 24140AEB 25295.97653122  .00007907  00000-0  27538-2 0  9995
2 64637  89.0114 301.2032 0009351 205.7117 154.3618 14.35293561 57338
CZ-6A DEB
1 64637U 24140AEB 25296.46455005  .00008046  00000-0  28017-2 0  9998
2 64637  89.0113 301.1466 0009420 203.3210 156.7562 14.35301548 57409
CZ-6A DEB
1 64637U 24140AEB 25296.46455005  .00008046  00000-0  28017-2 0  9998
2 64637  89.0113 301.1466 0009420 203.3210 156.7562 14.35301548 57409
CZ-6A DEB
1 64637U 24140AEB 25297.44057847  .00008824  00000-0  30718-2 0  9994
2 64637  89.0114 301.0344 0009490 200.0989 159.9837 14.35319535 57548
CZ-6A DEB
1 64637U 24140AEB 25297.44057848  .00008824  00000-0  30718-2 0  9995
2 64637  89.0114 301.0344 0009490 200.0989 159.9837 14.35319535 57548
CZ-6A DEB
1 64637U 24140AEB 25298.41659618  .00008538  00000-0  29711-2 0  9999
2 64637  89.0119 300.9223 0009638 196.4491 163.6397 14.35335408 57682
CZ-6A DEB
1 64637U 24140AEB 25298.41659619  .00008538  00000-0  29711-2 0  9990
2 64637  89.0119 300.9223 0009638 196.4491 163.6397 14.35335408 57682
CZ-6A DEB
1 64637U 24140AEB 25299.04403042  .00007617  00000-0  26497-2 0  9992
2 64637  89.0119 300.8499 0009706 194.3762 165.7162 14.35344354 57773
CZ-6A DEB
1 64637U 24140AEB 25299.04403042  .00007617  00000-0  26497-2 0  9992
2 64637  89.0119 300.8499 0009706 194.3762 165.7162 14.35344354 57773
CZ-6A DEB
1 64637U 24140AEB 25299.46231767  .00007506  00000-0  26109-2 0  9998
2 64637  89.0119 300.8016 0009692 193.0120 167.0830 14.35350753 57830
CZ-6A DEB
1 64637U 24140AEB 25299.74117471  .00007617  00000-0  26492-2 0  9992
2 64637  89.0119 300.7696 0009753 191.8802 168.2168 14.35355144 57874
CZ-6A DEB
1 64637U 24140AEB 25299.74117472  .00007617  00000-0  26492-2 0  9993
2 64637  89.0119 300.7696 0009753 191.8802 168.2168 14.35355144 57874
CZ-6A DEB
1 64637U 24140AEB 25300.43831412  .00007537  00000-0  26210-2 0  9998
2 64637  89.0120 300.6894 0009819 189.4326 170.6690 14.35365493 57978
CZ-6A DEB
1 64637U 24140AEB 25300.43831413  .00007537  00000-0  26210-2 0  9999
2 64637  89.0120 300.6894 0009819 189.4326 170.6690 14.35365493 57978
CZ-6A DEB
1 64637U 24140AEB 25306.01522551  .00006870  00000-0  23840-2 0  9994
2 64637  89.0112 300.0485 0010320 170.2232 189.9170 14.35459491 58779
CZ-6A DEB
1 64637U 24140AEB 25307.40939794  .00006810  00000-0  23621-2 0  9990
2 64637  89.0121 299.8883 0010427 165.6664 194.4833 14.35479496 58977
CZ-6A DEB
1 64637U 24140AEB 25308.94296375  .00006599  00000-0  22880-2 0  9991
2 64637  89.0130 299.7121 0010683 160.5200 199.6409 14.35502449 59191
CZ-6A DEB
1 64637U 24140AEB 25311.24326071  .00009844  00000-0  34106-2 0  9995
2 64637  89.0129 299.4470 0010884 152.5592 207.6184 14.35547486 59528
CZ-6A DEB
1 64637U 24140AEB 25311.45237494  .00009778  00000-0  33873-2 0  9994
2 64637  89.0132 299.4230 0010924 151.7010 208.4785 14.35551870 59558
CZ-6A DEB
1 64637U 24140AEB 25311.94030410  .00009907  00000-0  34313-2 0  9991
2 64637  89.0131 299.3669 0010950 150.3148 209.8675 14.35563646 59623
CZ-6A DEB
1 64637U 24140AEB 25311.94030410  .00009907  00000-0  34313-2 0  9991
2 64637  89.0131 299.3669 0010950 150.3148 209.8675 14.35563647 59624
CZ-6A DEB
1 64637U 24140AEB 25312.70704301  .00011341  00000-0  39265-2 0  9999
2 64637  89.0131 299.2786 0011051 147.8149 212.3727 14.35582902 59732
CZ-6A DEB
1 64637U 24140AEB 25312.70704302  .00011341  00000-0  39265-2 0  9990
2 64637  89.0131 299.2786 0011051 147.8149 212.3727 14.35582902 59732
CZ-6A DEB
1 64637U 24140AEB 25315.21631527  .00011330  00000-0  39183-2 0  9994
2 64637  89.0133 298.9899 0011376 139.6876 220.5168 14.35632860 60091
CZ-6A DEB
1 64637U 24140AEB 25315.42541716  .00011799  00000-0  40803-2 0  9997
2 64637  89.0132 298.9658 0011407 138.9673 221.2386 14.35638201 60124
CZ-6A DEB
1 64637U 24140AEB 25316.68000541  .00018562  00000-0  64093-2 0  9994
2 64637  89.0128 298.8212 0011605 135.2276 224.9861 14.35684566 60306
CZ-6A DEB
1 64637U 24140AEB 25316.68000541  .00018562  00000-0  64093-2 0  9994
2 64637  89.0128 298.8212 0011605 135.2276 224.9861 14.35684566 60306
CZ-6A DEB
1 64637U 24140AEB 25317.44666914  .00019866  00000-0  68524-2 0  9992
2 64637  89.0121 298.7332 0011688 132.7455 227.4729 14.35728323 60416
CZ-6A DEB
1 64637U 24140AEB 25317.44666915  .00019866  00000-0  68524-2 0  9993
2 64637  89.0121 298.7332 0011688 132.7455 227.4729 14.35728323 60416
CZ-6A DEB
1 64637U 24140AEB 25318.21331755  .00011893  00000-0  41032-2 0  9997
2 64637  89.0123 298.6447 0011797 130.0145 230.2091 14.35750921 60527
CZ-6A DEB
1 64637U 24140AEB 25318.21331755  .00011893  00000-0  41032-2 0  9997
2 64637  89.0123 298.6447 0011797 130.0145 230.2091 14.35750921 60527
CZ-6A DEB
1 64637U 24140AEB 25318.97995772  .00008628  00000-0  29757-2 0  9997
2 64637  89.0119 298.5564 0011881 127.6079 232.6200 14.35765393 60632
CZ-6A DEB
1 64637U 24140AEB 25320.37382755  .00011993  00000-0  41338-2 0  9993
2 64637  89.0109 298.3958 0012049 123.4449 236.7904 14.35797699 60830
CZ-6A DEB
1 64637U 24140AEB 25320.37382755  .00011993  00000-0  41338-2 0  9993
2 64637  89.0109 298.3958 0012049 123.4449 236.7904 14.35797699 60830
CZ-6A DEB
1 64637U 24140AEB 25322.39488514  .00008817  00000-0  30363-2 0  9994
2 64637  89.0101 298.1625 0012270 119.2108 241.0319 14.35837926 61122
CZ-6A DEB
1 64637U 24140AEB 25322.39488515  .00008817  00000-0  30363-2 0  9995
2 64637  89.0101 298.1625 0012270 119.2108 241.0319 14.35837926 61122
CZ-6A DEB
1 64637U 24140AEB 25323.37055246  .00007270  00000-0  25026-2 0  9997
2 64637  89.0111 298.0505 0012402 114.8385 245.4105 14.35850788 61261
CZ-6A DEB
1 64637U 24140AEB 25325.94905286  .00007714  00000-0  26532-2 0  9996
2 64637  89.0135 297.7547 0013033 106.6871 253.5759 14.35890613 61636
CZ-6A DEB
1 64637U 24140AEB 25326.36718041  .00008316  00000-0  28602-2 0  9993
2 64637  89.0133 297.7055 0012809 105.5801 254.6813 14.35898238 61699
CZ-6A DEB
1 64637U 24140AEB 25326.36718041  .00008316  00000-0  28602-2 0  9993
2 64637  89.0133 297.7055 0012809 105.5801 254.6813 14.35898238 61699
CZ-6A DEB
1 64637U 24140AEB 25329.36371227  .00008635  00000-0  29671-2 0  9998
2 64637  89.0130 297.3617 0012953  97.0281 263.2391 14.35943387 62125
CZ-6A DEB
1 64637U 24140AEB 25329.92119576  .00008534  00000-0  29317-2 0  9992
2 64637  89.0125 297.2984 0013183  94.3977 265.8728 14.35953693 62205
CZ-6A DEB
1 64637U 24140AEB 25329.92119577  .00008534  00000-0  29317-2 0  9993
2 64637  89.0125 297.2984 0013183  94.3977 265.8728 14.35953693 62205
CZ-6A DEB
1 64637U 24140AEB 25330.33930565  .00007522  00000-0  25837-2 0  9997
2 64637  89.0123 297.2500 0013077  93.6580 266.6114 14.35958176 62266
CZ-6A DEB
1 64637U 24140AEB 25330.40899041  .00007516  00000-0  25816-2 0  9998
2 64637  89.0122 297.2418 0013084  93.4207 266.8489 14.35959408 62272
CZ-6A DEB
1 64637U 24140AEB 25330.40899041  .00007516  00000-0  25816-2 0  9998
2 64637  89.0122 297.2418 0013084  93.4207 266.8489 14.35959408 62272
CZ-6A DEB
1 64637U 24140AEB 25332.36014439  .00007440  00000-0  25540-2 0  9995
2 64637  89.0119 297.0178 0013197  88.0082 272.2628 14.35988725 62556
CZ-6A DEB
1 64637U 24140AEB 25333.33570653  .00006873  00000-0  23584-2 0  9993
2 64637  89.0099 296.9062 0013257  85.4258 274.8455 14.36002395 62698
CZ-6A DEB
1 64637U 24140AEB 25334.93839318  .00007454  00000-0  25566-2 0  9994
2 64637  89.0093 296.7216 0013301  81.0839 279.1866 14.36028132 62925
CZ-6A DEB
1 64637U 24140AEB 25335.35648028  .00008773  00000-0  30088-2 0  9997
2 64637  89.0091 296.6733 0013436  79.6889 280.5824 14.36037564 62988
CZ-6A DEB
1 64637U 24140AEB 25335.63520447  .00007531  00000-0  25822-2 0  9993
2 64637  89.0105 296.6413 0013600  78.5214 281.7511 14.36040234 63022
CZ-6A DEB
1 64637U 24140AEB 25335.63520447  .00007531  00000-0  25822-2 0  9993
2 64637  89.0105 296.6413 0013600  78.5214 281.7511 14.36040234 63022
CZ-6A DEB
1 64637U 24140AEB 25336.33200944  .00008948  00000-0  30675-2 0  9993
2 64637  89.0111 296.5606 0013664  76.4792 283.7929 14.36054318 63124
CZ-6A DEB
1 64637U 24140AEB 25336.33200945  .00008948  00000-0  30675-2 0  9994
2 64637  89.0111 296.5606 0013664  76.4792 283.7929 14.36054318 63124
CZ-6A DEB
1 64637U 24140AEB 25339.88558146  .00011578  00000-0  39618-2 0  9995
2 64637  89.0123 296.1510 0013687  67.1187 293.1455 14.36149614 63636
CZ-6A DEB
1 64637U 24140AEB 25340.86102918  .00013244  00000-0  45289-2 0  9990
2 64637  89.0126 296.0386 0013797  64.4757 295.7867 14.36176750 63775
CZ-6A DEB
1 64637U 24140AEB 25342.60286312  .00011120  00000-0  38002-2 0  9991
2 64637  89.0134 295.8381 0013910  59.9391 300.3185 14.36212836 64027
CZ-6A DEB
1 64637U 24140AEB 25342.60286313  .00011120  00000-0  38002-2 0  9992
2 64637  89.0134 295.8381 0013910  59.9391 300.3185 14.36212836 64027
CZ-6A DEB
1 64637U 24140AEB 25345.87738544  .00011661  00000-0  39785-2 0  9991
2 64637  89.0104 295.4614 0014291  51.4442 308.8036 14.36290138 64496
CZ-6A DEB
1 64637U 24140AEB 25345.87738545  .00011661  00000-0  39785-2 0  9992
2 64637  89.0104 295.4614 0014291  51.4442 308.8036 14.36290138 64496
CZ-6A DEB
1 64637U 24140AEB 25346.29539599  .00011331  00000-0  38654-2 0  9995
2 64637  89.0107 295.4138 0014065  50.1721 310.0713 14.36299606 64558
CZ-6A DEB
1 64637U 24140AEB 25347.13140834  .00011030  00000-0  37613-2 0  9999
2 64637  89.0113 295.3177 0014007  47.9189 312.3198 14.36319031 64675
CZ-6A DEB
1 64637U 24140AEB 25348.31574214  .00008238  00000-0  28078-2 0  9994
2 64637  89.0112 295.1813 0013978  44.7699 315.4625 14.36340775 64843
CZ-6A DEB
1 64637U 24140AEB 25349.84839370  .00004862  00000-0  16553-2 0  9994
2 64637  89.0112 295.0044 0014150  40.6566 319.5686 14.36354108 65061
CZ-6A DEB
1 64637U 24140AEB 25350.82370859  .00005279  00000-0  17974-2 0  9997
2 64637  89.0116 294.8919 0014059  38.0102 322.2087 14.36364047 65203
CZ-6A DEB
1 64637U 24140AEB 25351.31136332  .00005404  00000-0  18397-2 0  9998
2 64637  89.0116 294.8357 0014060  36.5475 323.6680 14.36369375 65277
CZ-6A DEB
1 64637U 24140AEB 25351.79901645  .00005294  00000-0  18021-2 0  9998
2 64637  89.0115 294.7797 0014054  35.3823 324.8306 14.36374273 65349
CZ-6A DEB
1 64637U 24140AEB 25352.56532482  .00005365  00000-0  18260-2 0  9997
2 64637  89.0117 294.6912 0014075  33.3409 326.8674 14.36382393 65454
CZ-6A DEB
1 64637U 24140AEB 25353.81927501  .00004413  00000-0  15010-2 0  9999
2 64637  89.0129 294.5472 0013997  29.9648 330.2350 14.36393834 65637
CZ-6A DEB
1 64637U 24140AEB 25353.81927502  .00004413  00000-0  15010-2 0  9990
2 64637  89.0129 294.5472 0013997  29.9648 330.2350 14.36393834 65637
CZ-6A DEB
1 64637U 24140AEB 25354.09792918  .00004401  00000-0  14969-2 0  9991
2 64637  89.0130 294.5152 0013975  29.1687 331.0290 14.36396115 65676
CZ-6A DEB
1 64637U 24140AEB 25354.09792918  .00004401  00000-0  14969-2 0  9991
2 64637  89.0130 294.5152 0013975  29.1687 331.0290 14.36396115 65676
CZ-6A DEB
1 64637U 24140AEB 25355.28220406  .00004894  00000-0  16644-2 0  9999
2 64637  89.0129 294.3789 0013922  25.8890 334.3003 14.36408145 65843
CZ-6A DEB
1 64637U 24140AEB 25355.28220407  .00004894  00000-0  16644-2 0  9990
2 64637  89.0129 294.3789 0013922  25.8890 334.3003 14.36408145 65843
CZ-6A DEB
1 64637U 24140AEB 25356.25748073  .00006591  00000-0  22424-2 0  9991
2 64637  89.0130 294.2668 0013869  23.2238 336.9585 14.36422269 65989
CZ-6A DEB
1 64637U 24140AEB 25357.09342503  .00007169  00000-0  24386-2 0  9993
2 64637  89.0128 294.1705 0013807  20.9154 339.2607 14.36433417 66103
CZ-6A DEB
1 64637U 24140AEB 25357.09342504  .00007169  00000-0  24386-2 0  9994
2 64637  89.0128 294.1705 0013807  20.9154 339.2607 14.36433417 66103
CZ-6A DEB
1 64637U 24140AEB 25358.55630821  .00007150  00000-0  24312-2 0  9997
2 64637  89.0121 294.0022 0013771  17.2350 342.9313 14.36455933 66319
CZ-6A DEB
1 64637U 24140AEB 25358.55630821  .00007150  00000-0  24312-2 0  9997
2 64637  89.0121 294.0022 0013771  17.2350 342.9314 14.36455933 66310
CZ-6A DEB
1 64637U 24140AEB 25359.81018895  .00007552  00000-0  25670-2 0  9992
2 64637  89.0119 293.8579 0013696  13.8888 346.2685 14.36476997 66495
CZ-6A DEB
1 64637U 24140AEB 25359.81018895  .00007552  00000-0  25670-2 0  9992
2 64637  89.0119 293.8579 0013696  13.8888 346.2685 14.36476997 66495
CZ-6A DEB
1 64637U 24140AEB 25360.08882692  .00007075  00000-0  24044-2 0  9991
2 64637  89.0118 293.8258 0013692  13.1355 347.0198 14.36480339 66534
CZ-6A DEB
1 64637U 24140AEB 25360.08882693  .00007075  00000-0  24044-2 0  9992
2 64637  89.0118 293.8258 0013692  13.1355 347.0199 14.36480339 66535
CZ-6A DEB
1 64637U 24140AEB 25360.85507624  .00007407  00000-0  25169-2 0  9993
2 64637  89.0116 293.7375 0013628  11.0681 349.0815 14.36493562 66641
CZ-6A DEB
1 64637U 24140AEB 25360.85507624  .00007407  00000-0  25169-2 0  9993
2 64637  89.0116 293.7375 0013628  11.0681 349.0815 14.36493562 66641
CZ-6A DEB
1 64637U 24140AEB 25362.24823792  .00010070  00000-0  34204-2 0  9995
2 64637  89.0116 293.5774 0013572   7.7870 352.3538 14.36522603 66842
CZ-6A DEB
1 64637U 24140AEB 25362.24823792  .00010070  00000-0  34204-2 0  9995
2 64637  89.0116 293.5774 0013572   7.7870 352.3538 14.36522603 66842
CZ-6A DEB
1 64637U 24140AEB 25362.80549394  .00009822  00000-0  33354-2 0  9998
2 64637  89.0112 293.5129 0013424   5.8938 354.2417 14.36534033 66928
CZ-6A DEB
1 64637U 24140AEB 25362.80549394  .00009822  00000-0  33354-2 0  9998
2 64637  89.0112 293.5129 0013424   5.8938 354.2417 14.36534033 66928
CZ-6A DEB
1 64637U 24140AEB 25363.57171311  .00011821  00000-0  40124-2 0  9998
2 64637  89.0115 293.4248 0013316   3.7800 356.3497 14.36554207 67036
CZ-6A DEB
1 64637U 24140AEB 25363.78067984  .00011955  00000-0  40575-2 0  9999
2 64637  89.0115 293.4009 0013267   2.9436 357.1839 14.36559864 67068
CZ-6A DEB
1 64637U 24140AEB 25363.78067984  .00011955  00000-0  40575-2 0  9999
2 64637  89.0115 293.4009 0013267   2.9436 357.1839 14.36559864 67068
CZ-6A DEB
1 64637U 24140AEB 26001.28822254  .00012654  00000-0  42892-2 0  9994
2 64637  89.0127 293.1112 0012714 354.9011   5.2056 14.36625292 67429
CZ-6A DEB
1 64637U 24140AEB 26001.28822254  .00012654  00000-0  42892-2 0  9994
2 64637  89.0127 293.1112 0012714 354.9011   5.2056 14.36625292 67429
CZ-6A DEB
1 64637U 24140AEB 26002.54195382  .00012761  00000-0  43228-2 0  9992
2 64637  89.0131 292.9673 0012810 352.9146   7.1870 14.36656943 67609
CZ-6A DEB
1 64637U 24140AEB 26002.54195382  .00012761  00000-0  43228-2 0  9992
2 64637  89.0131 292.9673 0012810 352.9147   7.1870 14.36656943 67600
CZ-6A DEB
1 64637U 24140AEB 26003.23845748  .00014604  00000-0  49443-2 0  9990
2 64637  89.0131 292.8867 0012535 350.5351   9.5610 14.36677386 67702
CZ-6A DEB
1 64637U 24140AEB 26003.23845749  .00014604  00000-0  49443-2 0  9991
2 64637  89.0131 292.8867 0012535 350.5351   9.5610 14.36677386 67702
CZ-6A DEB
1 64637U 24140AEB 26004.07425204  .00011541  00000-0  39068-2 0  9993
2 64637  89.0129 292.7907 0012453 348.5755  11.5160 14.36694659 67825
CZ-6A DEB
1 64637U 24140AEB 26004.07425204  .00011541  00000-0  39068-2 0  9993
2 64637  89.0129 292.7907 0012453 348.5755  11.5160 14.36694659 67825
CZ-6A DEB
1 64637U 24140AEB 26004.77073995  .00008575  00000-0  29022-2 0  9998
2 64637  89.0129 292.7106 0012337 346.5488  13.5381 14.36705871 67925
CZ-6A DEB
1 64637U 24140AEB 26004.77073996  .00008575  00000-0  29022-2 0  9999
2 64637  89.0129 292.7106 0012337 346.5488  13.5381 14.36705871 67925
CZ-6A DEB
1 64637U 24140AEB 26005.25827788  .00009284  00000-0  31416-2 0  9997
2 64637  89.0126 292.6550 0012244 344.7902  15.2927 14.36715419 67993
CZ-6A DEB
1 64637U 24140AEB 26005.25827789  .00009284  00000-0  31416-2 0  9998
2 64637  89.0126 292.6551 0012244 344.7902  15.2927 14.36715419 67994
CZ-6A DEB
1 64637U 24140AEB 26006.23334473  .00007951  00000-0  26897-2 0  9996
2 64637  89.0125 292.5427 0012124 341.4699  18.6058 14.36731739 68130
CZ-6A DEB
1 64637U 24140AEB 26006.51193389  .00007507  00000-0  25389-2 0  9998
2 64637  89.0127 292.5111 0012126 341.1736  18.9013 14.36735419 68170
CZ-6A DEB
1 64637U 24140AEB 26008.04415883  .00005867  00000-0  19830-2 0  9995
2 64637  89.0122 292.3348 0011890 336.9594  23.1070 14.36755133 68396
CZ-6A DEB
1 64637U 24140AEB 26008.04415883  .00005867  00000-0  19830-2 0  9995
2 64637  89.0122 292.3348 0011890 336.9594  23.1070 14.36755133 68396
CZ-6A DEB
1 64637U 24140AEB 26010.76032179  .00005869  00000-0  19825-2 0  9996
2 64637  89.0116 292.0218 0011476 328.5403  31.5108 14.36791082 68789
CZ-6A DEB
1 64637U 24140AEB 26012.22284423  .00006173  00000-0  20844-2 0  9992
2 64637  89.0118 291.8533 0011246 323.8665  36.1773 14.36810132 68991
CZ-6A DEB
1 64637U 24140AEB 26013.19785085  .00004644  00000-0  15672-2 0  9993
2 64637  89.0117 291.7405 0011081 321.0368  39.0032 14.36818456 69138
CZ-6A DEB
1 64637U 24140AEB 26013.19785085  .00004644  00000-0  15672-2 0  9993
2 64637  89.0117 291.7405 0011081 321.0368  39.0032 14.36818456 69138
CZ-6A DEB
1 64637U 24140AEB 26016.19248545  .00003829  00000-0  12909-2 0  9995
2 64637  89.0133 291.3955 0010726 309.7214  50.3040 14.36837854 69565
CZ-6A DEB
1 64637U 24140AEB 26017.16747301  .00005223  00000-0  17621-2 0  9993
2 64637  89.0133 291.2832 0010595 306.1283  53.8935 14.36847942 69705
CZ-6A DEB
1 64637U 24140AEB 26017.72460629  .00005184  00000-0  17486-2 0  9995
2 64637  89.0127 291.2189 0010428 305.5895  54.4332 14.36853529 69784
CZ-6A DEB
1 64637U 24140AEB 26019.18706736  .00005416  00000-0  18265-2 0  9993
2 64637  89.0120 291.0505 0010147 300.6132  59.4066 14.36870218 69991
CZ-6A DEB
1 64637U 24140AEB 26019.74419097  .00005690  00000-0  19190-2 0  9998
2 64637  89.0120 290.9863 0010036 298.9325  61.0868 14.36877153 70071
CZ-6A DEB
1 64637U 24140AEB 26023.71345350  .00009245  00000-0  31115-2 0  9991
2 64637  89.0118 290.5286 0009076 285.6683  74.3515 14.37007247 70644
CZ-6A DEB
1 64637U 24140AEB 26024.47942557  .00010991  00000-0  36980-2 0  9992
2 64637  89.0117 290.4417 0008979 282.5215  77.4980 14.37021815 70755
CZ-6A DEB
1 64637U 24140AEB 26024.47942557  .00010991  00000-0  36980-2 0  9992
2 64637  89.0117 290.4417 0008979 282.5215  77.4980 14.37021815 70755
CZ-6A DEB
1 64637U 24140AEB 26028.72693569  .00009505  00000-0  31928-2 0  9996
2 64637  89.0135 289.9522 0008935 263.9006  96.1176 14.37103320 71363
CZ-6A DEB
1 64637U 24140AEB 26034.15786717  .00005845  00000-0  19596-2 0  9998
2 64637  89.0107 289.3249 0008470 240.1279 119.9079 14.37181040 72143
CZ-6A DEB
1 64637U 24140AEB 26034.15786717  .00005845  00000-0  19596-2 0  9998
2 64637  89.0107 289.3249 0008470 240.1279 119.9079 14.37181040 72143
CZ-6A DEB
1 64637U 24140AEB 26035.13262366  .00006352  00000-0  21294-2 0  9998
2 64637  89.0115 289.2127 0007841 235.3465 124.6996 14.37194187 72282
CZ-6A DEB
1 64637U 24140AEB 26035.13262367  .00006352  00000-0  21294-2 0  9999
2 64637  89.0115 289.2127 0007841 235.3465 124.6996 14.37194187 72282
CZ-6A DEB
1 64637U 24140AEB 26038.12644894  .00007095  00000-0  23765-2 0  9990
2 64637  89.0122 288.8666 0007606 221.6677 138.3944 14.37241075 72717
CZ-6A DEB
1 64637U 24140AEB 26038.12644894  .00007095  00000-0  23765-2 0  9990
2 64637  89.0122 288.8666 0007606 221.6677 138.3944 14.37241075 72717
CZ-6A DEB
1 64637U 24140AEB 26039.10116329  .00005929  00000-0  19852-2 0  9992
2 64637  89.0114 288.7543 0007949 217.7213 142.3430 14.37251129 72854
CZ-6A DEB
1 64637U 24140AEB 26039.10116330  .00005929  00000-0  19852-2 0  9994
2 64637  89.0114 288.7543 0007949 217.7213 142.3430 14.37251129 72854
CZ-6A DEB
1 64637U 24140AEB 26041.12019377  .00005361  00000-0  17937-2 0  9994
2 64637  89.0111 288.5217 0007957 208.2878 151.7891 14.37273382 73141
CZ-6A DEB
1 64637U 24140AEB 26041.12019378  .00005361  00000-0  17937-2 0  9995
2 64637  89.0111 288.5217 0007957 208.2878 151.7891 14.37273382 73141
CZ-6A DEB
1 64637U 24140AEB 26041.95564510  .00005318  00000-0  17789-2 0  9996
2 64637  89.0116 288.4250 0008152 205.2166 154.8637 14.37282077 73263
CZ-6A DEB
1 64637U 24140AEB 26044.67082672  .00004785  00000-0  15994-2 0  9995
2 64637  89.0116 288.1118 0008309 192.9328 167.1660 14.37311144 73653
CZ-6A DEB
1 64637U 24140AEB 26045.08854250  .00004974  00000-0  16624-2 0  9991
2 64637  89.0104 288.0629 0008451 191.9434 168.1566 14.37315474 73714
CZ-6A DEB
1 64637U 24140AEB 26045.64549544  .00004493  00000-0  15013-2 0  9997
2 64637  89.0107 287.9985 0008485 189.6440 170.4598 14.37319580 73799
CZ-6A DEB
1 64637U 24140AEB 26045.64549545  .00004493  00000-0  15013-2 0  9998
2 64637  89.0107 287.9985 0008485 189.6440 170.4598 14.37319580 73799
CZ-6A DEB
1 64637U 24140AEB 26046.62015707  .00005516  00000-0  18434-2 0  9992
2 64637  89.0106 287.8859 0008630 185.8310 174.2790 14.37331066 73938
CZ-6A DEB
1 64637U 24140AEB 26047.10748537  .00005486  00000-0  18332-2 0  9993
2 64637  89.0102 287.8298 0008690 183.5404 176.5736 14.37336062 74001
CZ-6A DEB
1 64637U 24140AEB 26047.10748537  .00005486  00000-0  18332-2 0  9993
2 64637  89.0102 287.8298 0008690 183.5404 176.5736 14.37336062 74001
CZ-6A DEB
1 64637U 24140AEB 26047.66442913  .00005371  00000-0  17944-2 0  9994
2 64637  89.0104 287.7659 0008776 181.6670 178.4502 14.37342217 74081
CZ-6A DEB
1 64637U 24140AEB 26047.94290053  .00006035  00000-0  20165-2 0  9998
2 64637  89.0103 287.7338 0008800 180.4273 179.6921 14.37346300 74128
CZ-6A DEB
1 64637U 24140AEB 26047.94290054  .00006035  00000-0  20165-2 0  9999
2 64637  89.0103 287.7338 0008800 180.4273 179.6921 14.37346300 74128
CZ-6A DEB
1 64637U 24140AEB 26048.63907596  .00004702  00000-0  15703-2 0  9993
2 64637  89.0100 287.6534 0008906 177.5415 182.5830 14.37351661 74223
CZ-6A DEB
1 64637U 24140AEB 26048.63907597  .00004702  00000-0  15703-2 0  9994
2 64637  89.0100 287.6534 0008906 177.5415 182.5830 14.37351661 74223
CZ-6A DEB
1 64637U 24140AEB 26048.91754539  .00004724  00000-0  15772-2 0  9991
2 64637  89.0100 287.6214 0008938 176.7922 183.3337 14.37354338 74266
CZ-6A DEB
1 64637U 24140AEB 26048.91754540  .00004724  00000-0  15772-2 0  9993
2 64637  89.0100 287.6214 0008938 176.7922 183.3337 14.37354338 74266
CZ-6A DEB
1 64637U 24140AEB 26050.10103472  .00004355  00000-0  14536-2 0  9996
2 64637  89.0094 287.4847 0009098 172.2696 187.8645 14.37365151 74430
CZ-6A DEB
1 64637U 24140AEB 26050.10103473  .00004355  00000-0  14536-2 0  9997
2 64637  89.0094 287.4847 0009098 172.2696 187.8645 14.37365151 74430
CZ-6A DEB
1 64637U 24140AEB 26050.65796781  .00004596  00000-0  15339-2 0  9996
2 64637  89.0092 287.4202 0009174 170.2955 189.8424 14.37370680 74513
CZ-6A DEB
1 64637U 24140AEB 26050.65796782  .00004596  00000-0  15339-2 0  9997
2 64637  89.0092 287.4202 0009174 170.2955 189.8424 14.37370680 74513
CZ-6A DEB
1 64637U 24140AEB 26051.91106094  .00004555  00000-0  15198-2 0  9996
2 64637  89.0094 287.2758 0009344 165.4453 194.7018 14.37381427 74691
CZ-6A DEB
1 64637U 24140AEB 26051.91106095  .00004555  00000-0  15198-2 0  9997
2 64637  89.0094 287.2758 0009344 165.4453 194.7018 14.37381427 74691
CZ-6A DEB
1 64637U 24140AEB 26052.60721921  .00004406  00000-0  14700-2 0  9998
2 64637  89.0093 287.1954 0009427 162.9795 197.1723 14.37387512 74792
CZ-6A DEB
1 64637U 24140AEB 26052.60721922  .00004406  00000-0  14700-2 0  9999
2 64637  89.0093 287.1954 0009427 162.9795 197.1723 14.37387512 74792
CZ-6A DEB
1 64637U 24140AEB 26053.09452851  .00004334  00000-0  14457-2 0  9994
2 64637  89.0093 287.1389 0009492 161.2043 198.9509 14.37391619 74866
CZ-6A DEB
1 64637U 24140AEB 26053.65145005  .00005585  00000-0  18637-2 0  9999
2 64637  89.0095 287.0748 0009548 159.3372 200.8216 14.37400420 74949
CZ-6A DEB
1 64637U 24140AEB 26053.65145005  .00005585  00000-0  18637-2 0  9999
2 64637  89.0095 287.0748 0009548 159.3372 200.8216 14.37400420 74949
CZ-6A DEB
1 64637U 24140AEB 26054.06913999  .00005810  00000-0  19386-2 0  9993
2 64637  89.0095 287.0265 0009618 157.8828 202.2789 14.37405292 75001
CZ-6A DEB
1 64637U 24140AEB 26054.06914000  .00005810  00000-0  19386-2 0  9997
2 64637  89.0095 287.0265 0009618 157.8828 202.2789 14.37405292 75001
CZ-6A DEB
1 64637U 24140AEB 26054.90451543  .00005287  00000-0  17634-2 0  9990
2 64637  89.0095 286.9297 0009741 154.8872 205.2803 14.37413517 75129
CZ-6A DEB
1 64637U 24140AEB 26058.59402884  .00005149  00000-0  17160-2 0  9994
2 64637  89.0095 286.5033 0010276 142.4725 217.7194 14.37452780 75652
CZ-6A DEB
1 64637U 24140AEB 26058.59402885  .00005149  00000-0  17160-2 0  9995
2 64637  89.0095 286.5033 0010276 142.4725 217.7194 14.37452780 75652
CZ-6A DEB
1 64637U 24140AEB 26059.08131522  .00005470  00000-0  18230-2 0  9993
2 64637  89.0096 286.4471 0010361 140.8790 219.3160 14.37459145 75728
CZ-6A DEB
1 64637U 24140AEB 26059.08131523  .00005470  00000-0  18230-2 0  9994
2 64637  89.0096 286.4471 0010361 140.8790 219.3160 14.37459145 75728
CZ-6A DEB
1 64637U 24140AEB 26060.05588265  .00005540  00000-0  18460-2 0  9995
2 64637  89.0094 286.3346 0010492 137.8923 222.3084 14.37470004 75866
CZ-6A DEB
1 64637U 24140AEB 26060.05588265  .00005540  00000-0  18460-2 0  9995
2 64637  89.0094 286.3346 0010492 137.8923 222.3084 14.37470004 75866
CZ-6A DEB
1 64637U 24140AEB 26060.61277494  .00005954  00000-0  19838-2 0  9995
2 64637  89.0091 286.2702 0010578 135.9615 224.2429 14.37477069 75941
CZ-6A DEB
1 64637U 24140AEB 26060.89122019  .00005696  00000-0  18976-2 0  9992
2 64637  89.0089 286.2381 0010620 135.2920 224.9138 14.37479438 75981
CZ-6A DEB
1 64637U 24140AEB 26060.89122019  .00005696  00000-0  18976-2 0  9992
2 64637  89.0089 286.2381 0010620 135.2920 224.9138 14.37479438 75981
CZ-6A DEB
1 64637U 24140AEB 26061.58733045  .00005926  00000-0  19739-2 0  9990
2 64637  89.0086 286.1577 0010708 133.0579 227.1519 14.37488019 76082
CZ-6A DEB
1 64637U 24140AEB 26061.58733045  .00005926  00000-0  19739-2 0  9990
2 64637  89.0086 286.1577 0010708 133.0579 227.1519 14.37488019 76082
CZ-6A DEB
1 64637U 24140AEB 26062.07460493  .00005914  00000-0  19698-2 0  9990
2 64637  89.0086 286.1015 0010789 131.5647 228.6480 14.37494009 76154
CZ-6A DEB
1 64637U 24140AEB 26062.07460493  .00005914  00000-0  19698-2 0  9990
2 64637  89.0086 286.1015 0010789 131.5647 228.6480 14.37494009 76154
CZ-6A DEB
1 64637U 24140AEB 26064.09328876  .00006692  00000-0  22278-2 0  9994
2 64637  89.0080 285.8681 0011053 125.4010 234.8224 14.37522917 76441
CZ-6A DEB
1 64637U 24140AEB 26064.09328877  .00006692  00000-0  22278-2 0  9995
2 64637  89.0080 285.8681 0011053 125.4010 234.8224 14.37522917 76441
CZ-6A DEB
1 64637U 24140AEB 26064.58055155  .00006891  00000-0  22937-2 0  9998
2 64637  89.0080 285.8116 0011120 123.8493 236.3767 14.37530023 76510
CZ-6A DEB
1 64637U 24140AEB 26064.58055156  .00006891  00000-0  22937-2 0  9999
2 64637  89.0080 285.8117 0011120 123.8493 236.3767 14.37530023 76511
CZ-6A DEB
1 64637U 24140AEB 26065.55507055  .00006731  00000-0  22399-2 0  9992
2 64637  89.0079 285.6987 0011246 120.8844 239.3463 14.37542549 76655
CZ-6A DEB
1 64637U 24140AEB 26065.90311107  .00005902  00000-0  19635-2 0  9990
2 64637  89.0079 285.6585 0011306 119.8370 240.3956 14.37545249 76703
CZ-6A DEB
1 64637U 24140AEB 26065.90311107  .00005902  00000-0  19635-2 0  9990
2 64637  89.0079 285.6585 0011306 119.8370 240.3956 14.37545249 76703
CZ-6A DEB
1 64637U 24140AEB 26066.59918877  .00007214  00000-0  24001-2 0  9994
2 64637  89.0080 285.5777 0011391 117.6986 242.5371 14.37556596 76803
CZ-6A DEB
1 64637U 24140AEB 26066.87761844  .00007665  00000-0  25501-2 0  9991
2 64637  89.0079 285.5455 0011430 116.8911 243.3458 14.37561034 76849
CZ-6A DEB
1 64637U 24140AEB 26066.87761844  .00007665  00000-0  25501-2 0  9991
2 64637  89.0079 285.5455 0011430 116.8911 243.3458 14.37561034 76849
CZ-6A DEB
1 64637U 24140AEB 26067.57368872  .00007709  00000-0  25640-2 0  9996
2 64637  89.0083 285.4651 0011498 114.8038 245.4359 14.37571502 76948
CZ-6A DEB
1 64637U 24140AEB 26069.59226601  .00006027  00000-0  20032-2 0  9995
2 64637  89.0081 285.2309 0011574 109.5226 250.7225 14.37597065 77235
CZ-6A DEB
1 64637U 24140AEB 26069.59226601  .00006027  00000-0  20032-2 0  9995
2 64637  89.0081 285.2309 0011574 109.5226 250.7225 14.37597065 77235
CZ-6A DEB
1 64637U 24140AEB 26070.56673862  .00006017  00000-0  19992-2 0  9991
2 64637  89.0084 285.1184 0011731 106.5564 253.6925 14.37609488 77372
CZ-6A DEB
1 64637U 24140AEB 26070.56673862  .00006017  00000-0  19992-2 0  9991
2 64637  89.0084 285.1184 0011731 106.5564 253.6925 14.37609488 77372
CZ-6A DEB
1 64637U 24140AEB 26071.61080816  .00005577  00000-0  18521-2 0  9996
2 64637  89.0085 284.9976 0011850 103.6499 256.6021 14.37620934 77522
CZ-6A DEB
1 64637U 24140AEB 26071.61080817  .00005577  00000-0  18521-2 0  9997
2 64637  89.0085 284.9976 0011850 103.6499 256.6021 14.37620934 77522
CZ-6A DEB
1 64637U 24140AEB 26072.02843361  .00005864  00000-0  19474-2 0  9991
2 64637  89.0084 284.9492 0011941 102.4296 257.8240 14.37626083 77580
CZ-6A DEB
1 64637U 24140AEB 26072.86368067  .00005862  00000-0  19463-2 0  9994
2 64637  89.0083 284.8525 0012051  99.9748 260.2813 14.37635067 77700
CZ-6A DEB
1 64637U 24140AEB 26073.55971423  .00007104  00000-0  23589-2 0  9992
2 64637  89.0082 284.7721 0012137  97.9627 262.2951 14.37646460 77800
CZ-6A DEB
1 64637U 24140AEB 26073.83812623  .00006822  00000-0  22650-2 0  9993
2 64637  89.0083 284.7402 0012146  97.3857 262.8724 14.37649564 77842
CZ-6A DEB
1 64637U 24140AEB 26074.53415380  .00005344  00000-0  17732-2 0  9993
2 64637  89.0083 284.6597 0012148  95.4051 264.8535 14.37656098 77946
CZ-6A DEB
1 64637U 24140AEB 26074.60375622  .00005283  00000-0  17530-2 0  9993
2 64637  89.0083 284.6517 0012137  95.2159 265.0427 14.37657012 77954
CZ-6A DEB
1 64637U 24140AEB 26076.55261456  .00004074  00000-0  13503-2 0  9991
2 64637  89.0075 284.4262 0012275  89.9600 270.3006 14.37675117 78234
CZ-6A DEB
1 64637U 24140AEB 26077.52703590  .00004260  00000-0  14119-2 0  9990
2 64637  89.0072 284.3133 0012291  87.3559 272.9048 14.37683087 78374
CZ-6A DEB
1 64637U 24140AEB 26077.52703591  .00004260  00000-0  14119-2 0  9991
2 64637  89.0072 284.3133 0012291  87.3559 272.9048 14.37683087 78374
CZ-6A DEB
1 64637U 24140AEB 26078.01424470  .00004542  00000-0  15057-2 0  9997
2 64637  89.0070 284.2569 0012318  86.0528 274.2080 14.37687317 78445
CZ-6A DEB
1 64637U 24140AEB 26079.82386676  .00004909  00000-0  16272-2 0  9999
2 64637  89.0069 284.0469 0012360  81.3032 278.9567 14.37701144 78700
CZ-6A DEB
1 64637U 24140AEB 26079.82386677  .00004909  00000-0  16272-2 0  9990
2 64637  89.0069 284.0469 0012360  81.3032 278.9567 14.37701144 78700
CZ-6A DEB
1 64637U 24140AEB 26080.51986755  .00006559  00000-0  21747-2 0  9997
2 64637  89.0068 283.9661 0012386  79.3821 280.8773 14.37712922 78800
CZ-6A DEB
1 64637U 24140AEB 26081.84225592  .00006713  00000-0  22250-2 0  9991
2 64637  89.0071 283.8125 0012362  75.9054 284.3519 14.37730751 78999
CZ-6A DEB
1 64637U 24140AEB 26082.53824228  .00005866  00000-0  19436-2 0  9999
2 64637  89.0069 283.7318 0012349  74.0105 286.2455 14.37740199 79090
CZ-6A DEB
1 64637U 24140AEB 26082.81663560  .00005762  00000-0  19089-2 0  9999
2 64637  89.0073 283.6994 0012377  73.4010 286.8548 14.37743872 79138
CZ-6A DEB
1 64637U 24140AEB 26083.51261610  .00005326  00000-0  17640-2 0  9994
2 64637  89.0073 283.6187 0012328  71.4802 288.7736 14.37752245 79230
CZ-6A DEB
1 64637U 24140AEB 26083.51261611  .00005326  00000-0  17640-2 0  9995
2 64637  89.0073 283.6187 0012328  71.4802 288.7736 14.37752245 79230
CZ-6A DEB
1 64637U 24140AEB 26086.50529175  .00005436  00000-0  17992-2 0  9991
2 64637  89.0073 283.2719 0012212  63.4781 296.7670 14.37785344 79665
CZ-6A DEB
1 64637U 24140AEB 26086.50529175  .00005436  00000-0  17992-2 0  9991
2 64637  89.0073 283.2719 0012212  63.4781 296.7670 14.37785344 79665
CZ-6A DEB
1 64637U 24140AEB 26087.54923130  .00006267  00000-0  20743-2 0  9996
2 64637  89.0088 283.1526 0012154  60.6804 299.5608 14.37799165 79811
CZ-6A DEB
1 64637U 24140AEB 26087.54923130  .00006267  00000-0  20743-2 0  9996
2 64637  89.0088 283.1526 0012154  60.6804 299.5608 14.37799165 79811
CZ-6A DEB
1 64637U 24140AEB 26087.89720900  .00006482  00000-0  21452-2 0  9991
2 64637  89.0083 283.1120 0012169  59.8726 300.3678 14.37803831 79864
CZ-6A DEB
1 64637U 24140AEB 26087.89720902  .00006482  00000-0  21452-2 0  9993
2 64637  89.0083 283.1120 0012169  59.8726 300.3678 14.37803831 79864
CZ-6A DEB
1 64637U 24140AEB 26089.98504517  .00008099  00000-0  26795-2 0  9998
2 64637  89.0073 282.8692 0011966  54.1136 306.1173 14.37838688 80167
CZ-6A DEB
1 64637U 24140AEB 26089.98504518  .00008099  00000-0  26795-2 0  9999
2 64637  89.0073 282.8692 0011966  54.1136 306.1173 14.37838688 80167
CZ-6A DEB
1 64637U 24140AEB 26092.49038767  .00008615  00000-0  28478-2 0  9991
2 64637  89.0073 282.5790 0011728  46.8464 313.3714 14.37877327 80525
CZ-6A DEB
1 64637U 24140AEB 26094.50851664  .00009435  00000-0  31164-2 0  9991
2 64637  89.0068 282.3443 0011424  41.5922 318.6145 14.37921727 80818
CZ-6A DEB
1 64637U 24140AEB 26095.48276645  .00007714  00000-0  25471-2 0  9991
2 64637  89.0061 282.2310 0011318  38.6652 321.5356 14.37937428 80959
CZ-6A DEB
1 64637U 24140AEB 26095.48276645  .00007714  00000-0  25471-2 0  9991
2 64637  89.0061 282.2310 0011318  38.6652 321.5356 14.37937428 80959
CZ-6A DEB
1 64637U 24140AEB 26097.22247666  .00006880  00000-0  22704-2 0  9995
2 64637  89.0067 282.0288 0011092  33.5431 326.6469 14.37959827 81202
CZ-6A DEB
1 64637U 24140AEB 26097.50082806  .00005885  00000-0  19417-2 0  9990
2 64637  89.0067 281.9965 0011037  32.6981 327.4900 14.37961814 81243
CZ-6A DEB
1 64637U 24140AEB 26097.50082806  .00005885  00000-0  19417-2 0  9990
2 64637  89.0067 281.9965 0011037  32.6981 327.4900 14.37961814 81243
CZ-6A DEB
1 64637U 24140AEB 26098.47505264  .00005365  00000-0  17693-2 0  9992
2 64637  89.0071 281.8836 0010830  29.8046 330.3769 14.37972457 81380
CZ-6A DEB
1 64637U 24140AEB 26102.23271741  .00003758  00000-0  12374-2 0  9997
2 64637  89.0068 281.4476 0010228  17.7888 342.3668 14.38005981 81924
CZ-6A DEB
1 64637U 24140AEB 26102.44147410  .00003838  00000-0  12640-2 0  9990
2 64637  89.0067 281.4234 0010189  17.0597 343.0943 14.38007644 81956
CZ-6A DEB
1 64637U 24140AEB 26102.92857250  .00003488  00000-0  11483-2 0  9998
2 64637  89.0066 281.3667 0010080  15.3976 344.7529 14.38010078 82028
CZ-6A DEB
1 64637U 24140AEB 26102.92857250  .00003488  00000-0  11483-2 0  9998
2 64637  89.0066 281.3667 0010080  15.3976 344.7529 14.38010078 82028
CZ-6A DEB
1 64637U 24140AEB 26103.20691342  .00003562  00000-0  11726-2 0  9991
2 64637  89.0065 281.3346 0010072  14.5909 345.5580 14.38012752 82060
CZ-6A DEB
1 64637U 24140AEB 26103.90276529  .00003334  00000-0  10972-2 0  9993
2 64637  89.0063 281.2540 0009967  12.3575 347.7867 14.38017096 82168
CZ-6A DEB
1 64637U 24140AEB 26103.90276529  .00003334  00000-0  10972-2 0  9993
2 64637  89.0063 281.2540 0009967  12.3575 347.7867 14.38017096 82168
CZ-6A DEB
1 64637U 24140AEB 26104.45944514  .00003208  00000-0  10554-2 0  9996
2 64637  89.0063 281.1894 0009858  10.4691 349.6713 14.38020464 82249
CZ-6A DEB
1 64637U 24140AEB 26104.45944515  .00003208  00000-0  10554-2 0  9997
2 64637  89.0063 281.1895 0009858  10.4691 349.6713 14.38020464 82240
CZ-6A DEB
1 64637U 24140AEB 26104.94653889  .00003339  00000-0  10988-2 0  9998
2 64637  89.0063 281.1329 0009769   8.8144 351.3226 14.38023911 82314
CZ-6A DEB
1 64637U 24140AEB 26104.94653889  .00003339  00000-0  10988-2 0  9998
2 64637  89.0063 281.1329 0009769   8.8144 351.3226 14.38023911 82314
CZ-6A DEB
1 64637U 24140AEB 26105.50321630  .00003210  00000-0  10560-2 0  9991
2 64637  89.0063 281.0683 0009686   6.9680 353.1653 14.38027106 82390
CZ-6A DEB
1 64637U 24140AEB 26105.50321630  .00003210  00000-0  10560-2 0  9991
2 64637  89.0063 281.0683 0009686   6.9680 353.1653 14.38027106 82390
CZ-6A DEB
1 64637U 24140AEB 26106.47739876  .00003382  00000-0  11126-2 0  9992
2 64637  89.0063 280.9552 0009537   3.6315 356.4953 14.38033360 82531
CZ-6A DEB
1 64637U 24140AEB 26106.47739877  .00003382  00000-0  11126-2 0  9993
2 64637  89.0063 280.9552 0009537   3.6315 356.4953 14.38033360 82531
CZ-6A DEB
1 64637U 24140AEB 26107.72991345  .00003729  00000-0  12271-2 0  9999
2 64637  89.0064 280.8096 0009268 358.8722   1.2456 14.38041297 82713
CZ-6A DEB
1 64637U 24140AEB 26108.91283634  .00004384  00000-0  14431-2 0  9994
2 64637  89.0067 280.6721 0009053 354.4225   5.6872 14.38050996 82885
CZ-6A DEB
1 64637U 24140AEB 26108.91283635  .00004384  00000-0  14431-2 0  9995
2 64637  89.0067 280.6721 0009053 354.4225   5.6872 14.38050996 82885
CZ-6A DEB
1 64637U 24140AEB 26110.44366580  .00003990  00000-0  13128-2 0  9991
2 64637  89.0070 280.4944 0008833 348.4778  11.6219 14.38062420 83108
CZ-6A DEB
1 64637U 24140AEB 26110.44366581  .00003990  00000-0  13128-2 0  9992
2 64637  89.0070 280.4944 0008833 348.4778  11.6219 14.38062420 83108
CZ-6A DEB
1 64637U 24140AEB 26111.90489757  .00004482  00000-0  14748-2 0  9991
2 64637  89.0072 280.3246 0008572 342.7513  17.3395 14.38077123 83315
CZ-6A DEB
1 64637U 24140AEB 26111.90489757  .00004482  00000-0  14748-2 0  9991
2 64637  89.0072 280.3246 0008572 342.7513  17.3395 14.38077123 83315
CZ-6A DEB
1 64637U 24140AEB 26114.40983698  .00004454  00000-0  14649-2 0  9991
2 64637  89.0070 280.0336 0008228 331.8450  28.2305 14.38099113 83671
CZ-6A DEB
1 64637U 24140AEB 26114.40983698  .00004454  00000-0  14649-2 0  9991
2 64637  89.0070 280.0336 0008228 331.8450  28.2305 14.38099113 83671
CZ-6A DEB
1 64637U 24140AEB 26115.17522625  .00005883  00000-0  19357-2 0  9993
2 64637  89.0065 279.9452 0008156 328.7787  31.2928 14.38109952 83789
CZ-6A DEB
1 64637U 24140AEB 26116.42767191  .00006667  00000-0  21937-2 0  9999
2 64637  89.0069 279.8001 0008001 323.4203  36.6450 14.38125353 83968
CZ-6A DEB
1 64637U 24140AEB 26116.42767191  .00006667  00000-0  21937-2 0  9999
2 64637  89.0069 279.8001 0008001 323.4203  36.6450 14.38125353 83968
CZ-6A DEB
1 64637U 24140AEB 26118.44547102  .00006235  00000-0  20501-2 0  9998
2 64637  89.0062 279.5661 0007863 313.2946  46.7598 14.38149700 84256
CZ-6A DEB
1 64637U 24140AEB 26118.86294222  .00005977  00000-0  19652-2 0  9993
2 64637  89.0068 279.5180 0007776 311.8971  48.1565 14.38154750 84311
CZ-6A DEB
1 64637U 24140AEB 26118.93252071  .00005935  00000-0  19514-2 0  9998
2 64637  89.0070 279.5101 0007755 311.5285  48.5249 14.38155450 84321
CZ-6A DEB
1 64637U 24140AEB 26118.93252071  .00005935  00000-0  19514-2 0  9998
2 64637  89.0070 279.5101 0007755 311.5285  48.5249 14.38155450 84321
CZ-6A DEB
1 64637U 24140AEB 26120.39365925  .00006090  00000-0  20016-2 0  9996
2 64637  89.0071 279.3409 0007675 304.0599  55.9872 14.38172287 84531
CZ-6A DEB
1 64637U 24140AEB 26120.39365925  .00006090  00000-0  20016-2 0  9996
2 64637  89.0071 279.3409 0007675 304.0599  55.9872 14.38172287 84531
CZ-6A DEB
1 64637U 24140AEB 26120.88070185  .00006573  00000-0  21602-2 0  9999
2 64637  89.0072 279.2843 0007648 301.6855  58.3599 14.38178726 84606
CZ-6A DEB
1 64637U 24140AEB 26120.88070186  .00006573  00000-0  21602-2 0  9990
2 64637  89.0072 279.2843 0007648 301.6855  58.3599 14.38178726 84606
CZ-6A DEB
1 64637U 24140AEB 26122.41139175  .00006406  00000-0  21044-2 0  9990
2 64637  89.0073 279.1067 0007636 294.2376  65.8026 14.38198519 84820
CZ-6A DEB
1 64637U 24140AEB 26122.41139175  .00006406  00000-0  21044-2 0  9990
2 64637  89.0073 279.1067 0007636 294.2376  65.8026 14.38198519 84820
CZ-6A DEB
1 64637U 24140AEB 26123.38545595  .00006408  00000-0  21048-2 0  9990
2 64637  89.0077 278.9936 0007612 289.6529  70.3849 14.38211543 84960
CZ-6A DEB
1 64637U 24140AEB 26123.38545595  .00006408  00000-0  21048-2 0  9990
2 64637  89.0077 278.9936 0007612 289.6529  70.3849 14.38211543 84960
CZ-6A DEB
1 64637U 24140AEB 26123.87248546  .00005868  00000-0  19267-2 0  9999
2 64637  89.0078 278.9370 0007635 287.2974  72.7391 14.38216354 85038
CZ-6A DEB
1 64637U 24140AEB 26123.87248547  .00005868  00000-0  19267-2 0  9990
2 64637  89.0078 278.9370 0007635 287.2974  72.7391 14.38216354 85038
CZ-6A DEB
1 64637U 24140AEB 26126.37717611  .00005384  00000-0  17665-2 0  9994
2 64637  89.0091 278.6476 0007783 275.4199  84.6114 14.38245992 85393
CZ-6A DEB
1 64637U 24140AEB 26126.37717612  .00005384  00000-0  17665-2 0  9995
2 64637  89.0091 278.6476 0007783 275.4199  84.6114 14.38245992 85393
CZ-6A DEB
1 64637U 24140AEB 26127.14248910  .00004489  00000-0  14722-2 0  9997
2 64637  89.0084 278.5582 0007854 271.6981  88.3319 14.38252469 85506
CZ-6A DEB
1 64637U 24140AEB 26127.14248910  .00004489  00000-0  14722-2 0  9997
2 64637  89.0084 278.5582 0007854 271.6981  88.3319 14.38252469 85506
CZ-6A DEB
1 64637U 24140AEB 26127.90779867  .00004443  00000-0  14567-2 0  9998
2 64637  89.0084 278.4697 0007967 268.1282  91.9006 14.38259286 85611
CZ-6A DEB
1 64637U 24140AEB 26127.90779867  .00004443  00000-0  14567-2 0  9998
2 64637  89.0084 278.4697 0007967 268.1282  91.9006 14.38259286 85611
CZ-6A DEB
1 64637U 24140AEB 26128.39481206  .00004413  00000-0  14468-2 0  9996
2 64637  89.0083 278.4131 0008023 265.8749  94.1535 14.38263382 85680
CZ-6A DEB
1 64637U 24140AEB 26128.39481207  .00004413  00000-0  14468-2 0  9997
2 64637  89.0083 278.4131 0008023 265.8749  94.1535 14.38263382 85680
CZ-6A DEB
1 64637U 24140AEB 26129.36883469  .00004420  00000-0  14486-2 0  9999
2 64637  89.0082 278.3006 0008173 261.3907  98.6367 14.38271707 85820
CZ-6A DEB
1 64637U 24140AEB 26129.71669885  .00004001  00000-0  13111-2 0  9991
2 64637  89.0081 278.2603 0008214 259.8166 100.2108 14.38273627 85877
CZ-6A DEB
1 64637U 24140AEB 26129.71669886  .00004001  00000-0  13111-2 0  9992
2 64637  89.0081 278.2603 0008214 259.8166 100.2108 14.38273627 85877
CZ-6A DEB
1 64637U 24140AEB 26130.13413475  .00003878  00000-0  12705-2 0  9990
2 64637  89.0079 278.2117 0008264 257.9219 102.1055 14.38276930 85936
CZ-6A DEB
1 64637U 24140AEB 26130.13413475  .00003878  00000-0  12705-2 0  9990
2 64637  89.0079 278.2117 0008264 257.9219 102.1055 14.38276930 85936
CZ-6A DEB
1 64637U 24140AEB 26130.82985990  .00003505  00000-0  11478-2 0  9995
2 64637  89.0078 278.1311 0008326 254.8686 105.1593 14.38281430 86036
CZ-6A DEB
1 64637U 24140AEB 26130.89943264  .00003472  00000-0  11370-2 0  9994
2 64637  89.0084 278.1235 0008330 254.6260 105.4020 14.38281468 86049
CZ-6A DEB
1 64637U 24140AEB 26130.89943264  .00003472  00000-0  11370-2 0  9994
2 64637  89.0084 278.1235 0008330 254.6260 105.4020 14.38281468 86049
CZ-6A DEB
1 64637U 24140AEB 26131.38643846  .00003429  00000-0  11227-2 0  9995
2 64637  89.0081 278.0671 0008415 252.5087 107.5194 14.38284970 86111
CZ-6A DEB
1 64637U 24140AEB 26131.38643847  .00003429  00000-0  11227-2 0  9996
2 64637  89.0081 278.0671 0008415 252.5087 107.5194 14.38284971 86112
CZ-6A DEB
1 64637U 24140AEB 26132.84745057  .00003530  00000-0  11557-2 0  9993
2 64637  89.0077 277.8975 0008618 246.2248 113.8049 14.38294737 86328
CZ-6A DEB
1 64637U 24140AEB 26132.84745057  .00003530  00000-0  11557-2 0  9993
2 64637  89.0077 277.8975 0008618 246.2248 113.8049 14.38294737 86328
CZ-6A DEB
1 64637U 24140AEB 26133.82145439  .00003437  00000-0  11248-2 0  9993
2 64637  89.0074 277.7842 0008768 242.1386 117.8927 14.38300157 86469
CZ-6A DEB
1 64637U 24140AEB 26133.82145439  .00003437  00000-0  11248-2 0  9993
2 64637  89.0074 277.7842 0008768 242.1386 117.8926 14.38300157 86468
CZ-6A DEB
1 64637U 24140AEB 26134.37802626  .00003518  00000-0  11513-2 0  9997
2 64637  89.0074 277.7197 0008861 239.8484 120.1839 14.38303561 86548
CZ-6A DEB
1 64637U 24140AEB 26135.35202440  .00003065  00000-0  10026-2 0  9999
2 64637  89.0076 277.6068 0009086 235.7504 124.2836 14.38307766 86682
CZ-6A DEB
1 64637U 24140AEB 26136.81301235  .00003602  00000-0  11787-2 0  9995
2 64637  89.0078 277.4372 0009365 230.1848 129.8529 14.38318999 86893
CZ-6A DEB
1 64637U 24140AEB 26136.81301236  .00003602  00000-0  11787-2 0  9996
2 64637  89.0078 277.4372 0009365 230.1848 129.8529 14.38318999 86893
CZ-6A DEB
1 64637U 24140AEB 26137.36957669  .00003481  00000-0  11389-2 0  9997
2 64637  89.0079 277.3726 0009509 228.1396 131.8994 14.38322314 86975
CZ-6A DEB
1 64637U 24140AEB 26137.36957669  .00003481  00000-0  11389-2 0  9997
2 64637  89.0079 277.3726 0009509 228.1396 131.8994 14.38322314 86975
CZ-6A DEB
1 64637U 24140AEB 26138.34356073  .00003342  00000-0  10928-2 0  9992
2 64637  89.0080 277.2597 0009744 224.5275 135.5143 14.38328531 87110
CZ-6A DEB
1 64637U 24140AEB 26138.34356073  .00003342  00000-0  10928-2 0  9992
2 64637  89.0080 277.2597 0009744 224.5275 135.5143 14.38328531 87110
CZ-6A DEB
1 64637U 24140AEB 26139.10883022  .00003466  00000-0  11335-2 0  9996
2 64637  89.0081 277.1710 0009925 221.6764 138.3681 14.38334463 87220
CZ-6A DEB
1 64637U 24140AEB 26139.10883023  .00003466  00000-0  11335-2 0  9997
2 64637  89.0081 277.1710 0009925 221.6764 138.3681 14.38334463 87220
CZ-6A DEB
1 64637U 24140AEB 26139.80452755  .00003526  00000-0  11529-2 0  9990
2 64637  89.0083 277.0905 0010075 219.0853 140.9621 14.38339650 87322
CZ-6A DEB
1 64637U 24140AEB 26139.80452755  .00003526  00000-0  11529-2 0  9990
2 64637  89.0083 277.0905 0010075 219.0853 140.9621 14.38339650 87322
CZ-6A DEB
1 64637U 24140AEB 26140.36108404  .00003421  00000-0  11184-2 0  9993
2 64637  89.0084 277.0259 0010178 217.0806 142.9693 14.38343089 87406
CZ-6A DEB
1 64637U 24140AEB 26140.63936163  .00003500  00000-0  11443-2 0  9990
2 64637  89.0087 276.9938 0010274 215.9261 144.1249 14.38345078 87445
CZ-6A DEB
1 64637U 24140AEB 26142.79599836  .00003969  00000-0  12978-2 0  9994
2 64637  89.0083 276.7442 0010782 208.8294 151.2311 14.38362724 87750
CZ-6A DEB
1 64637U 24140AEB 26143.35254556  .00004200  00000-0  13733-2 0  9993
2 64637  89.0082 276.6798 0010894 207.0166 153.0469 14.38367727 87836
CZ-6A DEB
1 64637U 24140AEB 26144.32649860  .00004292  00000-0  14034-2 0  9993
2 64637  89.0081 276.5670 0011118 203.9439 156.1246 14.38376126 87976
CZ-6A DEB
1 64637U 24140AEB 26145.30044494  .00005027  00000-0  16439-2 0  9992
2 64637  89.0079 276.4541 0011328 200.9412 159.1326 14.38386926 88118
CZ-6A DEB
1 64637U 24140AEB 26145.30044495  .00005027  00000-0  16439-2 0  9993
2 64637  89.0079 276.4541 0011328 200.9412 159.1326 14.38386926 88118
CZ-6A DEB
1 64637U 24140AEB 26146.83091784  .00006007  00000-0  19641-2 0  9992
2 64637  89.0080 276.2767 0011649 196.2908 163.7920 14.38405058 88334
CZ-6A DEB
1 64637U 24140AEB 26147.31788191  .00006835  00000-0  22348-2 0  9998
2 64637  89.0078 276.2201 0011756 194.8033 165.2825 14.38412867 88401
CZ-6A DEB
1 64637U 24140AEB 26147.31788192  .00006835  00000-0  22348-2 0  9999
2 64637  89.0078 276.2201 0011756 194.8033 165.2825 14.38412867 88401
CZ-6A DEB
1 64637U 24140AEB 26148.29180384  .00006878  00000-0  22484-2 0  9994
2 64637  89.0081 276.1070 0011964 191.9878 168.1039 14.38425389 88541
CZ-6A DEB
1 64637U 24140AEB 26148.29180385  .00006878  00000-0  22484-2 0  9995
2 64637  89.0081 276.1070 0011964 191.9878 168.1040 14.38425389 88543
CZ-6A DEB
1 64637U 24140AEB 26148.77876113  .00007323  00000-0  23936-2 0  9998
2 64637  89.0082 276.0507 0012047 190.4350 169.6603 14.38433028 88618
CZ-6A DEB
1 64637U 24140AEB 26148.84832578  .00007642  00000-0  24979-2 0  9995
2 64637  89.0079 276.0424 0012077 190.5134 169.5816 14.38434938 88623
CZ-6A DEB
1 64637U 24140AEB 26149.33528076  .00007212  00000-0  23568-2 0  9991
2 64637  89.0081 275.9858 0012119 188.8161 171.2829 14.38440985 88692
CZ-6A DEB
1 64637U 24140AEB 26149.33528077  .00007212  00000-0  23568-2 0  9992
2 64637  89.0081 275.9858 0012119 188.8161 171.2829 14.38440985 88692
CZ-6A DEB
1 64637U 24140AEB 26150.30918110  .00008210  00000-0  26822-2 0  9997
2 64637  89.0082 275.8729 0012321 186.2357 173.8692 14.38458234 88831
CZ-6A DEB
1 64637U 24140AEB 26150.30918110  .00008210  00000-0  26822-2 0  9997
2 64637  89.0082 275.8729 0012321 186.2357 173.8692 14.38458234 88831
CZ-6A DEB
1 64637U 24140AEB 26150.79612765  .00007462  00000-0  24373-2 0  9994
2 64637  89.0085 275.8163 0012434 184.7901 175.3182 14.38464463 88909
CZ-6A DEB
1 64637U 24140AEB 26150.79612766  .00007462  00000-0  24373-2 0  9995
2 64637  89.0085 275.8164 0012434 184.7901 175.3182 14.38464463 88900
CZ-6A DEB
1 64637U 24140AEB 26151.35263409  .00008702  00000-0  28421-2 0  9990
2 64637  89.0085 275.7520 0012504 183.1690 176.9433 14.38476075 88987
CZ-6A DEB
1 64637U 24140AEB 26151.83957519  .00006929  00000-0  22623-2 0  9992
2 64637  89.0086 275.6956 0012612 181.7816 178.3342 14.38480678 89052
CZ-6A DEB
1 64637U 24140AEB 26151.83957519  .00006929  00000-0  22623-2 0  9992
2 64637  89.0086 275.6956 0012612 181.7816 178.3342 14.38480678 89052
CZ-6A DEB
1 64637U 24140AEB 26153.78731743  .00005977  00000-0  19499-2 0  9996
2 64637  89.0087 275.4700 0012951 176.4868 183.6425 14.38505391 89334
CZ-6A DEB
1 64637U 24140AEB 26153.78731744  .00005977  00000-0  19499-2 0  9997
2 64637  89.0087 275.4700 0012951 176.4868 183.6425 14.38505391 89334
CZ-6A DEB
1 64637U 24140AEB 26153.78731744  .00005977  00000-0  19499-2 0  9997
2 64637  89.0087 275.4700 0012951 176.4868 183.6425 14.38505391 89334
CZ-6A DEB
1 64637U 24140AEB 26154.34380922  .00006108  00000-0  19925-2 0  9999
2 64637  89.0087 275.4053 0013068 174.9940 185.1394 14.38512465 89410
CZ-6A DEB
1 64637U 24140AEB 26154.34380923  .00006108  00000-0  19925-2 0  9990
2 64637  89.0087 275.4053 0013068 174.9940 185.1394 14.38512465 89410
CZ-6A DEB
1 64637U 24140AEB 26157.05666904  .00007825  00000-0  25511-2 0  9992
2 64637  89.0079 275.0907 0013594 168.2328 191.9193 14.38548025 89801
CZ-6A DEB
1 64637U 24140AEB 26157.05666904  .00007825  00000-0  25511-2 0  9992
2 64637  89.0079 275.0907 0013594 168.2328 191.9193 14.38548025 89801
CZ-6A DEB
1 64637U 24140AEB 26157.05666904  .00007825  00000-0  25511-2 0  9992
2 64637  89.0079 275.0907 0013594 168.2328 191.9193 14.38548025 89801
CZ-6A DEB
1 64637U 24140AEB 26159.56079401  .00005482  00000-0  17855-2 0  9999
2 64637  89.0073 274.8003 0013973 162.0690 198.1007 14.38573200 90161
CZ-6A DEB
1 64637U 24140AEB 26159.76946904  .00005807  00000-0  18913-2 0  9999
2 64637  89.0077 274.7767 0014007 161.3212 198.8505 14.38576210 90199
CZ-6A DEB
1 64637U 24140AEB 26160.04770213  .00004460  00000-0  14518-2 0  9991
2 64637  89.0077 274.7447 0014047 160.4404 199.7338 14.38576338 90231
CZ-6A DEB
1 64637U 24140AEB 26160.04770213  .00004460  00000-0  14518-2 0  9991
2 64637  89.0077 274.7447 0014047 160.4404 199.7338 14.38576338 90231
CZ-6A DEB
1 64637U 24140AEB 26160.46505095  .00004707  00000-0  15321-2 0  9998
2 64637  89.0082 274.6965 0014111 159.2457 200.9320 14.38580611 90298
CZ-6A DEB
1 64637U 24140AEB 26160.46505095  .00004707  00000-0  15321-2 0  9998
2 64637  89.0082 274.6965 0014111 159.2457 200.9320 14.38580611 90298
CZ-6A DEB
1 64637U 24140AEB 26161.09107176  .00004842  00000-0  15761-2 0  9994
2 64637  89.0079 274.6235 0014161 157.5438 202.6385 14.38586705 90389
CZ-6A DEB
1 64637U 24140AEB 26161.29974475  .00004664  00000-0  15180-2 0  9997
2 64637  89.0080 274.5994 0014176 157.0734 203.1102 14.38588448 90415
CZ-6A DEB
1 64637U 24140AEB 26161.50841780  .00004512  00000-0  14683-2 0  9992
2 64637  89.0081 274.5753 0014203 156.5887 203.5963 14.38589747 90448
CZ-6A DEB
1 64637U 24140AEB 26161.57797532  .00004533  00000-0  14750-2 0  9992
2 64637  89.0081 274.5671 0014225 156.4432 203.7423 14.38590441 90453
CZ-6A DEB
1 64637U 24140AEB 26162.20399156  .00004261  00000-0  13863-2 0  9995
2 64637  89.0082 274.4945 0014295 154.8483 205.3416 14.38595824 90542
CZ-6A DEB
1 64637U 24140AEB 26162.55177717  .00004723  00000-0  15366-2 0  9993
2 64637  89.0083 274.4542 0014335 153.9859 206.2065 14.38600186 90591
CZ-6A DEB
1 64637U 24140AEB 26162.62133420  .00004760  00000-0  15489-2 0  9991
2 64637  89.0083 274.4461 0014342 153.7936 206.3993 14.38600943 90607
CZ-6A DEB
1 64637U 24140AEB 26162.89956194  .00004632  00000-0  15070-2 0  9995
2 64637  89.0083 274.4138 0014371 153.1067 207.0881 14.38603456 90649
CZ-6A DEB
1 64637U 24140AEB 26163.24734597  .00005190  00000-0  16889-2 0  9995
2 64637  89.0084 274.3734 0014402 152.1967 208.0006 14.38608099 90697
CZ-6A DEB
1 64637U 24140AEB 26163.80379844  .00005572  00000-0  18131-2 0  9993
2 64637  89.0086 274.3088 0014472 150.8340 209.3671 14.38614323 90776
CZ-6A DEB
1 64637U 24140AEB 26164.22113618  .00005170  00000-0  16818-2 0  9999
2 64637  89.0087 274.2604 0014532 149.8503 210.3537 14.38617909 90839
CZ-6A DEB
1 64637U 24140AEB 26164.49936067  .00005404  00000-0  17580-2 0  9996
2 64637  89.0088 274.2281 0014551 149.1444 211.0615 14.38621239 90879
CZ-6A DEB
1 64637U 24140AEB 26164.56891675  .00005374  00000-0  17482-2 0  9996
2 64637  89.0088 274.2200 0014556 149.0057 211.2005 14.38621858 90887
CZ-6A DEB
1 64637U 24140AEB 26164.84714042  .00005350  00000-0  17403-2 0  9996
2 64637  89.0088 274.1878 0014577 148.3424 211.8657 14.38624985 90928
CZ-6A DEB
1 64637U 24140AEB 26164.91669624  .00005388  00000-0  17525-2 0  9995
2 64637  89.0089 274.1797 0014580 148.1741 212.0344 14.38625776 90939
CZ-6A DEB
1 64637U 24140AEB 26165.19491917  .00005055  00000-0  16440-2 0  9990
2 64637  89.0090 274.1474 0014600 147.4775 212.7328 14.38628260 90979
CZ-6A DEB
1 64637U 24140AEB 26165.26447483  .00004967  00000-0  16153-2 0  9999
2 64637  89.0090 274.1394 0014606 147.3160 212.8947 14.38628910 90984
CZ-6A DEB
1 64637U 24140AEB 26165.47314176  .00004780  00000-0  15543-2 0  9999
2 64637  89.0090 274.1152 0014622 146.8257 213.3863 14.38630574 91012
CZ-6A DEB
1 64637U 24140AEB 26165.54269733  .00004807  00000-0  15633-2 0  9995
2 64637  89.0090 274.1071 0014631 146.6476 213.5649 14.38631302 91028
CZ-6A DEB
1 64637U 24140AEB 26165.82091925  .00004730  00000-0  15380-2 0  9996
2 64637  89.0091 274.0749 0014656 145.9319 214.2826 14.38634059 91066
CZ-6A DEB
1 64637U 24140AEB 26165.89047470  .00004814  00000-0  15652-2 0  9994
2 64637  89.0090 274.0669 0014653 145.7244 214.4905 14.38634706 91078
CZ-6A DEB
1 64637U 24140AEB 26166.16869622  .00004282  00000-0  13919-2 0  9999
2 64637  89.0091 274.0346 0014672 145.0545 215.1621 14.38636064 91116
CZ-6A DEB
1 64637U 24140AEB 26166.23825151  .00004263  00000-0  13855-2 0  9994
2 64637  89.0091 274.0266 0014678 144.8867 215.3304 14.38636686 91128
CZ-6A DEB
1 64637U 24140AEB 26166.51647230  .00004366  00000-0  14190-2 0  9992
2 64637  89.0092 273.9944 0014709 144.2653 215.9535 14.38639422 91169
CZ-6A DEB
1 64637U 24140AEB 26166.58602742  .00004398  00000-0  14294-2 0  9998
2 64637  89.0092 273.9864 0014708 144.0947 216.1245 14.38640132 91175
CZ-6A DEB
1 64637U 24140AEB 26166.93380283  .00004180  00000-0  13583-2 0  9999
2 64637  89.0092 273.9462 0014734 143.3253 216.8959 14.38642688 91223
CZ-6A DEB
1 64637U 24140AEB 26167.14246765  .00004113  00000-0  13366-2 0  9994
2 64637  89.0092 273.9220 0014746 142.8204 217.4021 14.38644325 91258
CZ-6A DEB
1 64637U 24140AEB 26167.28157747  .00004082  00000-0  13262-2 0  9990
2 64637  89.0092 273.9058 0014759 142.4677 217.7556 14.38645484 91276
CZ-6A DEB
1 64637U 24140AEB 26167.55979691  .00004022  00000-0  13066-2 0  9996
2 64637  89.0092 273.8736 0014782 141.7960 218.4291 14.38647399 91317
CZ-6A DEB
1 64637U 24140AEB 26167.55979691  .00004022  00000-0  13066-2 0  9996
2 64637  89.0092 273.8736 0014782 141.7960 218.4291 14.38647399 91317
CZ-6A DEB
1 64637U 24140AEB 26167.83801578  .00004072  00000-0  13231-2 0  9994
2 64637  89.0092 273.8413 0014819 141.0980 219.1290 14.38649777 91358
CZ-6A DEB
1 64637U 24140AEB 26167.90757044  .00004116  00000-0  13374-2 0  9997
2 64637  89.0091 273.8333 0014822 140.9221 219.3053 14.38650385 91365
CZ-6A DEB
1 64637U 24140AEB 26167.90757044  .00004116  00000-0  13374-2 0  9997
2 64637  89.0091 273.8333 0014822 140.9221 219.3053 14.38650385 91365
CZ-6A DEB
1 64637U 24140AEB 26169.71598368  .00003887  00000-0  12623-2 0  9990
2 64637  89.0088 273.6241 0014938 136.3383 223.9002 14.38663191 91626
CZ-6A DEB
1 64637U 24140AEB 26169.71598369  .00003887  00000-0  12623-2 0  9991
2 64637  89.0088 273.6241 0014938 136.3383 223.9002 14.38663191 91626
CZ-6A DEB
1 64637U 24140AEB 26170.27241495  .00003997  00000-0  12979-2 0  9995
2 64637  89.0087 273.5597 0014944 135.0369 225.2044 14.38667588 91709
CZ-6A DEB
1 64637U 24140AEB 26170.27241495  .00003997  00000-0  12979-2 0  9995
2 64637  89.0087 273.5597 0014944 135.0369 225.2044 14.38667588 91709
CZ-6A DEB
1 64637U 24140AEB 26171.24616625  .00003850  00000-0  12500-2 0  9992
2 64637  89.0085 273.4469 0014974 132.8635 227.3826 14.38674178 91847
CZ-6A DEB
1 64637U 24140AEB 26171.24616626  .00003850  00000-0  12500-2 0  9993
2 64637  89.0085 273.4469 0014974 132.8635 227.3826 14.38674178 91847
CZ-6A DEB
1 64637U 24140AEB 26173.26320678  .00003535  00000-0  11469-2 0  9999
2 64637  89.0082 273.2133 0015014 127.9773 232.2786 14.38688376 92132
CZ-6A DEB
1 64637U 24140AEB 26174.72380945  .00003683  00000-0  11948-2 0  9990
2 64637  89.0083 273.0438 0014973 124.6006 235.6609 14.38699234 92344
CZ-6A DEB
1 64637U 24140AEB 26176.53215514  .00005583  00000-0  18126-2 0  9996
2 64637  89.0085 272.8338 0014946 120.2032 240.0651 14.38719593 92600
CZ-6A DEB
1 64637U 24140AEB 26176.53215515  .00005583  00000-0  18126-2 0  9997
2 64637  89.0085 272.8338 0014946 120.2032 240.0651 14.38719593 92600
CZ-6A DEB
1 64637U 24140AEB 26177.22766614  .00005365  00000-0  17416-2 0  9994
2 64637  89.0086 272.7531 0014916 118.5311 241.7393 14.38726494 92702
CZ-6A DEB
1 64637U 24140AEB 26177.71452156  .00004910  00000-0  15935-2 0  9990
2 64637  89.0089 272.6964 0014954 117.1975 243.0751 14.38730904 92778
CZ-6A DEB
1 64637U 24140AEB 26177.71452157  .00004910  00000-0  15935-2 0  9991
2 64637  89.0089 272.6964 0014954 117.1975 243.0752 14.38730904 92779
CZ-6A DEB
1 64637U 24140AEB 26178.27092508  .00005265  00000-0  17087-2 0  9997
2 64637  89.0090 272.6320 0014921 115.8651 244.4090 14.38738148 92854
CZ-6A DEB
1 64637U 24140AEB 26178.54912641  .00004832  00000-0  15678-2 0  9999
2 64637  89.0091 272.5998 0014905 115.1691 245.1057 14.38739921 92899
CZ-6A DEB
1 64637U 24140AEB 26178.75777683  .00004906  00000-0  15916-2 0  9994
2 64637  89.0087 272.5754 0014877 114.6265 245.6487 14.38742447 92926
CZ-6A DEB
1 64637U 24140AEB 26178.75777683  .00004906  00000-0  15916-2 0  9994
2 64637  89.0087 272.5754 0014877 114.6265 245.6487 14.38742447 92926
CZ-6A DEB
1 64637U 24140AEB 26179.24462699  .00004565  00000-0  14808-2 0  9997
2 64637  89.0089 272.5190 0014859 113.3985 246.8780 14.38746568 92991
CZ-6A DEB
1 64637U 24140AEB 26179.73147589  .00004382  00000-0  14210-2 0  9993
2 64637  89.0091 272.4627 0014809 112.3086 247.9687 14.38750598 93069
CZ-6A DEB
1 64637U 24140AEB 26180.70516962  .00004603  00000-0  14927-2 0  9998
2 64637  89.0090 272.3498 0014731 109.8950 250.3839 14.38759407 93209
CZ-6A DEB
1 64637U 24140AEB 26181.67885727  .00004761  00000-0  15438-2 0  9996
2 64637  89.0093 272.2373 0014631 107.7885 252.4913 14.38768027 93345
CZ-6A DEB
1 64637U 24140AEB 26181.67885727  .00004761  00000-0  15438-2 0  9996
2 64637  89.0093 272.2373 0014631 107.7885 252.4913 14.38768027 93345
CZ-6A DEB
1 64637U 24140AEB 26182.23524700  .00005972  00000-0  19370-2 0  9994
2 64637  89.0092 272.1730 0014597 106.3068 253.9740 14.38776142 93429
CZ-6A DEB
1 64637U 24140AEB 26182.23524701  .00005972  00000-0  19370-2 0  9995
2 64637  89.0092 272.1730 0014597 106.3068 253.9740 14.38776142 93429
CZ-6A DEB
1 64637U 24140AEB 26183.69576100  .00005691  00000-0  18454-2 0  9996
2 64637  89.0085 272.0037 0014495 102.5345 257.7478 14.38789498 93634
CZ-6A DEB
1 64637U 24140AEB 26183.69576100  .00005691  00000-0  18454-2 0  9996
2 64637  89.0084 272.0037 0014495 102.5345 257.7478 14.38789498 93633
CZ-6A DEB
1 64637U 24140AEB 26184.66942750  .00005531  00000-0  17932-2 0  9995
2 64637  89.0086 271.8912 0014371 100.3257 259.9565 14.38799389 93771
CZ-6A DEB
1 64637U 24140AEB 26185.22580551  .00006118  00000-0  19834-2 0  9990
2 64637  89.0085 271.8268 0014318  98.9488 261.3334 14.38806401 93857
CZ-6A DEB
1 64637U 24140AEB 26185.22580552  .00006118  00000-0  19834-2 0  9991
2 64637  89.0085 271.8268 0014318  98.9488 261.3334 14.38806401 93857
CZ-6A DEB
1 64637U 24140AEB 26185.22580552  .00006118  00000-0  19834-2 0  9991
2 64637  89.0085 271.8268 0014318  98.9488 261.3334 14.38806401 93857
CZ-6A DEB
1 64637U 24140AEB 26186.19945677  .00008070  00000-0  26160-2 0  9990
2 64637  89.0085 271.7138 0014215  96.5689 263.7131 14.38824209 93997
CZ-6A DEB
1 64637U 24140AEB 26186.19945678  .00008070  00000-0  26160-2 0  9991
2 64637  89.0085 271.7138 0014215  96.5689 263.7131 14.38824209 93997
CZ-6A DEB
1 64637U 24140AEB 26186.68628010  .00007114  00000-0  23058-2 0  9994
2 64637  89.0084 271.6575 0014133  95.4673 264.8140 14.38828609 94069
CZ-6A DEB
1 64637U 24140AEB 26186.96446377  .00005809  00000-0  18823-2 0  9992
2 64637  89.0084 271.6252 0014087  94.8262 265.4548 14.38829894 94107
CZ-6A DEB
1 64637U 24140AEB 26189.18991953  .00002676  00000-0  86467-3 0  9993
2 64637  89.0084 271.3672 0013712  89.3941 270.8831 14.38843133 94429
CZ-6A DEB
1 64637U 24140AEB 26189.18991953  .00002676  00000-0  86467-3 0  9993
2 64637  89.0084 271.3672 0013712  89.3941 270.8830 14.38843133 94428
CZ-6A DEB
1 64637U 24140AEB 26189.18991953  .00002676  00000-0  86467-3 0  9993
2 64637  89.0084 271.3672 0013712  89.3941 270.8831 14.38843133 94429
CZ-6A DEB
1 64637U 24140AEB 26191.48490083  .00002755  00000-0  89019-3 0  9991
2 64637  89.0089 271.1009 0013400  83.4086 276.8640 14.38856196 94758
CZ-6A DEB
1 64637U 24140AEB 26191.48490084  .00002755  00000-0  89019-3 0  9992
2 64637  89.0089 271.1009 0013400  83.4086 276.8640 14.38856196 94758
CZ-6A DEB
1 64637U 24140AEB 26193.64077424  .00002449  00000-0  79076-3 0  9993
2 64637  89.0095 270.8511 0013073  77.8004 282.4661 14.38866964 95067
CZ-6A DEB
1 64637U 24140AEB 26193.64077424  .00002449  00000-0  79076-3 0  9993
2 64637  89.0095 270.8511 0013073  77.8004 282.4660 14.38866964 95066
CZ-6A DEB
1 64637U 24140AEB 26195.17073918  .00002353  00000-0  75928-3 0  9993
2 64637  89.0090 270.6739 0012810  73.7129 286.5480 14.38874176 95285
CZ-6A DEB
1 64637U 24140AEB 26195.17073918  .00002353  00000-0  75928-3 0  9993
2 64637  89.0090 270.6739 0012810  73.7129 286.5479 14.38874176 95283
CZ-6A DEB
1 64637U 24140AEB 26195.65754442  .00002306  00000-0  74410-3 0  9997
2 64637  89.0089 270.6175 0012708  72.4408 287.8180 14.38876498 95357
CZ-6A DEB
1 64637U 24140AEB 26195.65754443  .00002306  00000-0  74410-3 0  9998
2 64637  89.0089 270.6175 0012708  72.4408 287.8180 14.38876498 95357
CZ-6A DEB
1 64637U 24140AEB 26197.18749965  .00002062  00000-0  66491-3 0  9990
2 64637  89.0083 270.4404 0012426  68.2223 292.0298 14.38882767 95577
CZ-6A DEB
1 64637U 24140AEB 26197.18749966  .00002062  00000-0  66491-3 0  9991
2 64637  89.0083 270.4404 0012426  68.2223 292.0298 14.38882767 95577
CZ-6A DEB
1 64637U 24140AEB 26198.16110344  .00002125  00000-0  68506-3 0  9991
2 64637  89.0083 270.3274 0012237  65.4992 294.7483 14.38887223 95716
CZ-6A DEB
1 64637U 24140AEB 26198.16110344  .00002125  00000-0  68506-3 0  9991
2 64637  89.0083 270.3274 0012237  65.4992 294.7483 14.38887223 95716
CZ-6A DEB
1 64637U 24140AEB 26199.20424724  .00002084  00000-0  67194-3 0  9993
2 64637  89.0082 270.2065 0011992  62.6156 297.6263 14.38891663 95867
CZ-6A DEB
1 64637U 24140AEB 26200.17784535  .00002036  00000-0  65638-3 0  9999
2 64637  89.0080 270.0936 0011788  59.8566 300.3801 14.38895661 96005
CZ-6A DEB
1 64637U 24140AEB 26201.15144069  .00002113  00000-0  68130-3 0  9996
2 64637  89.0080 269.9807 0011600  57.1480 303.0836 14.38899961 96148
CZ-6A DEB
1 64637U 24140AEB 26202.61182678  .00003409  00000-0  11015-2 0  9994
2 64637  89.0081 269.8112 0011282  52.8558 307.3672 14.38910805 96350
CZ-6A DEB
1 64637U 24140AEB 26204.14174253  .00003910  00000-0  12638-2 0  9993
2 64637  89.0084 269.6337 0010954  48.1944 312.0190 14.38922547 96570
CZ-6A DEB
1 64637U 24140AEB 26204.62853125  .00003995  00000-0  12915-2 0  9999
2 64637  89.0086 269.5774 0010855  46.8080 313.4026 14.38926464 96645
CZ-6A DEB
1 64637U 24140AEB 26204.62853126  .00003995  00000-0  12915-2 0  9990
2 64637  89.0086 269.5774 0010855  46.8080 313.4026 14.38926464 96645
CZ-6A DEB
1 64637U 24140AEB 26205.60210271  .00004689  00000-0  15162-2 0  9995
2 64637  89.0089 269.4646 0010638  43.7361 316.4680 14.38937322 96781
CZ-6A DEB
1 64637U 24140AEB 26206.15842671  .00004696  00000-0  15182-2 0  9991
2 64637  89.0089 269.4002 0010522  41.9842 318.2163 14.38942475 96863
CZ-6A DEB
1 64637U 24140AEB 26207.13198987  .00004596  00000-0  14857-2 0  9991
2 64637  89.0089 269.2873 0010333  38.9277 321.2665 14.38950660 97008
CZ-6A DEB
1 64637U 24140AEB 26207.61876883  .00004527  00000-0  14633-2 0  9998
2 64637  89.0092 269.2310 0010187  37.5390 322.6520 14.38954790 97076
CZ-6A DEB
1 64637U 24140AEB 26208.17508660  .00004320  00000-0  13961-2 0  9999
2 64637  89.0091 269.1665 0010079  35.8115 324.3759 14.38958771 97158
CZ-6A DEB
1 64637U 24140AEB 26208.59232378  .00004498  00000-0  14537-2 0  9991
2 64637  89.0091 269.1180 0009963  34.4572 325.7273 14.38962326 97216
CZ-6A DEB
1 64637U 24140AEB 26209.14863807  .00004489  00000-0  14505-2 0  9995
2 64637  89.0089 269.0537 0009835  32.5356 327.6449 14.38967033 97299
CZ-6A DEB
1 64637U 24140AEB 26209.14863807  .00004489  00000-0  14505-2 0  9995
2 64637  89.0089 269.0536 0009835  32.5356 327.6449 14.38967033 97298
CZ-6A DEB
1 64637U 24140AEB 26210.60895470  .00004563  00000-0  14743-2 0  9996
2 64637  89.0088 268.8845 0009493  27.6023 332.5680 14.38979609 97501
CZ-6A DEB
1 64637U 24140AEB 26212.13879677  .00003708  00000-0  11971-2 0  9997
2 64637  89.0084 268.7073 0009148  22.1764 337.9830 14.38990698 97729
CZ-6A DEB
1 64637U 24140AEB 26213.11232624  .00003853  00000-0  12438-2 0  9991
2 64637  89.0081 268.5945 0008969  18.8101 341.3429 14.38998715 97865
CZ-6A DEB
1 64637U 24140AEB 26214.15538821  .00003407  00000-0  10992-2 0  9992
2 64637  89.0081 268.4735 0008705  14.7956 345.3498 14.39005350 98015
CZ-6A DEB
1 64637U 24140AEB 26214.15538821  .00003407  00000-0  10992-2 0  9992
2 64637  89.0081 268.4735 0008705  14.7956 345.3498 14.39005350 98015
CZ-6A DEB
1 64637U 24140AEB 26215.12890764  .00004046  00000-0  13059-2 0  9994
2 64637  89.0080 268.3606 0008505  11.0704 349.0682 14.39014012 98155
CZ-6A DEB
1 64637U 24140AEB 26217.14546819  .00003031  00000-0  97715-3 0  9992
2 64637  89.0081 268.1263 0008088   3.5812 356.5445 14.39026909 98445
CZ-6A DEB
1 64637U 24140AEB 26217.56268532  .00002786  00000-0  89761-3 0  9999
2 64637  89.0083 268.0779 0008004   1.7963 358.3265 14.39029242 98503
CZ-6A DEB
1 64637U 24140AEB 26218.39711799  .00002300  00000-0  74020-3 0  9993
2 64637  89.0086 267.9811 0007845 358.2698   1.8474 14.39032958 98621
CZ-6A DEB
1 64637U 24140AEB 26219.09247700  .00002203  00000-0  70878-3 0  9996
2 64637  89.0087 267.9005 0007722 355.4156   4.6973 14.39036194 98721
CZ-6A DEB
1 64637U 24140AEB 26219.64876352  .00002224  00000-0  71543-3 0  9991
2 64637  89.0088 267.8361 0007657 352.9801   7.1291 14.39038460 98800
CZ-6A DEB
1 64637U 24140AEB 26219.64876353  .00002224  00000-0  71543-3 0  9992
2 64637  89.0088 267.8361 0007657 352.9801   7.1291 14.39038460 98800
CZ-6A DEB
1 64637U 24140AEB 26221.10901068  .00002301  00000-0  74042-3 0  9991
2 64637  89.0090 267.6669 0007422 346.5757  13.5245 14.39045029 99014
CZ-6A DEB
1 64637U 24140AEB 26221.10901069  .00002301  00000-0  74042-3 0  9992
2 64637  89.0090 267.6669 0007422 346.5757  13.5245 14.39045029 99014
CZ-6A DEB
1 64637U 24140AEB 26222.08250483  .00002339  00000-0  75278-3 0  9990
2 64637  89.0089 267.5540 0007272 342.3414  17.7533 14.39049598 99152
CZ-6A DEB
1 64637U 24140AEB 26222.56925127  .00002256  00000-0  72564-3 0  9990
2 64637  89.0084 267.4971 0007181 340.5379  19.5546 14.39051374 99220
CZ-6A DEB
1 64637U 24140AEB 26222.56925128  .00002256  00000-0  72564-3 0  9991
2 64637  89.0084 267.4971 0007181 340.5379  19.5546 14.39051374 99220
CZ-6A DEB
1 64637U 24140AEB 26223.12553110  .00002167  00000-0  69700-3 0  9991
2 64637  89.0084 267.4325 0007068 337.0713  23.0171 14.39053770 99305
CZ-6A DEB
1 64637U 24140AEB 26223.12553110  .00002167  00000-0  69700-3 0  9991
2 64637  89.0084 267.4325 0007068 337.0713  23.0171 14.39053770 99305
CZ-6A DEB
1 64637U 24140AEB 26223.54274073  .00002163  00000-0  69548-3 0  9991
2 64637  89.0084 267.3843 0007027 335.2506  24.8356 14.39055691 99368
CZ-6A DEB
1 64637U 24140AEB 26223.54274074  .00002163  00000-0  69548-3 0  9992
2 64637  89.0084 267.3843 0007027 335.2506  24.8356 14.39055691 99368
CZ-6A DEB
1 64637U 24140AEB 26224.09901933  .00002191  00000-0  70475-3 0  9996
2 64637  89.0084 267.3199 0006962 332.6796  27.4038 14.39058385 99449
CZ-6A DEB
1 64637U 24140AEB 26224.37715865  .00001915  00000-0  61536-3 0  9995
2 64637  89.0083 267.2877 0006933 331.4798  28.6023 14.39058599 99485
CZ-6A DEB
1 64637U 24140AEB 26224.37715865  .00001915  00000-0  61536-3 0  9995
2 64637  89.0083 267.2877 0006933 331.4798  28.6023 14.39058599 99485
CZ-6A DEB
1 64637U 24140AEB 26226.11552354  .00002161  00000-0  69474-3 0  9994
2 64637  89.0078 267.0861 0006752 323.0179  37.0555 14.39066175 99730
CZ-6A DEB
1 64637U 24140AEB 26226.11552355  .00002161  00000-0  69474-3 0  9995
2 64637  89.0078 267.0861 0006752 323.0179  37.0555 14.39066175 99730
CZ-6A DEB
1 64637U 24140AEB 26226.53272968  .00002240  00000-0  72027-3 0  9996
2 64637  89.0079 267.0378 0006703 321.0965  38.9753 14.39068145 99796
CZ-6A DEB
1 64637U 24140AEB 26226.60226396  .00002258  00000-0  72610-3 0  9995
2 64637  89.0078 267.0297 0006687 320.8358  39.2358 14.39068526 99809
CZ-6A DEB
1 64637U 24140AEB 26226.60226396  .00002258  00000-0  72610-3 0  9995
2 64637  89.0078 267.0297 0006687 320.8358  39.2358 14.39068526 99809
CZ-6A DEB
1 64637U 24140AEB 26227.08900376  .00002426  00000-0  78047-3 0  9992
2 64637  89.0077 266.9732 0006646 318.4918  41.5778 14.39071099 99878
CZ-6A DEB
1 64637U 24140AEB 26227.08900377  .00002426  00000-0  78047-3 0  9993
2 64637  89.0077 266.9732 0006646 318.4918  41.5778 14.39071099 99878
CZ-6A DEB
1 64637U 24140AEB 26228.06248119  .00002569  00000-0  82665-3 0  9990
2 64637  89.0077 266.8602 0006569 313.6602  46.4053 14.39075793100018
CZ-6A DEB
1 64637U 24140AEB 26228.06248120  .00002569  00000-0  82665-3 0  9992
2 64637  89.0077 266.8602 0006569 313.6602  46.4053 14.39075793100018
CZ-6A DEB
1 64637U 24140AEB 26228.54921894  .00002559  00000-0  82338-3 0  9997
2 64637  89.0077 266.8037 0006536 311.2724  48.7913 14.39077882100081
CZ-6A DEB
1 64637U 24140AEB 26228.82735458  .00002732  00000-0  87937-3 0  9990
2 64637  89.0076 266.7715 0006508 310.1244  49.9386 14.39079554100126
CZ-6A DEB
1 64637U 24140AEB 26229.52269154  .00002720  00000-0  87544-3 0  9994
2 64637  89.0078 266.6908 0006489 306.4524  53.6078 14.39083053100228
CZ-6A DEB
1 64637U 24140AEB 26230.07895976  .00003114  00000-0  10030-2 0  9996
2 64637  89.0078 266.6262 0006465 303.6658  56.3926 14.39087222100305
CZ-6A DEB
1 64637U 24140AEB 26231.05242574  .00003691  00000-0  11893-2 0  9993
2 64637  89.0079 266.5131 0006437 298.7539  61.3015 14.39094604100443
CZ-6A DEB
1 64637U 24140AEB 26231.05242575  .00003691  00000-0  11893-2 0  9994
2 64637  89.0079 266.5131 0006437 298.7539  61.3015 14.39094604100443
CZ-6A DEB
1 64637U 24140AEB 26232.51261547  .00003701  00000-0  11925-2 0  9994
2 64637  89.0082 266.3438 0006439 291.2359  68.8154 14.39104568100655
CZ-6A DEB
1 64637U 24140AEB 26233.06887502  .00003965  00000-0  12775-2 0  9996
2 64637  89.0083 266.2793 0006460 288.3358  71.7140 14.39109625100735
CZ-6A DEB
1 64637U 24140AEB 26233.55560121  .00003739  00000-0  12043-2 0  9992
2 64637  89.0082 266.2226 0006467 285.8472  74.2016 14.39112493100806
CZ-6A DEB
1 64637U 24140AEB 26234.04232603  .00003764  00000-0  12123-2 0  9995
2 64637  89.0082 266.1662 0006482 283.4005  76.6473 14.39116237100872
CZ-6A DEB
1 64637U 24140AEB 26234.52904988  .00003641  00000-0  11726-2 0  9992
2 64637  89.0083 266.1099 0006486 281.0346  79.0125 14.39119413100941
CZ-6A DEB
1 64637U 24140AEB 26235.50249371  .00003579  00000-0  11524-2 0  9995
2 64637  89.0082 265.9970 0006520 275.8760  84.1697 14.39126334101082
CZ-6A DEB
1 64637U 24140AEB 26236.05874531  .00003624  00000-0  11667-2 0  9997
2 64637  89.0080 265.9325 0006544 273.1557  86.8895 14.39130461101169
CZ-6A DEB
1 64637U 24140AEB 26236.54546418  .00003659  00000-0  11780-2 0  9995
2 64637  89.0080 265.8760 0006560 270.7060  89.3389 14.39134089101235
CZ-6A DEB
1 64637U 24140AEB 26237.03218174  .00003721  00000-0  11980-2 0  9997
2 64637  89.0079 265.8197 0006607 268.2631  91.7812 14.39137825101302
CZ-6A DEB
1 64637U 24140AEB 26237.51889793  .00003791  00000-0  12203-2 0  9997
2 64637  89.0077 265.7633 0006664 265.8110  94.2329 14.39141716101374
CZ-6A DEB
1 64637U 24140AEB 26237.51889793  .00003791  00000-0  12203-2 0  9997
2 64637  89.0077 265.7633 0006664 265.8110  94.2329 14.39141716101374
CZ-6A DEB
1 64637U 24140AEB 26238.07514383  .00003916  00000-0  12608-2 0  9997
2 64637  89.0075 265.6988 0006704 263.1868  96.8570 14.39146104101451
CZ-6A DEB
1 64637U 24140AEB 26238.07514384  .00003916  00000-0  12608-2 0  9998
2 64637  89.0075 265.6988 0006704 263.1868  96.8570 14.39146104101451
CZ-6A DEB
1 64637U 24140AEB 26238.49232743  .00004131  00000-0  13300-2 0  9990
2 64637  89.0074 265.6504 0006724 261.2344  98.8095 14.39149483101518
CZ-6A DEB
1 64637U 24140AEB 26238.49232744  .00004131  00000-0  13300-2 0  9991
2 64637  89.0074 265.6504 0006724 261.2344  98.8095 14.39149483101518
CZ-6A DEB
1 64637U 24140AEB 26239.53528188  .00004434  00000-0  14278-2 0  9998
2 64637  89.0071 265.5294 0006846 256.2640 103.7799 14.39157907101661
CZ-6A DEB
1 64637U 24140AEB 26239.53528188  .00004434  00000-0  14278-2 0  9998
2 64637  89.0071 265.5294 0006846 256.2640 103.7799 14.39157907101661
CZ-6A DEB
1 64637U 24140AEB 26239.81340228  .00004485  00000-0  14440-2 0  9993
2 64637  89.0070 265.4972 0006870 254.9407 105.1033 14.39159890101700
CZ-6A DEB
1 64637U 24140AEB 26239.81340229  .00004485  00000-0  14440-2 0  9994
2 64637  89.0070 265.4972 0006870 254.9408 105.1033 14.39159890101701
CZ-6A DEB
1 64637U 24140AEB 26240.50870176  .00003923  00000-0  12624-2 0  9999
2 64637  89.0068 265.4165 0006951 251.7436 108.3009 14.39163458101802
CZ-6A DEB
1 64637U 24140AEB 26240.50870176  .00003923  00000-0  12624-2 0  9999
2 64637  89.0068 265.4165 0006951 251.7436 108.3009 14.39163458101802
CZ-6A DEB
1 64637U 24140AEB 26241.06493911  .00004346  00000-0  13991-2 0  9997
2 64637  89.0067 265.3520 0007014 249.2234 110.8216 14.39168656101885
CZ-6A DEB
1 64637U 24140AEB 26241.06493912  .00004346  00000-0  13991-2 0  9998
2 64637  89.0067 265.3520 0007014 249.2234 110.8216 14.39168656101885
CZ-6A DEB
1 64637U 24140AEB 26241.34305681  .00004623  00000-0  14881-2 0  9991
2 64637  89.0067 265.3197 0007045 247.9535 112.0917 14.39171631101922
CZ-6A DEB
1 64637U 24140AEB 26241.34305681  .00004623  00000-0  14881-2 0  9991
2 64637  89.0067 265.3197 0007045 247.9535 112.0917 14.39171630101921
CZ-6A DEB
1 64637U 24140AEB 26242.52505395  .00004111  00000-0  13228-2 0  9992
2 64637  89.0066 265.1823 0007200 242.7253 117.3215 14.39180016102093
CZ-6A DEB
1 64637U 24140AEB 26242.52505395  .00004111  00000-0  13228-2 0  9992
2 64637  89.0066 265.1823 0007200 242.7253 117.3215 14.39180016102093
CZ-6A DEB
1 64637U 24140AEB 26243.01175625  .00003749  00000-0  12060-2 0  9995
2 64637  89.0065 265.1258 0007254 240.5981 119.4496 14.39183293102169
CZ-6A DEB
1 64637U 24140AEB 26243.01175626  .00003749  00000-0  12060-2 0  9996
2 64637  89.0065 265.1258 0007254 240.5981 119.4496 14.39183293102169
CZ-6A DEB
1 64637U 24140AEB 26243.49845721  .00003646  00000-0  11724-2 0  9990
2 64637  89.0066 265.0692 0007320 238.5055 121.5431 14.39187184102238
CZ-6A DEB
1 64637U 24140AEB 26243.56798581  .00003610  00000-0  11609-2 0  9992
2 64637  89.0065 265.0611 0007335 238.2229 121.8258 14.39187682102248
CZ-6A DEB
1 64637U 24140AEB 26243.56798582  .00003610  00000-0  11609-2 0  9993
2 64637  89.0065 265.0611 0007335 238.2229 121.8258 14.39187682102248
CZ-6A DEB
1 64637U 24140AEB 26244.05468551  .00003206  00000-0  10304-2 0  9990
2 64637  89.0065 265.0046 0007396 236.1755 123.8742 14.39190612102313
CZ-6A DEB
1 64637U 24140AEB 26244.05468552  .00003206  00000-0  10304-2 0  9991
2 64637  89.0066 265.0046 0007396 236.1755 123.8742 14.39190612102314
CZ-6A DEB
1 64637U 24140AEB 26244.33279926  .00003030  00000-0  97363-3 0  9993
2 64637  89.0066 264.9722 0007438 234.9960 125.0543 14.39192095102358
CZ-6A DEB
1 64637U 24140AEB 26244.33279926  .00003030  00000-0  97363-3 0  9993
2 64637  89.0066 264.9722 0007438 234.9960 125.0543 14.39192095102358
