CZ-6A R/B DEB
1 64630U 24140ADU 25177.57467733  .00001147  00000-0  39898-3 0  9997
2 64630  88.5184 295.1453 0045278 341.6347  18.3214 14.34226678 42400
TBA - TO BE ASSIGNED
1 64630U 24140ADU 25177.57467733  .00001147  00000-0  39898-3 0  9997
2 64630  88.5184 295.1453 0045278 341.6347  18.3214 14.34226678 42400
CZ-6A R/B DEB
1 64630U 24140ADU 25182.10960760  .00001212  00000-0  42211-3 0  9996
2 64630  88.5187 294.3652 0044725 326.1690  33.6655 14.34238206 43051
CZ-6A R/B DEB
1 64630U 24140ADU 25182.10960760  .00001212  00000-0  42211-3 0  9996
2 64630  88.5187 294.3652 0044725 326.1690  33.6655 14.34238206 43051
CZ-6A R/B DEB
1 64630U 24140ADU 25184.06310457  .00001388  00000-0  48413-3 0  9999
2 64630  88.5186 294.0291 0044528 319.4539  40.3344 14.34244584 43331
CZ-6A R/B DEB
1 64630U 24140ADU 25184.06310457  .00001388  00000-0  48413-3 0  9999
2 64630  88.5186 294.0291 0044528 319.4539  40.3344 14.34244584 43331
CZ-6A R/B DEB
1 64630U 24140ADU 25190.55145496  .00001230  00000-0  42857-3 0  9991
2 64630  88.5189 292.9133 0044061 296.9018  62.7680 14.34263018 44266
CZ-6A R/B DEB
1 64630U 24140ADU 25191.52818976  .00001189  00000-0  41407-3 0  9992
2 64630  88.5190 292.7455 0044005 293.5514  66.1064 14.34265600 44404
CZ-6A R/B DEB
1 64630U 24140ADU 25194.52815061  .00001364  00000-0  47566-3 0  9994
2 64630  88.5188 292.2294 0043908 283.0902  76.5397 14.34274969 44832
CZ-6A R/B DEB
1 64630U 24140ADU 25194.52815061  .00001364  00000-0  47566-3 0  9994
2 64630  88.5188 292.2294 0043908 283.0902  76.5397 14.34274969 44832
CZ-6A R/B DEB
1 64630U 24140ADU 25197.52809692  .00001410  00000-0  49190-3 0  9997
2 64630  88.5176 291.7122 0043885 272.5601  87.0574 14.34283608 45268
CZ-6A R/B DEB
1 64630U 24140ADU 25197.52809692  .00001410  00000-0  49190-3 0  9997
2 64630  88.5176 291.7122 0043885 272.5601  87.0574 14.34283608 45268
CZ-6A R/B DEB
1 64630U 24140ADU 25198.01645883  .00001397  00000-0  48723-3 0  9997
2 64630  88.5186 291.6295 0043883 270.8636  88.7534 14.34285016 45333
CZ-6A DEB
1 64630U 24140ADU 25201.50474247  .00001564  00000-0  54587-3 0  9991
2 64630  88.5184 291.0295 0043996 258.6814 100.9439 14.34297206 45832
CZ-6A DEB
1 64630U 24140ADU 25204.99299861  .00002062  00000-0  72107-3 0  9996
2 64630  88.5182 290.4295 0044180 246.5652 113.0898 14.34312550 46335
CZ-6A DEB
1 64630U 24140ADU 25204.99299861  .00002062  00000-0  72107-3 0  9996
2 64630  88.5182 290.4295 0044180 246.5652 113.0898 14.34312550 46335
CZ-6A DEB
1 64630U 24140ADU 25208.48122214  .00002093  00000-0  73176-3 0  9992
2 64630  88.5179 289.8294 0044455 234.4945 125.2102 14.34327376 46838
CZ-6A DEB
1 64630U 24140ADU 25208.48122214  .00002093  00000-0  73176-3 0  9992
2 64630  88.5179 289.8294 0044455 234.4945 125.2102 14.34327376 46838
CZ-6A DEB
1 64630U 24140ADU 25209.94626553  .00002073  00000-0  72456-3 0  9997
2 64630  88.5178 289.5774 0044619 229.4510 130.2800 14.34333881 47044
CZ-6A DEB
1 64630U 24140ADU 25209.94626553  .00002073  00000-0  72456-3 0  9997
2 64630  88.5178 289.5774 0044619 229.4510 130.2800 14.34333881 47044
CZ-6A DEB
1 64630U 24140ADU 25211.48106581  .00002146  00000-0  75002-3 0  9994
2 64630  88.5181 289.3135 0044821 224.1990 135.5624 14.34341280 47264
CZ-6A DEB
1 64630U 24140ADU 25211.48106581  .00002146  00000-0  75002-3 0  9994
2 64630  88.5181 289.3135 0044821 224.1990 135.5624 14.34341280 47264
CZ-6A DEB
1 64630U 24140ADU 25212.17869997  .00002195  00000-0  76704-3 0  9992
2 64630  88.5179 289.1935 0044897 221.8175 137.9590 14.34344734 47365
CZ-6A DEB
1 64630U 24140ADU 25214.96922248  .00002059  00000-0  71900-3 0  9992
2 64630  88.5176 288.7130 0045244 212.3329 147.5095 14.34356763 47763
CZ-6A DEB
1 64630U 24140ADU 25214.96922248  .00002059  00000-0  71900-3 0  9992
2 64630  88.5176 288.7130 0045244 212.3329 147.5095 14.34356763 47763
CZ-6A DEB
1 64630U 24140ADU 25215.94589973  .00001908  00000-0  66550-3 0  9992
2 64630  88.5172 288.5442 0045413 208.9378 150.9302 14.34361538 47907
CZ-6A DEB
1 64630U 24140ADU 25216.92257429  .00001968  00000-0  68649-3 0  9996
2 64630  88.5169 288.3760 0045548 205.6857 154.2079 14.34365954 48049
CZ-6A DEB
1 64630U 24140ADU 25216.92257429  .00001968  00000-0  68649-3 0  9996
2 64630  88.5169 288.3760 0045548 205.6857 154.2079 14.34365954 48049
CZ-6A DEB
1 64630U 24140ADU 25219.43401204  .00001872  00000-0  65272-3 0  9990
2 64630  88.5170 287.9442 0046017 197.4298 162.5323 14.34375632 48400
CZ-6A DEB
1 64630U 24140ADU 25219.92234539  .00001997  00000-0  69661-3 0  9993
2 64630  88.5173 287.8601 0046009 195.7049 164.2725 14.34378085 48472
CZ-6A DEB
1 64630U 24140ADU 25219.92234539  .00001997  00000-0  69661-3 0  9993
2 64630  88.5173 287.8601 0046009 195.7049 164.2725 14.34378085 48472
CZ-6A DEB
1 64630U 24140ADU 25222.92209005  .00002611  00000-0  91167-3 0  9997
2 64630  88.5168 287.3437 0046451 185.8029 174.2637 14.34393211 48906
CZ-6A DEB
1 64630U 24140ADU 25222.92209005  .00002611  00000-0  91167-3 0  9997
2 64630  88.5168 287.3437 0046451 185.8029 174.2637 14.34393211 48906
CZ-6A DEB
1 64630U 24140ADU 25223.96850511  .00002302  00000-0  80317-3 0  9998
2 64630  88.5166 287.1636 0046609 182.3795 177.7188 14.34397759 49057
CZ-6A DEB
1 64630U 24140ADU 25223.96850511  .00002302  00000-0  80317-3 0  9998
2 64630  88.5166 287.1636 0046609 182.3795 177.7188 14.34397759 49057
CZ-6A DEB
1 64630U 24140ADU 25225.43348030  .00002280  00000-0  79518-3 0  9996
2 64630  88.5161 286.9109 0046830 177.5570 182.5866 14.34404932 49269
CZ-6A DEB
1 64630U 24140ADU 25225.43348030  .00002280  00000-0  79518-3 0  9996
2 64630  88.5161 286.9109 0046830 177.5570 182.5866 14.34404932 49269
CZ-6A DEB
1 64630U 24140ADU 25225.92180416  .00002116  00000-0  73760-3 0  9993
2 64630  88.5155 286.8273 0046856 175.9791 184.1793 14.34406548 49338
CZ-6A DEB
1 64630U 24140ADU 25229.40981021  .00001913  00000-0  66568-3 0  9993
2 64630  88.5156 286.2258 0047333 164.6837 195.5807 14.34420746 49836
CZ-6A DEB
1 64630U 24140ADU 25229.40981021  .00001913  00000-0  66568-3 0  9993
2 64630  88.5156 286.2258 0047333 164.6837 195.5807 14.34420746 49836
CZ-6A DEB
1 64630U 24140ADU 25232.89778188  .00002042  00000-0  71063-3 0  9998
2 64630  88.5153 285.6241 0047789 153.3733 206.9935 14.34434724 50330
CZ-6A DEB
1 64630U 24140ADU 25233.10705910  .00002033  00000-0  70765-3 0  9994
2 64630  88.5153 285.5881 0047814 152.6947 207.6780 14.34435572 50368
CZ-6A DEB
1 64630U 24140ADU 25236.38571737  .00001866  00000-0  64878-3 0  9996
2 64630  88.5143 285.0236 0048079 142.3908 218.0668 14.34448155 50837
CZ-6A DEB
1 64630U 24140ADU 25239.38531226  .00002657  00000-0  92548-3 0  9992
2 64630  88.5141 284.5065 0048328 132.7993 227.7284 14.34463179 51265
CZ-6A DEB
1 64630U 24140ADU 25239.87361490  .00002995  00000-0  10438-2 0  9992
2 64630  88.5139 284.4205 0048386 131.3866 229.1508 14.34466614 51335
CZ-6A DEB
1 64630U 24140ADU 25244.89609702  .00004762  00000-0  16612-2 0  9995
2 64630  88.5141 283.5544 0048773 115.4068 245.2190 14.34502455 52051
CZ-6A DEB
1 64630U 24140ADU 25250.05794115  .00003626  00000-0  12628-2 0  9994
2 64630  88.5131 282.6653 0048684  99.1310 261.5401 14.34539364 52796
CZ-6A DEB
1 64630U 24140ADU 25250.82524148  .00002555  00000-0  88858-3 0  9995
2 64630  88.5128 282.5325 0048428  96.8980 263.7731 14.34537270 52907
CZ-6A DEB
1 64630U 24140ADU 25252.84809441  .00001647  00000-0  57061-3 0  9994
2 64630  88.5120 282.1823 0048404  90.5919 270.0825 14.34544011 53193
CZ-6A DEB
1 64630U 24140ADU 25253.82464030  .00001515  00000-0  52450-3 0  9995
2 64630  88.5129 282.0145 0048232  87.3991 273.2727 14.34547087 53339
CZ-6A DEB
1 64630U 24140ADU 25254.87093713  .00001454  00000-0  50306-3 0  9997
2 64630  88.5127 281.8335 0048197  84.1273 276.5416 14.34550210 53482
CZ-6A DEB
1 64630U 24140ADU 25255.84747887  .00001371  00000-0  47391-3 0  9991
2 64630  88.5128 281.6651 0048158  80.9884 279.6760 14.34552765 53620
CZ-6A DEB
1 64630U 24140ADU 25260.03262863  .00001944  00000-0  67439-3 0  9995
2 64630  88.5127 280.9425 0047755  67.7187 292.9064 14.34567890 54228
CZ-6A DEB
1 64630U 24140ADU 25262.82269987  .00002040  00000-0  70798-3 0  9998
2 64630  88.5116 280.4610 0047501  58.7911 301.7929 14.34578841 54622
CZ-6A DEB
1 64630U 24140ADU 25263.31095989  .00002220  00000-0  77110-3 0  9997
2 64630  88.5115 280.3764 0047595  57.1301 303.4464 14.34582062 54699
CZ-6A DEB
1 64630U 24140ADU 25264.28747712  .00002591  00000-0  90075-3 0  9998
2 64630  88.5113 280.2074 0047511  54.0027 306.5562 14.34588053 54834
CZ-6A DEB
1 64630U 24140ADU 25272.79689078  .00004826  00000-0  16803-2 0  9992
2 64630  88.5108 278.7350 0046555  26.5720 333.7849 14.34661638 56055
CZ-6A DEB
1 64630U 24140ADU 25272.79689078  .00004826  00000-0  16803-2 0  9992
2 64630  88.5108 278.7350 0046555  26.5720 333.7849 14.34661638 56055
CZ-6A DEB
1 64630U 24140ADU 25274.26157184  .00006323  00000-0  22028-2 0  9994
2 64630  88.5119 278.4824 0046158  21.3672 338.9439 14.34682486 56267
CZ-6A DEB
1 64630U 24140ADU 25274.26157185  .00006323  00000-0  22028-2 0  9995
2 64630  88.5119 278.4824 0046158  21.3672 338.9439 14.34682486 56267
CZ-6A DEB
1 64630U 24140ADU 25280.25960008  .00003470  00000-0  12057-2 0  9998
2 64630  88.5107 277.4455 0045553   2.1041 358.0339 14.34742116 57123
CZ-6A DEB
1 64630U 24140ADU 25280.95703198  .00004121  00000-0  14327-2 0  9996
2 64630  88.5106 277.3252 0045446 359.7329   0.3836 14.34748829 57224
CZ-6A DEB
1 64630U 24140ADU 25280.95703198  .00004121  00000-0  14327-2 0  9996
2 64630  88.5106 277.3252 0045446 359.7329   0.3836 14.34748829 57224
CZ-6A DEB
1 64630U 24140ADU 25284.23493009  .00003261  00000-0  11325-2 0  9997
2 64630  88.5118 276.7580 0045016 348.8144  11.2049 14.34770565 57691
CZ-6A DEB
1 64630U 24140ADU 25285.69950569  .00004155  00000-0  14440-2 0  9991
2 64630  88.5121 276.5049 0044839 343.9384  16.0389 14.34783188 57906
CZ-6A DEB
1 64630U 24140ADU 25287.23380862  .00003969  00000-0  13790-2 0  9995
2 64630  88.5119 276.2395 0044652 338.7402  21.1939 14.34796121 58124
CZ-6A DEB
1 64630U 24140ADU 25287.93121534  .00003677  00000-0  12771-2 0  9995
2 64630  88.5118 276.1190 0044559 336.3729  23.5421 14.34801009 58222
CZ-6A DEB
1 64630U 24140ADU 25290.23264010  .00004322  00000-0  15017-2 0  9993
2 64630  88.5130 275.7222 0044230 328.6457  31.2105 14.34819305 58554
CZ-6A DEB
1 64630U 24140ADU 25290.23264011  .00004322  00000-0  15017-2 0  9994
2 64630  88.5130 275.7222 0044230 328.6457  31.2105 14.34819305 58554
CZ-6A DEB
1 64630U 24140ADU 25298.18274858  .00004406  00000-0  15293-2 0  9995
2 64630  88.5137 274.3471 0043240 301.6547  58.0436 14.34896784 59699
CZ-6A DEB
1 64630U 24140ADU 25298.18274858  .00004406  00000-0  15293-2 0  9995
2 64630  88.5137 274.3471 0043240 301.6547  58.0436 14.34896784 59699
CZ-6A DEB
1 64630U 24140ADU 25300.69323428  .00004006  00000-0  13898-2 0  9998
2 64630  88.5132 273.9119 0043052 292.6775  66.9874 14.34914355 60052
CZ-6A DEB
1 64630U 24140ADU 25300.69323429  .00004006  00000-0  13898-2 0  9999
2 64630  88.5132 273.9119 0043052 292.6775  66.9874 14.34914355 60052
CZ-6A DEB
1 64630U 24140ADU 25301.18138080  .00004045  00000-0  14033-2 0  9996
2 64630  88.5135 273.8279 0043032 291.0273  68.6325 14.34917994 60125
CZ-6A DEB
1 64630U 24140ADU 25303.69183277  .00004085  00000-0  14167-2 0  9994
2 64630  88.5137 273.3953 0042962 282.4296  77.2096 14.34935461 60480
CZ-6A DEB
1 64630U 24140ADU 25303.69183277  .00004085  00000-0  14167-2 0  9994
2 64630  88.5137 273.3953 0042962 282.4296  77.2096 14.34935461 60480
CZ-6A DEB
1 64630U 24140ADU 25308.64292072  .00002604  00000-0  90086-3 0  9998
2 64630  88.5132 272.5396 0042419 265.4247  94.2105 14.34964586 61190
CZ-6A DEB
1 64630U 24140ADU 25308.64292072  .00002604  00000-0  90086-3 0  9998
2 64630  88.5132 272.5396 0042419 265.4247  94.2105 14.34964586 61190
CZ-6A DEB
1 64630U 24140ADU 25310.66517128  .00003757  00000-0  13024-2 0  9991
2 64630  88.5128 272.1893 0041653 258.8809 100.7705 14.34979905 61484
CZ-6A DEB
1 64630U 24140ADU 25310.66517129  .00003757  00000-0  13024-2 0  9992
2 64630  88.5128 272.1893 0041653 258.8809 100.7705 14.34979905 61484
CZ-6A DEB
1 64630U 24140ADU 25315.61609879  .00004455  00000-0  15431-2 0  9996
2 64630  88.5139 271.3341 0042561 240.5244 119.1706 14.35019230 62196
CZ-6A DEB
1 64630U 24140ADU 25319.59065764  .00003771  00000-0  13043-2 0  9993
2 64630  88.5132 270.6487 0042640 226.6169 133.1475 14.35068613 62762
CZ-6A DEB
1 64630U 24140ADU 25319.59065765  .00003771  00000-0  13043-2 0  9994
2 64630  88.5132 270.6487 0042640 226.6169 133.1475 14.35068613 62762
CZ-6A DEB
1 64630U 24140ADU 25321.61276308  .00003578  00000-0  12365-2 0  9998
2 64630  88.5150 270.3003 0043004 219.6748 140.1302 14.35083735 63055
CZ-6A DEB
1 64630U 24140ADU 25321.61276308  .00003578  00000-0  12365-2 0  9998
2 64630  88.5150 270.3003 0043004 219.6748 140.1302 14.35083735 63055
CZ-6A DEB
1 64630U 24140ADU 25324.61103038  .00002313  00000-0  79707-3 0  9990
2 64630  88.5153 269.7824 0043019 209.0733 150.8070 14.35098588 63483
CZ-6A DEB
1 64630U 24140ADU 25324.61103039  .00002313  00000-0  79707-3 0  9991
2 64630  88.5153 269.7824 0043019 209.0733 150.8070 14.35098588 63483
CZ-6A DEB
1 64630U 24140ADU 25325.58720250  .00002470  00000-0  85143-3 0  9993
2 64630  88.5176 269.6138 0043342 206.0397 153.8622 14.35103936 63623
CZ-6A DEB
1 64630U 24140ADU 25325.58720251  .00002470  00000-0  85143-3 0  9994
2 64630  88.5176 269.6138 0043342 206.0397 153.8622 14.35103936 63623
CZ-6A DEB
1 64630U 24140ADU 25337.57992434  .00003326  00000-0  11460-2 0  9991
2 64630  88.5172 267.5462 0044826 165.2740 194.9776 14.35166570 65342
CZ-6A DEB
1 64630U 24140ADU 25338.55605209  .00004588  00000-0  15819-2 0  9994
2 64630  88.5102 267.3801 0045238 160.9229 199.3677 14.35177851 65480
CZ-6A DEB
1 64630U 24140ADU 25338.55605210  .00004588  00000-0  15819-2 0  9996
2 64630  88.5102 267.3801 0045238 160.9229 199.3677 14.35177851 65480
CZ-6A DEB
1 64630U 24140ADU 25340.57801208  .00004244  00000-0  14632-2 0  9997
2 64630  88.5187 267.0283 0044174 153.0851 207.2653 14.35194321 65772
CZ-6A DEB
1 64630U 24140ADU 25341.06605868  .00003788  00000-0  13046-2 0  9996
2 64630  88.5197 266.9443 0045256 154.0838 206.2642 14.35197331 65846
CZ-6A DEB
1 64630U 24140ADU 25341.55411207  .00003934  00000-0  13550-2 0  9995
2 64630  88.5189 266.8585 0045462 152.2730 208.0907 14.35201936 65912
CZ-6A DEB
1 64630U 24140ADU 25342.53021632  .00003969  00000-0  13665-2 0  9998
2 64630  88.5149 266.6941 0045733 149.0077 211.3835 14.35208781 66059
CZ-6A DEB
1 64630U 24140ADU 25342.53021633  .00003969  00000-0  13665-2 0  9999
2 64630  88.5149 266.6941 0045733 149.0077 211.3835 14.35208781 66059
CZ-6A DEB
1 64630U 24140ADU 25343.57603594  .00003775  00000-0  12994-2 0  9995
2 64630  88.5174 266.5130 0045742 145.7466 214.6698 14.35215271 66203
CZ-6A DEB
1 64630U 24140ADU 25343.57603594  .00003775  00000-0  12994-2 0  9995
2 64630  88.5174 266.5130 0045742 145.7466 214.6698 14.35215271 66203
CZ-6A DEB
1 64630U 24140ADU 25344.55212990  .00003603  00000-0  12397-2 0  9997
2 64630  88.5172 266.3448 0045864 142.5973 217.8433 14.35221423 66347
CZ-6A DEB
1 64630U 24140ADU 25344.55212990  .00003603  00000-0  12397-2 0  9997
2 64630  88.5172 266.3448 0045864 142.5973 217.8433 14.35221423 66347
CZ-6A DEB
1 64630U 24140ADU 25345.52821900  .00003690  00000-0  12696-2 0  9990
2 64630  88.5171 266.1766 0045987 139.3787 221.0857 14.35228711 66489
CZ-6A DEB
1 64630U 24140ADU 25348.03813766  .00002782  00000-0  95526-3 0  9995
2 64630  88.5172 265.7438 0046275 131.3048 229.2148 14.35245707 66841
CZ-6A DEB
1 64630U 24140ADU 25349.01421044  .00001780  00000-0  60900-3 0  9993
2 64630  88.5174 265.5755 0046364 128.2101 232.3286 14.35248749 66989
CZ-6A DEB
1 64630U 24140ADU 25350.54803406  .00001760  00000-0  60225-3 0  9997
2 64630  88.5176 265.3111 0046509 123.3130 237.2536 14.35254641 67200
CZ-6A DEB
1 64630U 24140ADU 25351.73325691  .00001720  00000-0  58813-3 0  9990
2 64630  88.5179 265.1068 0046605 119.5344 241.0514 14.35258866 67373
CZ-6A DEB
1 64630U 24140ADU 25354.73115802  .00001450  00000-0  49481-3 0  9995
2 64630  88.5181 264.5905 0046815 110.0086 250.6162 14.35268017 67803
CZ-6A DEB
1 64630U 24140ADU 25354.73115803  .00001450  00000-0  49481-3 0  9996
2 64630  88.5181 264.5905 0046815 110.0086 250.6162 14.35268017 67803
CZ-6A DEB
1 64630U 24140ADU 25355.49805936  .00001722  00000-0  58862-3 0  9998
2 64630  88.5181 264.4584 0046876 107.5687 253.0640 14.35271204 67912
CZ-6A DEB
1 64630U 24140ADU 25355.49805937  .00001722  00000-0  58862-3 0  9999
2 64630  88.5181 264.4585 0046876 107.5687 253.0640 14.35271204 67913
CZ-6A DEB
1 64630U 24140ADU 25358.70507839  .00002228  00000-0  76299-3 0  9992
2 64630  88.5177 263.9064 0047012  97.4184 263.2360 14.35286074 68370
CZ-6A DEB
1 64630U 24140ADU 25358.70507840  .00002228  00000-0  76299-3 0  9994
2 64630  88.5177 263.9064 0047012  97.4184 263.2360 14.35286074 68370
CZ-6A DEB
1 64630U 24140ADU 25358.98394687  .00002344  00000-0  80312-3 0  9997
2 64630  88.5178 263.8585 0046927  96.6514 264.0029 14.35287923 68410
CZ-6A DEB
1 64630U 24140ADU 25358.98394688  .00002344  00000-0  80312-3 0  9998
2 64630  88.5178 263.8585 0046927  96.6514 264.0029 14.35287923 68410
CZ-6A DEB
1 64630U 24140ADU 25361.49375630  .00002521  00000-0  86362-3 0  9992
2 64630  88.5180 263.4283 0047179  88.3789 272.2813 14.35301841 68773
CZ-6A DEB
1 64630U 24140ADU 25361.98177010  .00002877  00000-0  98644-3 0  9998
2 64630  88.5173 263.3416 0047094  87.1168 273.5419 14.35306019 68842
CZ-6A DEB
1 64630U 24140ADU 25361.98177011  .00002877  00000-0  98644-3 0  9999
2 64630  88.5173 263.3416 0047094  87.1168 273.5419 14.35306019 68842
CZ-6A DEB
1 64630U 24140ADU 25365.46755425  .00004335  00000-0  14882-2 0  9999
2 64630  88.5181 262.7414 0047077  76.0969 284.5459 14.35334364 69345
CZ-6A DEB
1 64630U 24140ADU 25365.46755425  .00004335  00000-0  14882-2 0  9999
2 64630  88.5181 262.7414 0047077  76.0969 284.5459 14.35334364 69345
CZ-6A DEB
1 64630U 24140ADU 26003.95326375  .00003925  00000-0  13464-2 0  9990
2 64630  88.5176 262.1401 0046963  65.2124 295.3949 14.35362204 69848
CZ-6A DEB
1 64630U 24140ADU 26003.95326376  .00003925  00000-0  13464-2 0  9991
2 64630  88.5176 262.1401 0046963  65.2124 295.3949 14.35362204 69848
CZ-6A DEB
1 64630U 24140ADU 26005.48695501  .00003113  00000-0  10665-2 0  9999
2 64630  88.5174 261.8761 0046879  60.3575 300.2280 14.35371281 70068
CZ-6A DEB
1 64630U 24140ADU 26005.48695502  .00003113  00000-0  10665-2 0  9990
2 64630  88.5174 261.8761 0046879  60.3575 300.2280 14.35371281 70068
CZ-6A DEB
1 64630U 24140ADU 26006.46293442  .00002625  00000-0  89857-3 0  9993
2 64630  88.5169 261.7080 0046800  57.3042 303.2657 14.35376908 70202
CZ-6A DEB
1 64630U 24140ADU 26006.46293443  .00002625  00000-0  89857-3 0  9994
2 64630  88.5169 261.7080 0046800  57.3042 303.2657 14.35376908 70202
CZ-6A DEB
1 64630U 24140ADU 26012.45816192  .00002228  00000-0  76160-3 0  9994
2 64630  88.5169 260.6743 0046249  38.2370 322.2093 14.35405584 71068
CZ-6A DEB
1 64630U 24140ADU 26014.41007575  .00001474  00000-0  50197-3 0  9993
2 64630  88.5158 260.3357 0046891  32.3902 328.0159 14.35410688 71342
CZ-6A DEB
1 64630U 24140ADU 26015.45573375  .00001413  00000-0  48102-3 0  9990
2 64630  88.5170 260.1574 0045779  28.5696 331.7996 14.35414609 71499
CZ-6A DEB
1 64630U 24140ADU 26015.45573376  .00001413  00000-0  48102-3 0  9991
2 64630  88.5170 260.1574 0045779  28.5696 331.7997 14.35414609 71490
CZ-6A DEB
1 64630U 24140ADU 26019.63835611  .00002274  00000-0  77717-3 0  9998
2 64630  88.5153 259.4362 0045850  15.0582 345.1969 14.35432171 72091
CZ-6A DEB
1 64630U 24140ADU 26022.42670141  .00004856  00000-0  16648-2 0  9997
2 64630  88.5155 258.9548 0045252   6.0062 354.1669 14.35469953 72491
CZ-6A DEB
1 64630U 24140ADU 26022.91465605  .00004232  00000-0  14506-2 0  9997
2 64630  88.5150 258.8718 0044971   4.4143 355.7443 14.35473718 72562
CZ-6A DEB
1 64630U 24140ADU 26023.61173107  .00003958  00000-0  13564-2 0  9995
2 64630  88.5142 258.7516 0044731   2.1948 357.9438 14.35480862 72667
CZ-6A DEB
1 64630U 24140ADU 26028.42149626  .00003587  00000-0  12283-2 0  9993
2 64630  88.5156 257.9193 0044210 346.1636  13.8347 14.35514320 73352
CZ-6A DEB
1 64630U 24140ADU 26029.39737674  .00003569  00000-0  12219-2 0  9995
2 64630  88.5156 257.7518 0044051 342.8724  17.0985 14.35520925 73492
CZ-6A DEB
1 64630U 24140ADU 26029.60649420  .00003224  00000-0  11035-2 0  9993
2 64630  88.5154 257.7152 0044015 342.3512  17.6154 14.35521426 73529
CZ-6A DEB
1 64630U 24140ADU 26030.58236968  .00002809  00000-0  96055-3 0  9995
2 64630  88.5152 257.5469 0043867 339.0584  20.8816 14.35527168 73667
CZ-6A DEB
1 64630U 24140ADU 26032.04617703  .00002019  00000-0  68915-3 0  9995
2 64630  88.5148 257.2941 0043648 334.1463  25.7554 14.35533782 73878
CZ-6A DEB
1 64630U 24140ADU 26032.88263398  .00001992  00000-0  67986-3 0  9990
2 64630  88.5152 257.1507 0043611 331.1197  28.7588 14.35537755 73998
CZ-6A DEB
1 64630U 24140ADU 26033.57968063  .00002184  00000-0  74563-3 0  9991
2 64630  88.5152 257.0305 0043558 328.8295  31.0321 14.35541910 74097
CZ-6A DEB
1 64630U 24140ADU 26036.36784762  .00003166  00000-0  10832-2 0  9992
2 64630  88.5140 256.5487 0043046 319.4330  40.3662 14.35560103 74497
CZ-6A DEB
1 64630U 24140ADU 26036.57695884  .00003470  00000-0  11878-2 0  9990
2 64630  88.5140 256.5126 0043017 318.7335  41.0614 14.35562370 74529
CZ-6A DEB
1 64630U 24140ADU 26036.57695885  .00003470  00000-0  11878-2 0  9991
2 64630  88.5140 256.5126 0043017 318.7335  41.0614 14.35562370 74529
CZ-6A DEB
1 64630U 24140ADU 26043.54726043  .00002143  00000-0  73138-3 0  9991
2 64630  88.5145 255.3098 0042418 294.6354  65.0429 14.35592689 75523
CZ-6A DEB
1 64630U 24140ADU 26043.54726043  .00002143  00000-0  73138-3 0  9991
2 64630  88.5145 255.3098 0042418 294.6354  65.0429 14.35592689 75523
CZ-6A DEB
1 64630U 24140ADU 26046.54445164  .00002556  00000-0  87307-3 0  9997
2 64630  88.5143 254.7909 0042218 284.2618  75.3894 14.35606170 75959
CZ-6A DEB
1 64630U 24140ADU 26046.54445166  .00002556  00000-0  87307-3 0  9999
2 64630  88.5143 254.7909 0042218 284.2618  75.3894 14.35606170 75959
CZ-6A DEB
1 64630U 24140ADU 26047.31117066  .00002212  00000-0  75482-3 0  9990
2 64630  88.5150 254.6597 0042368 281.4497  78.1945 14.35608019 76064
CZ-6A DEB
1 64630U 24140ADU 26048.84460679  .00001868  00000-0  63662-3 0  9993
2 64630  88.5136 254.3942 0042038 276.3194  83.3218 14.35612730 76280
CZ-6A DEB
1 64630U 24140ADU 26048.84460680  .00001868  00000-0  63662-3 0  9995
2 64630  88.5136 254.3942 0042038 276.3194  83.3218 14.35612730 76280
CZ-6A DEB
1 64630U 24140ADU 26049.54162076  .00001906  00000-0  64975-3 0  9992
2 64630  88.5132 254.2724 0042015 273.6610  85.9784 14.35615442 76381
CZ-6A DEB
1 64630U 24140ADU 26049.54162077  .00001906  00000-0  64975-3 0  9993
2 64630  88.5132 254.2724 0042015 273.6611  85.9784 14.35615442 76382
CZ-6A DEB
1 64630U 24140ADU 26050.30833541  .00001853  00000-0  63139-3 0  9992
2 64630  88.5141 254.1397 0041945 271.1272  88.5121 14.35618205 76490
CZ-6A DEB
1 64630U 24140ADU 26057.27839759  .00002117  00000-0  72172-3 0  9993
2 64630  88.5141 252.9351 0042057 246.5199 113.1576 14.35647590 77494
CZ-6A DEB
1 64630U 24140ADU 26057.27839760  .00002117  00000-0  72172-3 0  9995
2 64630  88.5141 252.9351 0042057 246.5200 113.1576 14.35647590 77497
CZ-6A DEB
1 64630U 24140ADU 26059.29969020  .00002409  00000-0  82175-3 0  9990
2 64630  88.5147 252.5869 0042147 239.6865 120.0162 14.35657664 77786
CZ-6A DEB
1 64630U 24140ADU 26059.29969020  .00002409  00000-0  82175-3 0  9990
2 64630  88.5147 252.5869 0042147 239.6865 120.0162 14.35657664 77786
CZ-6A DEB
1 64630U 24140ADU 26066.26954046  .00003667  00000-0  12519-2 0  9998
2 64630  88.5131 251.3779 0042763 215.0357 144.8027 14.35703679 78787
CZ-6A DEB
1 64630U 24140ADU 26066.47863262  .00003703  00000-0  12641-2 0  9997
2 64630  88.5132 251.3418 0042797 214.3181 145.5252 14.35705267 78819
CZ-6A DEB
1 64630U 24140ADU 26066.47863262  .00003703  00000-0  12641-2 0  9997
2 64630  88.5132 251.3418 0042797 214.3181 145.5252 14.35705267 78819
CZ-6A DEB
1 64630U 24140ADU 26069.47559939  .00003259  00000-0  11114-2 0  9993
2 64630  88.5142 250.8250 0043094 204.2792 155.6377 14.35724627 79244
CZ-6A DEB
1 64630U 24140ADU 26069.47559939  .00003259  00000-0  11114-2 0  9993
2 64630  88.5142 250.8250 0043094 204.2792 155.6377 14.35724627 79244
CZ-6A DEB
1 64630U 24140ADU 26070.24225783  .00003080  00000-0  10498-2 0  9993
2 64630  88.5151 250.6939 0043286 201.6606 158.2764 14.35729603 79354
CZ-6A DEB
1 64630U 24140ADU 26070.45134617  .00003046  00000-0  10382-2 0  9995
2 64630  88.5148 250.6581 0043351 200.9633 158.9790 14.35730910 79380
CZ-6A DEB
1 64630U 24140ADU 26070.45134617  .00003046  00000-0  10382-2 0  9995
2 64630  88.5148 250.6581 0043351 200.9634 158.9790 14.35730910 79381
CZ-6A DEB
1 64630U 24140ADU 26073.23917556  .00003100  00000-0  10558-2 0  9991
2 64630  88.5154 250.1772 0043770 191.7411 168.2772 14.35748007 79784
CZ-6A DEB
1 64630U 24140ADU 26073.72704218  .00003456  00000-0  11777-2 0  9992
2 64630  88.5147 250.0926 0043821 189.9820 170.0513 14.35752315 79855
CZ-6A DEB
1 64630U 24140ADU 26074.91185804  .00002537  00000-0  86292-3 0  9992
2 64630  88.5141 249.8876 0044093 185.9115 174.1569 14.35756579 80027
CZ-6A DEB
1 64630U 24140ADU 26075.26033269  .00002758  00000-0  93843-3 0  9993
2 64630  88.5143 249.8276 0044120 184.8157 175.2624 14.35758948 80079
CZ-6A DEB
1 64630U 24140ADU 26079.23291719  .00002187  00000-0  74274-3 0  9993
2 64630  88.5163 249.1426 0044557 171.9166 188.2761 14.35774386 80645
CZ-6A DEB
1 64630U 24140ADU 26079.23291720  .00002187  00000-0  74274-3 0  9995
2 64630  88.5163 249.1426 0044557 171.9166 188.2761 14.35774386 80645
CZ-6A DEB
1 64630U 24140ADU 26079.72077506  .00002662  00000-0  90510-3 0  9992
2 64630  88.5165 249.0583 0044625 170.3439 189.8629 14.35777864 80714
CZ-6A DEB
1 64630U 24140ADU 26079.72077507  .00002662  00000-0  90510-3 0  9993
2 64630  88.5165 249.0583 0044625 170.3439 189.8629 14.35777864 80714
CZ-6A DEB
1 64630U 24140ADU 26080.20863212  .00002664  00000-0  90576-3 0  9998
2 64630  88.5165 248.9739 0044709 168.7242 191.4969 14.35780043 80787
CZ-6A DEB
1 64630U 24140ADU 26083.69329627  .00002642  00000-0  89751-3 0  9990
2 64630  88.5173 248.3712 0045274 157.4026 202.9180 14.35799830 81287
CZ-6A DEB
1 64630U 24140ADU 26086.20222466  .00002650  00000-0  89994-3 0  9991
2 64630  88.5175 247.9387 0045518 149.3673 211.0199 14.35813466 81644
CZ-6A DEB
1 64630U 24140ADU 26086.20222467  .00002650  00000-0  89994-3 0  9992
2 64630  88.5175 247.9387 0045518 149.3673 211.0199 14.35813466 81644
CZ-6A DEB
1 64630U 24140ADU 26089.19896544  .00003579  00000-0  12165-2 0  9992
2 64630  88.5173 247.4216 0045794 139.7902 220.6699 14.35833735 82072
CZ-6A DEB
1 64630U 24140ADU 26089.19896544  .00003579  00000-0  12165-2 0  9992
2 64630  88.5173 247.4216 0045794 139.7902 220.6700 14.35833735 82075
CZ-6A DEB
1 64630U 24140ADU 26089.68680240  .00003741  00000-0  12715-2 0  9992
2 64630  88.5173 247.3376 0045856 138.2136 222.2579 14.35837745 82148
CZ-6A DEB
1 64630U 24140ADU 26091.70782968  .00003119  00000-0  10590-2 0  9996
2 64630  88.5179 246.9894 0045968 131.8468 228.6669 14.35849806 82438
CZ-6A DEB
1 64630U 24140ADU 26091.70782969  .00003119  00000-0  10590-2 0  9997
2 64630  88.5179 246.9894 0045968 131.8468 228.6669 14.35849806 82438
CZ-6A DEB
1 64630U 24140ADU 26093.86821359  .00004764  00000-0  16194-2 0  9996
2 64630  88.5197 246.6170 0046103 125.2134 235.3394 14.35870712 82745
CZ-6A DEB
1 64630U 24140ADU 26093.86821359  .00004764  00000-0  16194-2 0  9996
2 64630  88.5197 246.6170 0046103 125.2134 235.3394 14.35870712 82745
CZ-6A DEB
1 64630U 24140ADU 26094.84386386  .00003578  00000-0  12146-2 0  9996
2 64630  88.5182 246.4467 0046283 122.0162 238.5546 14.35874675 82882
CZ-6A DEB
1 64630U 24140ADU 26094.84386386  .00003578  00000-0  12146-2 0  9996
2 64630  88.5182 246.4467 0046283 122.0162 238.5546 14.35874675 82882
CZ-6A DEB
1 64630U 24140ADU 26097.84047407  .00002296  00000-0  77709-3 0  9990
2 64630  88.5183 245.9292 0046578 112.4177 248.1965 14.35889723 83310
CZ-6A DEB
1 64630U 24140ADU 26097.84047408  .00002296  00000-0  77709-3 0  9991
2 64630  88.5183 245.9292 0046578 112.4177 248.1965 14.35889723 83310
CZ-6A DEB
1 64630U 24140ADU 26100.14017539  .00002169  00000-0  73418-3 0  9993
2 64630  88.5189 245.5356 0045667 105.9058 254.7180 14.35899342 83642
CZ-6A DEB
1 64630U 24140ADU 26100.14017540  .00002169  00000-0  73418-3 0  9995
2 64630  88.5189 245.5356 0045667 105.9059 254.7180 14.35899342 83643
CZ-6A DEB
1 64630U 24140ADU 26103.34581264  .00000923  00000-0  30905-3 0  9999
2 64630  88.5150 244.9817 0046510  95.1084 265.5425 14.35902871 84108
CZ-6A DEB
1 64630U 24140ADU 26103.34581265  .00000923  00000-0  30905-3 0  9990
2 64630  88.5150 244.9817 0046510  95.1084 265.5425 14.35902871 84108
CZ-6A DEB
1 64630U 24140ADU 26106.34236925  .00000884  00000-0  29579-3 0  9994
2 64630  88.5222 244.4607 0046005  86.3096 274.3361 14.35907184 84530
CZ-6A DEB
1 64630U 24140ADU 26106.34236925  .00000884  00000-0  29579-3 0  9994
2 64630  88.5222 244.4607 0046005  86.3096 274.3361 14.35907184 84530
CZ-6A DEB
1 64630U 24140ADU 26109.61766654  .00000798  00000-0  26648-3 0  9992
2 64630  88.5208 243.9014 0045748  75.4184 285.2082 14.35910388 85004
CZ-6A DEB
1 64630U 24140ADU 26109.61766655  .00000798  00000-0  26648-3 0  9993
2 64630  88.5208 243.9014 0045748  75.4184 285.2082 14.35910388 85004
CZ-6A DEB
1 64630U 24140ADU 26110.10547530  .00000835  00000-0  27903-3 0  9995
2 64630  88.5231 243.8180 0045967  74.0425 286.5831 14.35911402 85070
CZ-6A DEB
1 64630U 24140ADU 26110.10547531  .00000835  00000-0  27903-3 0  9996
2 64630  88.5231 243.8180 0045967  74.0425 286.5832 14.35911402 85071
CZ-6A DEB
1 64630U 24140ADU 26110.80234413  .00000858  00000-0  28686-3 0  9999
2 64630  88.5229 243.6975 0045868  71.8796 288.7390 14.35912637 85179
CZ-6A DEB
1 64630U 24140ADU 26113.10200611  .00000861  00000-0  28806-3 0  9996
2 64630  88.5217 243.3012 0045756  64.6712 295.9216 14.35916429 85506
CZ-6A DEB
1 64630U 24140ADU 26113.10200612  .00000861  00000-0  28806-3 0  9997
2 64630  88.5217 243.3012 0045756  64.6712 295.9216 14.35916429 85506
CZ-6A DEB
1 64630U 24140ADU 26113.10200612  .00000861  00000-0  28806-3 0  9997
2 64630  88.5217 243.3012 0045756  64.6712 295.9216 14.35916429 85506
CZ-6A DEB
1 64630U 24140ADU 26116.30757926  .00001178  00000-0  39603-3 0  9996
2 64630  88.5221 242.7510 0045562  54.3475 306.1953 14.35924635 85965
CZ-6A DEB
1 64630U 24140ADU 26116.30757926  .00001178  00000-0  39603-3 0  9996
2 64630  88.5221 242.7510 0045562  54.3475 306.1953 14.35924635 85965
CZ-6A DEB
1 64630U 24140ADU 26119.09500860  .00001399  00000-0  47158-3 0  9997
2 64630  88.5176 242.2669 0044450  45.3992 315.0819 14.35934108 86364
CZ-6A DEB
1 64630U 24140ADU 26119.30406719  .00001456  00000-0  49093-3 0  9993
2 64630  88.5206 242.2324 0044863  44.8164 315.6643 14.35935037 86395
CZ-6A DEB
1 64630U 24140ADU 26119.30406719  .00001456  00000-0  49093-3 0  9993
2 64630  88.5206 242.2324 0044863  44.8164 315.6643 14.35935037 86395
CZ-6A DEB
1 64630U 24140ADU 26120.07060683  .00001501  00000-0  50618-3 0  9991
2 64630  88.5203 242.1004 0044670  42.2959 318.1670 14.35937780 86504
CZ-6A DEB
1 64630U 24140ADU 26120.07060684  .00001501  00000-0  50618-3 0  9992
2 64630  88.5203 242.1004 0044670  42.2959 318.1670 14.35937780 86504
CZ-6A DEB
1 64630U 24140ADU 26122.30053438  .00001499  00000-0  50550-3 0  9990
2 64630  88.5209 241.7166 0044365  35.0665 325.3440 14.35944954 86820
CZ-6A DEB
1 64630U 24140ADU 26122.30053438  .00001499  00000-0  50550-3 0  9990
2 64630  88.5209 241.7166 0044365  35.0665 325.3440 14.35944954 86820
CZ-6A DEB
1 64630U 24140ADU 26124.11234111  .00001416  00000-0  47723-3 0  9997
2 64630  88.5215 241.4048 0044116  29.1957 331.1694 14.35950477 87087
CZ-6A DEB
1 64630U 24140ADU 26124.11234112  .00001416  00000-0  47723-3 0  9998
2 64630  88.5215 241.4048 0044116  29.1957 331.1694 14.35950477 87087
CZ-6A DEB
1 64630U 24140ADU 26126.27256228  .00001387  00000-0  46751-3 0  9996
2 64630  88.5218 241.0332 0043750  22.0156 338.2909 14.35957267 87393
CZ-6A DEB
1 64630U 24140ADU 26126.27256229  .00001387  00000-0  46751-3 0  9997
2 64630  88.5218 241.0332 0043750  22.0156 338.2909 14.35957267 87393
CZ-6A DEB
1 64630U 24140ADU 26132.26539520  .00000867  00000-0  29026-3 0  9999
2 64630  88.5222 240.0026 0042825   2.0523 358.0843 14.35969073 88256
CZ-6A DEB
1 64630U 24140ADU 26132.26539520  .00000867  00000-0  29026-3 0  9999
2 64630  88.5222 240.0026 0042825   2.0523 358.0843 14.35969073 88256
CZ-6A DEB
1 64630U 24140ADU 26134.56496185  .00000799  00000-0  26708-3 0  9991
2 64630  88.5221 239.6062 0042585 354.6540   5.4198 14.35972101 88585
CZ-6A DEB
1 64630U 24140ADU 26135.26179897  .00000769  00000-0  25695-3 0  9998
2 64630  88.5229 239.4879 0042339 351.8044   8.2458 14.35973050 88687
CZ-6A DEB
1 64630U 24140ADU 26141.04553132  .00000743  00000-0  24826-3 0  9996
2 64630  88.5227 238.4931 0041583 332.2212  27.6766 14.35980657 89514
CZ-6A DEB
1 64630U 24140ADU 26142.23014683  .00000788  00000-0  26351-3 0  9995
2 64630  88.5228 238.2892 0041540 328.1277  31.7408 14.35982907 89684
CZ-6A DEB
1 64630U 24140ADU 26142.23014683  .00000788  00000-0  26351-3 0  9995
2 64630  88.5228 238.2892 0041540 328.1277  31.7408 14.35982906 89683
CZ-6A DEB
1 64630U 24140ADU 26145.22651685  .00001060  00000-0  35645-3 0  9996
2 64630  88.5218 237.7746 0041102 317.5926  42.2098 14.35990599 90110
CZ-6A DEB
1 64630U 24140ADU 26145.22651686  .00001060  00000-0  35645-3 0  9997
2 64630  88.5218 237.7746 0041102 317.5926  42.2098 14.35990599 90110
CZ-6A DEB
1 64630U 24140ADU 26145.99302830  .00001093  00000-0  36750-3 0  9999
2 64630  88.5212 237.6426 0040924 314.9962  44.7923 14.35992482 90229
CZ-6A DEB
1 64630U 24140ADU 26148.50160102  .00001475  00000-0  49803-3 0  9990
2 64630  88.5225 237.2117 0040937 305.5093  54.2290 14.36001075 90583
CZ-6A DEB
1 64630U 24140ADU 26148.50160103  .00001475  00000-0  49803-3 0  9991
2 64630  88.5225 237.2117 0040937 305.5093  54.2290 14.36001075 90583
CZ-6A DEB
1 64630U 24140ADU 26152.19474775  .00001804  00000-0  60991-3 0  9991
2 64630  88.5229 236.5768 0040811 293.1153  66.5747 14.36017231 91115
CZ-6A DEB
1 64630U 24140ADU 26152.19474775  .00001804  00000-0  60991-3 0  9991
2 64630  88.5229 236.5768 0040811 293.1153  66.5747 14.36017231 91115
CZ-6A DEB
1 64630U 24140ADU 26164.45855861  .00001491  00000-0  50273-3 0  9996
2 64630  88.5236 234.4712 0041029 249.8866 109.7915 14.36059853 92877
CZ-6A DEB
1 64630U 24140ADU 26164.45855862  .00001491  00000-0  50273-3 0  9997
2 64630  88.5236 234.4712 0041029 249.8867 109.7915 14.36059853 92878
CZ-6A DEB
1 64630U 24140ADU 26166.96703073  .00001415  00000-0  47695-3 0  9991
2 64630  88.5232 234.0397 0040974 241.2488 118.4592 14.36067287 93231
CZ-6A DEB
1 64630U 24140ADU 26166.96703074  .00001415  00000-0  47695-3 0  9992
2 64630  88.5232 234.0397 0040974 241.2488 118.4592 14.36067287 93231
CZ-6A DEB
1 64630U 24140ADU 26166.96703074  .00001415  00000-0  47695-3 0  9992
2 64630  88.5232 234.0397 0040974 241.2488 118.4592 14.36067287 93231
CZ-6A DEB
1 64630U 24140ADU 26170.93875366  .00001258  00000-0  42301-3 0  9992
2 64630  88.5226 233.3538 0041608 227.0360 132.7348 14.36078512 93803
CZ-6A DEB
1 64630U 24140ADU 26170.93875366  .00001258  00000-0  42301-3 0  9992
2 64630  88.5226 233.3538 0041608 227.0360 132.7348 14.36078512 93803
CZ-6A DEB
1 64630U 24140ADU 26175.88595207  .00001570  00000-0  52900-3 0  9997
2 64630  88.5218 232.5056 0042322 210.4671 149.4069 14.36093658 94517
CZ-6A DEB
1 64630U 24140ADU 26175.88595208  .00001570  00000-0  52900-3 0  9998
2 64630  88.5218 232.5056 0042322 210.4671 149.4069 14.36093658 94517
CZ-6A DEB
1 64630U 24140ADU 26177.90662457  .00001761  00000-0  59369-3 0  9992
2 64630  88.5228 232.1571 0042442 203.4854 156.4408 14.36101300 94805
CZ-6A DEB
1 64630U 24140ADU 26177.90662458  .00001761  00000-0  59369-3 0  9993
2 64630  88.5228 232.1571 0042442 203.4854 156.4408 14.36101300 94805
CZ-6A DEB
1 64630U 24140ADU 26184.87438355  .00002124  00000-0  71644-3 0  9998
2 64630  88.5205 230.9589 0043272 179.8551 180.2668 14.36128231 95803
CZ-6A DEB
1 64630U 24140ADU 26184.87438356  .00002124  00000-0  71644-3 0  9999
2 64630  88.5205 230.9589 0043272 179.8551 180.2668 14.36128231 95803
CZ-6A DEB
1 64630U 24140ADU 26189.40335248  .00001459  00000-0  48993-3 0  9990
2 64630  88.5214 230.1805 0043950 165.1825 195.0674 14.36143383 96459
CZ-6A DEB
1 64630U 24140ADU 26189.40335248  .00001459  00000-0  48993-3 0  9990
2 64630  88.5214 230.1805 0043950 165.1825 195.0674 14.36143383 96459
CZ-6A DEB
1 64630U 24140ADU 26189.40335248  .00001459  00000-0  48993-3 0  9990
2 64630  88.5214 230.1805 0043950 165.1825 195.0674 14.36143383 96459
CZ-6A DEB
1 64630U 24140ADU 26193.86260319  .00001112  00000-0  37206-3 0  9992
2 64630  88.5212 229.4132 0044481 150.4400 209.9328 14.36155170 97096
CZ-6A DEB
1 64630U 24140ADU 26193.86260319  .00001112  00000-0  37206-3 0  9992
2 64630  88.5212 229.4132 0044481 150.4400 209.9328 14.36155170 97096
CZ-6A DEB
1 64630U 24140ADU 26193.86260320  .00001112  00000-0  37206-3 0  9994
2 64630  88.5212 229.4132 0044481 150.4400 209.9328 14.36155170 97096
CZ-6A DEB
1 64630U 24140ADU 26194.83806034  .00001070  00000-0  35770-3 0  9997
2 64630  88.5201 229.2433 0044941 147.2622 213.1377 14.36157048 97230
CZ-6A DEB
1 64630U 24140ADU 26194.83806034  .00001070  00000-0  35770-3 0  9997
2 64630  88.5201 229.2433 0044941 147.2622 213.1377 14.36157048 97230
CZ-6A DEB
1 64630U 24140ADU 26194.83806034  .00001070  00000-0  35770-3 0  9997
2 64630  88.5201 229.2433 0044941 147.2622 213.1377 14.36157048 97230
CZ-6A DEB
1 64630U 24140ADU 26196.37091625  .00001050  00000-0  35085-3 0  9997
2 64630  88.5210 228.9815 0044909 142.7403 217.6927 14.36160816 97452
CZ-6A DEB
1 64630U 24140ADU 26196.37091626  .00001050  00000-0  35085-3 0  9998
2 64630  88.5210 228.9815 0044909 142.7403 217.6927 14.36160817 97453
CZ-6A DEB
1 64630U 24140ADU 26196.85864273  .00001066  00000-0  35631-3 0  9991
2 64630  88.5216 228.8981 0044956 141.1434 219.3012 14.36162073 97529
CZ-6A DEB
1 64630U 24140ADU 26196.85864274  .00001066  00000-0  35631-3 0  9992
2 64630  88.5216 228.8981 0044956 141.1434 219.3012 14.36162073 97529
CZ-6A DEB
1 64630U 24140ADU 26197.83409427  .00001060  00000-0  35419-3 0  9994
2 64630  88.5212 228.7299 0045107 138.0252 222.4419 14.36164238 97664
CZ-6A DEB
1 64630U 24140ADU 26197.83409428  .00001060  00000-0  35419-3 0  9995
2 64630  88.5212 228.7299 0045107 138.0252 222.4419 14.36164238 97664
CZ-6A DEB
1 64630U 24140ADU 26200.34239125  .00001038  00000-0  34671-3 0  9995
2 64630  88.5211 228.2985 0045310 130.0470 230.4717 14.36169526 98026
CZ-6A DEB
1 64630U 24140ADU 26200.83011446  .00001057  00000-0  35303-3 0  9997
2 64630  88.5208 228.2151 0045250 128.3164 232.2117 14.36170685 98099
CZ-6A DEB
1 64630U 24140ADU 26200.83011446  .00001057  00000-0  35303-3 0  9997
2 64630  88.5208 228.2151 0045250 128.3164 232.2117 14.36170685 98099
CZ-6A DEB
1 64630U 24140ADU 26201.80555918  .00001298  00000-0  43476-3 0  9999
2 64630  88.5204 228.0463 0045501 125.3557 235.1908 14.36174046 98232
CZ-6A DEB
1 64630U 24140ADU 26201.80555918  .00001298  00000-0  43476-3 0  9999
2 64630  88.5204 228.0463 0045501 125.3557 235.1908 14.36174046 98232
CZ-6A DEB
1 64630U 24140ADU 26202.85067547  .00001710  00000-0  57433-3 0  9998
2 64630  88.5206 227.8667 0045565 122.0334 238.5303 14.36178946 98389
CZ-6A DEB
1 64630U 24140ADU 26203.33839548  .00001644  00000-0  55207-3 0  9993
2 64630  88.5210 227.7823 0045429 120.2420 240.3288 14.36180051 98453
CZ-6A DEB
1 64630U 24140ADU 26206.33437537  .00002115  00000-0  71154-3 0  9991
2 64630  88.5207 227.2673 0045757 111.0207 249.5896 14.36192066 98884
CZ-6A DEB
1 64630U 24140ADU 26206.82209012  .00002152  00000-0  72402-3 0  9998
2 64630  88.5191 227.1827 0045700 109.3781 251.2367 14.36194112 98956
CZ-6A DEB
1 64630U 24140ADU 26212.81395367  .00001984  00000-0  66661-3 0  9995
2 64630  88.5207 226.1521 0045759  90.5155 270.1287 14.36217691 99819
CZ-6A DEB
1 64630U 24140ADU 26212.81395368  .00001984  00000-0  66661-3 0  9996
2 64630  88.5207 226.1522 0045759  90.5155 270.1287 14.36217691 99810
CZ-6A DEB
1 64630U 24140ADU 26213.30165885  .00002025  00000-0  68062-3 0  9994
2 64630  88.5209 226.0691 0045700  88.8906 271.7528 14.36219786 99887
CZ-6A DEB
1 64630U 24140ADU 26213.78936260  .00002183  00000-0  73423-3 0  9991
2 64630  88.5205 225.9842 0045756  87.5410 273.1027 14.36222679 99959
CZ-6A DEB
1 64630U 24140ADU 26219.29340735  .00001348  00000-0  45094-3 0  9994
2 64630  88.5209 225.0370 0045578  70.3143 290.2965 14.36238353100742
CZ-6A DEB
1 64630U 24140ADU 26219.78110438  .00001338  00000-0  44784-3 0  9997
2 64630  88.5212 224.9535 0045555  68.5217 292.0831 14.36239758100813
CZ-6A DEB
1 64630U 24140ADU 26219.78110438  .00001338  00000-0  44784-3 0  9997
2 64630  88.5212 224.9535 0045555  68.5217 292.0831 14.36239757100812
CZ-6A DEB
1 64630U 24140ADU 26220.75649703  .00001236  00000-0  41317-3 0  9994
2 64630  88.5214 224.7857 0045509  65.4861 295.1072 14.36241879100953
CZ-6A DEB
1 64630U 24140ADU 26220.75649703  .00001236  00000-0  41317-3 0  9994
2 64630  88.5214 224.7857 0045509  65.4861 295.1072 14.36241879100953
CZ-6A DEB
1 64630U 24140ADU 26223.75233341  .00001146  00000-0  38274-3 0  9992
2 64630  88.5212 224.2699 0045287  56.0916 304.4578 14.36248867101387
CZ-6A DEB
1 64630U 24140ADU 26223.75233342  .00001146  00000-0  38274-3 0  9993
2 64630  88.5212 224.2699 0045287  56.0916 304.4578 14.36248867101387
CZ-6A DEB
1 64630U 24140ADU 26225.28508098  .00001118  00000-0  37318-3 0  9993
2 64630  88.5214 224.0062 0045151  51.1758 309.3458 14.36252180101600
CZ-6A DEB
1 64630U 24140ADU 26225.28508099  .00001118  00000-0  37318-3 0  9994
2 64630  88.5214 224.0062 0045151  51.1758 309.3458 14.36252180101600
CZ-6A DEB
1 64630U 24140ADU 26226.95716431  .00001234  00000-0  41265-3 0  9995
2 64630  88.5214 223.7185 0045010  45.8115 314.6768 14.36256636101842
CZ-6A DEB
1 64630U 24140ADU 26226.95716431  .00001234  00000-0  41265-3 0  9995
2 64630  88.5214 223.7185 0045010  45.8115 314.6768 14.36256636101842
CZ-6A DEB
1 64630U 24140ADU 26235.24781253  .00002066  00000-0  69434-3 0  9993
2 64630  88.5222 222.2925 0044003  19.2588 341.0262 14.36286644103035
CZ-6A DEB
1 64630U 24140ADU 26239.21888837  .00002512  00000-0  84531-3 0  9991
2 64630  88.5245 221.6147 0043490   5.9707 354.2001 14.36306615103604
CZ-6A DEB
1 64630U 24140ADU 26239.21888837  .00002512  00000-0  84531-3 0  9991
2 64630  88.5245 221.6147 0043490   5.9707 354.2001 14.36306615103604
CZ-6A DEB
1 64630U 24140ADU 26239.91556344  .00002511  00000-0  84500-3 0  9998
2 64630  88.5242 221.4926 0043402   4.0195 356.1344 14.36309707103705
CZ-6A DEB
1 64630U 24140ADU 26239.91556344  .00002511  00000-0  84500-3 0  9998
2 64630  88.5242 221.4926 0043402   4.0195 356.1344 14.36309707103705
