CZ-6A DEB
1 64641U 24140AEF 25176.36736356  .00000852  00000-0  49751-3 0  9996
2 64641  88.8694 310.9375 0116436 300.3192  58.6511 14.04290401 44406
TBA - TO BE ASSIGNED
1 64641U 24140AEF 25176.36736356  .00000852  00000-0  49751-3 0  9996
2 64641  88.8694 310.9375 0116436 300.3192  58.6511 14.04290401 44406
CZ-6A DEB
1 64641U 24140AEF 25181.64018071  .00000985  00000-0  57647-3 0  9990
2 64641  88.8696 310.2781 0116592 283.2105  75.6090 14.04300319 45141
CZ-6A DEB
1 64641U 24140AEF 25181.64018071  .00000985  00000-0  57647-3 0  9990
2 64641  88.8696 310.2781 0116592 283.2105  75.6090 14.04300319 45141
CZ-6A DEB
1 64641U 24140AEF 25182.63773863  .00001080  00000-0  63260-3 0  9992
2 64641  88.8695 310.1532 0116674 279.9891  78.8140 14.04302806 45287
CZ-6A DEB
1 64641U 24140AEF 25184.63285229  .00001119  00000-0  65524-3 0  9996
2 64641  88.8695 309.9037 0116853 273.5399  85.2423 14.04307149 45567
CZ-6A DEB
1 64641U 24140AEF 25184.63285229  .00001119  00000-0  65524-3 0  9996
2 64641  88.8695 309.9037 0116853 273.5399  85.2423 14.04307149 45567
CZ-6A DEB
1 64641U 24140AEF 25186.77047006  .00001184  00000-0  69390-3 0  9999
2 64641  88.8694 309.6360 0117087 266.6701  92.1080 14.04312339 45868
CZ-6A DEB
1 64641U 24140AEF 25186.77047006  .00001184  00000-0  69390-3 0  9999
2 64641  88.8694 309.6360 0117087 266.6701  92.1080 14.04312339 45868
CZ-6A DEB
1 64641U 24140AEF 25187.76802382  .00001152  00000-0  67440-3 0  9994
2 64641  88.8693 309.5108 0117215 263.4731  95.3095 14.04314458 46009
CZ-6A DEB
1 64641U 24140AEF 25189.76312889  .00001101  00000-0  64414-3 0  9996
2 64641  88.8695 309.2614 0117482 257.0504 101.7537 14.04318771 46288
CZ-6A DEB
1 64641U 24140AEF 25189.76312889  .00001101  00000-0  64414-3 0  9996
2 64641  88.8695 309.2614 0117482 257.0504 101.7537 14.04318771 46288
CZ-6A DEB
1 64641U 24140AEF 25193.75332942  .00001146  00000-0  67000-3 0  9995
2 64641  88.8697 308.7623 0118050 244.2851 114.6105 14.04328069 46846
CZ-6A DEB
1 64641U 24140AEF 25193.75332942  .00001146  00000-0  67000-3 0  9995
2 64641  88.8697 308.7623 0118050 244.2851 114.6105 14.04328069 46846
CZ-6A DEB
1 64641U 24140AEF 25194.75087779  .00001163  00000-0  67998-3 0  9996
2 64641  88.8697 308.6377 0118179 241.0951 117.8334 14.04330310 46985
CZ-6A DEB
1 64641U 24140AEF 25195.74842515  .00001148  00000-0  67104-3 0  9995
2 64641  88.8697 308.5131 0118364 237.9081 121.0566 14.04332405 47124
CZ-6A DEB
1 64641U 24140AEF 25195.74842515  .00001148  00000-0  67104-3 0  9995
2 64641  88.8697 308.5131 0118364 237.9081 121.0566 14.04332405 47124
CZ-6A DEB
1 64641U 24140AEF 25196.74597016  .00001224  00000-0  71533-3 0  9995
2 64641  88.8697 308.3885 0118737 234.7260 124.2768 14.04335264 47266
CZ-6A DEB
1 64641U 24140AEF 25197.74351548  .00001211  00000-0  70774-3 0  9996
2 64641  88.8700 308.2647 0118865 231.5278 127.5193 14.04337546 47401
CZ-6A DEB
1 64641U 24140AEF 25197.74351548  .00001211  00000-0  70774-3 0  9996
2 64641  88.8700 308.2647 0118865 231.5278 127.5193 14.04337546 47401
CZ-6A DEB
1 64641U 24140AEF 25198.74105936  .00001224  00000-0  71515-3 0  9993
2 64641  88.8699 308.1400 0119044 228.3594 130.7346 14.04340087 47544
CZ-6A DEB
1 64641U 24140AEF 25199.73860161  .00001276  00000-0  74558-3 0  9998
2 64641  88.8702 308.0158 0119304 225.2045 133.9389 14.04342937 47687
CZ-6A DEB
1 64641U 24140AEF 25199.73860161  .00001276  00000-0  74558-3 0  9998
2 64641  88.8702 308.0158 0119304 225.2045 133.9389 14.04342937 47687
CZ-6A DEB
1 64641U 24140AEF 25200.73614284  .00001283  00000-0  74928-3 0  9993
2 64641  88.8703 307.8912 0119518 222.0511 137.1451 14.04345548 47826
CZ-6A DEB
1 64641U 24140AEF 25201.73368289  .00001268  00000-0  74048-3 0  9991
2 64641  88.8701 307.7663 0119689 218.8972 140.3553 14.04348091 47969
CZ-6A DEB
1 64641U 24140AEF 25201.73368289  .00001268  00000-0  74048-3 0  9991
2 64641  88.8701 307.7663 0119689 218.8972 140.3553 14.04348091 47969
CZ-6A DEB
1 64641U 24140AEF 25203.01623292  .00001332  00000-0  77804-3 0  9997
2 64641  88.8685 307.6049 0119814 214.8297 144.5002 14.04351747 48141
CZ-6A DEB
1 64641U 24140AEF 25203.01623292  .00001332  00000-0  77804-3 0  9997
2 64641  88.8685 307.6049 0119814 214.8297 144.5002 14.04351747 48141
CZ-6A DEB
1 64641U 24140AEF 25204.22752646  .00001572  00000-0  91911-3 0  9998
2 64641  88.8692 307.4541 0120058 211.0117 148.3939 14.04356552 48315
CZ-6A DEB
1 64641U 24140AEF 25204.22752646  .00001572  00000-0  91911-3 0  9998
2 64641  88.8692 307.4541 0120058 211.0117 148.3939 14.04356552 48315
CZ-6A DEB
1 64641U 24140AEF 25205.72382681  .00001515  00000-0  88511-3 0  9991
2 64641  88.8706 307.2677 0120459 206.3566 153.1456 14.04360657 48521
CZ-6A DEB
1 64641U 24140AEF 25206.72135882  .00001501  00000-0  87682-3 0  9994
2 64641  88.8698 307.1424 0120610 203.2159 156.3548 14.04363506 48661
CZ-6A DEB
1 64641U 24140AEF 25207.22012397  .00001557  00000-0  90932-3 0  9998
2 64641  88.8697 307.0801 0120689 201.6494 157.9562 14.04365332 48738
CZ-6A DEB
1 64641U 24140AEF 25207.71888827  .00001566  00000-0  91471-3 0  9990
2 64641  88.8700 307.0180 0120814 200.0965 159.5439 14.04366988 48806
CZ-6A DEB
1 64641U 24140AEF 25208.57391229  .00001572  00000-0  91809-3 0  9992
2 64641  88.8697 306.9108 0120937 197.4040 162.2981 14.04369716 48926
CZ-6A DEB
1 64641U 24140AEF 25208.71641606  .00001559  00000-0  91046-3 0  9993
2 64641  88.8697 306.8930 0120966 196.9578 162.7546 14.04370131 48947
CZ-6A DEB
1 64641U 24140AEF 25208.71641606  .00001559  00000-0  91046-3 0  9993
2 64641  88.8697 306.8930 0120966 196.9578 162.7546 14.04370131 48947
CZ-6A DEB
1 64641U 24140AEF 25209.57143822  .00001521  00000-0  88739-3 0  9999
2 64641  88.8697 306.7861 0121119 194.2862 165.4885 14.04372658 49063
CZ-6A DEB
1 64641U 24140AEF 25213.20526491  .00001513  00000-0  88200-3 0  9995
2 64641  88.8693 306.3319 0121752 182.9800 177.0671 14.04384303 49570
CZ-6A DEB
1 64641U 24140AEF 25213.20526491  .00001513  00000-0  88200-3 0  9995
2 64641  88.8693 306.3319 0121752 182.9800 177.0671 14.04384303 49570
CZ-6A DEB
1 64641U 24140AEF 25214.70153882  .00001408  00000-0  81968-3 0  9998
2 64641  88.8693 306.1449 0121985 178.3327 181.8287 14.04388361 49780
CZ-6A DEB
1 64641U 24140AEF 25214.70153882  .00001408  00000-0  81968-3 0  9998
2 64641  88.8693 306.1449 0121985 178.3327 181.8287 14.04388361 49780
CZ-6A DEB
1 64641U 24140AEF 25215.98405582  .00001264  00000-0  73495-3 0  9992
2 64641  88.8691 305.9845 0122175 174.3508 185.9086 14.04391392 49964
CZ-6A DEB
1 64641U 24140AEF 25216.55406216  .00001342  00000-0  78086-3 0  9999
2 64641  88.8691 305.9132 0122248 172.5791 187.7238 14.04393510 50042
CZ-6A DEB
1 64641U 24140AEF 25216.69656362  .00001320  00000-0  76733-3 0  9996
2 64641  88.8691 305.8955 0122272 172.1433 188.1703 14.04393812 50069
CZ-6A DEB
1 64641U 24140AEF 25217.19531859  .00001221  00000-0  70939-3 0  9997
2 64641  88.8690 305.8331 0122345 170.5988 189.7526 14.04394718 50138
CZ-6A DEB
1 64641U 24140AEF 25217.19531859  .00001221  00000-0  70939-3 0  9997
2 64641  88.8690 305.8331 0122345 170.5988 189.7526 14.04394718 50138
CZ-6A DEB
1 64641U 24140AEF 25218.69158084  .00001055  00000-0  61118-3 0  9992
2 64641  88.8690 305.6459 0122553 165.9722 194.4915 14.04397857 50347
CZ-6A DEB
1 64641U 24140AEF 25218.69158084  .00001055  00000-0  61118-3 0  9992
2 64641  88.8690 305.6459 0122553 165.9722 194.4915 14.04397857 50347
CZ-6A DEB
1 64641U 24140AEF 25220.68659162  .00001036  00000-0  59994-3 0  9995
2 64641  88.8688 305.3964 0122795 159.8072 200.8030 14.04402404 50626
CZ-6A DEB
1 64641U 24140AEF 25220.68659162  .00001036  00000-0  59994-3 0  9995
2 64641  88.8688 305.3964 0122795 159.8072 200.8030 14.04402404 50626
CZ-6A DEB
1 64641U 24140AEF 25223.46534163  .00001224  00000-0  70992-3 0  9997
2 64641  88.8683 305.0488 0123079 151.2328 209.5716 14.04410272 51018
CZ-6A DEB
1 64641U 24140AEF 25223.46534163  .00001224  00000-0  70992-3 0  9997
2 64641  88.8683 305.0488 0123079 151.2328 209.5716 14.04410272 51018
CZ-6A DEB
1 64641U 24140AEF 25228.45280150  .00000939  00000-0  54241-3 0  9996
2 64641  88.8674 304.4246 0123452 135.8470 225.2647 14.04420802 51719
CZ-6A DEB
1 64641U 24140AEF 25228.66654860  .00000937  00000-0  54089-3 0  9990
2 64641  88.8673 304.3980 0123467 135.1700 225.9538 14.04421286 51743
CZ-6A DEB
1 64641U 24140AEF 25229.66403433  .00000933  00000-0  53832-3 0  9990
2 64641  88.8671 304.2731 0123524 132.0913 229.0853 14.04423290 51887
CZ-6A DEB
1 64641U 24140AEF 25230.44777190  .00000917  00000-0  52898-3 0  9995
2 64641  88.8670 304.1749 0123561 129.6758 231.5400 14.04424688 51994
CZ-6A DEB
1 64641U 24140AEF 25230.44777190  .00000917  00000-0  52898-3 0  9995
2 64641  88.8670 304.1749 0123561 129.6758 231.5400 14.04424688 51994
CZ-6A DEB
1 64641U 24140AEF 25232.65647985  .00000870  00000-0  50157-3 0  9992
2 64641  88.8666 303.8982 0123661 122.8614 238.4543 14.04428643 52306
CZ-6A DEB
1 64641U 24140AEF 25233.65395828  .00000793  00000-0  45619-3 0  9990
2 64641  88.8664 303.7730 0123691 119.7920 241.5630 14.04429879 52441
CZ-6A DEB
1 64641U 24140AEF 25235.93390069  .00000842  00000-0  48477-3 0  9995
2 64641  88.8660 303.4873 0123717 112.7649 248.6660 14.04434156 52762
CZ-6A DEB
1 64641U 24140AEF 25236.93137233  .00000902  00000-0  51983-3 0  9991
2 64641  88.8658 303.3621 0123737 109.6904 251.7677 14.04436212 52904
CZ-6A DEB
1 64641U 24140AEF 25237.14511594  .00000951  00000-0  54883-3 0  9997
2 64641  88.8658 303.3355 0123728 109.0166 252.4467 14.04436880 52931
CZ-6A DEB
1 64641U 24140AEF 25240.13751469  .00001244  00000-0  72028-3 0  9994
2 64641  88.8652 302.9606 0123714  99.7552 261.7626 14.04444401 53353
CZ-6A DEB
1 64641U 24140AEF 25241.91869249  .00001433  00000-0  83157-3 0  9992
2 64641  88.8649 302.7370 0123703  94.2541 267.2788 14.04449816 53604
CZ-6A DEB
1 64641U 24140AEF 25242.41742018  .00001636  00000-0  95048-3 0  9999
2 64641  88.8648 302.6744 0123698  92.7050 268.8297 14.04452389 53676
CZ-6A DEB
1 64641U 24140AEF 25243.12988695  .00001706  00000-0  99132-3 0  9997
2 64641  88.8647 302.5850 0123675  90.4984 271.0370 14.04454970 53775
CZ-6A DEB
1 64641U 24140AEF 25245.12478446  .00002178  00000-0  12679-2 0  9991
2 64641  88.8644 302.3346 0123618  84.3256 277.2007 14.04464298 54052
CZ-6A DEB
1 64641U 24140AEF 25245.90849012  .00002180  00000-0  12693-2 0  9997
2 64641  88.8643 302.2360 0123602  81.9011 279.6171 14.04467223 54162
CZ-6A DEB
1 64641U 24140AEF 25246.12222741  .00002190  00000-0  12753-2 0  9994
2 64641  88.8643 302.2093 0123592  81.2347 280.2808 14.04468184 54193
CZ-6A DEB
1 64641U 24140AEF 25247.11966711  .00001955  00000-0  11373-2 0  9991
2 64641  88.8642 302.0842 0123545  78.1439 283.3566 14.04470754 54334
CZ-6A DEB
1 64641U 24140AEF 25249.11453538  .00001776  00000-0  10326-2 0  9999
2 64641  88.8639 301.8336 0123450  71.9666 289.4921 14.04477687 54618
CZ-6A DEB
1 64641U 24140AEF 25249.89822902  .00001879  00000-0  10928-2 0  9991
2 64641  88.8637 301.7350 0123390  69.5389 291.8989 14.04481521 54724
CZ-6A DEB
1 64641U 24140AEF 25250.39694326  .00001624  00000-0  94362-3 0  9998
2 64641  88.8635 301.6721 0123345  67.9928 293.4304 14.04481880 54798
CZ-6A DEB
1 64641U 24140AEF 25251.89308069  .00001281  00000-0  74253-3 0  9996
2 64641  88.8636 301.4843 0123275  63.3595 298.0151 14.04485204 55004
CZ-6A DEB
1 64641U 24140AEF 25252.10681413  .00001256  00000-0  72740-3 0  9999
2 64641  88.8635 301.4575 0123260  62.6950 298.6719 14.04485747 55037
CZ-6A DEB
1 64641U 24140AEF 25253.10423555  .00001096  00000-0  63380-3 0  9993
2 64641  88.8633 301.3320 0123192  59.6038 301.7252 14.04487796 55178
CZ-6A DEB
1 64641U 24140AEF 25253.88792229  .00001046  00000-0  60450-3 0  9995
2 64641  88.8632 301.2335 0123142  57.1723 304.1245 14.04489603 55281
CZ-6A DEB
1 64641U 24140AEF 25256.09648716  .00000932  00000-0  53816-3 0  9993
2 64641  88.8629 300.9559 0122976  50.3068 310.8880 14.04494180 55591
CZ-6A DEB
1 64641U 24140AEF 25257.09390033  .00000984  00000-0  56874-3 0  9994
2 64641  88.8628 300.8305 0122898  47.2061 313.9375 14.04496534 55733
CZ-6A DEB
1 64641U 24140AEF 25258.09131180  .00000999  00000-0  57737-3 0  9996
2 64641  88.8627 300.7050 0122812  44.1020 316.9875 14.04498547 55874
CZ-6A DEB
1 64641U 24140AEF 25259.08872021  .00001145  00000-0  66322-3 0  9996
2 64641  88.8626 300.5795 0122729  40.9963 320.0364 14.04501580 56012
CZ-6A DEB
1 64641U 24140AEF 25260.08612719  .00001150  00000-0  66578-3 0  9993
2 64641  88.8625 300.4541 0122642  37.8901 323.0832 14.04503705 56159
CZ-6A DEB
1 64641U 24140AEF 25261.08353184  .00001187  00000-0  68778-3 0  9996
2 64641  88.8624 300.3285 0122551  34.7809 326.1306 14.04506130 56294
CZ-6A DEB
1 64641U 24140AEF 25264.07573197  .00001528  00000-0  88806-3 0  9999
2 64641  88.8620 299.9519 0122271  25.4396 335.2735 14.04515313 56717
CZ-6A DEB
1 64641U 24140AEF 25264.36070257  .00001633  00000-0  94951-3 0  9995
2 64641  88.8619 299.9159 0122263  24.5580 336.1356 14.04516543 56750
CZ-6A DEB
1 64641U 24140AEF 25265.07312669  .00001842  00000-0  10723-2 0  9996
2 64641  88.8617 299.8262 0122194  22.3303 338.3133 14.04519852 56858
CZ-6A DEB
1 64641U 24140AEF 25266.35548643  .00002232  00000-0  13015-2 0  9992
2 64641  88.8616 299.6650 0122059  18.3155 342.2363 14.04526103 57033
CZ-6A DEB
1 64641U 24140AEF 25267.06790623  .00002205  00000-0  12856-2 0  9990
2 64641  88.8615 299.5753 0121985  16.0935 344.4067 14.04528534 57139
CZ-6A DEB
1 64641U 24140AEF 25269.06267276  .00002346  00000-0  13687-2 0  9994
2 64641  88.8610 299.3238 0121762   9.8445 350.5079 14.04537231 57415
CZ-6A DEB
1 64641U 24140AEF 25271.05742617  .00002305  00000-0  13445-2 0  9990
2 64641  88.8596 299.0720 0121529   3.5386 356.6626 14.04545820 57695
CZ-6A DEB
1 64641U 24140AEF 25274.04952486  .00002648  00000-0  15459-2 0  9996
2 64641  88.8591 298.6950 0121152 354.0948   5.8797 14.04563026 58118
CZ-6A DEB
1 64641U 24140AEF 25274.04952487  .00002648  00000-0  15459-2 0  9997
2 64641  88.8591 298.6950 0121152 354.0948   5.8797 14.04563026 58118
CZ-6A DEB
1 64641U 24140AEF 25275.33184126  .00003168  00000-0  18512-2 0  9998
2 64641  88.8597 298.5334 0120954 350.1511   9.7300 14.04573299 58296
CZ-6A DEB
1 64641U 24140AEF 25275.33184127  .00003168  00000-0  18512-2 0  9999
2 64641  88.8597 298.5334 0120954 350.1511   9.7300 14.04573299 58296
CZ-6A DEB
1 64641U 24140AEF 25276.04423555  .00002921  00000-0  17066-2 0  9998
2 64641  88.8610 298.4447 0120877 347.9129  11.9157 14.04577297 58397
CZ-6A DEB
1 64641U 24140AEF 25278.03892887  .00002372  00000-0  13843-2 0  9996
2 64641  88.8624 298.1957 0120716 341.5272  18.1543 14.04587643 58671
CZ-6A DEB
1 64641U 24140AEF 25278.32388396  .00002206  00000-0  12870-2 0  9998
2 64641  88.8617 298.1588 0120702 340.6211  19.0400 14.04588589 58718
CZ-6A DEB
1 64641U 24140AEF 25278.32388396  .00002206  00000-0  12870-2 0  9998
2 64641  88.8617 298.1587 0120702 340.6211  19.0400 14.04588589 58717
CZ-6A DEB
1 64641U 24140AEF 25280.03361162  .00001964  00000-0  11449-2 0  9992
2 64641  88.8609 297.9432 0120576 335.1622  24.3784 14.04595290 58955
CZ-6A DEB
1 64641U 24140AEF 25280.31856582  .00001880  00000-0  10959-2 0  9990
2 64641  88.8607 297.9067 0120457 334.3231  25.1999 14.04596064 58993
CZ-6A DEB
1 64641U 24140AEF 25281.03094961  .00002052  00000-0  11966-2 0  9996
2 64641  88.8607 297.8173 0120398 332.0403  27.4343 14.04599525 59095
CZ-6A DEB
1 64641U 24140AEF 25281.03094961  .00002052  00000-0  11966-2 0  9996
2 64641  88.8607 297.8173 0120398 332.0403  27.4343 14.04599525 59095
CZ-6A DEB
1 64641U 24140AEF 25281.31590301  .00001914  00000-0  11158-2 0  9995
2 64641  88.8606 297.7809 0120377 331.1512  28.3047 14.04600073 59134
CZ-6A DEB
1 64641U 24140AEF 25281.31590301  .00001914  00000-0  11158-2 0  9995
2 64641  88.8606 297.7810 0120377 331.1512  28.3047 14.04600073 59136
CZ-6A DEB
1 64641U 24140AEF 25282.31323838  .00001669  00000-0  97239-3 0  9997
2 64641  88.8603 297.6547 0120285 327.9951  31.3962 14.04602965 59274
CZ-6A DEB
1 64641U 24140AEF 25282.31323839  .00001669  00000-0  97239-3 0  9998
2 64641  88.8603 297.6547 0120285 327.9951  31.3962 14.04602965 59274
CZ-6A DEB
1 64641U 24140AEF 25284.02295139  .00001673  00000-0  97437-3 0  9994
2 64641  88.8603 297.4387 0120081 322.5864  36.7000 14.04609202 59512
CZ-6A DEB
1 64641U 24140AEF 25284.02295140  .00001673  00000-0  97437-3 0  9996
2 64641  88.8603 297.4387 0120081 322.5864  36.7000 14.04609202 59512
CZ-6A DEB
1 64641U 24140AEF 25285.30523173  .00001978  00000-0  11538-2 0  9993
2 64641  88.8603 297.2766 0119958 318.5112  40.7008 14.04614825 59692
CZ-6A DEB
1 64641U 24140AEF 25286.01760798  .00002085  00000-0  12164-2 0  9994
2 64641  88.8604 297.1867 0119888 316.2506  42.9222 14.04617981 59797
CZ-6A DEB
1 64641U 24140AEF 25288.29720323  .00002071  00000-0  12080-2 0  9998
2 64641  88.8603 296.8989 0119865 308.9733  50.0816 14.04627593 60119
CZ-6A DEB
1 64641U 24140AEF 25289.00957464  .00002359  00000-0  13775-2 0  9997
2 64641  88.8603 296.8093 0119682 306.7240  52.2996 14.04631353 60214
CZ-6A DEB
1 64641U 24140AEF 25289.29452269  .00002033  00000-0  11864-2 0  9997
2 64641  88.8603 296.7733 0119675 305.8159  53.1947 14.04631538 60250
CZ-6A DEB
1 64641U 24140AEF 25289.29452269  .00002033  00000-0  11864-2 0  9997
2 64641  88.8603 296.7733 0119675 305.8159  53.1947 14.04631538 60250
CZ-6A DEB
1 64641U 24140AEF 25291.00420802  .00002470  00000-0  14427-2 0  9990
2 64641  88.8599 296.5579 0119543 300.3628  58.5776 14.04639692 60499
CZ-6A DEB
1 64641U 24140AEF 25291.00420803  .00002470  00000-0  14427-2 0  9991
2 64641  88.8599 296.5579 0119543 300.3628  58.5776 14.04639692 60499
CZ-6A DEB
1 64641U 24140AEF 25292.00152064  .00002734  00000-0  15976-2 0  9996
2 64641  88.8600 296.4326 0119390 297.1881  61.7171 14.04645017 60634
CZ-6A DEB
1 64641U 24140AEF 25294.99343656  .00002487  00000-0  14525-2 0  9999
2 64641  88.8600 296.0551 0119222 287.6473  71.1718 14.04661292 61057
CZ-6A DEB
1 64641U 24140AEF 25294.99343657  .00002487  00000-0  14525-2 0  9990
2 64641  88.8600 296.0551 0119222 287.6473  71.1718 14.04661292 61057
CZ-6A DEB
1 64641U 24140AEF 25295.99073606  .00002283  00000-0  13328-2 0  9999
2 64641  88.8599 295.9288 0119198 284.4688  74.3292 14.04665980 61199
CZ-6A DEB
1 64641U 24140AEF 25311.23488734  .00002495  00000-0  14559-2 0  9999
2 64641  88.8598 294.0023 0118600 235.6693 123.3221 14.04734373 63334
CZ-6A DEB
1 64641U 24140AEF 25311.23488734  .00002495  00000-0  14559-2 0  9999
2 64641  88.8598 294.0024 0118600 235.6694 123.3221 14.04734373 63336
CZ-6A DEB
1 64641U 24140AEF 25313.22940812  .00002508  00000-0  14639-2 0  9994
2 64641  88.8592 293.7460 0118234 229.5351 129.5477 14.04743855 63612
CZ-6A DEB
1 64641U 24140AEF 25317.21840928  .00003871  00000-0  22614-2 0  9990
2 64641  88.8601 293.2459 0118394 216.6650 142.6390 14.04769999 64171
CZ-6A DEB
1 64641U 24140AEF 25317.21840929  .00003871  00000-0  22614-2 0  9991
2 64641  88.8601 293.2459 0118394 216.6650 142.6390 14.04769999 64171
CZ-6A DEB
1 64641U 24140AEF 25318.21564744  .00003281  00000-0  19153-2 0  9999
2 64641  88.8601 293.1208 0118436 213.4468 145.9196 14.04775967 64319
CZ-6A DEB
1 64641U 24140AEF 25318.21564745  .00003281  00000-0  19153-2 0  9990
2 64641  88.8601 293.1208 0118436 213.4468 145.9196 14.04775967 64319
CZ-6A DEB
1 64641U 24140AEF 25319.21288208  .00002640  00000-0  15398-2 0  9993
2 64641  88.8551 292.9892 0118239 210.5188 148.9079 14.04781463 64453
CZ-6A DEB
1 64641U 24140AEF 25319.21288209  .00002640  00000-0  15398-2 0  9994
2 64641  88.8551 292.9892 0118239 210.5188 148.9079 14.04781463 64453
CZ-6A DEB
1 64641U 24140AEF 25320.63749611  .00002413  00000-0  14059-2 0  9992
2 64641  88.8585 292.8145 0118501 205.7130 153.8131 14.04789519 64651
CZ-6A DEB
1 64641U 24140AEF 25320.92241911  .00002335  00000-0  13606-2 0  9994
2 64641  88.8601 292.7783 0118412 204.7316 154.8162 14.04790465 64694
CZ-6A DEB
1 64641U 24140AEF 25324.62639477  .00001611  00000-0  93547-3 0  9992
2 64641  88.8605 292.3110 0118554 192.8691 166.9460 14.04802502 65218
CZ-6A DEB
1 64641U 24140AEF 25324.62639478  .00001611  00000-0  93547-3 0  9993
2 64641  88.8605 292.3110 0118554 192.8691 166.9460 14.04802502 65218
CZ-6A DEB
1 64641U 24140AEF 25324.91131463  .00001546  00000-0  89752-3 0  9996
2 64641  88.8606 292.2751 0118576 191.9622 167.8739 14.04803350 65252
CZ-6A DEB
1 64641U 24140AEF 25324.91131464  .00001546  00000-0  89752-3 0  9997
2 64641  88.8606 292.2751 0118576 191.9622 167.8739 14.04803350 65252
CZ-6A DEB
1 64641U 24140AEF 25328.90017727  .00001872  00000-0  10877-2 0  9998
2 64641  88.8612 291.7719 0118775 179.2208 180.9181 14.04816820 65812
CZ-6A DEB
1 64641U 24140AEF 25328.90017728  .00001872  00000-0  10877-2 0  9999
2 64641  88.8612 291.7719 0118775 179.2208 180.9181 14.04816820 65812
CZ-6A DEB
1 64641U 24140AEF 25332.60408864  .00001538  00000-0  89143-3 0  9998
2 64641  88.8622 291.3070 0119190 167.4734 192.9457 14.04827619 66339
CZ-6A DEB
1 64641U 24140AEF 25334.88340149  .00001624  00000-0  94165-3 0  9997
2 64641  88.8617 291.0184 0119157 160.1814 200.4056 14.04835500 66651
CZ-6A DEB
1 64641U 24140AEF 25335.88059705  .00001634  00000-0  94735-3 0  9997
2 64641  88.8619 290.8925 0119188 157.0583 203.5986 14.04838610 66791
CZ-6A DEB
1 64641U 24140AEF 25335.88059705  .00001634  00000-0  94735-3 0  9997
2 64641  88.8619 290.8925 0119188 157.0583 203.5986 14.04838610 66791
CZ-6A DEB
1 64641U 24140AEF 25342.14860341  .00002074  00000-0  12036-2 0  9992
2 64641  88.8625 290.1024 0119588 137.2345 223.8218 14.04865730 67675
CZ-6A DEB
1 64641U 24140AEF 25342.57596205  .00002399  00000-0  13928-2 0  9995
2 64641  88.8632 290.0500 0119746 135.9686 225.1110 14.04869357 67732
CZ-6A DEB
1 64641U 24140AEF 25342.57596206  .00002399  00000-0  13928-2 0  9996
2 64641  88.8632 290.0500 0119746 135.9686 225.1110 14.04869357 67732
CZ-6A DEB
1 64641U 24140AEF 25346.56461103  .00002161  00000-0  12533-2 0  9994
2 64641  88.8637 289.5486 0120013 123.4534 237.8191 14.04885739 68299
CZ-6A DEB
1 64641U 24140AEF 25357.53313281  .00001549  00000-0  89464-3 0  9993
2 64641  88.8649 288.1705 0120521  89.1201 272.3787 14.04919459 69837
CZ-6A DEB
1 64641U 24140AEF 25357.53313282  .00001549  00000-0  89464-3 0  9994
2 64641  88.8649 288.1705 0120521  89.1201 272.3787 14.04919459 69837
CZ-6A DEB
1 64641U 24140AEF 25363.80068385  .00002318  00000-0  13426-2 0  9991
2 64641  88.8648 287.3830 0120566  69.5263 291.8813 14.04947366 70718
CZ-6A DEB
1 64641U 24140AEF 25363.80068386  .00002318  00000-0  13426-2 0  9992
2 64641  88.8648 287.3830 0120566  69.5263 291.8813 14.04947366 70718
CZ-6A DEB
1 64641U 24140AEF 26006.49243398  .00002285  00000-0  13236-2 0  9992
2 64641  88.8661 286.4191 0119948  45.5433 315.5483 14.04989168 71790
CZ-6A DEB
1 64641U 24140AEF 26006.49243398  .00002285  00000-0  13236-2 0  9992
2 64641  88.8661 286.4191 0119948  45.5433 315.5483 14.04989168 71790
CZ-6A DEB
1 64641U 24140AEF 26011.19283299  .00001748  00000-0  10110-2 0  9990
2 64641  88.8650 285.8275 0119600  30.7623 330.0497 14.05007177 72459
CZ-6A DEB
1 64641U 24140AEF 26016.67654923  .00001289  00000-0  74412-3 0  9990
2 64641  88.8661 285.1410 0118782  13.4148 347.0144 14.05023754 73227
CZ-6A DEB
1 64641U 24140AEF 26021.73288685  .00003301  00000-0  19176-2 0  9993
2 64641  88.8650 284.5049 0118144 357.3014   2.7515 14.05055146 73935
CZ-6A DEB
1 64641U 24140AEF 26023.44204602  .00002833  00000-0  16444-2 0  9994
2 64641  88.8659 284.2916 0118136 352.3172   7.6195 14.05065903 74172
CZ-6A DEB
1 64641U 24140AEF 26027.00274480  .00002773  00000-0  16095-2 0  9996
2 64641  88.8655 283.8447 0117758 340.7561  18.9190 14.05087446 74675
CZ-6A DEB
1 64641U 24140AEF 26028.64065199  .00002666  00000-0  15472-2 0  9991
2 64641  88.8653 283.6393 0117559 335.4866  24.0752 14.05096043 74900
CZ-6A DEB
1 64641U 24140AEF 26031.63159423  .00001742  00000-0  10089-2 0  9991
2 64641  88.8707 283.2692 0117223 326.3072  33.0695 14.05107861 75328
CZ-6A DEB
1 64641U 24140AEF 26031.63159423  .00001742  00000-0  10089-2 0  9991
2 64641  88.8707 283.2693 0117223 326.3072  33.0695 14.05107861 75329
CZ-6A DEB
1 64641U 24140AEF 26043.95122265  .00001372  00000-0  79255-3 0  9993
2 64641  88.8648 281.7158 0116834 286.2589  72.5766 14.05150382 77051
CZ-6A DEB
1 64641U 24140AEF 26043.95122265  .00001372  00000-0  79255-3 0  9993
2 64641  88.8648 281.7158 0116834 286.2589  72.5766 14.05150382 77051
CZ-6A DEB
1 64641U 24140AEF 26046.58602632  .00001454  00000-0  84037-3 0  9991
2 64641  88.8628 281.3814 0116769 277.7191  81.0744 14.05158469 77421
CZ-6A DEB
1 64641U 24140AEF 26046.58602632  .00001454  00000-0  84037-3 0  9991
2 64641  88.8628 281.3814 0116769 277.7191  81.0744 14.05158469 77421
CZ-6A DEB
1 64641U 24140AEF 26049.93292562  .00001237  00000-0  71371-3 0  9996
2 64641  88.8631 280.9629 0116862 266.9209  91.8596 14.05167586 77893
CZ-6A DEB
1 64641U 24140AEF 26049.93292562  .00001237  00000-0  71371-3 0  9996
2 64641  88.8631 280.9629 0116862 266.9209  91.8596 14.05167586 77893
CZ-6A DEB
1 64641U 24140AEF 26052.06923863  .00001273  00000-0  73480-3 0  9992
2 64641  88.8631 280.6935 0116930 260.1373  98.6592 14.05173337 78190
CZ-6A DEB
1 64641U 24140AEF 26052.06923863  .00001273  00000-0  73480-3 0  9992
2 64641  88.8631 280.6935 0116930 260.1373  98.6592 14.05173337 78190
CZ-6A DEB
1 64641U 24140AEF 26053.06618298  .00001214  00000-0  70013-3 0  9990
2 64641  88.8598 280.5640 0116969 256.8646 101.9462 14.05175628 78336
CZ-6A DEB
1 64641U 24140AEF 26053.06618298  .00001214  00000-0  70013-3 0  9990
2 64641  88.8598 280.5640 0116969 256.8646 101.9462 14.05175628 78336
CZ-6A DEB
1 64641U 24140AEF 26055.55853792  .00001386  00000-0  80004-3 0  9997
2 64641  88.8607 280.2515 0117083 248.8534 110.0103 14.05183487 78683
CZ-6A DEB
1 64641U 24140AEF 26055.55853793  .00001386  00000-0  80004-3 0  9998
2 64641  88.8607 280.2515 0117083 248.8534 110.0103 14.05183487 78683
CZ-6A DEB
1 64641U 24140AEF 26057.05394810  .00001331  00000-0  76801-3 0  9995
2 64641  88.8604 280.0626 0117176 244.0532 114.8538 14.05187210 78895
CZ-6A DEB
1 64641U 24140AEF 26057.05394811  .00001331  00000-0  76801-3 0  9996
2 64641  88.8604 280.0626 0117176 244.0532 114.8538 14.05187210 78895
CZ-6A DEB
1 64641U 24140AEF 26058.54935501  .00001467  00000-0  84713-3 0  9999
2 64641  88.8605 279.8745 0117238 239.2582 119.7012 14.05192170 79101
CZ-6A DEB
1 64641U 24140AEF 26058.54935502  .00001467  00000-0  84713-3 0  9990
2 64641  88.8605 279.8745 0117238 239.2582 119.7012 14.05192170 79101
CZ-6A DEB
1 64641U 24140AEF 26059.04782294  .00001515  00000-0  87507-3 0  9992
2 64641  88.8607 279.8118 0117261 237.6542 121.3246 14.05193970 79175
CZ-6A DEB
1 64641U 24140AEF 26059.04782295  .00001515  00000-0  87507-3 0  9993
2 64641  88.8607 279.8118 0117261 237.6542 121.3246 14.05193970 79175
CZ-6A DEB
1 64641U 24140AEF 26060.54322477  .00001643  00000-0  94898-3 0  9995
2 64641  88.8613 279.6243 0117464 232.8856 126.1548 14.05199163 79380
CZ-6A DEB
1 64641U 24140AEF 26060.54322478  .00001643  00000-0  94898-3 0  9996
2 64641  88.8613 279.6243 0117464 232.8856 126.1548 14.05199163 79380
CZ-6A DEB
1 64641U 24140AEF 26061.04169142  .00001615  00000-0  93279-3 0  9990
2 64641  88.8614 279.5615 0117510 231.2890 127.7740 14.05200517 79451
CZ-6A DEB
1 64641U 24140AEF 26061.04169143  .00001615  00000-0  93279-3 0  9991
2 64641  88.8614 279.5615 0117510 231.2890 127.7740 14.05200517 79451
CZ-6A DEB
1 64641U 24140AEF 26062.03862314  .00001672  00000-0  96557-3 0  9996
2 64641  88.8613 279.4358 0117667 228.1066 131.0034 14.05203922 79598
CZ-6A DEB
1 64641U 24140AEF 26062.03862314  .00001672  00000-0  96557-3 0  9996
2 64641  88.8613 279.4358 0117667 228.1066 131.0034 14.05203922 79598
CZ-6A DEB
1 64641U 24140AEF 26063.03555278  .00001906  00000-0  11015-2 0  9990
2 64641  88.8611 279.3099 0117771 224.9159 134.2449 14.05208494 79730
CZ-6A DEB
1 64641U 24140AEF 26063.03555279  .00001906  00000-0  11015-2 0  9991
2 64641  88.8611 279.3100 0117771 224.9159 134.2449 14.05208494 79733
CZ-6A DEB
1 64641U 24140AEF 26066.02633089  .00001739  00000-0  10034-2 0  9993
2 64641  88.8607 278.9331 0118135 215.3801 143.9503 14.05217879 80155
CZ-6A DEB
1 64641U 24140AEF 26066.02633090  .00001739  00000-0  10034-2 0  9995
2 64641  88.8607 278.9331 0118135 215.3801 143.9503 14.05217879 80155
CZ-6A DEB
1 64641U 24140AEF 26067.02325184  .00001979  00000-0  11427-2 0  9991
2 64641  88.8607 278.8075 0118331 212.2207 147.1708 14.05222912 80295
CZ-6A DEB
1 64641U 24140AEF 26067.02325185  .00001979  00000-0  11427-2 0  9992
2 64641  88.8607 278.8075 0118331 212.2207 147.1708 14.05222912 80295
CZ-6A DEB
1 64641U 24140AEF 26067.87775585  .00001894  00000-0  10933-2 0  9995
2 64641  88.8603 278.6991 0118143 209.4285 150.0212 14.05225547 80415
CZ-6A DEB
1 64641U 24140AEF 26068.02017274  .00001865  00000-0  10764-2 0  9997
2 64641  88.8606 278.6818 0118216 208.9984 150.4598 14.05225853 80430
CZ-6A DEB
1 64641U 24140AEF 26072.00783074  .00001764  00000-0  10169-2 0  9995
2 64641  88.8610 278.1800 0118710 196.3343 163.4001 14.05239521 80990
CZ-6A DEB
1 64641U 24140AEF 26077.27718468  .00001568  00000-0  90177-3 0  9994
2 64641  88.8598 277.5132 0119405 179.7149 180.4123 14.05255774 81732
CZ-6A DEB
1 64641U 24140AEF 26077.27718468  .00001568  00000-0  90177-3 0  9994
2 64641  88.8598 277.5132 0119405 179.7149 180.4123 14.05255774 81732
CZ-6A DEB
1 64641U 24140AEF 26078.98615363  .00001481  00000-0  85065-3 0  9997
2 64641  88.8595 277.2981 0119626 174.2635 185.9950 14.05260166 81978
CZ-6A DEB
1 64641U 24140AEF 26078.98615364  .00001481  00000-0  85065-3 0  9998
2 64641  88.8595 277.2981 0119626 174.2636 185.9950 14.05260166 81979
CZ-6A DEB
1 64641U 24140AEF 26085.96436291  .00001752  00000-0  10063-2 0  9990
2 64641  88.8598 276.4185 0120486 152.4839 208.2792 14.05284214 82950
CZ-6A DEB
1 64641U 24140AEF 26085.96436291  .00001752  00000-0  10063-2 0  9990
2 64641  88.8598 276.4185 0120486 152.4839 208.2792 14.05284214 82950
CZ-6A DEB
1 64641U 24140AEF 26089.95184441  .00002214  00000-0  12733-2 0  9990
2 64641  88.8604 275.9155 0120819 140.0470 220.9681 14.05302165 83510
CZ-6A DEB
1 64641U 24140AEF 26090.94870433  .00002284  00000-0  13138-2 0  9991
2 64641  88.8613 275.7894 0120790 137.0957 223.9726 14.05306905 83656
CZ-6A DEB
1 64641U 24140AEF 26090.94870434  .00002284  00000-0  13138-2 0  9992
2 64641  88.8613 275.7894 0120790 137.0957 223.9726 14.05306905 83656
CZ-6A DEB
1 64641U 24140AEF 26093.93925944  .00002771  00000-0  15949-2 0  9994
2 64641  88.8614 275.4127 0120824 127.9636 233.2536 14.05324145 84079
CZ-6A DEB
1 64641U 24140AEF 26094.93610346  .00002461  00000-0  14150-2 0  9991
2 64641  88.8603 275.2866 0120932 124.9150 236.3467 14.05327888 84213
CZ-6A DEB
1 64641U 24140AEF 26095.93294436  .00002379  00000-0  13672-2 0  9996
2 64641  88.8618 275.1600 0121062 121.6219 239.6843 14.05334505 84352
CZ-6A DEB
1 64641U 24140AEF 26096.92977782  .00002147  00000-0  12335-2 0  9996
2 64641  88.8620 275.0344 0120934 118.7205 242.6193 14.05337877 84490
CZ-6A DEB
1 64641U 24140AEF 26097.21458706  .00002087  00000-0  11984-2 0  9991
2 64641  88.8621 274.9991 0120900 117.8300 243.5195 14.05338718 84538
CZ-6A DEB
1 64641U 24140AEF 26097.42819388  .00002060  00000-0  11830-2 0  9992
2 64641  88.8603 274.9724 0120900 117.1726 244.1841 14.05339449 84567
CZ-6A DEB
1 64641U 24140AEF 26098.21141803  .00001773  00000-0  10170-2 0  9996
2 64641  88.8616 274.8739 0120859 114.7854 246.5958 14.05341610 84674
CZ-6A DEB
1 64641U 24140AEF 26099.49305407  .00001828  00000-0  10486-2 0  9990
2 64641  88.8608 274.7119 0120869 110.7835 250.6346 14.05346055 84857
CZ-6A DEB
1 64641U 24140AEF 26099.49305408  .00001828  00000-0  10486-2 0  9991
2 64641  88.8608 274.7119 0120869 110.7835 250.6346 14.05346055 84857
CZ-6A DEB
1 64641U 24140AEF 26100.91708683  .00001796  00000-0  10301-2 0  9993
2 64641  88.8611 274.5323 0120815 106.3831 255.0673 14.05351135 85054
CZ-6A DEB
1 64641U 24140AEF 26100.91708684  .00001796  00000-0  10301-2 0  9994
2 64641  88.8611 274.5323 0120815 106.3831 255.0673 14.05351135 85054
CZ-6A DEB
1 64641U 24140AEF 26102.91072362  .00001360  00000-0  77835-3 0  9996
2 64641  88.8635 274.2833 0120350 100.4495 261.0275 14.05355509 85333
CZ-6A DEB
1 64641U 24140AEF 26102.91072363  .00001360  00000-0  77835-3 0  9997
2 64641  88.8635 274.2833 0120350 100.4495 261.0275 14.05355509 85333
CZ-6A DEB
1 64641U 24140AEF 26104.90435360  .00001233  00000-0  70471-3 0  9996
2 64641  88.8619 274.0303 0120133  94.1825 267.3097 14.05359194 85616
CZ-6A DEB
1 64641U 24140AEF 26104.90435361  .00001233  00000-0  70471-3 0  9997
2 64641  88.8619 274.0303 0120133  94.1825 267.3097 14.05359194 85616
CZ-6A DEB
1 64641U 24140AEF 26106.18596779  .00001209  00000-0  69102-3 0  9992
2 64641  88.8621 273.8689 0120126  90.1599 271.3348 14.05362008 85790
CZ-6A DEB
1 64641U 24140AEF 26106.18596780  .00001209  00000-0  69102-3 0  9994
2 64641  88.8621 273.8689 0120126  90.1599 271.3348 14.05362008 85790
CZ-6A DEB
1 64641U 24140AEF 26107.89477951  .00001220  00000-0  69760-3 0  9994
2 64641  88.8635 273.6553 0119790  84.9213 276.5629 14.05365811 86034
CZ-6A DEB
1 64641U 24140AEF 26109.17638483  .00001196  00000-0  68344-3 0  9995
2 64641  88.8626 273.4925 0119701  80.8967 280.5736 14.05368315 86214
CZ-6A DEB
1 64641U 24140AEF 26109.17638483  .00001196  00000-0  68344-3 0  9995
2 64641  88.8626 273.4925 0119701  80.8967 280.5736 14.05368315 86214
CZ-6A DEB
1 64641U 24140AEF 26109.88838550  .00001178  00000-0  67328-3 0  9991
2 64641  88.8630 273.4033 0119548  78.7015 282.7572 14.05369792 86311
CZ-6A DEB
1 64641U 24140AEF 26109.88838550  .00001178  00000-0  67328-3 0  9991
2 64641  88.8630 273.4033 0119548  78.7015 282.7572 14.05369792 86311
CZ-6A DEB
1 64641U 24140AEF 26109.88838550  .00001178  00000-0  67328-3 0  9991
2 64641  88.8630 273.4033 0119548  78.7015 282.7572 14.05369792 86311
CZ-6A DEB
1 64641U 24140AEF 26114.87235730  .00001169  00000-0  66872-3 0  9990
2 64641  88.8638 272.7761 0118565  63.1627 298.1620 14.05381118 87013
CZ-6A DEB
1 64641U 24140AEF 26115.86914512  .00001301  00000-0  74516-3 0  9994
2 64641  88.8626 272.6496 0118606  60.0227 301.2665 14.05384214 87152
CZ-6A DEB
1 64641U 24140AEF 26116.86592977  .00001241  00000-0  71094-3 0  9993
2 64641  88.8633 272.5247 0118352  56.9009 304.3468 14.05386243 87297
CZ-6A DEB
1 64641U 24140AEF 26116.86592978  .00001241  00000-0  71094-3 0  9994
2 64641  88.8633 272.5247 0118352  56.9009 304.3468 14.05386243 87297
CZ-6A DEB
1 64641U 24140AEF 26117.86270978  .00001254  00000-0  71859-3 0  9991
2 64641  88.8648 272.4003 0117643  53.7600 307.4386 14.05388958 87430
CZ-6A DEB
1 64641U 24140AEF 26117.86270979  .00001254  00000-0  71859-3 0  9992
2 64641  88.8648 272.4003 0117643  53.7600 307.4386 14.05388958 87430
CZ-6A DEB
1 64641U 24140AEF 26118.85949003  .00001185  00000-0  67912-3 0  9991
2 64641  88.8646 272.2748 0117429  50.6134 310.5377 14.05390908 87570
CZ-6A DEB
1 64641U 24140AEF 26118.85949004  .00001185  00000-0  67912-3 0  9992
2 64641  88.8646 272.2748 0117429  50.6134 310.5377 14.05390908 87570
CZ-6A DEB
1 64641U 24140AEF 26119.85626684  .00001171  00000-0  67095-3 0  9996
2 64641  88.8649 272.1493 0116964  47.4296 313.6684 14.05393307 87712
CZ-6A DEB
1 64641U 24140AEF 26119.85626685  .00001171  00000-0  67095-3 0  9997
2 64641  88.8649 272.1493 0116964  47.4296 313.6684 14.05393307 87712
CZ-6A DEB
1 64641U 24140AEF 26120.42585718  .00001144  00000-0  65527-3 0  9991
2 64641  88.8638 272.0771 0117718  45.6804 315.3955 14.05394132 87796
CZ-6A DEB
1 64641U 24140AEF 26120.42585718  .00001144  00000-0  65527-3 0  9991
2 64641  88.8638 272.0771 0117718  45.6804 315.3955 14.05394132 87796
CZ-6A DEB
1 64641U 24140AEF 26120.85304631  .00001133  00000-0  64892-3 0  9993
2 64641  88.8638 272.0234 0117596  44.3348 316.7177 14.05395100 87857
CZ-6A DEB
1 64641U 24140AEF 26121.84981980  .00001097  00000-0  62792-3 0  9997
2 64641  88.8638 271.8978 0117383  41.1711 319.8251 14.05397256 87998
CZ-6A DEB
1 64641U 24140AEF 26121.84981981  .00001097  00000-0  62792-3 0  9998
2 64641  88.8638 271.8978 0117383  41.1711 319.8251 14.05397256 87998
CZ-6A DEB
1 64641U 24140AEF 26122.84659132  .00001083  00000-0  62000-3 0  9996
2 64641  88.8639 271.7724 0117171  38.0084 322.9292 14.05399451 88136
CZ-6A DEB
1 64641U 24140AEF 26122.84659133  .00001083  00000-0  62000-3 0  9997
2 64641  88.8639 271.7724 0117171  38.0084 322.9292 14.05399451 88136
CZ-6A DEB
1 64641U 24140AEF 26123.41617432  .00001088  00000-0  62298-3 0  9991
2 64641  88.8641 271.7012 0117081  36.2093 324.6941 14.05400738 88219
CZ-6A DEB
1 64641U 24140AEF 26123.41617432  .00001088  00000-0  62298-3 0  9991
2 64641  88.8641 271.7012 0117080  36.2093 324.6941 14.05400738 88218
CZ-6A DEB
1 64641U 24140AEF 26124.84012904  .00000986  00000-0  56409-3 0  9995
2 64641  88.8647 271.5224 0116775  31.6766 329.1373 14.05403212 88414
CZ-6A DEB
1 64641U 24140AEF 26124.84012905  .00000986  00000-0  56409-3 0  9996
2 64641  88.8647 271.5224 0116775  31.6766 329.1373 14.05403212 88414
CZ-6A DEB
1 64641U 24140AEF 26125.83689499  .00000997  00000-0  57076-3 0  9997
2 64641  88.8647 271.3972 0116578  28.5069 332.2421 14.05405406 88555
CZ-6A DEB
1 64641U 24140AEF 26125.83689499  .00000997  00000-0  57076-3 0  9997
2 64641  88.8647 271.3972 0116578  28.5069 332.2421 14.05405406 88555
CZ-6A DEB
1 64641U 24140AEF 26126.83365919  .00000919  00000-0  52564-3 0  9997
2 64641  88.8643 271.2721 0116326  25.3168 335.3651 14.05407041 88699
CZ-6A DEB
1 64641U 24140AEF 26126.83365919  .00000919  00000-0  52564-3 0  9997
2 64641  88.8643 271.2721 0116326  25.3168 335.3651 14.05407041 88699
CZ-6A DEB
1 64641U 24140AEF 26128.82718388  .00000803  00000-0  45826-3 0  9995
2 64641  88.8625 271.0208 0115914  18.9314 341.6123 14.05410017 88972
CZ-6A DEB
1 64641U 24140AEF 26128.82718388  .00000803  00000-0  45826-3 0  9995
2 64641  88.8625 271.0208 0115914  18.9314 341.6123 14.05410017 88972
CZ-6A DEB
1 64641U 24140AEF 26129.82394459  .00000705  00000-0  40170-3 0  9993
2 64641  88.8631 270.8958 0115723  15.7256 344.7470 14.05411064 89115
CZ-6A DEB
1 64641U 24140AEF 26129.82394460  .00000705  00000-0  40170-3 0  9995
2 64641  88.8631 270.8958 0115723  15.7256 344.7471 14.05411064 89116
CZ-6A DEB
1 64641U 24140AEF 26130.82070424  .00000645  00000-0  36689-3 0  9991
2 64641  88.8636 270.7710 0115520  12.5097 347.8908 14.05412170 89252
CZ-6A DEB
1 64641U 24140AEF 26130.82070424  .00000645  00000-0  36689-3 0  9991
2 64641  88.8636 270.7710 0115520  12.5097 347.8908 14.05412169 89250
CZ-6A DEB
1 64641U 24140AEF 26131.10549310  .00000630  00000-0  35788-3 0  9991
2 64641  88.8643 270.7352 0115557  11.6152 348.7654 14.05412396 89296
CZ-6A DEB
1 64641U 24140AEF 26131.10549311  .00000630  00000-0  35788-3 0  9992
2 64641  88.8643 270.7352 0115557  11.6152 348.7654 14.05412396 89296
CZ-6A DEB
1 64641U 24140AEF 26131.81746353  .00000585  00000-0  33216-3 0  9998
2 64641  88.8645 270.6465 0115381   9.3141 351.0142 14.05413056 89393
CZ-6A DEB
1 64641U 24140AEF 26131.81746354  .00000585  00000-0  33216-3 0  9999
2 64641  88.8645 270.6465 0115381   9.3141 351.0142 14.05413056 89393
CZ-6A DEB
1 64641U 24140AEF 26134.80773606  .00000533  00000-0  30219-3 0  9994
2 64641  88.8645 270.2707 0114869 359.6161   0.4913 14.05415844 89816
CZ-6A DEB
1 64641U 24140AEF 26135.80454027 -.00000039  00000-0  00000-0 0  9992
2 64641  88.8768 270.1457 0118820 359.9542   0.2080 14.05410103 89951
CZ-6A DEB
1 64641U 24140AEF 26136.80124819  .00000520  00000-0  29459-3 0  9992
2 64641  88.8646 270.0201 0114580 353.1342   6.8263 14.05417535 90093
CZ-6A DEB
1 64641U 24140AEF 26136.80124820  .00000520  00000-0  29459-3 0  9994
2 64641  88.8646 270.0201 0114580 353.1342   6.8263 14.05417535 90093
CZ-6A DEB
1 64641U 24140AEF 26137.79800382  .00000508  00000-0  28780-3 0  9999
2 64641  88.8649 269.8949 0114473 349.9116   9.9768 14.05418295 90238
CZ-6A DEB
1 64641U 24140AEF 26137.79800382  .00000508  00000-0  28780-3 0  9999
2 64641  88.8649 269.8949 0114473 349.9115   9.9768 14.05418295 90237
CZ-6A DEB
1 64641U 24140AEF 26138.79475823  .00000523  00000-0  29643-3 0  9994
2 64641  88.8652 269.7701 0114316 346.6228  13.1928 14.05419284 90370
CZ-6A DEB
1 64641U 24140AEF 26138.79475824  .00000523  00000-0  29643-3 0  9995
2 64641  88.8652 269.7701 0114316 346.6228  13.1928 14.05419284 90370
CZ-6A DEB
1 64641U 24140AEF 26139.79151242  .00000513  00000-0  29074-3 0  9998
2 64641  88.8655 269.6450 0114208 343.3693  16.3754 14.05420178 90515
CZ-6A DEB
1 64641U 24140AEF 26139.79151243  .00000513  00000-0  29074-3 0  9999
2 64641  88.8655 269.6450 0114208 343.3693  16.3754 14.05420178 90515
CZ-6A DEB
1 64641U 24140AEF 26140.78826656  .00000507  00000-0  28717-3 0  9993
2 64641  88.8655 269.5196 0114150 340.1559  19.5199 14.05421088 90657
CZ-6A DEB
1 64641U 24140AEF 26141.78502024  .00000513  00000-0  29113-3 0  9992
2 64641  88.8664 269.3950 0114094 336.9429  22.6654 14.05422120 90793
CZ-6A DEB
1 64641U 24140AEF 26141.78502025  .00000513  00000-0  29113-3 0  9993
2 64641  88.8664 269.3950 0114094 336.9429  22.6654 14.05422120 90793
CZ-6A DEB
1 64641U 24140AEF 26142.78177329  .00000549  00000-0  31172-3 0  9996
2 64641  88.8665 269.2697 0114048 333.7347  25.8077 14.05423381 90934
CZ-6A DEB
1 64641U 24140AEF 26143.77852499  .00000552  00000-0  31352-3 0  9998
2 64641  88.8665 269.1445 0113977 330.4324  29.0444 14.05424570 91074
CZ-6A DEB
1 64641U 24140AEF 26144.77527380  .00000625  00000-0  35645-3 0  9997
2 64641  88.8668 269.0195 0113901 326.9024  32.5064 14.05426469 91214
CZ-6A DEB
1 64641U 24140AEF 26146.05681287  .00000677  00000-0  38675-3 0  9990
2 64641  88.8665 268.8589 0113838 322.9945  36.3422 14.05428219 91396
CZ-6A DEB
1 64641U 24140AEF 26146.76877697  .00000730  00000-0  41732-3 0  9998
2 64641  88.8665 268.7695 0113840 320.6523  38.6427 14.05429564 91498
CZ-6A DEB
1 64641U 24140AEF 26149.75902104  .00000952  00000-0  54666-3 0  9998
2 64641  88.8647 268.3933 0113878 310.8603  48.2751 14.05436020 91919
CZ-6A DEB
1 64641U 24140AEF 26150.75576727  .00001060  00000-0  60919-3 0  9997
2 64641  88.8653 268.2681 0113880 307.6312  51.4577 14.05438635 92051
CZ-6A DEB
1 64641U 24140AEF 26150.75576727  .00001060  00000-0  60919-3 0  9997
2 64641  88.8653 268.2681 0113880 307.6311  51.4577 14.05438635 92050
CZ-6A DEB
1 64641U 24140AEF 26151.75251194  .00001104  00000-0  63521-3 0  9997
2 64641  88.8652 268.1429 0113923 304.3548  54.6897 14.05441100 92198
CZ-6A DEB
1 64641U 24140AEF 26151.75251195  .00001104  00000-0  63521-3 0  9998
2 64641  88.8652 268.1429 0113923 304.3548  54.6897 14.05441100 92198
CZ-6A DEB
1 64641U 24140AEF 26157.02100806  .00001126  00000-0  64730-3 0  9993
2 64641  88.8659 267.4811 0114038 287.3464  71.5270 14.05452960 92938
CZ-6A DEB
1 64641U 24140AEF 26157.02100806  .00001126  00000-0  64730-3 0  9993
2 64641  88.8659 267.4810 0114038 287.3464  71.5270 14.05452960 92937
CZ-6A DEB
1 64641U 24140AEF 26157.02100806  .00001126  00000-0  64730-3 0  9993
2 64641  88.8659 267.4811 0114038 287.3464  71.5270 14.05452960 92938
CZ-6A DEB
1 64641U 24140AEF 26161.57752718  .00000978  00000-0  56125-3 0  9996
2 64641  88.8665 266.9093 0114505 272.5302  86.2776 14.05461847 93576
CZ-6A DEB
1 64641U 24140AEF 26166.56120231  .00001071  00000-0  61465-3 0  9997
2 64641  88.8667 266.2835 0114894 256.5035 102.3324 14.05473148 94275
CZ-6A DEB
1 64641U 24140AEF 26166.56120232  .00001071  00000-0  61465-3 0  9998
2 64641  88.8667 266.2835 0114894 256.5035 102.3324 14.05473148 94275
CZ-6A DEB
1 64641U 24140AEF 26169.97856977  .00001046  00000-0  59987-3 0  9996
2 64641  88.8667 265.8550 0115406 245.4646 113.4471 14.05480193 94756
CZ-6A DEB
1 64641U 24140AEF 26169.97856978  .00001046  00000-0  59987-3 0  9997
2 64641  88.8667 265.8550 0115406 245.4646 113.4471 14.05480193 94756
CZ-6A DEB
1 64641U 24140AEF 26172.54158894  .00001032  00000-0  59122-3 0  9992
2 64641  88.8670 265.5342 0115887 237.2096 121.7881 14.05485699 95111
CZ-6A DEB
1 64641U 24140AEF 26172.54158894  .00001032  00000-0  59122-3 0  9992
2 64641  88.8670 265.5342 0115887 237.2096 121.7881 14.05485699 95111
CZ-6A DEB
1 64641U 24140AEF 26176.52849530  .00001363  00000-0  78242-3 0  9999
2 64641  88.8663 265.0323 0116307 224.5512 134.6277 14.05496639 95676
CZ-6A DEB
1 64641U 24140AEF 26176.52849531  .00001363  00000-0  78242-3 0  9990
2 64641  88.8663 265.0323 0116307 224.5512 134.6277 14.05496639 95676
CZ-6A DEB
1 64641U 24140AEF 26179.51866095  .00001424  00000-0  81732-3 0  9992
2 64641  88.8663 264.6565 0116647 215.0441 144.3028 14.05504980 96090
CZ-6A DEB
1 64641U 24140AEF 26180.94254405  .00001572  00000-0  90232-3 0  9996
2 64641  88.8672 264.4803 0117133 210.4784 148.9557 14.05509894 96291
CZ-6A DEB
1 64641U 24140AEF 26181.65448465  .00001515  00000-0  86902-3 0  9992
2 64641  88.8673 264.3909 0117236 208.2273 151.2524 14.05511624 96396
CZ-6A DEB
1 64641U 24140AEF 26181.65448466  .00001515  00000-0  86902-3 0  9993
2 64641  88.8673 264.3909 0117236 208.2273 151.2524 14.05511624 96396
CZ-6A DEB
1 64641U 24140AEF 26183.64791266  .00001717  00000-0  98569-3 0  9999
2 64641  88.8675 264.1411 0117558 201.9270 157.6860 14.05518667 96676
CZ-6A DEB
1 64641U 24140AEF 26183.64791267  .00001717  00000-0  98569-3 0  9990
2 64641  88.8675 264.1411 0117558 201.9270 157.6860 14.05518667 96676
CZ-6A DEB
1 64641U 24140AEF 26184.64462392  .00001724  00000-0  98962-3 0  9990
2 64641  88.8679 264.0165 0117738 198.7855 160.8966 14.05521724 96814
CZ-6A DEB
1 64641U 24140AEF 26184.64462393  .00001724  00000-0  98962-3 0  9991
2 64641  88.8679 264.0165 0117739 198.7855 160.8966 14.05521725 96816
CZ-6A DEB
1 64641U 24140AEF 26195.46593367  .00001008  00000-0  57366-3 0  9997
2 64641  88.8686 262.6607 0119123 164.7837 195.6980 14.05548835 98333
CZ-6A DEB
1 64641U 24140AEF 26197.17454404  .00000948  00000-0  53870-3 0  9993
2 64641  88.8692 262.4475 0119395 159.4979 201.1056 14.05552079 98578
CZ-6A DEB
1 64641U 24140AEF 26197.17454405  .00000948  00000-0  53870-3 0  9994
2 64641  88.8692 262.4475 0119395 159.4979 201.1056 14.05552079 98578
CZ-6A DEB
1 64641U 24140AEF 26198.17123062  .00000947  00000-0  53794-3 0  9991
2 64641  88.8689 262.3232 0119773 156.3983 204.2759 14.05554158 98715
CZ-6A DEB
1 64641U 24140AEF 26198.17123063  .00000947  00000-0  53794-3 0  9992
2 64641  88.8689 262.3232 0119773 156.3983 204.2759 14.05554158 98715
CZ-6A DEB
1 64641U 24140AEF 26198.45599823  .00000938  00000-0  53288-3 0  9992
2 64641  88.8689 262.2868 0119629 155.5067 205.1864 14.05554706 98753
CZ-6A DEB
1 64641U 24140AEF 26198.45599824  .00000938  00000-0  53288-3 0  9993
2 64641  88.8689 262.2868 0119629 155.5067 205.1864 14.05554706 98753
CZ-6A DEB
1 64641U 24140AEF 26199.45268316  .00000928  00000-0  52711-3 0  9992
2 64641  88.8685 262.1605 0119565 152.3691 208.3915 14.05556720 98899
CZ-6A DEB
1 64641U 24140AEF 26200.44936625  .00000925  00000-0  52504-3 0  9996
2 64641  88.8685 262.0358 0119686 149.2597 211.5668 14.05558690 99033
CZ-6A DEB
1 64641U 24140AEF 26201.44604756  .00000964  00000-0  54768-3 0  9991
2 64641  88.8685 261.9110 0119772 146.1520 214.7382 14.05560860 99170
CZ-6A DEB
1 64641U 24140AEF 26202.15796152  .00001108  00000-0  63050-3 0  9997
2 64641  88.8679 261.8207 0119743 143.9325 217.0012 14.05563065 99272
CZ-6A DEB
1 64641U 24140AEF 26214.40267374  .00001097  00000-0  62329-3 0  9992
2 64641  88.8695 260.2906 0120473 105.9202 255.5294 14.05595661100991
CZ-6A DEB
1 64641U 24140AEF 26215.39931953  .00001111  00000-0  63132-3 0  9992
2 64641  88.8677 260.1614 0120414 102.7160 258.7514 14.05598431101134
CZ-6A DEB
1 64641U 24140AEF 26218.38924291  .00000863  00000-0  48814-3 0  9994
2 64641  88.8670 259.7849 0120430  93.3617 268.1350 14.05603857101559
CZ-6A DEB
1 64641U 24140AEF 26221.37914844  .00000768  00000-0  43341-3 0  9994
2 64641  88.8661 259.4077 0120486  84.0073 277.4824 14.05608794101973
CZ-6A DEB
1 64641U 24140AEF 26221.37914844  .00000768  00000-0  43341-3 0  9994
2 64641  88.8661 259.4077 0120486  84.0073 277.4824 14.05608794101973
CZ-6A DEB
1 64641U 24140AEF 26227.07416324  .00000734  00000-0  41398-3 0  9990
2 64641  88.8686 258.6983 0120299  66.4349 294.9414 14.05616585102774
CZ-6A DEB
1 64641U 24140AEF 26227.07416325  .00000734  00000-0  41398-3 0  9991
2 64641  88.8686 258.6983 0120299  66.4349 294.9414 14.05616585102774
CZ-6A DEB
1 64641U 24140AEF 26228.07078522  .00000739  00000-0  41674-3 0  9997
2 64641  88.8678 258.5727 0120203  63.3205 298.0225 14.05617912102918
CZ-6A DEB
1 64641U 24140AEF 26228.07078522  .00000739  00000-0  41674-3 0  9997
2 64641  88.8678 258.5727 0120203  63.3205 298.0225 14.05617912102918
CZ-6A DEB
1 64641U 24140AEF 26228.35553441  .00000760  00000-0  42909-3 0  9992
2 64641  88.8677 258.5372 0120242  62.4351 298.8984 14.05618300102954
CZ-6A DEB
1 64641U 24140AEF 26229.06740591  .00000773  00000-0  43682-3 0  9998
2 64641  88.8670 258.4472 0120182  60.2037 301.1032 14.05619311103054
CZ-6A DEB
1 64641U 24140AEF 26230.06402453  .00000824  00000-0  46586-3 0  9995
2 64641  88.8665 258.3217 0120120  57.0924 304.1746 14.05620938103192
CZ-6A DEB
1 64641U 24140AEF 26232.05725612  .00000973  00000-0  55202-3 0  9991
2 64641  88.8656 258.0704 0120052  50.8645 310.3134 14.05624777103471
CZ-6A DEB
1 64641U 24140AEF 26233.05386904  .00001001  00000-0  56790-3 0  9995
2 64641  88.8647 257.9441 0120026  47.7248 313.4035 14.05626620103611
CZ-6A DEB
1 64641U 24140AEF 26234.05048012  .00000992  00000-0  56303-3 0  9999
2 64641  88.8652 257.8205 0119912  44.7018 316.3753 14.05628264103758
CZ-6A DEB
1 64641U 24140AEF 26235.04708925  .00000991  00000-0  56269-3 0  9995
2 64641  88.8652 257.6952 0119858  41.6010 319.4215 14.05630083103896
CZ-6A DEB
1 64641U 24140AEF 26237.04030162  .00000999  00000-0  56711-3 0  9998
2 64641  88.8664 257.4476 0119648  35.5517 325.3562 14.05633938104174
CZ-6A DEB
1 64641U 24140AEF 26237.32504535  .00001055  00000-0  59970-3 0  9993
2 64641  88.8661 257.4110 0119591  34.5539 326.3341 14.05634868104210
CZ-6A DEB
1 64641U 24140AEF 26237.32504535  .00001055  00000-0  59970-3 0  9993
2 64641  88.8661 257.4110 0119591  34.5539 326.3341 14.05634868104210
CZ-6A DEB
1 64641U 24140AEF 26241.31144551  .00001121  00000-0  63827-3 0  9995
2 64641  88.8666 256.9119 0119113  22.1293 338.4969 14.05643259104773
CZ-6A DEB
1 64641U 24140AEF 26241.31144551  .00001121  00000-0  63827-3 0  9995
2 64641  88.8666 256.9119 0119113  22.1293 338.4969 14.05643258104772
CZ-6A DEB
1 64641U 24140AEF 26243.30463529  .00000991  00000-0  56326-3 0  9995
2 64641  88.8663 256.6614 0118901  15.9083 344.5781 14.05646627105052
CZ-6A DEB
1 64641U 24140AEF 26243.30463530  .00000991  00000-0  56326-3 0  9997
2 64641  88.8663 256.6614 0118901  15.9083 344.5781 14.05646627105052
CZ-6A DEB
1 64641U 24140AEF 26244.30122781  .00000919  00000-0  52207-3 0  9992
2 64641  88.8662 256.5361 0118806  12.7748 347.6398 14.05648254105197
CZ-6A DEB
1 64641U 24140AEF 26244.30122782  .00000919  00000-0  52207-3 0  9993
2 64641  88.8662 256.5361 0118806  12.7748 347.6398 14.05648255105198
CZ-6A DEB
1 64641U 24140AEF 26244.30122782  .00000919  00000-0  52207-3 0  9993
2 64641  88.8662 256.5361 0118806  12.7748 347.6398 14.05648255105198
