CZ-6A R/B DEB
1 64640U 24140AEE 25177.34955902  .00001672  00000-0  74936-3 0  9998
2 64640  89.0141 315.1590 0044524 258.8421 100.7763 14.21583908 39858
TBA - TO BE ASSIGNED
1 64640U 24140AEE 25177.34955902  .00001672  00000-0  74936-3 0  9998
2 64640  89.0141 315.1590 0044524 258.8421 100.7763 14.21583908 39858
CZ-6A R/B DEB
1 64640U 24140AEE 25181.85442993  .00001747  00000-0  78300-3 0  9992
2 64640  89.0140 314.6531 0044957 243.4185 116.2395 14.21599311 40493
CZ-6A R/B DEB
1 64640U 24140AEE 25181.85442993  .00001747  00000-0  78300-3 0  9992
2 64640  89.0140 314.6531 0044957 243.4185 116.2395 14.21599311 40493
CZ-6A R/B DEB
1 64640U 24140AEE 25182.83986424  .00001937  00000-0  86877-3 0  9992
2 64640  89.0141 314.5425 0045057 240.0761 119.5952 14.21603894 40633
CZ-6A R/B DEB
1 64640U 24140AEE 25183.33258084  .00001844  00000-0  82687-3 0  9994
2 64640  89.0141 314.4873 0045118 238.4016 121.2767 14.21605128 40705
CZ-6A R/B DEB
1 64640U 24140AEE 25183.33258084  .00001844  00000-0  82687-3 0  9994
2 64640  89.0141 314.4873 0045118 238.4016 121.2767 14.21605128 40705
CZ-6A R/B DEB
1 64640U 24140AEE 25184.31801141  .00001921  00000-0  86126-3 0  9999
2 64640  89.0142 314.3768 0045234 235.0522 124.6417 14.21609292 40842
CZ-6A R/B DEB
1 64640U 24140AEE 25184.81072564  .00001947  00000-0  87281-3 0  9994
2 64640  89.0141 314.3216 0045295 233.3906 126.3115 14.21611380 40916
CZ-6A R/B DEB
1 64640U 24140AEE 25184.81072564  .00001947  00000-0  87281-3 0  9994
2 64640  89.0141 314.3216 0045295 233.3906 126.3115 14.21611380 40916
CZ-6A R/B DEB
1 64640U 24140AEE 25185.86654009  .00001970  00000-0  88304-3 0  9993
2 64640  89.0141 314.2031 0045439 229.8321 129.8887 14.21615638 41062
CZ-6A R/B DEB
1 64640U 24140AEE 25185.86654009  .00001970  00000-0  88304-3 0  9993
2 64640  89.0141 314.2031 0045439 229.8321 129.8887 14.21615638 41062
CZ-6A R/B DEB
1 64640U 24140AEE 25186.35925195  .00002082  00000-0  93392-3 0  9993
2 64640  89.0141 314.1478 0045511 228.1843 131.5458 14.21618371 41137
CZ-6A R/B DEB
1 64640U 24140AEE 25187.34467460  .00002023  00000-0  90701-3 0  9995
2 64640  89.0142 314.0373 0045660 224.8851 134.8645 14.21622093 41273
CZ-6A R/B DEB
1 64640U 24140AEE 25187.34467460  .00002023  00000-0  90701-3 0  9995
2 64640  89.0142 314.0373 0045660 224.8851 134.8645 14.21622093 41273
CZ-6A R/B DEB
1 64640U 24140AEE 25189.31551181  .00001853  00000-0  82993-3 0  9992
2 64640  89.0142 313.8160 0046004 218.2295 141.5631 14.21630264 41556
CZ-6A R/B DEB
1 64640U 24140AEE 25189.31551181  .00001853  00000-0  82993-3 0  9992
2 64640  89.0142 313.8160 0046004 218.2295 141.5631 14.21630264 41556
CZ-6A R/B DEB
1 64640U 24140AEE 25189.80821942  .00001775  00000-0  79478-3 0  9998
2 64640  89.0144 313.7607 0046098 216.6033 143.2006 14.21632071 41629
CZ-6A R/B DEB
1 64640U 24140AEE 25190.30092662  .00001712  00000-0  76612-3 0  9992
2 64640  89.0146 313.7055 0046173 214.9740 144.8417 14.21633783 41699
CZ-6A R/B DEB
1 64640U 24140AEE 25191.35672666  .00001721  00000-0  77018-3 0  9997
2 64640  89.0146 313.5873 0046292 211.5435 148.2980 14.21636803 41847
CZ-6A R/B DEB
1 64640U 24140AEE 25191.35672666  .00001721  00000-0  77018-3 0  9997
2 64640  89.0146 313.5873 0046292 211.5435 148.2980 14.21636803 41847
CZ-6A R/B DEB
1 64640U 24140AEE 25192.34213737  .00001634  00000-0  73071-3 0  9995
2 64640  89.0147 313.4768 0046458 208.3040 151.5626 14.21640005 41988
CZ-6A R/B DEB
1 64640U 24140AEE 25193.32754482  .00001831  00000-0  81947-3 0  9991
2 64640  89.0147 313.3664 0046602 205.0753 154.8175 14.21644908 42126
CZ-6A R/B DEB
1 64640U 24140AEE 25193.32754482  .00001831  00000-0  81947-3 0  9991
2 64640  89.0147 313.3664 0046602 205.0753 154.8175 14.21644908 42126
CZ-6A R/B DEB
1 64640U 24140AEE 25194.31295061  .00001876  00000-0  83958-3 0  9997
2 64640  89.0148 313.2559 0046758 201.8552 158.0646 14.21648722 42264
CZ-6A R/B DEB
1 64640U 24140AEE 25195.29835448  .00001808  00000-0  80906-3 0  9999
2 64640  89.0148 313.1453 0046924 198.6456 161.3018 14.21651789 42400
CZ-6A R/B DEB
1 64640U 24140AEE 25195.29835448  .00001808  00000-0  80906-3 0  9999
2 64640  89.0148 313.1453 0046924 198.6456 161.3018 14.21651789 42400
CZ-6A R/B DEB
1 64640U 24140AEE 25196.28375533  .00001908  00000-0  85402-3 0  9990
2 64640  89.0148 313.0347 0047077 195.4617 164.5139 14.21655975 42540
CZ-6A R/B DEB
1 64640U 24140AEE 25197.26915397  .00001859  00000-0  83160-3 0  9991
2 64640  89.0148 312.9243 0047237 192.2709 167.7336 14.21659359 42687
CZ-6A R/B DEB
1 64640U 24140AEE 25197.26915397  .00001859  00000-0  83160-3 0  9991
2 64640  89.0148 312.9243 0047237 192.2709 167.7336 14.21659359 42687
CZ-6A R/B DEB
1 64640U 24140AEE 25197.83223725  .00001904  00000-0  85170-3 0  9995
2 64640  89.0148 312.8611 0047329 190.4622 169.5589 14.21661873 42764
CZ-6A R/B DEB
1 64640U 24140AEE 25198.32493420  .00002028  00000-0  90767-3 0  9997
2 64640  89.0147 312.8058 0047400 188.8620 171.1740 14.21664620 42836
CZ-6A R/B DEB
1 64640U 24140AEE 25198.74724572  .00001928  00000-0  86256-3 0  9994
2 64640  89.0147 312.7585 0047467 187.5011 172.5476 14.21665765 42891
CZ-6A R/B DEB
1 64640U 24140AEE 25198.74724572  .00001928  00000-0  86256-3 0  9994
2 64640  89.0147 312.7585 0047467 187.5011 172.5476 14.21665765 42891
CZ-6A R/B DEB
1 64640U 24140AEE 25200.29571612  .00002001  00000-0  89513-3 0  9995
2 64640  89.0147 312.5849 0047697 182.5443 177.5513 14.21672576 43112
CZ-6A R/B DEB
1 64640U 24140AEE 25200.57725513  .00002081  00000-0  93123-3 0  9997
2 64640  89.0147 312.5532 0047750 181.6364 178.4678 14.21674250 43150
CZ-6A R/B DEB
1 64640U 24140AEE 25201.28110204  .00002083  00000-0  93167-3 0  9991
2 64640  89.0147 312.4742 0047884 179.3978 180.7280 14.21677319 43250
CZ-6A R/B DEB
1 64640U 24140AEE 25202.82955983  .00002187  00000-0  97855-3 0  9996
2 64640  89.0147 312.3009 0048123 174.5010 185.6720 14.21684722 43479
CZ-6A R/B DEB
1 64640U 24140AEE 25202.82955983  .00002187  00000-0  97855-3 0  9996
2 64640  89.0147 312.3009 0048123 174.5010 185.6720 14.21684722 43479
CZ-6A DEB
1 64640U 24140AEE 25203.32224968  .00002293  00000-0  10259-2 0  9994
2 64640  89.0151 312.2456 0048241 172.9526 187.2354 14.21687292 43548
CZ-6A DEB
1 64640U 24140AEE 25204.30762577  .00002831  00000-0  12678-2 0  9991
2 64640  89.0152 312.1349 0048350 169.8144 190.4039 14.21693668 43686
CZ-6A DEB
1 64640U 24140AEE 25204.30762577  .00002831  00000-0  12678-2 0  9991
2 64640  89.0152 312.1349 0048350 169.8144 190.4039 14.21693668 43686
CZ-6A DEB
1 64640U 24140AEE 25204.80031215  .00002982  00000-0  13356-2 0  9995
2 64640  89.0153 312.0797 0048417 168.2704 191.9628 14.21696757 43752
CZ-6A DEB
1 64640U 24140AEE 25205.29299788  .00002968  00000-0  13293-2 0  9994
2 64640  89.0154 312.0245 0048479 166.6876 193.5608 14.21699313 43826
CZ-6A DEB
1 64640U 24140AEE 25205.78568227  .00002956  00000-0  13241-2 0  9995
2 64640  89.0154 311.9693 0048546 165.1443 195.1187 14.21702139 43898
CZ-6A DEB
1 64640U 24140AEE 25205.78568227  .00002956  00000-0  13241-2 0  9995
2 64640  89.0154 311.9693 0048546 165.1443 195.1187 14.21702139 43898
CZ-6A DEB
1 64640U 24140AEE 25207.26372960  .00002737  00000-0  12252-2 0  9995
2 64640  89.0157 311.8037 0048712 160.5197 199.7870 14.21710263 44103
CZ-6A DEB
1 64640U 24140AEE 25207.26372960  .00002737  00000-0  12252-2 0  9995
2 64640  89.0157 311.8037 0048712 160.5197 199.7870 14.21710263 44103
CZ-6A DEB
1 64640U 24140AEE 25208.24908904  .00002624  00000-0  11739-2 0  9991
2 64640  89.0156 311.6935 0048837 157.4672 202.8679 14.21715866 44240
CZ-6A DEB
1 64640U 24140AEE 25208.81215000  .00002721  00000-0  12177-2 0  9997
2 64640  89.0154 311.6305 0048879 155.7226 204.6284 14.21719316 44326
CZ-6A DEB
1 64640U 24140AEE 25208.81215000  .00002721  00000-0  12177-2 0  9997
2 64640  89.0154 311.6305 0048879 155.7226 204.6284 14.21719316 44326
CZ-6A DEB
1 64640U 24140AEE 25209.23444517  .00002523  00000-0  11284-2 0  9999
2 64640  89.0153 311.5833 0048925 154.4011 205.9619 14.21720899 44380
CZ-6A DEB
1 64640U 24140AEE 25210.21979746  .00002738  00000-0  12247-2 0  9994
2 64640  89.0151 311.4728 0049034 151.3469 209.0433 14.21726774 44528
CZ-6A DEB
1 64640U 24140AEE 25210.29017962  .00002739  00000-0  12251-2 0  9991
2 64640  89.0151 311.4649 0049039 151.1197 209.2724 14.21727169 44536
CZ-6A DEB
1 64640U 24140AEE 25210.78285426  .00002745  00000-0  12278-2 0  9993
2 64640  89.0149 311.4097 0049092 149.5651 210.8406 14.21729813 44606
CZ-6A DEB
1 64640U 24140AEE 25211.27552779  .00002782  00000-0  12444-2 0  9992
2 64640  89.0147 311.3548 0049138 148.0299 212.3891 14.21732625 44674
CZ-6A DEB
1 64640U 24140AEE 25211.27552779  .00002782  00000-0  12444-2 0  9992
2 64640  89.0147 311.3548 0049138 148.0299 212.3891 14.21732625 44674
CZ-6A DEB
1 64640U 24140AEE 25212.26087163  .00002807  00000-0  12555-2 0  9993
2 64640  89.0145 311.2443 0049229 144.9715 215.4731 14.21738268 44816
CZ-6A DEB
1 64640U 24140AEE 25213.24621117  .00002760  00000-0  12343-2 0  9998
2 64640  89.0143 311.1337 0049310 141.9508 218.5183 14.21743921 44955
CZ-6A DEB
1 64640U 24140AEE 25213.24621117  .00002760  00000-0  12343-2 0  9998
2 64640  89.0143 311.1337 0049310 141.9508 218.5183 14.21743921 44955
CZ-6A DEB
1 64640U 24140AEE 25214.23154668  .00002651  00000-0  11851-2 0  9992
2 64640  89.0146 311.0235 0049350 138.8871 221.6056 14.21749408 45092
CZ-6A DEB
1 64640U 24140AEE 25215.21687855  .00002491  00000-0  11131-2 0  9993
2 64640  89.0144 310.9126 0049400 135.8516 224.6635 14.21754352 45232
CZ-6A DEB
1 64640U 24140AEE 25215.70954338  .00002315  00000-0  10337-2 0  9992
2 64640  89.0144 310.8572 0049434 134.3300 226.1960 14.21756279 45304
CZ-6A DEB
1 64640U 24140AEE 25216.20220708  .00002379  00000-0  10623-2 0  9993
2 64640  89.0144 310.8019 0049466 132.7937 227.7430 14.21758990 45371
CZ-6A DEB
1 64640U 24140AEE 25217.25791241  .00002257  00000-0  10076-2 0  9991
2 64640  89.0146 310.6835 0049523 129.5374 231.0210 14.21763668 45529
CZ-6A DEB
1 64640U 24140AEE 25217.25791241  .00002257  00000-0  10076-2 0  9991
2 64640  89.0146 310.6835 0049523 129.5374 231.0210 14.21763668 45529
CZ-6A DEB
1 64640U 24140AEE 25218.73589359  .00002027  00000-0  90392-3 0  9995
2 64640  89.0147 310.5175 0049601 125.0006 235.5856 14.21769676 45739
CZ-6A DEB
1 64640U 24140AEE 25219.22855246  .00002050  00000-0  91448-3 0  9990
2 64640  89.0146 310.4621 0049605 123.5086 237.0859 14.21771841 45803
CZ-6A DEB
1 64640U 24140AEE 25219.22855246  .00002050  00000-0  91448-3 0  9990
2 64640  89.0146 310.4621 0049605 123.5087 237.0859 14.21771841 45804
CZ-6A DEB
1 64640U 24140AEE 25221.76221375  .00002728  00000-0  12186-2 0  9995
2 64640  89.0148 310.1783 0049632 115.7154 244.9173 14.21784817 46163
CZ-6A DEB
1 64640U 24140AEE 25221.97335123  .00002876  00000-0  12850-2 0  9997
2 64640  89.0148 310.1548 0049646 115.0596 245.5761 14.21786165 46191
CZ-6A DEB
1 64640U 24140AEE 25222.74752006  .00002643  00000-0  11805-2 0  9997
2 64640  89.0145 310.0678 0049629 112.7088 247.9360 14.21789214 46304
CZ-6A DEB
1 64640U 24140AEE 25223.73282227  .00002698  00000-0  12048-2 0  9990
2 64640  89.0142 309.9574 0049624 109.6885 250.9670 14.21794488 46440
CZ-6A DEB
1 64640U 24140AEE 25223.73282227  .00002698  00000-0  12048-2 0  9990
2 64640  89.0142 309.9574 0049624 109.6885 250.9670 14.21794488 46440
CZ-6A DEB
1 64640U 24140AEE 25224.22547174  .00002551  00000-0  11389-2 0  9995
2 64640  89.0141 309.9021 0049625 108.1699 252.4904 14.21796767 46511
CZ-6A DEB
1 64640U 24140AEE 25224.71812033  .00002436  00000-0  10871-2 0  9995
2 64640  89.0139 309.8468 0049630 106.6570 254.0078 14.21799108 46588
CZ-6A DEB
1 64640U 24140AEE 25225.21076796  .00002384  00000-0  10636-2 0  9990
2 64640  89.0138 309.7915 0049607 105.1432 255.5254 14.21801506 46654
CZ-6A DEB
1 64640U 24140AEE 25225.21076796  .00002384  00000-0  10636-2 0  9990
2 64640  89.0138 309.7915 0049607 105.1432 255.5254 14.21801506 46654
CZ-6A DEB
1 64640U 24140AEE 25226.19606142  .00002246  00000-0  10019-2 0  9994
2 64640  89.0136 309.6809 0049571 102.1069 258.5683 14.21805582 46798
CZ-6A DEB
1 64640U 24140AEE 25226.68870672  .00002213  00000-0  98688-3 0  9992
2 64640  89.0137 309.6256 0049531 100.5941 260.0834 14.21807734 46867
CZ-6A DEB
1 64640U 24140AEE 25226.68870672  .00002213  00000-0  98688-3 0  9992
2 64640  89.0137 309.6256 0049531 100.5941 260.0834 14.21807734 46867
CZ-6A DEB
1 64640U 24140AEE 25227.18135143  .00002104  00000-0  93807-3 0  9992
2 64640  89.0135 309.5702 0049528  99.0711 261.6089 14.21809539 46935
CZ-6A DEB
1 64640U 24140AEE 25227.67399515  .00002070  00000-0  92264-3 0  9999
2 64640  89.0136 309.5148 0049511  97.5478 263.1342 14.21811633 47001
CZ-6A DEB
1 64640U 24140AEE 25228.16663824  .00001969  00000-0  87720-3 0  9998
2 64640  89.0138 309.4595 0049494  96.0214 264.6620 14.21813394 47078
CZ-6A DEB
1 64640U 24140AEE 25228.16663824  .00001969  00000-0  87720-3 0  9998
2 64640  89.0138 309.4595 0049494  96.0214 264.6620 14.21813394 47078
CZ-6A DEB
1 64640U 24140AEE 25228.65928058  .00001956  00000-0  87147-3 0  9994
2 64640  89.0138 309.4042 0049481  94.5155 266.1691 14.21815381 47149
CZ-6A DEB
1 64640U 24140AEE 25229.71494045  .00001922  00000-0  85619-3 0  9991
2 64640  89.0139 309.2856 0049432  91.2587 269.4267 14.21819381 47295
CZ-6A DEB
1 64640U 24140AEE 25229.71494045  .00001922  00000-0  85619-3 0  9991
2 64640  89.0139 309.2856 0049432  91.2587 269.4267 14.21819381 47295
CZ-6A DEB
1 64640U 24140AEE 25231.19285900  .00001840  00000-0  81941-3 0  9997
2 64640  89.0140 309.1198 0049346  86.6937 273.9898 14.21824473 47508
CZ-6A DEB
1 64640U 24140AEE 25231.19285900  .00001840  00000-0  81941-3 0  9997
2 64640  89.0140 309.1198 0049346  86.6937 273.9898 14.21824473 47508
CZ-6A DEB
1 64640U 24140AEE 25232.17813408  .00002061  00000-0  91839-3 0  9999
2 64640  89.0141 309.0092 0049262  83.6413 277.0385 14.21828875 47645
CZ-6A DEB
1 64640U 24140AEE 25232.67077070  .00001963  00000-0  87457-3 0  9992
2 64640  89.0139 308.9537 0049248  82.1171 278.5606 14.21830407 47717
CZ-6A DEB
1 64640U 24140AEE 25233.65604180  .00001781  00000-0  79285-3 0  9997
2 64640  89.0139 308.8434 0049159  79.0588 281.6128 14.21833503 47859
CZ-6A DEB
1 64640U 24140AEE 25235.69695143  .00001717  00000-0  76408-3 0  9995
2 64640  89.0134 308.6143 0048942  72.6464 288.0072 14.21840468 48140
CZ-6A DEB
1 64640U 24140AEE 25236.18958326  .00001815  00000-0  80801-3 0  9996
2 64640  89.0133 308.5590 0048901  71.1057 289.5427 14.21842715 48216
CZ-6A DEB
1 64640U 24140AEE 25236.68221424  .00001778  00000-0  79156-3 0  9992
2 64640  89.0133 308.5037 0048838  69.5613 291.0812 14.21844291 48284
CZ-6A DEB
1 64640U 24140AEE 25237.17484447  .00001849  00000-0  82308-3 0  9995
2 64640  89.0130 308.4483 0048791  68.0090 292.6275 14.21846459 48352
CZ-6A DEB
1 64640U 24140AEE 25237.94897572  .00001970  00000-0  87741-3 0  9998
2 64640  89.0129 308.3612 0048718  65.5914 295.0349 14.21850080 48465
CZ-6A DEB
1 64640U 24140AEE 25239.70835755  .00002275  00000-0  10142-2 0  9998
2 64640  89.0124 308.1635 0048491  60.0657 300.5336 14.21858742 48714
CZ-6A DEB
1 64640U 24140AEE 25241.18622956  .00002890  00000-0  12902-2 0  9999
2 64640  89.0120 307.9976 0048293  55.4862 305.0875 14.21867441 48928
CZ-6A DEB
1 64640U 24140AEE 25241.67885108  .00002792  00000-0  12464-2 0  9997
2 64640  89.0119 307.9422 0048212  53.9286 306.6356 14.21869941 48991
CZ-6A DEB
1 64640U 24140AEE 25242.17147132  .00003315  00000-0  14810-2 0  9990
2 64640  89.0119 307.8868 0048144  52.3646 308.1899 14.21874471 49063
CZ-6A DEB
1 64640U 24140AEE 25243.15670828  .00003429  00000-0  15318-2 0  9992
2 64640  89.0119 307.7759 0047988  49.2296 311.3045 14.21880981 49200
CZ-6A DEB
1 64640U 24140AEE 25244.14193990  .00003949  00000-0  17648-2 0  9997
2 64640  89.0122 307.6652 0047854  46.0474 314.4649 14.21889267 49345
CZ-6A DEB
1 64640U 24140AEE 25245.12716691  .00004820  00000-0  21551-2 0  9992
2 64640  89.0122 307.5543 0047756  42.8761 317.6137 14.21898643 49487
CZ-6A DEB
1 64640U 24140AEE 25245.90126991  .00004483  00000-0  20038-2 0  9990
2 64640  89.0117 307.4669 0047686  40.5042 319.9682 14.21903224 49592
CZ-6A DEB
1 64640U 24140AEE 25247.16797525  .00003693  00000-0  16495-2 0  9991
2 64640  89.0116 307.3245 0047484  36.4380 324.0027 14.21911087 49771
CZ-6A DEB
1 64640U 24140AEE 25248.15318437  .00003149  00000-0  14059-2 0  9992
2 64640  89.0118 307.2136 0047348  33.3266 327.0890 14.21918286 49914
CZ-6A DEB
1 64640U 24140AEE 25248.64578783  .00003039  00000-0  13565-2 0  9997
2 64640  89.0118 307.1583 0047245  31.7169 328.6852 14.21920965 49988
CZ-6A DEB
1 64640U 24140AEE 25249.13838994  .00002977  00000-0  13285-2 0  9994
2 64640  89.0118 307.1031 0047179  30.0932 330.2955 14.21923833 50052
CZ-6A DEB
1 64640U 24140AEE 25250.12359056  .00003581  00000-0  15994-2 0  9993
2 64640  89.0114 306.9923 0047004  26.9187 333.4427 14.21931373 50190
CZ-6A DEB
1 64640U 24140AEE 25251.17915915  .00002472  00000-0  11022-2 0  9997
2 64640  89.0109 306.8736 0046871  23.5156 336.8164 14.21934820 50347
CZ-6A DEB
1 64640U 24140AEE 25251.60138543  .00002359  00000-0  10516-2 0  9990
2 64640  89.0110 306.8263 0046774  22.0883 338.2310 14.21936736 50401
CZ-6A DEB
1 64640U 24140AEE 25251.88286934  .00002066  00000-0  92009-3 0  9991
2 64640  89.0107 306.7947 0046781  21.2143 339.0974 14.21937485 50444
CZ-6A DEB
1 64640U 24140AEE 25253.64213898  .00001732  00000-0  77024-3 0  9995
2 64640  89.0104 306.5962 0046539  15.5092 344.7513 14.21943845 50692
CZ-6A DEB
1 64640U 24140AEE 25253.64213898  .00001690  00000-0  75168-3 0  9995
2 64640  89.0104 306.5962 0046539  15.5112 344.7493 14.21943719 50692
CZ-6A DEB
1 64640U 24140AEE 25254.41621474  .00001669  00000-0  74229-3 0  9997
2 64640  89.0102 306.5092 0046421  12.9492 347.2879 14.21946662 50805
CZ-6A DEB
1 64640U 24140AEE 25256.10510279  .00001560  00000-0  69327-3 0  9998
2 64640  89.0100 306.3190 0046168   7.3312 352.8544 14.21952308 51049
CZ-6A DEB
1 64640U 24140AEE 25257.58287490  .00001752  00000-0  77929-3 0  9997
2 64640  89.0101 306.1521 0045964   2.4975 357.6436 14.21957599 51253
CZ-6A DEB
1 64640U 24140AEE 25258.63842166  .00002137  00000-0  95221-3 0  9994
2 64640  89.0102 306.0334 0045812 358.9614   1.1474 14.21962921 51401
CZ-6A DEB
1 64640U 24140AEE 25260.11618226  .00002144  00000-0  95514-3 0  9991
2 64640  89.0102 305.8669 0045605 354.0664   5.9981 14.21969007 51611
CZ-6A DEB
1 64640U 24140AEE 25261.10135254  .00002076  00000-0  92474-3 0  9992
2 64640  89.0101 305.7561 0045471 350.7549   9.2800 14.21972971 51752
CZ-6A DEB
1 64640U 24140AEE 25263.07168470  .00002231  00000-0  99411-3 0  9997
2 64640  89.0097 305.5341 0045240 344.1437  15.8334 14.21981629 52034
CZ-6A DEB
1 64640U 24140AEE 25263.21242184  .00002361  00000-0  10524-2 0  9999
2 64640  89.0096 305.5181 0045288 343.6287  16.3439 14.21983263 52054
CZ-6A DEB
1 64640U 24140AEE 25264.12721517  .00002789  00000-0  12440-2 0  9995
2 64640  89.0097 305.4153 0045127 340.5636  19.3832 14.21987680 52180
CZ-6A DEB
1 64640U 24140AEE 25265.11237255  .00003524  00000-0  15735-2 0  9994
2 64640  89.0094 305.3046 0045012 337.3354  22.5848 14.21995002 52327
CZ-6A DEB
1 64640U 24140AEE 25267.08267171  .00004355  00000-0  19453-2 0  9996
2 64640  89.0089 305.0824 0044808 330.6718  29.1959 14.22010881 52605
CZ-6A DEB
1 64640U 24140AEE 25267.36414160  .00004173  00000-0  18639-2 0  9992
2 64640  89.0089 305.0507 0044822 329.6932  30.1668 14.22012279 52641
CZ-6A DEB
1 64640U 24140AEE 25270.10844665  .00003955  00000-0  17659-2 0  9993
2 64640  89.0087 304.7409 0044579 320.3789  39.4147 14.22034073 53037
CZ-6A DEB
1 64640U 24140AEE 25270.53064414  .00003936  00000-0  17570-2 0  9997
2 64640  89.0088 304.6932 0044534 318.9127  40.8712 14.22037113 53096
CZ-6A DEB
1 64640U 24140AEE 25273.06380517  .00004571  00000-0  20407-2 0  9992
2 64640  89.0091 304.4075 0044315 310.3265  49.4058 14.22060510 53457
CZ-6A DEB
1 64640U 24140AEE 25273.06380518  .00004571  00000-0  20407-2 0  9993
2 64640  89.0091 304.4075 0044315 310.3265  49.4058 14.22060510 53457
CZ-6A DEB
1 64640U 24140AEE 25274.82291057  .00006266  00000-0  27978-2 0  9990
2 64640  89.0084 304.2084 0044227 304.3033  55.3975 14.22087731 53701
CZ-6A DEB
1 64640U 24140AEE 25274.82291057  .00006266  00000-0  27978-2 0  9990
2 64640  89.0084 304.2084 0044227 304.3033  55.3975 14.22087731 53701
CZ-6A DEB
1 64640U 24140AEE 25275.03400116  .00006076  00000-0  27129-2 0  9999
2 64640  89.0085 304.1846 0044216 303.5791  56.1182 14.22090945 53730
CZ-6A DEB
1 64640U 24140AEE 25275.03400116  .00006076  00000-0  27129-2 0  9999
2 64640  89.0085 304.1846 0044216 303.5791  56.1182 14.22090945 53730
CZ-6A DEB
1 64640U 24140AEE 25278.05960150  .00004095  00000-0  18260-2 0  9998
2 64640  89.0079 303.8434 0044151 293.2247  66.4298 14.22119727 54161
CZ-6A DEB
1 64640U 24140AEE 25279.04467065  .00003339  00000-0  14876-2 0  9994
2 64640  89.0074 303.7321 0044043 289.8977  69.7472 14.22125663 54303
CZ-6A DEB
1 64640U 24140AEE 25279.04467065  .00003339  00000-0  14876-2 0  9994
2 64640  89.0074 303.7321 0044043 289.8977  69.7472 14.22125663 54303
CZ-6A DEB
1 64640U 24140AEE 25280.02973598  .00003226  00000-0  14370-2 0  9991
2 64640  89.0091 303.6223 0044197 286.5216  73.1122 14.22131652 54443
CZ-6A DEB
1 64640U 24140AEE 25280.52226724  .00003162  00000-0  14082-2 0  9997
2 64640  89.0081 303.5659 0044055 284.8093  74.8220 14.22134442 54516
CZ-6A DEB
1 64640U 24140AEE 25281.01479703  .00003638  00000-0  16209-2 0  9990
2 64640  89.0077 303.5100 0044049 283.1068  76.5209 14.22138872 54583
CZ-6A DEB
1 64640U 24140AEE 25281.01479703  .00003638  00000-0  16209-2 0  9990
2 64640  89.0077 303.5100 0044049 283.1068  76.5209 14.22138872 54583
CZ-6A DEB
1 64640U 24140AEE 25281.50732619  .00003354  00000-0  14939-2 0  9995
2 64640  89.0073 303.4539 0044105 281.4298  78.1941 14.22141258 54654
CZ-6A DEB
1 64640U 24140AEE 25281.50732620  .00003354  00000-0  14939-2 0  9997
2 64640  89.0073 303.4539 0044105 281.4298  78.1941 14.22141258 54654
CZ-6A DEB
1 64640U 24140AEE 25284.04031743  .00002804  00000-0  12476-2 0  9990
2 64640  89.0081 303.1681 0044486 272.8752  86.7349 14.22155438 55012
CZ-6A DEB
1 64640U 24140AEE 25284.32175946  .00002821  00000-0  12549-2 0  9995
2 64640  89.0077 303.1357 0044367 271.8522  87.7588 14.22157145 55056
CZ-6A DEB
1 64640U 24140AEE 25285.30680324  .00003462  00000-0  15412-2 0  9999
2 64640  89.0074 303.0238 0044244 268.4487  91.1636 14.22165098 55190
CZ-6A DEB
1 64640U 24140AEE 25286.01040290  .00003559  00000-0  15846-2 0  9998
2 64640  89.0075 302.9445 0044360 266.1199  93.4920 14.22170515 55295
CZ-6A DEB
1 64640U 24140AEE 25287.48795459  .00003329  00000-0  14813-2 0  9992
2 64640  89.0069 302.7765 0044214 260.9859  98.6327 14.22180547 55502
CZ-6A DEB
1 64640U 24140AEE 25288.47298346  .00003328  00000-0  14807-2 0  9997
2 64640  89.0072 302.6655 0044246 257.5958 102.0280 14.22187851 55648
CZ-6A DEB
1 64640U 24140AEE 25289.03585587  .00003764  00000-0  16755-2 0  9994
2 64640  89.0069 302.6017 0044260 255.6857 103.9418 14.22192154 55723
CZ-6A DEB
1 64640U 24140AEE 25289.03585587  .00003764  00000-0  16755-2 0  9994
2 64640  89.0069 302.6017 0044260 255.6857 103.9418 14.22192154 55723
CZ-6A DEB
1 64640U 24140AEE 25291.00589716  .00004231  00000-0  18831-2 0  9999
2 64640  89.0058 302.3785 0044306 248.8643 110.7810 14.22206144 56007
CZ-6A DEB
1 64640U 24140AEE 25291.00589717  .00004231  00000-0  18831-2 0  9990
2 64640  89.0058 302.3785 0044306 248.8643 110.7810 14.22206144 56007
CZ-6A DEB
1 64640U 24140AEE 25291.99091041  .00004702  00000-0  20930-2 0  9992
2 64640  89.0052 302.2665 0044315 245.4630 114.1938 14.22214729 56148
CZ-6A DEB
1 64640U 24140AEE 25292.97591645  .00005128  00000-0  22824-2 0  9993
2 64640  89.0050 302.1551 0044430 242.2700 117.3982 14.22225099 56281
CZ-6A DEB
1 64640U 24140AEE 25292.97591645  .00005128  00000-0  22824-2 0  9993
2 64640  89.0050 302.1551 0044430 242.2700 117.3982 14.22225099 56281
CZ-6A DEB
1 64640U 24140AEE 25294.45341354  .00004348  00000-0  19341-2 0  9991
2 64640  89.0058 301.9886 0044551 237.3948 122.2940 14.22238085 56491
CZ-6A DEB
1 64640U 24140AEE 25294.45341355  .00004348  00000-0  19341-2 0  9992
2 64640  89.0058 301.9886 0044551 237.3948 122.2940 14.22238085 56491
CZ-6A DEB
1 64640U 24140AEE 25296.98623967  .00003553  00000-0  15786-2 0  9990
2 64640  89.0057 301.7012 0044688 228.9589 130.7737 14.22256421 56859
CZ-6A DEB
1 64640U 24140AEE 25297.47872968  .00003781  00000-0  16800-2 0  9993
2 64640  89.0060 301.6456 0044758 227.1888 132.5538 14.22260783 56928
CZ-6A DEB
1 64640U 24140AEE 25297.97121900  .00003602  00000-0  16005-2 0  9990
2 64640  89.0060 301.5898 0044809 225.4803 134.2725 14.22263848 56991
CZ-6A DEB
1 64640U 24140AEE 25297.97121901  .00003602  00000-0  16005-2 0  9991
2 64640  89.0060 301.5898 0044809 225.4803 134.2725 14.22263848 56991
CZ-6A DEB
1 64640U 24140AEE 25298.46370687  .00003743  00000-0  16629-2 0  9991
2 64640  89.0059 301.5334 0044835 223.8428 135.9202 14.22267822 57061
CZ-6A DEB
1 64640U 24140AEE 25298.95619406  .00003442  00000-0  15285-2 0  9993
2 64640  89.0059 301.4775 0044870 222.1894 137.5841 14.22270440 57132
CZ-6A DEB
1 64640U 24140AEE 25298.95619407  .00003442  00000-0  15285-2 0  9994
2 64640  89.0059 301.4775 0044870 222.1894 137.5841 14.22270440 57132
CZ-6A DEB
1 64640U 24140AEE 25299.44868008  .00003313  00000-0  14711-2 0  9992
2 64640  89.0063 301.4219 0044912 220.5191 139.2654 14.22273445 57206
CZ-6A DEB
1 64640U 24140AEE 25299.44868009  .00003313  00000-0  14711-2 0  9993
2 64640  89.0063 301.4219 0044912 220.5191 139.2654 14.22273445 57206
CZ-6A DEB
1 64640U 24140AEE 25300.01151983  .00003556  00000-0  15791-2 0  9993
2 64640  89.0062 301.3580 0044950 218.6442 141.1530 14.22277800 57286
CZ-6A DEB
1 64640U 24140AEE 25300.01151983  .00003556  00000-0  15791-2 0  9993
2 64640  89.0062 301.3580 0044950 218.6442 141.1530 14.22277800 57286
CZ-6A DEB
1 64640U 24140AEE 25300.50400359  .00003469  00000-0  15405-2 0  9996
2 64640  89.0064 301.3025 0045021 216.9616 142.8471 14.22280757 57351
CZ-6A DEB
1 64640U 24140AEE 25300.50400359  .00003469  00000-0  15405-2 0  9996
2 64640  89.0064 301.3025 0045021 216.9617 142.8471 14.22280757 57352
CZ-6A DEB
1 64640U 24140AEE 25300.99648600  .00003785  00000-0  16812-2 0  9996
2 64640  89.0065 301.2466 0045058 215.3228 144.4976 14.22284853 57429
CZ-6A DEB
1 64640U 24140AEE 25302.96640493  .00003695  00000-0  16401-2 0  9991
2 64640  89.0066 301.0238 0045257 208.7239 151.1460 14.22298112 57701
CZ-6A DEB
1 64640U 24140AEE 25303.95135669  .00003957  00000-0  17566-2 0  9999
2 64640  89.0064 300.9125 0045306 205.4671 154.4288 14.22306309 57848
CZ-6A DEB
1 64640U 24140AEE 25304.93630312  .00003603  00000-0  15985-2 0  9994
2 64640  89.0062 300.8010 0045387 202.1856 157.7373 14.22313380 57989
CZ-6A DEB
1 64640U 24140AEE 25309.93132077  .00003319  00000-0  14710-2 0  9993
2 64640  89.0069 300.2365 0045878 185.7515 174.3156 14.22346286 58690
CZ-6A DEB
1 64640U 24140AEE 25310.42378068  .00003840  00000-0  17023-2 0  9990
2 64640  89.0053 300.1783 0046008 183.9856 176.0976 14.22351117 58766
CZ-6A DEB
1 64640U 24140AEE 25310.42378069  .00003840  00000-0  17023-2 0  9991
2 64640  89.0053 300.1783 0046008 183.9856 176.0976 14.22351117 58766
CZ-6A DEB
1 64640U 24140AEE 25311.97150318  .00004182  00000-0  18541-2 0  9993
2 64640  89.0063 300.0022 0045988 178.8038 181.3272 14.22364255 58982
CZ-6A DEB
1 64640U 24140AEE 25311.97150319  .00004182  00000-0  18541-2 0  9994
2 64640  89.0063 300.0022 0045988 178.8039 181.3272 14.22364255 58983
CZ-6A DEB
1 64640U 24140AEE 25313.94131009  .00003629  00000-0  16073-2 0  9991
2 64640  89.0062 299.7780 0046153 172.3379 187.8528 14.22380121 59265
CZ-6A DEB
1 64640U 24140AEE 25315.41865027  .00004817  00000-0  21347-2 0  9999
2 64640  89.0074 299.6105 0046320 167.3158 192.9211 14.22395022 59478
CZ-6A DEB
1 64640U 24140AEE 25318.93603403  .00004765  00000-0  21088-2 0  9991
2 64640  89.0066 299.2142 0046847 155.9382 204.4013 14.22446283 59972
CZ-6A DEB
1 64640U 24140AEE 25320.97607022  .00004582  00000-0  20269-2 0  9996
2 64640  89.0061 298.9832 0047096 149.3426 211.0533 14.22465756 60263
CZ-6A DEB
1 64640U 24140AEE 25323.43815008  .00003209  00000-0  14171-2 0  9995
2 64640  89.0061 298.7035 0047531 141.8370 218.6203 14.22483075 60615
CZ-6A DEB
1 64640U 24140AEE 25324.91538619  .00002926  00000-0  12910-2 0  9993
2 64640  89.0066 298.5359 0047610 136.5446 223.9514 14.22491805 60827
CZ-6A DEB
1 64640U 24140AEE 25325.90020319  .00003032  00000-0  13378-2 0  9994
2 64640  89.0064 298.4246 0047718 133.5073 227.0100 14.22498232 60963
CZ-6A DEB
1 64640U 24140AEE 25325.90020320  .00003032  00000-0  13378-2 0  9996
2 64640  89.0064 298.4247 0047718 133.5073 227.0100 14.22498232 60964
CZ-6A DEB
1 64640U 24140AEE 25326.88501583  .00002933  00000-0  12939-2 0  9990
2 64640  89.0068 298.3130 0047792 130.3699 230.1680 14.22504368 61102
CZ-6A DEB
1 64640U 24140AEE 25326.88501584  .00002933  00000-0  12939-2 0  9991
2 64640  89.0068 298.3130 0047792 130.3699 230.1681 14.22504368 61103
CZ-6A DEB
1 64640U 24140AEE 25328.36222735  .00003039  00000-0  13402-2 0  9998
2 64640  89.0060 298.1465 0048103 125.4032 235.1666 14.22513629 61318
CZ-6A DEB
1 64640U 24140AEE 25328.36222735  .00003039  00000-0  13402-2 0  9998
2 64640  89.0060 298.1465 0048103 125.4033 235.1666 14.22513629 61319
CZ-6A DEB
1 64640U 24140AEE 25329.34702757  .00003698  00000-0  16321-2 0  9998
2 64640  89.0071 298.0345 0048067 122.4447 238.1407 14.22521883 61454
CZ-6A DEB
1 64640U 24140AEE 25329.90976860  .00003615  00000-0  15952-2 0  9996
2 64640  89.0065 297.9712 0048112 120.6370 239.9579 14.22525699 61536
CZ-6A DEB
1 64640U 24140AEE 25330.19113846  .00003614  00000-0  15947-2 0  9999
2 64640  89.0066 297.9393 0048140 119.7482 240.8512 14.22527620 61574
CZ-6A DEB
1 64640U 24140AEE 25330.33182330  .00003470  00000-0  15309-2 0  9991
2 64640  89.0067 297.9234 0048150 119.3069 241.2946 14.22528329 61592
CZ-6A DEB
1 64640U 24140AEE 25330.33182330  .00003470  00000-0  15309-2 0  9991
2 64640  89.0067 297.9234 0048150 119.3070 241.2946 14.22528329 61594
CZ-6A DEB
1 64640U 24140AEE 25330.89456144  .00003401  00000-0  15000-2 0  9991
2 64640  89.0069 297.8599 0048219 117.5319 243.0784 14.22532202 61675
CZ-6A DEB
1 64640U 24140AEE 25330.89456144  .00003401  00000-0  15000-2 0  9991
2 64640  89.0069 297.8599 0048219 117.5319 243.0784 14.22532202 61675
CZ-6A DEB
1 64640U 24140AEE 25331.87934956  .00003361  00000-0  14820-2 0  9996
2 64640  89.0074 297.7488 0048242 114.4274 246.1961 14.22538654 61813
CZ-6A DEB
1 64640U 24140AEE 25331.87934957  .00003361  00000-0  14820-2 0  9997
2 64640  89.0074 297.7488 0048242 114.4274 246.1962 14.22538655 61815
CZ-6A DEB
1 64640U 24140AEE 25332.86413273  .00003228  00000-0  14230-2 0  9997
2 64640  89.0079 297.6379 0048314 111.3899 249.2457 14.22544909 61954
CZ-6A DEB
1 64640U 24140AEE 25332.86413274  .00003228  00000-0  14230-2 0  9998
2 64640  89.0079 297.6379 0048314 111.3899 249.2457 14.22544909 61954
CZ-6A DEB
1 64640U 24140AEE 25333.84891141  .00003527  00000-0  15550-2 0  9998
2 64640  89.0076 297.5266 0048408 108.3003 252.3463 14.22551982 62099
CZ-6A DEB
1 64640U 24140AEE 25334.34129875  .00003412  00000-0  15040-2 0  9999
2 64640  89.0072 297.4705 0048487 106.6455 254.0068 14.22555212 62169
CZ-6A DEB
1 64640U 24140AEE 25334.34129875  .00003412  00000-0  15040-2 0  9999
2 64640  89.0072 297.4705 0048487 106.6455 254.0068 14.22555212 62169
CZ-6A DEB
1 64640U 24140AEE 25335.39641043  .00003746  00000-0  16516-2 0  9990
2 64640  89.0070 297.3511 0048617 103.2663 257.3957 14.22563301 62318
CZ-6A DEB
1 64640U 24140AEE 25335.39641043  .00003746  00000-0  16516-2 0  9990
2 64640  89.0070 297.3511 0048617 103.2663 257.3957 14.22563301 62318
CZ-6A DEB
1 64640U 24140AEE 25335.88879347  .00003688  00000-0  16257-2 0  9991
2 64640  89.0071 297.2952 0048603 101.7803 258.8847 14.22566750 62383
CZ-6A DEB
1 64640U 24140AEE 25335.88879348  .00003688  00000-0  16257-2 0  9992
2 64640  89.0071 297.2952 0048603 101.7803 258.8847 14.22566750 62383
CZ-6A DEB
1 64640U 24140AEE 25339.33542556  .00006216  00000-0  27416-2 0  9993
2 64640  89.0078 296.9048 0048837  90.9640 269.7148 14.22605547 62876
CZ-6A DEB
1 64640U 24140AEE 25343.83700384  .00005636  00000-0  24828-2 0  9997
2 64640  89.0073 296.3953 0049091  76.9151 283.7513 14.22652083 63515
CZ-6A DEB
1 64640U 24140AEE 25343.83700385  .00005636  00000-0  24828-2 0  9998
2 64640  89.0073 296.3953 0049091  76.9151 283.7513 14.22652083 63515
CZ-6A DEB
1 64640U 24140AEE 25344.61069782  .00005458  00000-0  24037-2 0  9998
2 64640  89.0073 296.3080 0049141  74.5371 286.1240 14.22658855 63629
CZ-6A DEB
1 64640U 24140AEE 25344.61069783  .00005458  00000-0  24037-2 0  9999
2 64640  89.0073 296.3080 0049141  74.5371 286.1240 14.22658855 63629
CZ-6A DEB
1 64640U 24140AEE 25345.31405170  .00006142  00000-0  27050-2 0  9990
2 64640  89.0068 296.2285 0049171  72.3559 288.2994 14.22667954 63726
CZ-6A DEB
1 64640U 24140AEE 25345.87673208  .00005399  00000-0  23771-2 0  9999
2 64640  89.0067 296.1649 0049161  70.5968 290.0528 14.22672711 63801
CZ-6A DEB
1 64640U 24140AEE 25345.87673209  .00005399  00000-0  23771-2 0  9990
2 64640  89.0067 296.1649 0049161  70.5968 290.0528 14.22672711 63801
CZ-6A DEB
1 64640U 24140AEE 25346.29874026  .00005441  00000-0  23954-2 0  9998
2 64640  89.0065 296.1170 0049184  69.2947 291.3507 14.22677903 63860
CZ-6A DEB
1 64640U 24140AEE 25347.35375455  .00005523  00000-0  24310-2 0  9996
2 64640  89.0066 295.9977 0049185  66.0058 294.6271 14.22690359 64014
CZ-6A DEB
1 64640U 24140AEE 25347.84609259  .00004247  00000-0  18682-2 0  9999
2 64640  89.0067 295.9419 0049183  64.4798 296.1468 14.22692454 64087
CZ-6A DEB
1 64640U 24140AEE 25348.83076410  .00002708  00000-0  11887-2 0  9996
2 64640  89.0067 295.8305 0049224  61.4153 299.1979 14.22697853 64222
CZ-6A DEB
1 64640U 24140AEE 25349.81543202  .00002594  00000-0  11386-2 0  9990
2 64640  89.0068 295.7188 0049288  58.3402 302.2583 14.22703400 64361
CZ-6A DEB
1 64640U 24140AEE 25350.80009602  .00002730  00000-0  11981-2 0  9995
2 64640  89.0066 295.6072 0049338  55.2714 305.3110 14.22709052 64503
CZ-6A DEB
1 64640U 24140AEE 25351.29242638  .00002817  00000-0  12364-2 0  9999
2 64640  89.0068 295.5514 0049333  53.7454 306.8281 14.22711939 64573
CZ-6A DEB
1 64640U 24140AEE 25351.36275917  .00002817  00000-0  12367-2 0  9996
2 64640  89.0070 295.5435 0049329  53.5242 307.0480 14.22712354 64583
CZ-6A DEB
1 64640U 24140AEE 25351.85508845  .00002810  00000-0  12333-2 0  9995
2 64640  89.0071 295.4878 0049341  51.9940 308.5691 14.22715065 64655
CZ-6A DEB
1 64640U 24140AEE 25352.34741665  .00002859  00000-0  12551-2 0  9994
2 64640  89.0075 295.4317 0049292  50.4361 310.1169 14.22717910 64721
CZ-6A DEB
1 64640U 24140AEE 25352.83974413  .00002643  00000-0  11595-2 0  9995
2 64640  89.0077 295.3759 0049299  48.9167 311.6266 14.22720033 64796
CZ-6A DEB
1 64640U 24140AEE 25354.80904524  .00002199  00000-0  96385-3 0  9997
2 64640  89.0083 295.1535 0049248  42.7808 317.7199 14.22728748 65076
CZ-6A DEB
1 64640U 24140AEE 25354.80904525  .00002199  00000-0  96385-3 0  9998
2 64640  89.0083 295.1535 0049248  42.7808 317.7199 14.22728748 65076
CZ-6A DEB
1 64640U 24140AEE 25356.28601058  .00003280  00000-0  14402-2 0  9998
2 64640  89.0083 294.9866 0049236  38.1935 322.2728 14.22739583 65288
CZ-6A DEB
1 64640U 24140AEE 25357.27064794  .00003457  00000-0  15180-2 0  9998
2 64640  89.0085 294.8756 0049203  35.1402 325.3018 14.22746184 65424
CZ-6A DEB
1 64640U 24140AEE 25357.27064794  .00003457  00000-0  15180-2 0  9998
2 64640  89.0085 294.8756 0049203  35.1402 325.3018 14.22746184 65424
CZ-6A DEB
1 64640U 24140AEE 25358.81792392  .00003492  00000-0  15331-2 0  9998
2 64640  89.0083 294.7009 0049054  30.3020 330.0991 14.22757432 65644
CZ-6A DEB
1 64640U 24140AEE 25358.81792393  .00003492  00000-0  15331-2 0  9999
2 64640  89.0083 294.7009 0049054  30.3020 330.0991 14.22757432 65644
CZ-6A DEB
1 64640U 24140AEE 25359.31023613  .00003614  00000-0  15868-2 0  9998
2 64640  89.0085 294.6455 0049052  28.7755 331.6126 14.22761673 65711
CZ-6A DEB
1 64640U 24140AEE 25359.31023614  .00003614  00000-0  15868-2 0  9999
2 64640  89.0085 294.6455 0049052  28.7755 331.6126 14.22761673 65711
CZ-6A DEB
1 64640U 24140AEE 25359.80254690  .00003715  00000-0  16315-2 0  9993
2 64640  89.0079 294.5896 0048997  27.2494 333.1252 14.22765831 65787
CZ-6A DEB
1 64640U 24140AEE 25359.80254690  .00003715  00000-0  16315-2 0  9993
2 64640  89.0079 294.5896 0048997  27.2494 333.1252 14.22765831 65787
CZ-6A DEB
1 64640U 24140AEE 25360.78716433  .00003749  00000-0  16460-2 0  9998
2 64640  89.0077 294.4782 0048909  24.1526 336.1943 14.22773688 65928
CZ-6A DEB
1 64640U 24140AEE 25360.78716434  .00003749  00000-0  16460-2 0  9999
2 64640  89.0077 294.4782 0048909  24.1526 336.1943 14.22773688 65928
CZ-6A DEB
1 64640U 24140AEE 25362.26407850  .00004859  00000-0  21345-2 0  9994
2 64640  89.0075 294.3113 0048784  19.5759 340.7291 14.22789269 66133
CZ-6A DEB
1 64640U 24140AEE 25362.26407850  .00004859  00000-0  21345-2 0  9994
2 64640  89.0075 294.3113 0048784  19.5759 340.7291 14.22789269 66133
CZ-6A DEB
1 64640U 24140AEE 25363.24867887  .00005551  00000-0  24391-2 0  9997
2 64640  89.0079 294.2000 0048650  16.4678 343.8080 14.22800555 66276
CZ-6A DEB
1 64640U 24140AEE 25363.31900719  .00005531  00000-0  24302-2 0  9997
2 64640  89.0082 294.1922 0048648  16.2133 344.0601 14.22801237 66284
CZ-6A DEB
1 64640U 24140AEE 25363.31900719  .00005531  00000-0  24302-2 0  9997
2 64640  89.0082 294.1923 0048648  16.2133 344.0601 14.22801237 66285
CZ-6A DEB
1 64640U 24140AEE 25364.23327121  .00006086  00000-0  26740-2 0  9993
2 64640  89.0082 294.0887 0048559  13.3639 346.8826 14.22812745 66413
CZ-6A DEB
1 64640U 24140AEE 25364.79589182  .00006200  00000-0  27237-2 0  9991
2 64640  89.0085 294.0251 0048543  11.6312 348.5989 14.22819692 66498
CZ-6A DEB
1 64640U 24140AEE 25364.79589182  .00006200  00000-0  27237-2 0  9991
2 64640  89.0085 294.0251 0048543  11.6312 348.5989 14.22819692 66498
CZ-6A DEB
1 64640U 24140AEE 25365.78047055  .00006672  00000-0  29306-2 0  9991
2 64640  89.0087 293.9138 0048440   8.5520 351.6485 14.22833003 66638
CZ-6A DEB
1 64640U 24140AEE 26001.76504073  .00006856  00000-0  30111-2 0  9995
2 64640  89.0091 293.8024 0048333   5.4502 354.7206 14.22845396 66771
CZ-6A DEB
1 64640U 24140AEE 26001.76504074  .00006856  00000-0  30111-2 0  9996
2 64640  89.0091 293.8025 0048333   5.4502 354.7206 14.22845396 66772
CZ-6A DEB
1 64640U 24140AEE 26002.25732285  .00006536  00000-0  28704-2 0  9998
2 64640  89.0089 293.7469 0048305   3.9322 356.2239 14.22850835 66847
CZ-6A DEB
1 64640U 24140AEE 26002.25732285  .00006536  00000-0  28704-2 0  9998
2 64640  89.0089 293.7469 0048305   3.9322 356.2239 14.22850835 66847
CZ-6A DEB
1 64640U 24140AEE 26002.81992825  .00006699  00000-0  29417-2 0  9990
2 64640  89.0091 293.6835 0048247   2.1360 358.0028 14.22858049 66924
CZ-6A DEB
1 64640U 24140AEE 26002.81992826  .00006699  00000-0  29417-2 0  9991
2 64640  89.0091 293.6835 0048247   2.1360 358.0029 14.22858049 66925
CZ-6A DEB
1 64640U 24140AEE 26004.22642969  .00005047  00000-0  22148-2 0  9998
2 64640  89.0089 293.5246 0048031 357.6258   2.4698 14.22872196 67126
CZ-6A DEB
1 64640U 24140AEE 26004.22642969  .00005047  00000-0  22148-2 0  9998
2 64640  89.0089 293.5246 0048031 357.6258   2.4698 14.22872196 67126
CZ-6A DEB
1 64640U 24140AEE 26005.07032424  .00004259  00000-0  18679-2 0  9999
2 64640  89.0084 293.4295 0047927 354.9790   5.0914 14.22879483 67247
CZ-6A DEB
1 64640U 24140AEE 26005.07032425  .00004259  00000-0  18679-2 0  9990
2 64640  89.0084 293.4295 0047927 354.9790   5.0914 14.22879483 67247
CZ-6A DEB
1 64640U 24140AEE 26005.77356601  .00004793  00000-0  21027-2 0  9996
2 64640  89.0090 293.3499 0047786 352.8244   7.2258 14.22887504 67342
CZ-6A DEB
1 64640U 24140AEE 26006.75810011  .00003931  00000-0  17234-2 0  9993
2 64640  89.0086 293.2384 0047672 349.7736  10.2481 14.22894380 67481
CZ-6A DEB
1 64640U 24140AEE 26007.53165888  .00003254  00000-0  14258-2 0  9996
2 64640  89.0080 293.1507 0047581 347.2655  12.7331 14.22899187 67596
CZ-6A DEB
1 64640U 24140AEE 26007.53165888  .00003254  00000-0  14258-2 0  9996
2 64640  89.0080 293.1507 0047581 347.2655  12.7331 14.22899187 67596
CZ-6A DEB
1 64640U 24140AEE 26008.23489162  .00003698  00000-0  16208-2 0  9997
2 64640  89.0078 293.0712 0047490 345.0240  14.9542 14.22905309 67698
CZ-6A DEB
1 64640U 24140AEE 26008.23489162  .00003698  00000-0  16208-2 0  9997
2 64640  89.0078 293.0712 0047490 345.0240  14.9542 14.22905309 67698
CZ-6A DEB
1 64640U 24140AEE 26011.18844424  .00003556  00000-0  15580-2 0  9996
2 64640  89.0074 292.7369 0047081 335.4931  24.4023 14.22925300 68115
CZ-6A DEB
1 64640U 24140AEE 26012.73552901  .00002808  00000-0  12292-2 0  9990
2 64640  89.0076 292.5618 0046884 330.5765  29.2788 14.22933036 68333
CZ-6A DEB
1 64640U 24140AEE 26012.73552901  .00002808  00000-0  12292-2 0  9990
2 64640  89.0076 292.5618 0046884 330.5765  29.2788 14.22933036 68333
CZ-6A DEB
1 64640U 24140AEE 26013.22778141  .00002494  00000-0  10910-2 0  9997
2 64640  89.0081 292.5063 0046825 328.9447  30.8978 14.22935086 68400
CZ-6A DEB
1 64640U 24140AEE 26013.22778142  .00002494  00000-0  10910-2 0  9998
2 64640  89.0081 292.5063 0046825 328.9447  30.8978 14.22935086 68400
CZ-6A DEB
1 64640U 24140AEE 26014.21228530  .00001968  00000-0  85971-3 0  9994
2 64640  89.0076 292.3945 0046718 325.7098  34.1079 14.22937638 68548
CZ-6A DEB
1 64640U 24140AEE 26014.70453539  .00001828  00000-0  79834-3 0  9993
2 64640  89.0077 292.3389 0046662 324.0449  35.7605 14.22939697 68618
CZ-6A DEB
1 64640U 24140AEE 26014.70453540  .00001828  00000-0  79834-3 0  9995
2 64640  89.0077 292.3389 0046662 324.0449  35.7605 14.22939697 68618
CZ-6A DEB
1 64640U 24140AEE 26015.19678554  .00001899  00000-0  82935-3 0  9997
2 64640  89.0080 292.2833 0046592 322.4990  37.2954 14.22942022 68687
CZ-6A DEB
1 64640U 24140AEE 26015.19678555  .00001899  00000-0  82935-3 0  9998
2 64640  89.0080 292.2833 0046592 322.4990  37.2954 14.22942022 68687
CZ-6A DEB
1 64640U 24140AEE 26017.72834714  .00002531  00000-0  11073-2 0  9998
2 64640  89.0081 291.9970 0046300 314.1626  45.5763 14.22954260 69045
CZ-6A DEB
1 64640U 24140AEE 26018.00963067  .00002772  00000-0  12134-2 0  9990
2 64640  89.0082 291.9653 0046248 313.2722  46.4614 14.22956188 69082
CZ-6A DEB
1 64640U 24140AEE 26018.78315816  .00002738  00000-0  11982-2 0  9990
2 64640  89.0081 291.8777 0046168 310.7318  48.9868 14.22960122 69194
CZ-6A DEB
1 64640U 24140AEE 26020.18956084  .00005243  00000-0  22988-2 0  9997
2 64640  89.0080 291.7187 0045937 306.1136  53.5807 14.22978295 69394
CZ-6A DEB
1 64640U 24140AEE 26022.01783537  .00008571  00000-0  37566-2 0  9997
2 64640  89.0076 291.5125 0046059 299.4631  60.1969 14.23019755 69659
CZ-6A DEB
1 64640U 24140AEE 26034.67464625  .00002827  00000-0  12347-2 0  9994
2 64640  89.0039 290.0824 0044615 257.1588 102.4617 14.23110675 71450
CZ-6A DEB
1 64640U 24140AEE 26034.67464625  .00002827  00000-0  12347-2 0  9994
2 64640  89.0040 290.0824 0044615 257.1588 102.4617 14.23110675 71452
CZ-6A DEB
1 64640U 24140AEE 26036.15122050  .00003648  00000-0  15947-2 0  9993
2 64640  89.0062 289.9127 0044269 251.9996 107.6369 14.23124144 71669
CZ-6A DEB
1 64640U 24140AEE 26036.15122051  .00003648  00000-0  15947-2 0  9994
2 64640  89.0062 289.9127 0044269 251.9996 107.6369 14.23124144 71669
CZ-6A DEB
1 64640U 24140AEE 26038.11997237  .00003475  00000-0  15186-2 0  9991
2 64640  89.0063 289.6904 0044119 245.2247 114.4351 14.23137735 71947
CZ-6A DEB
1 64640U 24140AEE 26038.11997238  .00003475  00000-0  15186-2 0  9992
2 64640  89.0063 289.6904 0044119 245.2247 114.4351 14.23137735 71947
CZ-6A DEB
1 64640U 24140AEE 26041.14338391  .00002518  00000-0  10986-2 0  9998
2 64640  89.0063 289.3477 0044039 234.8061 124.9003 14.23153204 72375
CZ-6A DEB
1 64640U 24140AEE 26041.14338391  .00002518  00000-0  10986-2 0  9998
2 64640  89.0063 289.3477 0044039 234.8061 124.9003 14.23153204 72375
CZ-6A DEB
1 64640U 24140AEE 26041.63556375  .00002532  00000-0  11044-2 0  9998
2 64640  89.0064 289.2922 0044156 233.1641 126.5498 14.23155747 72444
CZ-6A DEB
1 64640U 24140AEE 26042.12774341  .00002567  00000-0  11196-2 0  9994
2 64640  89.0062 289.2362 0044200 231.4833 128.2392 14.23158274 72512
CZ-6A DEB
1 64640U 24140AEE 26042.69023291  .00002552  00000-0  11130-2 0  9999
2 64640  89.0064 289.1724 0044222 229.5548 130.1784 14.23161322 72593
CZ-6A DEB
1 64640U 24140AEE 26043.11209972  .00002700  00000-0  11780-2 0  9995
2 64640  89.0059 289.1243 0044280 228.1079 131.6333 14.23163812 72650
CZ-6A DEB
1 64640U 24140AEE 26043.11209973  .00002700  00000-0  11780-2 0  9996
2 64640  89.0059 289.1243 0044280 228.1079 131.6333 14.23163812 72650
CZ-6A DEB
1 64640U 24140AEE 26045.64328854  .00002372  00000-0  10337-2 0  9998
2 64640  89.0072 288.8377 0044365 219.3647 140.4318 14.23175374 73014
CZ-6A DEB
1 64640U 24140AEE 26046.13546177  .00002123  00000-0  92450-3 0  9994
2 64640  89.0070 288.7819 0044390 217.6856 142.1225 14.23177030 73087
CZ-6A DEB
1 64640U 24140AEE 26046.13546178  .00002123  00000-0  92450-3 0  9995
2 64640  89.0070 288.7819 0044390 217.6856 142.1225 14.23177030 73087
CZ-6A DEB
1 64640U 24140AEE 26046.62763387  .00002583  00000-0  11259-2 0  9999
2 64640  89.0067 288.7263 0044466 216.0083 143.8111 14.23180897 73150
CZ-6A DEB
1 64640U 24140AEE 26047.11980565  .00002568  00000-0  11193-2 0  9993
2 64640  89.0062 288.6702 0044491 214.3366 145.4949 14.23183151 73226
CZ-6A DEB
1 64640U 24140AEE 26047.11980565  .00002568  00000-0  11193-2 0  9993
2 64640  89.0062 288.6702 0044491 214.3366 145.4949 14.23183151 73226
CZ-6A DEB
1 64640U 24140AEE 26047.61197647  .00002438  00000-0  10621-2 0  9990
2 64640  89.0060 288.6144 0044515 212.6476 147.1963 14.23185171 73290
CZ-6A DEB
1 64640U 24140AEE 26047.61197648  .00002438  00000-0  10621-2 0  9991
2 64640  89.0060 288.6144 0044515 212.6476 147.1963 14.23185171 73290
CZ-6A DEB
1 64640U 24140AEE 26048.66662590  .00002278  00000-0  99223-3 0  9998
2 64640  89.0057 288.4950 0044579 209.0323 150.8389 14.23189743 73449
CZ-6A DEB
1 64640U 24140AEE 26048.66662590  .00002278  00000-0  99223-3 0  9998
2 64640  89.0057 288.4950 0044579 209.0323 150.8389 14.23189743 73449
CZ-6A DEB
1 64640U 24140AEE 26049.08848464  .00002342  00000-0  10199-2 0  9997
2 64640  89.0057 288.4473 0044606 207.5873 152.2952 14.23191964 73500
CZ-6A DEB
1 64640U 24140AEE 26049.08848465  .00002342  00000-0  10199-2 0  9998
2 64640  89.0057 288.4473 0044606 207.5873 152.2952 14.23191964 73500
CZ-6A DEB
1 64640U 24140AEE 26052.11179058  .00002152  00000-0  93654-3 0  9998
2 64640  89.0051 288.1046 0044885 197.3659 162.6001 14.23205061 73935
CZ-6A DEB
1 64640U 24140AEE 26052.11179059  .00002152  00000-0  93654-3 0  9999
2 64640  89.0051 288.1046 0044885 197.3659 162.6001 14.23205061 73935
CZ-6A DEB
1 64640U 24140AEE 26052.67426328  .00002057  00000-0  89466-3 0  9994
2 64640  89.0050 288.0407 0044933 195.4604 164.5219 14.23207172 74014
CZ-6A DEB
1 64640U 24140AEE 26052.67426328  .00002057  00000-0  89466-3 0  9994
2 64640  89.0050 288.0407 0044933 195.4604 164.5219 14.23207172 74014
CZ-6A DEB
1 64640U 24140AEE 26053.58827912  .00002471  00000-0  10760-2 0  9999
2 64640  89.0049 287.9369 0045034 192.3724 167.6366 14.23212423 74145
CZ-6A DEB
1 64640U 24140AEE 26054.08044032  .00002582  00000-0  11242-2 0  9998
2 64640  89.0049 287.8811 0045082 190.6963 169.3275 14.23215037 74215
CZ-6A DEB
1 64640U 24140AEE 26054.08044033  .00002582  00000-0  11242-2 0  9999
2 64640  89.0049 287.8811 0045082 190.6963 169.3275 14.23215037 74215
CZ-6A DEB
1 64640U 24140AEE 26056.61154147  .00002199  00000-0  95652-3 0  9990
2 64640  89.0045 287.5935 0045382 182.2770 177.8222 14.23226441 74577
CZ-6A DEB
1 64640U 24140AEE 26056.61154148  .00002199  00000-0  95652-3 0  9991
2 64640  89.0045 287.5935 0045382 182.2771 177.8222 14.23226441 74578
CZ-6A DEB
1 64640U 24140AEE 26057.59585230  .00002341  00000-0  10182-2 0  9992
2 64640  89.0043 287.4815 0045512 179.0624 181.0662 14.23231867 74717
CZ-6A DEB
1 64640U 24140AEE 26057.59585231  .00002341  00000-0  10182-2 0  9993
2 64640  89.0043 287.4816 0045512 179.0624 181.0662 14.23231867 74718
CZ-6A DEB
1 64640U 24140AEE 26060.05661561  .00002639  00000-0  11482-2 0  9993
2 64640  89.0041 287.2023 0045832 170.9004 189.3029 14.23244808 75067
CZ-6A DEB
1 64640U 24140AEE 26060.05661562  .00002639  00000-0  11482-2 0  9994
2 64640  89.0041 287.2023 0045832 170.9004 189.3029 14.23244808 75067
CZ-6A DEB
1 64640U 24140AEE 26060.61907278  .00002775  00000-0  12074-2 0  9992
2 64640  89.0041 287.1387 0045899 169.0146 191.2060 14.23248071 75140
CZ-6A DEB
1 64640U 24140AEE 26060.61907278  .00002775  00000-0  12074-2 0  9992
2 64640  89.0041 287.1387 0045899 169.0146 191.2060 14.23248071 75140
CZ-6A DEB
1 64640U 24140AEE 26061.11122161  .00002689  00000-0  11699-2 0  9994
2 64640  89.0039 287.0828 0045967 167.4057 192.8295 14.23250424 75215
CZ-6A DEB
1 64640U 24140AEE 26061.11122161  .00002689  00000-0  11699-2 0  9994
2 64640  89.0039 287.0828 0045967 167.4057 192.8295 14.23250424 75215
CZ-6A DEB
1 64640U 24140AEE 26062.58766226  .00003051  00000-0  13276-2 0  9999
2 64640  89.0037 286.9155 0046172 162.6311 197.6474 14.23259534 75429
CZ-6A DEB
1 64640U 24140AEE 26062.58766226  .00003051  00000-0  13276-2 0  9999
2 64640  89.0037 286.9155 0046172 162.6311 197.6474 14.23259534 75429
CZ-6A DEB
1 64640U 24140AEE 26063.07980698  .00003283  00000-0  14289-2 0  9997
2 64640  89.0033 286.8592 0046234 161.0061 199.2869 14.23263127 75499
CZ-6A DEB
1 64640U 24140AEE 26063.07980698  .00003283  00000-0  14289-2 0  9997
2 64640  89.0033 286.8592 0046234 161.0061 199.2869 14.23263127 75499
CZ-6A DEB
1 64640U 24140AEE 26066.03265308  .00002795  00000-0  12151-2 0  9993
2 64640  89.0028 286.5237 0046619 151.4251 208.9511 14.23279453 75915
CZ-6A DEB
1 64640U 24140AEE 26066.03265309  .00002795  00000-0  12151-2 0  9994
2 64640  89.0028 286.5237 0046619 151.4251 208.9511 14.23279453 75915
CZ-6A DEB
1 64640U 24140AEE 26068.56363273  .00002962  00000-0  12874-2 0  9991
2 64640  89.0028 286.2358 0046932 143.2187 217.2241 14.23295769 76272
CZ-6A DEB
1 64640U 24140AEE 26068.56363274  .00002962  00000-0  12874-2 0  9992
2 64640  89.0028 286.2358 0046932 143.2187 217.2241 14.23295769 76272
CZ-6A DEB
1 64640U 24140AEE 26069.05576421  .00002920  00000-0  12691-2 0  9998
2 64640  89.0030 286.1798 0046991 141.6442 218.8108 14.23298798 76345
CZ-6A DEB
1 64640U 24140AEE 26069.05576422  .00002920  00000-0  12691-2 0  9999
2 64640  89.0030 286.1798 0046991 141.6442 218.8108 14.23298798 76345
CZ-6A DEB
1 64640U 24140AEE 26069.54789440  .00002857  00000-0  12413-2 0  9990
2 64640  89.0030 286.1239 0047039 140.1008 220.3657 14.23301763 76413
CZ-6A DEB
1 64640U 24140AEE 26069.54789440  .00002857  00000-0  12413-2 0  9990
2 64640  89.0030 286.1239 0047039 140.1008 220.3657 14.23301763 76413
CZ-6A DEB
1 64640U 24140AEE 26070.04002369  .00002787  00000-0  12106-2 0  9996
2 64640  89.0031 286.0679 0047113 138.5105 221.9679 14.23304672 76483
CZ-6A DEB
1 64640U 24140AEE 26070.04002370  .00002787  00000-0  12106-2 0  9998
2 64640  89.0031 286.0679 0047113 138.5105 221.9679 14.23304672 76483
CZ-6A DEB
1 64640U 24140AEE 26070.60245610  .00002770  00000-0  12030-2 0  9994
2 64640  89.0031 286.0040 0047182 136.7068 223.7847 14.23307926 76560
CZ-6A DEB
1 64640U 24140AEE 26070.60245611  .00002770  00000-0  12030-2 0  9995
2 64640  89.0031 286.0040 0047182 136.7068 223.7847 14.23307926 76560
CZ-6A DEB
1 64640U 24140AEE 26071.58671007  .00002855  00000-0  12399-2 0  9997
2 64640  89.0033 285.8922 0047349 133.5281 226.9860 14.23313574 76707
CZ-6A DEB
1 64640U 24140AEE 26071.58671008  .00002855  00000-0  12399-2 0  9998
2 64640  89.0033 285.8922 0047349 133.5281 226.9860 14.23313574 76707
CZ-6A DEB
1 64640U 24140AEE 26072.57095995  .00002869  00000-0  12460-2 0  9997
2 64640  89.0034 285.7804 0047462 130.4179 230.1168 14.23318971 76843
CZ-6A DEB
1 64640U 24140AEE 26073.55520533  .00003019  00000-0  13111-2 0  9999
2 64640  89.0032 285.6685 0047572 127.3060 233.2483 14.23325068 76987
CZ-6A DEB
1 64640U 24140AEE 26074.53944668  .00002402  00000-0  10420-2 0  9992
2 64640  89.0031 285.5565 0047652 124.2266 236.3455 14.23328776 77124
CZ-6A DEB
1 64640U 24140AEE 26075.52368467  .00002397  00000-0  10393-2 0  9991
2 64640  89.0028 285.4447 0047747 121.1173 239.4716 14.23334004 77266
CZ-6A DEB
1 64640U 24140AEE 26078.54668090  .00002161  00000-0  93631-3 0  9997
2 64640  89.0020 285.1010 0048025 111.6651 248.9665 14.23346914 77694
CZ-6A DEB
1 64640U 24140AEE 26079.53090657  .00002421  00000-0  10493-2 0  9998
2 64640  89.0020 284.9890 0048037 108.6179 252.0239 14.23351398 77832
CZ-6A DEB
1 64640U 24140AEE 26079.53090658  .00002421  00000-0  10493-2 0  9999
2 64640  89.0020 284.9890 0048037 108.6179 252.0239 14.23351398 77832
CZ-6A DEB
1 64640U 24140AEE 26079.81211332  .00002505  00000-0  10859-2 0  9993
2 64640  89.0016 284.9565 0048094 107.7179 252.9271 14.23352724 77872
CZ-6A DEB
1 64640U 24140AEE 26079.81211333  .00002505  00000-0  10859-2 0  9994
2 64640  89.0016 284.9565 0048094 107.7179 252.9271 14.23352724 77872
CZ-6A DEB
1 64640U 24140AEE 26080.51512804  .00002809  00000-0  12184-2 0  9990
2 64640  89.0014 284.8762 0048135 105.5313 255.1201 14.23357013 77975
CZ-6A DEB
1 64640U 24140AEE 26081.00723720  .00002874  00000-0  12466-2 0  9991
2 64640  89.0017 284.8202 0048159 103.9876 256.6678 14.23359672 78045
CZ-6A DEB
1 64640U 24140AEE 26085.50646769  .00002470  00000-0  10701-2 0  9999
2 64640  89.0021 284.3076 0048221  90.0268 270.6449 14.23385061 78688
CZ-6A DEB
1 64640U 24140AEE 26085.50646769  .00002470  00000-0  10701-2 0  9999
2 64640  89.0021 284.3076 0048221  90.0268 270.6449 14.23385061 78688
CZ-6A DEB
1 64640U 24140AEE 26085.99856607  .00002679  00000-0  11608-2 0  9994
2 64640  89.0017 284.2517 0048298  88.4774 272.1950 14.23388378 78755
CZ-6A DEB
1 64640U 24140AEE 26085.99856607  .00002679  00000-0  11608-2 0  9994
2 64640  89.0017 284.2517 0048298  88.4774 272.1950 14.23388378 78755
CZ-6A DEB
1 64640U 24140AEE 26086.49066338  .00002550  00000-0  11048-2 0  9990
2 64640  89.0016 284.1956 0048272  86.9576 273.7138 14.23390518 78827
CZ-6A DEB
1 64640U 24140AEE 26086.49066339  .00002550  00000-0  11048-2 0  9991
2 64640  89.0016 284.1956 0048272  86.9576 273.7138 14.23390518 78827
CZ-6A DEB
1 64640U 24140AEE 26086.98275992  .00002651  00000-0  11485-2 0  9999
2 64640  89.0016 284.1396 0048273  85.4357 275.2347 14.23393290 78893
CZ-6A DEB
1 64640U 24140AEE 26086.98275992  .00002651  00000-0  11485-2 0  9999
2 64640  89.0016 284.1396 0048273  85.4357 275.2347 14.23393290 78893
CZ-6A DEB
1 64640U 24140AEE 26088.24814489  .00003416  00000-0  14818-2 0  9993
2 64640  89.0014 283.9954 0048269  81.5335 279.1324 14.23402905 79079
CZ-6A DEB
1 64640U 24140AEE 26089.51352186  .00003475  00000-0  15070-2 0  9991
2 64640  89.0012 283.8515 0048213  77.6043 283.0539 14.23411145 79258
CZ-6A DEB
1 64640U 24140AEE 26089.51352186  .00003475  00000-0  15070-2 0  9991
2 64640  89.0012 283.8515 0048213  77.6043 283.0539 14.23411145 79258
CZ-6A DEB
1 64640U 24140AEE 26090.49769816  .00003561  00000-0  15444-2 0  9993
2 64640  89.0011 283.7393 0048183  74.5151 286.1354 14.23418110 79395
CZ-6A DEB
1 64640U 24140AEE 26090.49769816  .00003561  00000-0  15444-2 0  9993
2 64640  89.0011 283.7393 0048183  74.5151 286.1354 14.23418110 79395
CZ-6A DEB
1 64640U 24140AEE 26091.48186943  .00002837  00000-0  12291-2 0  9999
2 64640  89.0010 283.6271 0048174  71.5171 289.1248 14.23422733 79534
CZ-6A DEB
1 64640U 24140AEE 26091.48186943  .00002837  00000-0  12291-2 0  9999
2 64640  89.0010 283.6271 0048174  71.5171 289.1248 14.23422733 79534
CZ-6A DEB
1 64640U 24140AEE 26093.52049098  .00004539  00000-0  19693-2 0  9999
2 64640  89.0008 283.3949 0048058  65.2286 295.3895 14.23443283 79820
CZ-6A DEB
1 64640U 24140AEE 26093.52049099  .00004539  00000-0  19693-2 0  9990
2 64640  89.0008 283.3950 0048058  65.2286 295.3895 14.23443283 79822
CZ-6A DEB
1 64640U 24140AEE 26096.47293121  .00003232  00000-0  14003-2 0  9993
2 64640  89.0011 283.0580 0047798  56.0413 304.5308 14.23464820 80242
CZ-6A DEB
1 64640U 24140AEE 26097.24618271  .00002987  00000-0  12937-2 0  9996
2 64640  89.0014 282.9698 0047700  53.5131 307.0441 14.23468931 80350
CZ-6A DEB
1 64640U 24140AEE 26097.45706904  .00002927  00000-0  12674-2 0  9992
2 64640  89.0007 282.9449 0047670  52.8925 307.6609 14.23470037 80380
CZ-6A DEB
1 64640U 24140AEE 26097.94913691  .00002510  00000-0  10860-2 0  9992
2 64640  89.0007 282.8884 0047597  51.3553 309.1884 14.23471541 80452
CZ-6A DEB
1 64640U 24140AEE 26097.94913692  .00002510  00000-0  10860-2 0  9993
2 64640  89.0007 282.8884 0047597  51.3553 309.1884 14.23471541 80452
CZ-6A DEB
1 64640U 24140AEE 26098.93326941  .00002222  00000-0  96075-3 0  9991
2 64640  89.0010 282.7764 0047506  48.2647 312.2592 14.23476068 80596
CZ-6A DEB
1 64640U 24140AEE 26098.93326942  .00002222  00000-0  96075-3 0  9992
2 64640  89.0010 282.7764 0047506  48.2647 312.2592 14.23476068 80596
CZ-6A DEB
1 64640U 24140AEE 26100.47975719  .00002600  00000-0  11250-2 0  9998
2 64640  89.0016 282.6009 0047343  43.3859 317.1044 14.23484020 80811
CZ-6A DEB
1 64640U 24140AEE 26100.76093594  .00002531  00000-0  10952-2 0  9993
2 64640  89.0021 282.5682 0047384  42.5410 317.9437 14.23485375 80854
CZ-6A DEB
1 64640U 24140AEE 26101.25299820  .00002148  00000-0  92830-3 0  9998
2 64640  89.0028 282.5134 0047223  40.9199 319.5521 14.23486219 80929
CZ-6A DEB
1 64640U 24140AEE 26101.46388176  .00002141  00000-0  92536-3 0  9990
2 64640  89.0027 282.4894 0047194  40.2499 320.2172 14.23487148 80959
CZ-6A DEB
1 64640U 24140AEE 26101.46388176  .00002141  00000-0  92536-3 0  9990
2 64640  89.0027 282.4894 0047194  40.2499 320.2172 14.23487148 80959
CZ-6A DEB
1 64640U 24140AEE 26102.51829777  .00001884  00000-0  81351-3 0  9990
2 64640  89.0008 282.3690 0047054  36.8815 323.5597 14.23490698 81108
CZ-6A DEB
1 64640U 24140AEE 26102.94006338  .00001835  00000-0  79238-3 0  9994
2 64640  89.0005 282.3207 0046972  35.5378 324.8927 14.23492172 81163
CZ-6A DEB
1 64640U 24140AEE 26102.94006338  .00001835  00000-0  79238-3 0  9994
2 64640  89.0005 282.3207 0046972  35.5378 324.8927 14.23492172 81163
CZ-6A DEB
1 64640U 24140AEE 26103.50241691  .00001712  00000-0  73864-3 0  9993
2 64640  89.0004 282.2566 0046911  33.7623 326.6540 14.23493865 81245
CZ-6A DEB
1 64640U 24140AEE 26103.50241692  .00001712  00000-0  73864-3 0  9994
2 64640  89.0004 282.2566 0046911  33.7623 326.6541 14.23493865 81246
CZ-6A DEB
1 64640U 24140AEE 26104.48653402  .00001603  00000-0  69117-3 0  9993
2 64640  89.0009 282.1447 0046805  30.6526 329.7385 14.23496775 81386
CZ-6A DEB
1 64640U 24140AEE 26104.48653402  .00001603  00000-0  69117-3 0  9993
2 64640  89.0009 282.1447 0046805  30.6526 329.7385 14.23496775 81386
CZ-6A DEB
1 64640U 24140AEE 26106.45476147  .00001628  00000-0  70237-3 0  9993
2 64640  89.0000 281.9197 0046530  24.3161 336.0212 14.23502823 81669
CZ-6A DEB
1 64640U 24140AEE 26106.45476148  .00001628  00000-0  70237-3 0  9994
2 64640  89.0000 281.9197 0046530  24.3161 336.0212 14.23502823 81669
CZ-6A DEB
1 64640U 24140AEE 26107.93092675  .00001817  00000-0  78455-3 0  9997
2 64640  89.0014 281.7522 0046245  19.5349 340.7602 14.23507535 81874
CZ-6A DEB
1 64640U 24140AEE 26108.91503316  .00001760  00000-0  75972-3 0  9993
2 64640  89.0014 281.6399 0046147  16.2977 343.9686 14.23511281 82014
CZ-6A DEB
1 64640U 24140AEE 26108.91503316  .00001760  00000-0  75972-3 0  9993
2 64640  89.0014 281.6399 0046147  16.2977 343.9686 14.23511281 82014
CZ-6A DEB
1 64640U 24140AEE 26111.93763139  .00001843  00000-0  79592-3 0  9994
2 64640  89.0018 281.2957 0045677   6.4197 353.7570 14.23521936 82442
CZ-6A DEB
1 64640U 24140AEE 26111.93763139  .00001843  00000-0  79592-3 0  9994
2 64640  89.0018 281.2957 0045677   6.4197 353.7570 14.23521936 82442
CZ-6A DEB
1 64640U 24140AEE 26111.93763139  .00001843  00000-0  79592-3 0  9994
2 64640  89.0018 281.2957 0045677   6.4197 353.7570 14.23521936 82442
CZ-6A DEB
1 64640U 24140AEE 26114.18699088  .00001943  00000-0  83972-3 0  9993
2 64640  89.0019 281.0393 0045342 359.0051   1.1043 14.23530816 82761
CZ-6A DEB
1 64640U 24140AEE 26114.18699088  .00001943  00000-0  83972-3 0  9993
2 64640  89.0019 281.0393 0045342 359.0051   1.1043 14.23530816 82761
CZ-6A DEB
1 64640U 24140AEE 26114.88991250  .00001995  00000-0  86211-3 0  9992
2 64640  89.0021 280.9593 0045235 356.6594   3.4289 14.23533899 82862
CZ-6A DEB
1 64640U 24140AEE 26115.73341618  .00002090  00000-0  90338-3 0  9996
2 64640  89.0022 280.8632 0045111 353.8486   6.2146 14.23537905 82986
CZ-6A DEB
1 64640U 24140AEE 26115.73341619  .00002090  00000-0  90338-3 0  9997
2 64640  89.0022 280.8633 0045111 353.8486   6.2146 14.23537905 82987
CZ-6A DEB
1 64640U 24140AEE 26117.42041598  .00002410  00000-0  10426-2 0  9993
2 64640  89.0020 280.6711 0044907 348.2623  11.7518 14.23547232 83229
CZ-6A DEB
1 64640U 24140AEE 26117.42041599  .00002410  00000-0  10426-2 0  9994
2 64640  89.0020 280.6711 0044907 348.2623  11.7518 14.23547232 83229
CZ-6A DEB
1 64640U 24140AEE 26118.40449487  .00002538  00000-0  10982-2 0  9999
2 64640  89.0019 280.5586 0044793 345.0128  14.9733 14.23552549 83360
CZ-6A DEB
1 64640U 24140AEE 26118.89653293  .00002489  00000-0  10771-2 0  9995
2 64640  89.0018 280.5023 0044726 343.3552  16.6169 14.23554713 83438
CZ-6A DEB
1 64640U 24140AEE 26119.17769721  .00002491  00000-0  10780-2 0  9994
2 64640  89.0025 280.4710 0044587 342.4126  17.5519 14.23556228 83476
CZ-6A DEB
1 64640U 24140AEE 26119.17769722  .00002491  00000-0  10780-2 0  9995
2 64640  89.0025 280.4710 0044587 342.4127  17.5519 14.23556228 83477
CZ-6A DEB
1 64640U 24140AEE 26119.45886105  .00002518  00000-0  10895-2 0  9998
2 64640  89.0022 280.4388 0044547 341.4330  18.5234 14.23557804 83517
CZ-6A DEB
1 64640U 24140AEE 26119.45886106  .00002518  00000-0  10895-2 0  9999
2 64640  89.0022 280.4388 0044547 341.4331  18.5234 14.23557804 83518
CZ-6A DEB
1 64640U 24140AEE 26119.88060634  .00002606  00000-0  11281-2 0  9994
2 64640  89.0022 280.3907 0044485 340.0060  19.9387 14.23560254 83572
CZ-6A DEB
1 64640U 24140AEE 26119.88060635  .00002606  00000-0  11281-2 0  9995
2 64640  89.0022 280.3908 0044485 340.0060  19.9387 14.23560254 83573
CZ-6A DEB
1 64640U 24140AEE 26120.44293257  .00002498  00000-0  10808-2 0  9990
2 64640  89.0022 280.3266 0044402 338.0867  21.8425 14.23562748 83655
CZ-6A DEB
1 64640U 24140AEE 26120.44293257  .00002498  00000-0  10808-2 0  9990
2 64640  89.0022 280.3266 0044402 338.0867  21.8425 14.23562748 83655
CZ-6A DEB
1 64640U 24140AEE 26120.86467639  .00002589  00000-0  11206-2 0  9997
2 64640  89.0025 280.2786 0044341 336.6525  23.2652 14.23565212 83715
CZ-6A DEB
1 64640U 24140AEE 26122.41106510  .00002655  00000-0  11489-2 0  9995
2 64640  89.0026 280.1025 0044162 331.3663  28.5104 14.23573498 83936
CZ-6A DEB
1 64640U 24140AEE 26122.41106511  .00002655  00000-0  11489-2 0  9996
2 64640  89.0026 280.1025 0044162 331.3663  28.5104 14.23573498 83936
CZ-6A DEB
1 64640U 24140AEE 26122.69222591  .00002618  00000-0  11329-2 0  9995
2 64640  89.0026 280.0703 0044141 330.4186  29.4509 14.23574783 83976
CZ-6A DEB
1 64640U 24140AEE 26122.69222592  .00002618  00000-0  11329-2 0  9996
2 64640  89.0026 280.0703 0044141 330.4186  29.4509 14.23574783 83976
CZ-6A DEB
1 64640U 24140AEE 26123.88715533  .00002521  00000-0  10908-2 0  9995
2 64640  89.0029 279.9342 0044020 326.3136  33.5259 14.23581137 84149
CZ-6A DEB
1 64640U 24140AEE 26124.16831454  .00002366  00000-0  10232-2 0  9995
2 64640  89.0029 279.9022 0043990 325.3533  34.4795 14.23582135 84187
CZ-6A DEB
1 64640U 24140AEE 26124.16831454  .00002366  00000-0  10232-2 0  9995
2 64640  89.0029 279.9022 0043990 325.3533  34.4795 14.23582134 84186
CZ-6A DEB
1 64640U 24140AEE 26124.87121132  .00002371  00000-0  10253-2 0  9997
2 64640  89.0031 279.8222 0043918 322.9463  36.8698 14.23585915 84284
CZ-6A DEB
1 64640U 24140AEE 26124.87121132  .00002371  00000-0  10253-2 0  9997
2 64640  89.0031 279.8222 0043918 322.9463  36.8698 14.23585915 84284
CZ-6A DEB
1 64640U 24140AEE 26125.85526396  .00002482  00000-0  10736-2 0  9996
2 64640  89.0034 279.7102 0043805 319.5815  40.2125 14.23591388 84422
CZ-6A DEB
1 64640U 24140AEE 26125.85526396  .00002482  00000-0  10736-2 0  9996
2 64640  89.0034 279.7102 0043805 319.5815  40.2125 14.23591388 84422
CZ-6A DEB
1 64640U 24140AEE 26127.40162649  .00002184  00000-0  94392-3 0  9996
2 64640  89.0035 279.5343 0043681 314.2190  45.5417 14.23598078 84647
CZ-6A DEB
1 64640U 24140AEE 26127.40162650  .00002184  00000-0  94392-3 0  9998
2 64640  89.0035 279.5343 0043681 314.2190  45.5417 14.23598078 84647
CZ-6A DEB
1 64640U 24140AEE 26128.38567205  .00002049  00000-0  88515-3 0  9991
2 64640  89.0034 279.4224 0043614 310.8176  48.9236 14.23602110 84789
CZ-6A DEB
1 64640U 24140AEE 26128.38567205  .00002049  00000-0  88515-3 0  9991
2 64640  89.0034 279.4224 0043614 310.8176  48.9236 14.23602110 84789
CZ-6A DEB
1 64640U 24140AEE 26129.36971503  .00001993  00000-0  86095-3 0  9998
2 64640  89.0032 279.3105 0043560 307.4053  52.3177 14.23606053 84929
CZ-6A DEB
1 64640U 24140AEE 26129.36971504  .00001993  00000-0  86095-3 0  9999
2 64640  89.0032 279.3105 0043560 307.4053  52.3177 14.23606053 84929
CZ-6A DEB
1 64640U 24140AEE 26130.84577595  .00001778  00000-0  76733-3 0  9995
2 64640  89.0031 279.1426 0043467 302.3136  57.3850 14.23610924 85133
CZ-6A DEB
1 64640U 24140AEE 26130.84577596  .00001778  00000-0  76733-3 0  9996
2 64640  89.0031 279.1426 0043467 302.3136  57.3850 14.23610924 85133
CZ-6A DEB
1 64640U 24140AEE 26131.82981385  .00001694  00000-0  73062-3 0  9999
2 64640  89.0030 279.0307 0043420 298.8921  60.7917 14.23614234 85274
CZ-6A DEB
1 64640U 24140AEE 26131.82981386  .00001694  00000-0  73062-3 0  9990
2 64640  89.0030 279.0308 0043420 298.8921  60.7917 14.23614234 85275
CZ-6A DEB
1 64640U 24140AEE 26132.39212014  .00001729  00000-0  74585-3 0  9998
2 64640  89.0027 278.9666 0043419 296.8861  62.7896 14.23616292 85358
CZ-6A DEB
1 64640U 24140AEE 26132.39212015  .00001729  00000-0  74585-3 0  9999
2 64640  89.0027 278.9666 0043419 296.8861  62.7896 14.23616292 85358
CZ-6A DEB
1 64640U 24140AEE 26135.83623432  .00001666  00000-0  71831-3 0  9991
2 64640  89.0033 278.5746 0043432 284.9812  74.6575 14.23627318 85840
CZ-6A DEB
1 64640U 24140AEE 26136.82026227  .00001687  00000-0  72737-3 0  9999
2 64640  89.0035 278.4628 0043457 281.5457  78.0858 14.23630731 85985
CZ-6A DEB
1 64640U 24140AEE 26136.82026227  .00001687  00000-0  72737-3 0  9999
2 64640  89.0035 278.4628 0043457 281.5457  78.0857 14.23630731 85984
CZ-6A DEB
1 64640U 24140AEE 26138.36658837  .00001694  00000-0  73032-3 0  9995
2 64640  89.0035 278.2870 0043534 276.1296  83.4936 14.23635838 86205
CZ-6A DEB
1 64640U 24140AEE 26138.36658837  .00001694  00000-0  73032-3 0  9995
2 64640  89.0035 278.2870 0043534 276.1296  83.4936 14.23635838 86205
CZ-6A DEB
1 64640U 24140AEE 26139.84262159  .00001775  00000-0  76557-3 0  9992
2 64640  89.0036 278.1190 0043576 271.0087  88.6113 14.23641467 86410
CZ-6A DEB
1 64640U 24140AEE 26139.84262159  .00001775  00000-0  76557-3 0  9992
2 64640  89.0036 278.1190 0043576 271.0087  88.6113 14.23641466 86419
CZ-6A DEB
1 64640U 24140AEE 26140.12377038  .00001765  00000-0  76103-3 0  9994
2 64640  89.0036 278.0871 0043582 270.0221  89.5977 14.23642351 86456
CZ-6A DEB
1 64640U 24140AEE 26140.12377039  .00001765  00000-0  76103-3 0  9995
2 64640  89.0036 278.0871 0043582 270.0221  89.5977 14.23642351 86456
CZ-6A DEB
1 64640U 24140AEE 26140.33463172  .00001761  00000-0  75948-3 0  9994
2 64640  89.0037 278.0631 0043599 269.2895  90.3301 14.23643110 86484
CZ-6A DEB
1 64640U 24140AEE 26140.33463173  .00001761  00000-0  75948-3 0  9995
2 64640  89.0037 278.0631 0043599 269.2895  90.3301 14.23643110 86484
CZ-6A DEB
1 64640U 24140AEE 26141.81065821  .00001871  00000-0  80687-3 0  9995
2 64640  89.0039 277.8952 0043712 264.1645  95.4563 14.23649139 86699
CZ-6A DEB
1 64640U 24140AEE 26141.81065821  .00001871  00000-0  80687-3 0  9995
2 64640  89.0039 277.8952 0043712 264.1645  95.4563 14.23649139 86699
CZ-6A DEB
1 64640U 24140AEE 26142.79467281  .00001895  00000-0  81743-3 0  9999
2 64640  89.0039 277.7834 0043793 260.7624  98.8614 14.23653037 86837
CZ-6A DEB
1 64640U 24140AEE 26143.35696569  .00002001  00000-0  86346-3 0  9999
2 64640  89.0039 277.7194 0043841 258.8254 100.8008 14.23655800 86917
CZ-6A DEB
1 64640U 24140AEE 26144.83298034  .00002211  00000-0  95433-3 0  9998
2 64640  89.0039 277.5515 0043966 253.7348 105.9005 14.23662933 87120
CZ-6A DEB
1 64640U 24140AEE 26145.32498366  .00002338  00000-0  10097-2 0  9995
2 64640  89.0039 277.4956 0044007 252.0536 107.5856 14.23665764 87190
CZ-6A DEB
1 64640U 24140AEE 26145.32498366  .00002338  00000-0  10097-2 0  9995
2 64640  89.0039 277.4956 0044007 252.0536 107.5856 14.23665764 87190
CZ-6A DEB
1 64640U 24140AEE 26146.30898746  .00002656  00000-0  11474-2 0  9993
2 64640  89.0040 277.3837 0044112 248.6867 110.9613 14.23672066 87332
CZ-6A DEB
1 64640U 24140AEE 26146.30898746  .00002656  00000-0  11474-2 0  9993
2 64640  89.0040 277.3837 0044112 248.6867 110.9613 14.23672066 87332
CZ-6A DEB
1 64640U 24140AEE 26147.78498669  .00002851  00000-0  12319-2 0  9992
2 64640  89.0040 277.2159 0044309 243.6419 116.0220 14.23680529 87541
CZ-6A DEB
1 64640U 24140AEE 26147.78498669  .00002851  00000-0  12319-2 0  9992
2 64640  89.0040 277.2159 0044309 243.6419 116.0220 14.23680529 87541
CZ-6A DEB
1 64640U 24140AEE 26148.76898199  .00003372  00000-0  14577-2 0  9990
2 64640  89.0037 277.1038 0044445 240.1791 119.4979 14.23687315 87681
CZ-6A DEB
1 64640U 24140AEE 26149.33126282  .00003359  00000-0  14516-2 0  9999
2 64640  89.0041 277.0400 0044492 238.2460 121.4394 14.23690801 87768
CZ-6A DEB
1 64640U 24140AEE 26149.33126283  .00003359  00000-0  14516-2 0  9990
2 64640  89.0041 277.0400 0044492 238.2460 121.4394 14.23690801 87768
CZ-6A DEB
1 64640U 24140AEE 26150.31524943  .00003737  00000-0  16155-2 0  9996
2 64640  89.0044 276.9282 0044709 234.9301 124.7695 14.23698907 87906
CZ-6A DEB
1 64640U 24140AEE 26150.31524944  .00003737  00000-0  16155-2 0  9997
2 64640  89.0044 276.9282 0044709 234.9301 124.7695 14.23698907 87906
CZ-6A DEB
1 64640U 24140AEE 26151.29923192  .00003846  00000-0  16622-2 0  9993
2 64640  89.0046 276.8163 0044828 231.6302 128.0859 14.23706316 88041
CZ-6A DEB
1 64640U 24140AEE 26151.79122176  .00003337  00000-0  14414-2 0  9993
2 64640  89.0047 276.7604 0044915 229.9728 129.7520 14.23708152 88111
CZ-6A DEB
1 64640U 24140AEE 26151.79122176  .00003337  00000-0  14414-2 0  9993
2 64640  89.0047 276.7604 0044915 229.9728 129.7520 14.23708152 88111
CZ-6A DEB
1 64640U 24140AEE 26158.04643098  .00003026  00000-0  13047-2 0  9995
2 64640  89.0047 276.0502 0045989 209.1895 150.6727 14.23746663 89008
CZ-6A DEB
1 64640U 24140AEE 26158.04643099  .00003026  00000-0  13047-2 0  9996
2 64640  89.0047 276.0502 0045989 209.1895 150.6727 14.23746663 89008
CZ-6A DEB
1 64640U 24140AEE 26159.59263949  .00002957  00000-0  12747-2 0  9997
2 64640  89.0045 275.8746 0046246 204.1209 155.7818 14.23755156 89222
CZ-6A DEB
1 64640U 24140AEE 26159.80348529  .00002757  00000-0  11880-2 0  9994
2 64640  89.0045 275.8506 0046274 203.4123 156.4963 14.23755915 89259
CZ-6A DEB
1 64640U 24140AEE 26159.80348529  .00002757  00000-0  11880-2 0  9994
2 64640  89.0045 275.8506 0046274 203.4123 156.4963 14.23755915 89259
CZ-6A DEB
1 64640U 24140AEE 26160.78743064  .00002496  00000-0  10746-2 0  9996
2 64640  89.0046 275.7388 0046464 200.2204 159.7150 14.23760539 89390
CZ-6A DEB
1 64640U 24140AEE 26160.78743064  .00002496  00000-0  10746-2 0  9996
2 64640  89.0046 275.7388 0046464 200.2203 159.7150 14.23760539 89399
CZ-6A DEB
1 64640U 24140AEE 26162.05249897  .00002395  00000-0  10309-2 0  9996
2 64640  89.0046 275.5949 0046690 196.1293 163.8416 14.23766484 89579
CZ-6A DEB
1 64640U 24140AEE 26164.02037190  .00002789  00000-0  12006-2 0  9999
2 64640  89.0049 275.3711 0047025 189.7710 170.2573 14.23777577 89854
CZ-6A DEB
1 64640U 24140AEE 26165.28542530  .00002627  00000-0  11305-2 0  9999
2 64640  89.0052 275.2274 0047228 185.7001 174.3660 14.23783973 90036
CZ-6A DEB
1 64640U 24140AEE 26165.28542531  .00002627  00000-0  11305-2 0  9990
2 64640  89.0052 275.2274 0047228 185.7001 174.3660 14.23783974 90037
CZ-6A DEB
1 64640U 24140AEE 26165.28542531  .00002627  00000-0  11305-2 0  9990
2 64640  89.0052 275.2274 0047228 185.7001 174.3660 14.23783974 90037
CZ-6A DEB
1 64640U 24140AEE 26170.27530958  .00002230  00000-0  95804-3 0  9992
2 64640  89.0053 274.6613 0048039 169.9291 190.2876 14.23805507 90745
CZ-6A DEB
1 64640U 24140AEE 26171.25922168  .00002141  00000-0  91940-3 0  9997
2 64640  89.0052 274.5496 0048196 166.8911 193.3546 14.23809373 90889
CZ-6A DEB
1 64640U 24140AEE 26171.25922168  .00002141  00000-0  91940-3 0  9997
2 64640  89.0052 274.5496 0048196 166.8911 193.3546 14.23809373 90889
CZ-6A DEB
1 64640U 24140AEE 26173.22703752  .00002021  00000-0  86721-3 0  9990
2 64640  89.0047 274.3260 0048473 160.7530 199.5508 14.23817183 91164
CZ-6A DEB
1 64640U 24140AEE 26174.70289219  .00002103  00000-0  90211-3 0  9991
2 64640  89.0050 274.1585 0048646 156.1204 204.2261 14.23823387 91371
CZ-6A DEB
1 64640U 24140AEE 26178.98984949  .00002625  00000-0  11270-2 0  9993
2 64640  89.0058 273.6717 0049058 142.9221 217.5378 14.23847274 91984
CZ-6A DEB
1 64640U 24140AEE 26179.27095902  .00002513  00000-0  10786-2 0  9995
2 64640  89.0060 273.6399 0049090 142.0424 218.4245 14.23848449 92029
CZ-6A DEB
1 64640U 24140AEE 26179.69262263  .00002467  00000-0  10587-2 0  9994
2 64640  89.0061 273.5922 0049130 140.7457 219.7315 14.23850558 92089
CZ-6A DEB
1 64640U 24140AEE 26182.71452605  .00002793  00000-0  11988-2 0  9990
2 64640  89.0055 273.2490 0049273 131.4860 229.0579 14.23866579 92516
CZ-6A DEB
1 64640U 24140AEE 26183.69839429  .00003083  00000-0  13237-2 0  9993
2 64640  89.0053 273.1374 0049299 128.4705 232.0926 14.23872303 92653
CZ-6A DEB
1 64640U 24140AEE 26183.69839430  .00003083  00000-0  13237-2 0  9995
2 64640  89.0053 273.1374 0049299 128.4705 232.0926 14.23872303 92653
CZ-6A DEB
1 64640U 24140AEE 26184.68225818  .00003000  00000-0  12879-2 0  9994
2 64640  89.0052 273.0259 0049340 125.4592 235.1221 14.23877323 92795
CZ-6A DEB
1 64640U 24140AEE 26184.68225819  .00003000  00000-0  12879-2 0  9995
2 64640  89.0052 273.0259 0049340 125.4592 235.1221 14.23877323 92795
CZ-6A DEB
1 64640U 24140AEE 26185.66611580  .00004359  00000-0  18737-2 0  9995
2 64640  89.0051 272.9144 0049357 122.4439 238.1540 14.23888021 92930
CZ-6A DEB
1 64640U 24140AEE 26186.22831885  .00003833  00000-0  16466-2 0  9993
2 64640  89.0054 272.8504 0049351 120.7902 239.8162 14.23889830 93019
CZ-6A DEB
1 64640U 24140AEE 26186.22831886  .00003833  00000-0  16466-2 0  9994
2 64640  89.0054 272.8504 0049351 120.7902 239.8162 14.23889831 93010
CZ-6A DEB
1 64640U 24140AEE 26186.22831886  .00003833  00000-0  16466-2 0  9994
2 64640  89.0054 272.8504 0049351 120.7902 239.8162 14.23889831 93010
CZ-6A DEB
1 64640U 24140AEE 26186.64997057  .00003494  00000-0  15005-2 0  9994
2 64640  89.0049 272.8022 0049380 119.4394 241.1740 14.23891377 93073
CZ-6A DEB
1 64640U 24140AEE 26187.21217105  .00002805  00000-0  12032-2 0  9999
2 64640  89.0048 272.7384 0049381 117.7345 242.8869 14.23892832 93156
CZ-6A DEB
1 64640U 24140AEE 26188.19601911  .00002013  00000-0  86173-3 0  9998
2 64640  89.0048 272.6267 0049369 114.7469 245.8873 14.23896233 93297
CZ-6A DEB
1 64640U 24140AEE 26188.19601912  .00002013  00000-0  86173-3 0  9999
2 64640  89.0048 272.6267 0049369 114.7469 245.8873 14.23896233 93297
CZ-6A DEB
1 64640U 24140AEE 26189.17986446  .00001591  00000-0  67987-3 0  9998
2 64640  89.0047 272.5149 0049359 111.7481 248.8975 14.23899636 93436
CZ-6A DEB
1 64640U 24140AEE 26189.17986446  .00001591  00000-0  67987-3 0  9998
2 64640  89.0047 272.5148 0049359 111.7481 248.8975 14.23899635 93434
CZ-6A DEB
1 64640U 24140AEE 26189.17986446  .00001591  00000-0  67987-3 0  9998
2 64640  89.0047 272.5149 0049359 111.7481 248.8975 14.23899636 93436
CZ-6A DEB
1 64640U 24140AEE 26191.21782218  .00001561  00000-0  66666-3 0  9997
2 64640  89.0049 272.2833 0049350 105.5182 255.1467 14.23906598 93720
CZ-6A DEB
1 64640U 24140AEE 26192.20166029  .00001437  00000-0  61318-3 0  9994
2 64640  89.0051 272.1716 0049286 102.5385 258.1327 14.23909258 93861
CZ-6A DEB
1 64640U 24140AEE 26192.20166030  .00001437  00000-0  61318-3 0  9996
2 64640  89.0051 272.1716 0049286 102.5385 258.1327 14.23909258 93861
CZ-6A DEB
1 64640U 24140AEE 26192.20166030  .00001437  00000-0  61318-3 0  9996
2 64640  89.0051 272.1716 0049286 102.5385 258.1327 14.23909258 93861
CZ-6A DEB
1 64640U 24140AEE 26193.18549612  .00001345  00000-0  57340-3 0  9993
2 64640  89.0051 272.0598 0049232  99.5267 261.1494 14.23911975 94008
CZ-6A DEB
1 64640U 24140AEE 26193.18549613  .00001345  00000-0  57340-3 0  9994
2 64640  89.0051 272.0598 0049232  99.5267 261.1494 14.23911975 94008
CZ-6A DEB
1 64640U 24140AEE 26193.67741309  .00001339  00000-0  57091-3 0  9990
2 64640  89.0052 272.0040 0049196  98.0253 262.6526 14.23913458 94076
CZ-6A DEB
1 64640U 24140AEE 26194.16932963  .00001356  00000-0  57824-3 0  9996
2 64640  89.0053 271.9482 0049159  96.5116 264.1676 14.23914887 94143
CZ-6A DEB
1 64640U 24140AEE 26194.16932963  .00001356  00000-0  57824-3 0  9996
2 64640  89.0053 271.9482 0049159  96.5116 264.1676 14.23914887 94143
CZ-6A DEB
1 64640U 24140AEE 26197.19109103  .00001203  00000-0  51246-3 0  9997
2 64640  89.0049 271.6055 0048942  87.2483 273.4310 14.23922543 94577
CZ-6A DEB
1 64640U 24140AEE 26197.19109104  .00001203  00000-0  51246-3 0  9998
2 64640  89.0049 271.6055 0048942  87.2483 273.4310 14.23922543 94577
CZ-6A DEB
1 64640U 24140AEE 26197.47218419  .00001212  00000-0  51609-3 0  9992
2 64640  89.0049 271.5734 0048889  86.2978 274.3803 14.23922959 94611
CZ-6A DEB
1 64640U 24140AEE 26197.47218419  .00001212  00000-0  51609-3 0  9992
2 64640  89.0049 271.5734 0048889  86.2978 274.3803 14.23922959 94611
CZ-6A DEB
1 64640U 24140AEE 26198.17491603  .00001240  00000-0  52814-3 0  9998
2 64640  89.0047 271.4933 0048860  84.1134 276.5624 14.23925046 94715
CZ-6A DEB
1 64640U 24140AEE 26198.17491604  .00001240  00000-0  52814-3 0  9999
2 64640  89.0047 271.4933 0048860  84.1134 276.5624 14.23925046 94715
CZ-6A DEB
1 64640U 24140AEE 26199.15873901  .00001227  00000-0  52253-3 0  9994
2 64640  89.0046 271.3815 0048775  81.0766 279.5944 14.23927568 94858
CZ-6A DEB
1 64640U 24140AEE 26199.93174140  .00001211  00000-0  51577-3 0  9990
2 64640  89.0046 271.2939 0048683  78.6935 281.9722 14.23929462 94960
CZ-6A DEB
1 64640U 24140AEE 26200.14256006  .00001200  00000-0  51114-3 0  9993
2 64640  89.0046 271.2699 0048668  78.0398 282.6245 14.23929946 94991
CZ-6A DEB
1 64640U 24140AEE 26204.14809284  .00001844  00000-0  78875-3 0  9996
2 64640  89.0044 270.8151 0048242  65.5545 295.0669 14.23944519 95565
CZ-6A DEB
1 64640U 24140AEE 26204.63999681  .00001876  00000-0  80255-3 0  9991
2 64640  89.0043 270.7591 0048178  64.0258 296.5886 14.23946432 95635
CZ-6A DEB
1 64640U 24140AEE 26204.63999681  .00001876  00000-0  80255-3 0  9991
2 64640  89.0043 270.7591 0048178  64.0258 296.5886 14.23946432 95635
CZ-6A DEB
1 64640U 24140AEE 26205.13189935  .00002168  00000-0  92817-3 0  9992
2 64640  89.0043 270.7032 0048123  62.4699 298.1372 14.23950002 95700
CZ-6A DEB
1 64640U 24140AEE 26206.60760521  .00002187  00000-0  93663-3 0  9992
2 64640  89.0041 270.5352 0047907  57.8336 302.7490 14.23955618 95910
CZ-6A DEB
1 64640U 24140AEE 26207.45086174  .00002381  00000-0  10200-2 0  9992
2 64640  89.0041 270.4395 0047812  55.1670 305.4005 14.23960241 96037
CZ-6A DEB
1 64640U 24140AEE 26208.15357401  .00002245  00000-0  96167-3 0  9990
2 64640  89.0041 270.3597 0047706  52.9570 307.5971 14.23962523 96137
CZ-6A DEB
1 64640U 24140AEE 26209.62926416  .00002182  00000-0  93455-3 0  9998
2 64640  89.0042 270.1921 0047474  48.2916 312.2322 14.23968586 96342
CZ-6A DEB
1 64640U 24140AEE 26210.61305367  .00002242  00000-0  96011-3 0  9993
2 64640  89.0040 270.0802 0047325  45.1620 315.3402 14.23973134 96483
CZ-6A DEB
1 64640U 24140AEE 26211.10494716  .00002085  00000-0  89250-3 0  9997
2 64640  89.0039 270.0243 0047240  43.5961 316.8949 14.23974444 96551
CZ-6A DEB
1 64640U 24140AEE 26212.58062389  .00002088  00000-0  89404-3 0  9991
2 64640  89.0037 269.8565 0046990  38.8685 321.5871 14.23980530 96766
CZ-6A DEB
1 64640U 24140AEE 26212.58062390  .00002088  00000-0  89404-3 0  9993
2 64640  89.0037 269.8565 0046990  38.8685 321.5871 14.23980530 96766
CZ-6A DEB
1 64640U 24140AEE 26213.14278455  .00001957  00000-0  83748-3 0  9996
2 64640  89.0033 269.7928 0046846  37.1500 323.2918 14.23982609 96841
CZ-6A DEB
1 64640U 24140AEE 26213.42386502  .00001949  00000-0  83401-3 0  9997
2 64640  89.0033 269.7608 0046823  36.2408 324.1940 14.23983454 96886
CZ-6A DEB
1 64640U 24140AEE 26214.12656424  .00001909  00000-0  81660-3 0  9999
2 64640  89.0031 269.6809 0046696  33.9681 326.4486 14.23986072 96981
CZ-6A DEB
1 64640U 24140AEE 26214.12656424  .00001909  00000-0  81660-3 0  9999
2 64640  89.0031 269.6809 0046696  33.9681 326.4486 14.23986072 96981
CZ-6A DEB
1 64640U 24140AEE 26214.61845326  .00001795  00000-0  76783-3 0  9997
2 64640  89.0031 269.6250 0046599  32.3665 328.0370 14.23987371 97050
CZ-6A DEB
1 64640U 24140AEE 26215.11034092  .00001934  00000-0  82761-3 0  9991
2 64640  89.0031 269.5691 0046520  30.7690 329.6214 14.23989816 97120
CZ-6A DEB
1 64640U 24140AEE 26216.09411514  .00001789  00000-0  76496-3 0  9993
2 64640  89.0031 269.4571 0046356  27.5820 332.7817 14.23992939 97261
CZ-6A DEB
1 64640U 24140AEE 26217.14815591  .00001567  00000-0  66948-3 0  9998
2 64640  89.0033 269.3373 0046180  24.1694 336.1650 14.23996198 97410
CZ-6A DEB
1 64640U 24140AEE 26217.56977163  .00001480  00000-0  63181-3 0  9998
2 64640  89.0032 269.2892 0046096  22.7979 337.5246 14.23997370 97475
CZ-6A DEB
1 64640U 24140AEE 26219.11569360  .00001325  00000-0  56513-3 0  9996
2 64640  89.0033 269.1135 0045878  17.6640 342.6134 14.24000594 97691
CZ-6A DEB
1 64640U 24140AEE 26219.60757700  .00001293  00000-0  55127-3 0  9991
2 64640  89.0034 269.0576 0045790  16.0447 344.2183 14.24001844 97760
CZ-6A DEB
1 64640U 24140AEE 26219.60757701  .00001293  00000-0  55127-3 0  9992
2 64640  89.0034 269.0576 0045790  16.0447 344.2183 14.24001844 97760
CZ-6A DEB
1 64640U 24140AEE 26220.59134234  .00001203  00000-0  51247-3 0  9992
2 64640  89.0032 268.9455 0045616  12.7921 347.4416 14.24004120 97909
CZ-6A DEB
1 64640U 24140AEE 26220.59134234  .00001203  00000-0  51247-3 0  9992
2 64640  89.0032 268.9455 0045616  12.7921 347.4416 14.24004119 97907
CZ-6A DEB
1 64640U 24140AEE 26222.55886733  .00001181  00000-0  50314-3 0  9997
2 64640  89.0032 268.7218 0045267   6.2588 353.9160 14.24009179 98181
CZ-6A DEB
1 64640U 24140AEE 26222.55886733  .00001181  00000-0  50314-3 0  9997
2 64640  89.0032 268.7218 0045267   6.2588 353.9160 14.24009179 98181
CZ-6A DEB
1 64640U 24140AEE 26223.12101694  .00001152  00000-0  49068-3 0  9999
2 64640  89.0031 268.6579 0045230   4.4737 355.6850 14.24010240 98260
CZ-6A DEB
1 64640U 24140AEE 26223.12101695  .00001152  00000-0  49068-3 0  9990
2 64640  89.0031 268.6579 0045230   4.4737 355.6850 14.24010240 98260
CZ-6A DEB
1 64640U 24140AEE 26224.10477650  .00001166  00000-0  49662-3 0  9991
2 64640  89.0030 268.5459 0045074   1.2147 358.9146 14.24012620 98405
CZ-6A DEB
1 64640U 24140AEE 26224.10477651  .00001166  00000-0  49662-3 0  9992
2 64640  89.0030 268.5459 0045074   1.2147 358.9146 14.24012620 98405
CZ-6A DEB
1 64640U 24140AEE 26226.07229183  .00001151  00000-0  49013-3 0  9999
2 64640  89.0028 268.3220 0044784 354.6752   5.3957 14.24016955 98688
CZ-6A DEB
1 64640U 24140AEE 26226.07229184  .00001151  00000-0  49013-3 0  9990
2 64640  89.0028 268.3220 0044784 354.6753   5.3957 14.24016955 98689
CZ-6A DEB
1 64640U 24140AEE 26226.84524237  .00001207  00000-0  51457-3 0  9999
2 64640  89.0028 268.2340 0044670 352.0864   7.9618 14.24019054 98797
CZ-6A DEB
1 64640U 24140AEE 26226.84524238  .00001207  00000-0  51457-3 0  9990
2 64640  89.0028 268.2341 0044670 352.0864   7.9618 14.24019054 98798
CZ-6A DEB
1 64640U 24140AEE 26227.12631553  .00001176  00000-0  50102-3 0  9992
2 64640  89.0027 268.2020 0044656 351.1872   8.8531 14.24019450 98833
CZ-6A DEB
1 64640U 24140AEE 26227.12631554  .00001176  00000-0  50102-3 0  9993
2 64640  89.0027 268.2020 0044656 351.1872   8.8531 14.24019450 98833
CZ-6A DEB
1 64640U 24140AEE 26228.53167734  .00001250  00000-0  53292-3 0  9999
2 64640  89.0025 268.0422 0044460 346.4627  13.5369 14.24023047 99035
CZ-6A DEB
1 64640U 24140AEE 26229.09382119  .00001341  00000-0  57220-3 0  9993
2 64640  89.0025 267.9783 0044380 344.5807  15.4029 14.24024834 99111
CZ-6A DEB
1 64640U 24140AEE 26230.07757132  .00001445  00000-0  61724-3 0  9993
2 64640  89.0024 267.8663 0044235 341.2717  18.6845 14.24027829 99252
CZ-6A DEB
1 64640U 24140AEE 26231.06131932  .00001650  00000-0  70565-3 0  9998
2 64640  89.0023 267.7543 0044109 337.9522  21.9772 14.24031592 99396
CZ-6A DEB
1 64640U 24140AEE 26231.06131932  .00001650  00000-0  70565-3 0  9998
2 64640  89.0023 267.7543 0044109 337.9522  21.9772 14.24031592 99396
CZ-6A DEB
1 64640U 24140AEE 26232.04506522  .00001717  00000-0  73440-3 0  9997
2 64640  89.0023 267.6424 0043989 334.6160  25.2870 14.24034812 99530
CZ-6A DEB
1 64640U 24140AEE 26233.09907652  .00001761  00000-0  75366-3 0  9990
2 64640  89.0023 267.5224 0043875 331.0264  28.8493 14.24038253 99686
CZ-6A DEB
1 64640U 24140AEE 26233.52068057  .00001726  00000-0  73820-3 0  9999
2 64640  89.0021 267.4741 0043825 329.5727  30.2922 14.24039299 99740
CZ-6A DEB
1 64640U 24140AEE 26233.52068057  .00001726  00000-0  73820-3 0  9999
2 64640  89.0021 267.4741 0043825 329.5727  30.2922 14.24039299 99740
CZ-6A DEB
1 64640U 24140AEE 26234.08281835  .00001743  00000-0  74578-3 0  9992
2 64640  89.0020 267.4101 0043765 327.6616  32.1895 14.24041216 99829
CZ-6A DEB
1 64640U 24140AEE 26235.06655797  .00001723  00000-0  73708-3 0  9995
2 64640  89.0022 267.2982 0043649 324.2893  35.5381 14.24044299 99963
CZ-6A DEB
1 64640U 24140AEE 26236.54216325  .00001711  00000-0  73200-3 0  9993
2 64640  89.0022 267.1303 0043497 319.2278  40.5661 14.24049220100173
CZ-6A DEB
1 64640U 24140AEE 26237.03403060  .00001698  00000-0  72620-3 0  9991
2 64640  89.0021 267.0743 0043449 317.5401  42.2433 14.24050820100247
CZ-6A DEB
1 64640U 24140AEE 26238.36909675  .00001840  00000-0  78773-3 0  9995
2 64640  89.0020 266.9222 0043339 312.9367  46.8192 14.24056004100437
CZ-6A DEB
1 64640U 24140AEE 26238.36909675  .00001840  00000-0  78773-3 0  9995
2 64640  89.0020 266.9222 0043339 312.9367  46.8192 14.24056004100437
CZ-6A DEB
1 64640U 24140AEE 26240.33655576  .00001728  00000-0  73930-3 0  9998
2 64640  89.0017 266.6980 0043198 306.1360  53.5838 14.24061960100712
CZ-6A DEB
1 64640U 24140AEE 26240.33655577  .00001728  00000-0  73930-3 0  9999
2 64640  89.0017 266.6980 0043198 306.1360  53.5838 14.24061960100712
CZ-6A DEB
1 64640U 24140AEE 26240.33655577  .00001728  00000-0  73930-3 0  9999
2 64640  89.0017 266.6980 0043198 306.1360  53.5838 14.24061960100712
CZ-6A DEB
1 64640U 24140AEE 26241.53108006  .00001845  00000-0  78940-3 0  9998
2 64640  89.0015 266.5618 0043098 302.0412  57.6598 14.24066742100888
CZ-6A DEB
1 64640U 24140AEE 26241.53108006  .00001845  00000-0  78940-3 0  9998
2 64640  89.0015 266.5618 0043098 302.0412  57.6597 14.24066742100887
CZ-6A DEB
1 64640U 24140AEE 26242.51480374  .00001721  00000-0  73621-3 0  9992
2 64640  89.0015 266.4499 0043043 298.6488  61.0379 14.24069500101025
CZ-6A DEB
1 64640U 24140AEE 26242.51480374  .00001721  00000-0  73621-3 0  9992
2 64640  89.0015 266.4499 0043043 298.6488  61.0379 14.24069500101025
CZ-6A DEB
1 64640U 24140AEE 26243.00666483  .00001631  00000-0  69738-3 0  9998
2 64640  89.0014 266.3938 0043007 296.9426  62.7376 14.24070719101090
CZ-6A DEB
1 64640U 24140AEE 26243.00666483  .00001631  00000-0  69738-3 0  9998
2 64640  89.0014 266.3938 0043007 296.9426  62.7376 14.24070719101090
CZ-6A DEB
1 64640U 24140AEE 26243.49852536  .00001634  00000-0  69864-3 0  9990
2 64640  89.0014 266.3378 0042992 295.2351  64.4387 14.24072448101169
CZ-6A DEB
1 64640U 24140AEE 26243.49852536  .00001634  00000-0  69864-3 0  9990
2 64640  89.0014 266.3378 0042992 295.2351  64.4387 14.24072448101169
