CZ-6A R/B DEB
1 64644U 24140AEJ 25177.09870142  .00000103  00000-0  48299-4 0  9998
2 64644  89.0361 316.5183 0078646 262.4229  96.8018 14.11469378 43652
TBA - TO BE ASSIGNED
1 64644U 24140AEJ 25177.09870142  .00000103  00000-0  48299-4 0  9998
2 64644  89.0361 316.5183 0078646 262.4229  96.8018 14.11469378 43652
CZ-6A R/B DEB
1 64644U 24140AEJ 25181.63585344  .00000077  00000-0  34183-4 0  9997
2 64644  89.0367 316.0288 0078761 247.4794 111.8041 14.11470056 40091
CZ-6A R/B DEB
1 64644U 24140AEJ 25181.63585344  .00000077  00000-0  34183-4 0  9997
2 64644  89.0367 316.0288 0078761 247.4794 111.8041 14.11470056 44297
CZ-6A R/B DEB
1 64644U 24140AEJ 25182.13210491  .00000067  00000-0  29020-4 0  9994
2 64644  89.0368 315.9753 0078786 245.8460 113.4474 14.11470117 40160
CZ-6A R/B DEB
1 64644U 24140AEJ 25183.12460822  .00000052  00000-0  20639-4 0  9990
2 64644  89.0368 315.8682 0078828 242.5864 116.7288 14.11470235 44501
CZ-6A R/B DEB
1 64644U 24140AEJ 25183.62085998  .00000042  00000-0  15411-4 0  9993
2 64644  89.0369 315.8148 0078869 240.9557 118.3711 14.11470282 40377
CZ-6A R/B DEB
1 64644U 24140AEJ 25185.10961612  .00000017  00000-0  18048-5 0  9996
2 64644  89.0369 315.6543 0078959 236.0756 123.2905 14.11470364 40585
CZ-6A R/B DEB
1 64644U 24140AEJ 25185.10961612  .00000017  00000-0  18048-5 0  9996
2 64644  89.0369 315.6543 0078959 236.0756 123.2905 14.11470364 44781
CZ-6A R/B DEB
1 64644U 24140AEJ 25192.62430504  .00000156  00000-0  76174-4 0  9999
2 64644  89.0376 314.8445 0079658 211.5778 148.0615 14.11471213 41649
CZ-6A R/B DEB
1 64644U 24140AEJ 25192.62430504  .00000156  00000-0  76174-4 0  9999
2 64644  89.0376 314.8445 0079658 211.5778 148.0615 14.11471213 45845
CZ-6A R/B DEB
1 64644U 24140AEJ 25193.61681220  .00000172  00000-0  84552-4 0  9999
2 64644  89.0377 314.7375 0079783 208.3539 151.3294 14.11471482 41782
CZ-6A R/B DEB
1 64644U 24140AEJ 25194.04217235  .00000175  00000-0  86170-4 0  9999
2 64644  89.0377 314.6917 0079833 206.9708 152.7318 14.11471625 46046
CZ-6A R/B DEB
1 64644U 24140AEJ 25194.60931930  .00000173  00000-0  85398-4 0  9995
2 64644  89.0378 314.6306 0079904 205.1266 154.6023 14.11471777 41922
CZ-6A R/B DEB
1 64644U 24140AEJ 25195.60182639  .00000154  00000-0  75060-4 0  9994
2 64644  89.0379 314.5237 0080028 201.9076 157.8681 14.11472015 42064
CZ-6A R/B DEB
1 64644U 24140AEJ 25195.60182639  .00000154  00000-0  75060-4 0  9994
2 64644  89.0379 314.5237 0080028 201.9076 157.8681 14.11472015 46260
CZ-6A R/B DEB
1 64644U 24140AEJ 25196.59433340  .00000128  00000-0  61019-4 0  9991
2 64644  89.0379 314.4168 0080156 198.6931 161.1307 14.11472258 42208
CZ-6A R/B DEB
1 64644U 24140AEJ 25197.58684043  .00000086  00000-0  38739-4 0  9995
2 64644  89.0379 314.3099 0080279 195.4830 164.3899 14.11472411 42346
CZ-6A R/B DEB
1 64644U 24140AEJ 25197.58684043  .00000086  00000-0  38739-4 0  9995
2 64644  89.0379 314.3099 0080279 195.4830 164.3899 14.11472411 46542
CZ-6A R/B DEB
1 64644U 24140AEJ 25199.07560109  .00000024  00000-0  51476-5 0  9993
2 64644  89.0380 314.1497 0080471 190.6824 169.2656 14.11472556 42550
CZ-6A R/B DEB
1 64644U 24140AEJ 25199.07560109  .00000024  00000-0  51476-5 0  9993
2 64644  89.0380 314.1497 0080471 190.6824 169.2656 14.11472556 46756
CZ-6A R/B DEB
1 64644U 24140AEJ 25201.06061577 -.00000025  00000-0 -20892-4 0  9991
2 64644  89.0381 313.9360 0080714 184.3033 175.7468 14.11472613 47034
CZ-6A R/B DEB
1 64644U 24140AEJ 25201.55686953 -.00000030  00000-0 -23544-4 0  9999
2 64644  89.0381 313.8826 0080777 182.7150 177.3609 14.11472598 42909
CZ-6A R/B DEB
1 64644U 24140AEJ 25202.05312335 -.00000027  00000-0 -22127-4 0  9997
2 64644  89.0381 313.8292 0080842 181.1271 178.9746 14.11472599 42973
CZ-6A DEB
1 64644U 24140AEJ 25203.04563110 -.00000007  00000-0 -11314-4 0  9990
2 64644  89.0381 313.7224 0080962 177.9543 182.1990 14.11472618 43112
CZ-6A R/B DEB
1 64644U 24140AEJ 25203.04563110 -.00000007  00000-0 -11314-4 0  9990
2 64644  89.0381 313.7224 0080962 177.9543 182.1990 14.11472618 47318
CZ-6A DEB
1 64644U 24140AEJ 25204.53439283  .00000062  00000-0  25432-4 0  9993
2 64644  89.0382 313.5622 0081135 173.1996 187.0311 14.11472792 43323
CZ-6A DEB
1 64644U 24140AEJ 25204.53439283  .00000062  00000-0  25432-4 0  9993
2 64644  89.0382 313.5622 0081135 173.1996 187.0311 14.11472792 47529
CZ-6A DEB
1 64644U 24140AEJ 25206.02315430  .00000132  00000-0  62704-4 0  9997
2 64644  89.0382 313.4019 0081323 168.4680 191.8394 14.11473027 43537
CZ-6A DEB
1 64644U 24140AEJ 25206.02315430  .00000132  00000-0  62704-4 0  9997
2 64644  89.0382 313.4019 0081323 168.4680 191.8394 14.11473027 47733
CZ-6A DEB
1 64644U 24140AEJ 25208.00816846  .00000209  00000-0  10430-3 0  9997
2 64644  89.0383 313.1882 0081577 162.1787 198.2290 14.11473626 48012
CZ-6A DEB
1 64644U 24140AEJ 25208.57531508  .00000218  00000-0  10894-3 0  9992
2 64644  89.0384 313.1272 0081642 160.3811 200.0547 14.11473808 43897
CZ-6A DEB
1 64644U 24140AEJ 25209.99318070  .00000212  00000-0  10534-3 0  9991
2 64644  89.0383 312.9746 0081821 155.8967 204.6082 14.11474306 44090
CZ-6A DEB
1 64644U 24140AEJ 25209.99318070  .00000212  00000-0  10534-3 0  9991
2 64644  89.0383 312.9746 0081821 155.8967 204.6082 14.11474306 48296
CZ-6A DEB
1 64644U 24140AEJ 25211.55283159  .00000175  00000-0  85741-4 0  9996
2 64644  89.0383 312.8068 0082005 150.9672 209.6111 14.11474837 44312
CZ-6A DEB
1 64644U 24140AEJ 25211.55283159  .00000175  00000-0  85741-4 0  9996
2 64644  89.0383 312.8068 0082005 150.9672 209.6111 14.11474837 48518
CZ-6A DEB
1 64644U 24140AEJ 25212.54533597  .00000137  00000-0  65612-4 0  9993
2 64644  89.0383 312.7000 0082131 147.8323 212.7912 14.11475123 44453
CZ-6A DEB
1 64644U 24140AEJ 25215.52284658  .00000008  00000-0 -35000-5 0  9992
2 64644  89.0382 312.3796 0082442 138.4543 222.2948 14.11475451 44870
CZ-6A DEB
1 64644U 24140AEJ 25215.52284658  .00000008  00000-0 -35000-5 0  9992
2 64644  89.0382 312.3796 0082442 138.4543 222.2948 14.11475451 49077
CZ-6A DEB
1 64644U 24140AEJ 25218.00410323 -.00000007  00000-0 -11827-4 0  9998
2 64644  89.0381 312.1126 0082644 130.6733 230.1674 14.11475470 49424
CZ-6A DEB
1 64644U 24140AEJ 25218.00410323 -.00000007  00000-0 -11827-4 0  9998
2 64644  89.0381 312.1126 0082644 130.6733 230.1674 14.11475470 45228
CZ-6A DEB
1 64644U 24140AEJ 25221.97410873  .00000141  00000-0  67205-4 0  9996
2 64644  89.0380 311.6854 0082896 118.2541 242.7044 14.11475935 45784
CZ-6A DEB
1 64644U 24140AEJ 25221.97410873  .00000141  00000-0  67205-4 0  9996
2 64644  89.0380 311.6854 0082896 118.2541 242.7044 14.11475935 49980
CZ-6A DEB
1 64644U 24140AEJ 25224.52624949  .00000169  00000-0  82377-4 0  9998
2 64644  89.0376 311.4105 0083008 110.3132 250.6998 14.11476539 46149
CZ-6A DEB
1 64644U 24140AEJ 25224.52624949  .00000169  00000-0  82377-4 0  9998
2 64644  89.0376 311.4105 0083008 110.3132 250.6998 14.11476539 50346
CZ-6A DEB
1 64644U 24140AEJ 25225.94410322  .00000139  00000-0  66228-4 0  9997
2 64644  89.0376 311.2579 0083050 105.9111 255.1246 14.11476860 50548
CZ-6A DEB
1 64644U 24140AEJ 25226.51124421  .00000130  00000-0  61285-4 0  9992
2 64644  89.0375 311.1968 0083061 104.1450 256.8983 14.11477034 46429
CZ-6A DEB
1 64644U 24140AEJ 25229.48873097  .00000041  00000-0  13847-4 0  9993
2 64644  89.0369 310.8759 0083149  94.8764 266.1921 14.11477502 46848
CZ-6A DEB
1 64644U 24140AEJ 25229.48873097  .00000041  00000-0  13847-4 0  9993
2 64644  89.0369 310.8759 0083149  94.8764 266.1921 14.11477502 51046
CZ-6A DEB
1 64644U 24140AEJ 25230.48122538  .00000025  00000-0  52511-5 0  9996
2 64644  89.0368 310.7689 0083158  91.7815 269.2898 14.11477574 46982
CZ-6A DEB
1 64644U 24140AEJ 25232.96245916  .00000033  00000-0  97884-5 0  9998
2 64644  89.0367 310.5017 0083143  84.0542 277.0111 14.11477695 47339
CZ-6A DEB
1 64644U 24140AEJ 25237.92491537  .00000122  00000-0  57348-4 0  9990
2 64644  89.0361 309.9668 0082943  68.5678 292.4329 14.11478373 48035
CZ-6A DEB
1 64644U 24140AEJ 25241.46951669  .00000091  00000-0  40782-4 0  9990
2 64644  89.0356 309.5848 0082713  57.5085 303.4060 14.11479030 48531
CZ-6A DEB
1 64644U 24140AEJ 25243.45449000  .00000078  00000-0  33851-4 0  9996
2 64644  89.0354 309.3708 0082554  51.3010 309.5521 14.11479419 48816
CZ-6A DEB
1 64644U 24140AEJ 25245.43946125  .00000113  00000-0  52756-4 0  9991
2 64644  89.0349 309.1562 0082422  45.0840 315.6994 14.11479948 49091
CZ-6A DEB
1 64644U 24140AEJ 25245.93570383  .00000109  00000-0  50664-4 0  9996
2 64644  89.0348 309.1027 0082364  43.5212 317.2433 14.11479964 49169
CZ-6A DEB
1 64644U 24140AEJ 25246.43194623  .00000120  00000-0  56514-4 0  9994
2 64644  89.0347 309.0490 0082309  41.9587 318.7865 14.11480079 49239
CZ-6A DEB
1 64644U 24140AEJ 25246.92818860  .00000110  00000-0  51147-4 0  9990
2 64644  89.0346 308.9954 0082264  40.4000 320.3255 14.11480062 49307
CZ-6A DEB
1 64644U 24140AEJ 25247.42443078  .00000118  00000-0  55374-4 0  9995
2 64644  89.0346 308.9419 0082221  38.8412 321.8643 14.11480166 49373
CZ-6A DEB
1 64644U 24140AEJ 25248.41691480  .00000135  00000-0  64666-4 0  9990
2 64644  89.0345 308.8347 0082126  35.7160 324.9480 14.11480391 49510
CZ-6A DEB
1 64644U 24140AEJ 25248.91315664  .00000139  00000-0  66457-4 0  9996
2 64644  89.0344 308.7811 0082071  34.1504 326.4922 14.11480477 49588
CZ-6A DEB
1 64644U 24140AEJ 25249.40939832  .00000149  00000-0  72029-4 0  9993
2 64644  89.0343 308.7275 0082022  32.5827 328.0381 14.11480628 49650
CZ-6A DEB
1 64644U 24140AEJ 25250.40188136  .00000148  00000-0  71565-4 0  9991
2 64644  89.0341 308.6202 0081917  29.4428 331.1334 14.11480831 49795
CZ-6A DEB
1 64644U 24140AEJ 25252.88308696  .00000116  00000-0  54800-4 0  9998
2 64644  89.0335 308.3520 0081634  21.5791 338.8802 14.11481307 50144
CZ-6A DEB
1 64644U 24140AEJ 25253.87556845  .00000090  00000-0  40520-4 0  9994
2 64644  89.0333 308.2446 0081506  18.4267 341.9839 14.11481459 50287
CZ-6A DEB
1 64644U 24140AEJ 25256.85301178  .00000024  00000-0  56475-5 0  9996
2 64644  89.0327 307.9226 0081113   8.9395 351.3211 14.11481761 50704
CZ-6A DEB
1 64644U 24140AEJ 25257.42014377  .00000020  00000-0  31506-5 0  9996
2 64644  89.0326 307.8612 0081039   7.1318 353.0999 14.11481789 50784
CZ-6A DEB
1 64644U 24140AEJ 25261.88630804  .00000077  00000-0  34211-4 0  9997
2 64644  89.0318 307.3775 0080458 352.8350   7.1679 14.11482146 51411
CZ-6A DEB
1 64644U 24140AEJ 25262.87878903  .00000102  00000-0  47584-4 0  9997
2 64644  89.0317 307.2700 0080334 349.6443  10.3083 14.11482294 51551
CZ-6A DEB
1 64644U 24140AEJ 25263.37502957  .00000114  00000-0  54036-4 0  9999
2 64644  89.0316 307.2162 0080278 348.0562  11.8717 14.11482385 51623
CZ-6A DEB
1 64644U 24140AEJ 25265.85623175  .00000172  00000-0  85180-4 0  9998
2 64644  89.0311 306.9473 0079999 340.0525  19.7537 14.11483098 51975
CZ-6A DEB
1 64644U 24140AEJ 25266.84871249  .00000168  00000-0  82705-4 0  9990
2 64644  89.0308 306.8397 0079894 336.8386  22.9205 14.11483349 52111
CZ-6A DEB
1 64644U 24140AEJ 25274.36321212  .00000143  00000-0  69449-4 0  9999
2 64644  89.0298 306.0245 0079146 312.3442  47.1057 14.11485444 53174
CZ-6A DEB
1 64644U 24140AEJ 25274.36321212  .00000143  00000-0  69449-4 0  9999
2 64644  89.0298 306.0245 0079146 312.3442  47.1057 14.11485444 53174
CZ-6A DEB
1 64644U 24140AEJ 25275.35569396  .00000152  00000-0  74553-4 0  9998
2 64644  89.0294 305.9165 0079051 309.0994  50.3179 14.11485771 53319
CZ-6A DEB
1 64644U 24140AEJ 25275.35569396  .00000152  00000-0  74553-4 0  9998
2 64644  89.0294 305.9165 0079051 309.0994  50.3179 14.11485772 53310
CZ-6A DEB
1 64644U 24140AEJ 25277.83689970  .00000145  00000-0  70969-4 0  9993
2 64644  89.0291 305.6469 0078838 300.9818  58.3639 14.11486417 53662
CZ-6A DEB
1 64644U 24140AEJ 25279.32562397  .00000127  00000-0  60956-4 0  9997
2 64644  89.0288 305.4852 0078756 296.1054  63.2042 14.11486738 53871
CZ-6A DEB
1 64644U 24140AEJ 25279.32562397  .00000127  00000-0  60956-4 0  9997
2 64644  89.0288 305.4852 0078756 296.1054  63.2042 14.11486738 53871
CZ-6A DEB
1 64644U 24140AEJ 25280.31810720  .00000117  00000-0  55839-4 0  9997
2 64644  89.0286 305.3772 0078718 292.8499  66.4387 14.11486960 54014
CZ-6A DEB
1 64644U 24140AEJ 25280.81434894  .00000117  00000-0  55502-4 0  9993
2 64644  89.0284 305.3232 0078700 291.2196  68.0596 14.11487092 54085
CZ-6A DEB
1 64644U 24140AEJ 25280.81434894  .00000117  00000-0  55502-4 0  9993
2 64644  89.0284 305.3232 0078700 291.2196  68.0596 14.11487092 54085
CZ-6A DEB
1 64644U 24140AEJ 25283.79180164  .00000101  00000-0  47053-4 0  9996
2 64644  89.0278 304.9993 0078608 281.4288  77.8076 14.11487660 54506
CZ-6A DEB
1 64644U 24140AEJ 25283.79180165  .00000101  00000-0  47053-4 0  9997
2 64644  89.0278 304.9993 0078608 281.4288  77.8076 14.11487660 54506
CZ-6A DEB
1 64644U 24140AEJ 25285.77677219  .00000124  00000-0  59588-4 0  9999
2 64644  89.0277 304.7833 0078588 274.8913  84.3303 14.11488142 54786
CZ-6A DEB
1 64644U 24140AEJ 25287.33639302  .00000149  00000-0  72805-4 0  9998
2 64644  89.0277 304.6137 0078599 269.7526  89.4652 14.11488565 55005
CZ-6A DEB
1 64644U 24140AEJ 25287.76174432  .00000145  00000-0  70906-4 0  9999
2 64644  89.0276 304.5673 0078602 268.3481  90.8700 14.11488641 55069
CZ-6A DEB
1 64644U 24140AEJ 25289.32136631  .00000158  00000-0  77557-4 0  9995
2 64644  89.0275 304.3975 0078619 263.2046  96.0189 14.11489087 55288
CZ-6A DEB
1 64644U 24140AEJ 25289.32136631  .00000158  00000-0  77557-4 0  9995
2 64644  89.0275 304.3975 0078619 263.2046  96.0189 14.11489087 55288
CZ-6A DEB
1 64644U 24140AEJ 25291.30634093  .00000148  00000-0  72046-4 0  9998
2 64644  89.0273 304.1814 0078655 256.6623 102.5783 14.11489631 55562
CZ-6A DEB
1 64644U 24140AEJ 25292.29882862  .00000148  00000-0  72058-4 0  9999
2 64644  89.0271 304.0733 0078680 253.3956 105.8579 14.11489985 55707
CZ-6A DEB
1 64644U 24140AEJ 25292.79507266  .00000131  00000-0  63266-4 0  9999
2 64644  89.0271 304.0193 0078686 251.7532 107.5078 14.11490065 55776
CZ-6A DEB
1 64644U 24140AEJ 25293.29131676  .00000124  00000-0  59373-4 0  9999
2 64644  89.0270 303.9653 0078702 250.1237 109.1455 14.11490185 55846
CZ-6A DEB
1 64644U 24140AEJ 25294.28380523  .00000094  00000-0  43347-4 0  9996
2 64644  89.0269 303.8572 0078737 246.8623 112.4252 14.11490340 55982
CZ-6A DEB
1 64644U 24140AEJ 25296.26878352  .00000057  00000-0  23477-4 0  9999
2 64644  89.0268 303.6411 0078828 240.3474 118.9846 14.11490606 56262
CZ-6A DEB
1 64644U 24140AEJ 25296.26878352  .00000057  00000-0  23477-4 0  9999
2 64644  89.0268 303.6411 0078828 240.3474 118.9846 14.11490606 56262
CZ-6A DEB
1 64644U 24140AEJ 25298.75000896  .00000077  00000-0  33909-4 0  9998
2 64644  89.0266 303.3706 0079002 232.2255 127.1758 14.11490960 56612
CZ-6A DEB
1 64644U 24140AEJ 25298.75000896  .00000077  00000-0  33909-4 0  9998
2 64644  89.0266 303.3706 0079002 232.2255 127.1758 14.11490960 56612
CZ-6A DEB
1 64644U 24140AEJ 25299.74249990  .00000107  00000-0  50240-4 0  9999
2 64644  89.0266 303.2625 0079087 228.9855 130.4474 14.11491151 56752
CZ-6A DEB
1 64644U 24140AEJ 25299.74249990  .00000107  00000-0  50240-4 0  9999
2 64644  89.0266 303.2625 0079087 228.9855 130.4474 14.11491151 56752
CZ-6A DEB
1 64644U 24140AEJ 25303.28711247  .00000214  00000-0  10760-3 0  9994
2 64644  89.0266 302.8762 0079435 217.4219 142.1420 14.11492169 57250
CZ-6A DEB
1 64644U 24140AEJ 25312.21953927  .00000007  00000-0 -36070-5 0  9995
2 64644  89.0267 301.9028 0080423 188.4778 171.5055 14.11494034 58515
CZ-6A DEB
1 64644U 24140AEJ 25312.21953928  .00000007  00000-0 -36070-5 0  9996
2 64644  89.0267 301.9028 0080423 188.4778 171.5055 14.11494034 58515
CZ-6A DEB
1 64644U 24140AEJ 25312.71578558  .00000017  00000-0  16520-5 0  9991
2 64644  89.0272 301.8494 0080408 186.8830 173.1258 14.11494084 58586
CZ-6A DEB
1 64644U 24140AEJ 25312.71578558  .00000017  00000-0  16520-5 0  9991
2 64644  89.0272 301.8494 0080408 186.8830 173.1258 14.11494084 58586
CZ-6A DEB
1 64644U 24140AEJ 25315.69326337  .00000152  00000-0  73781-4 0  9998
2 64644  89.0264 301.5238 0080872 177.3433 182.8199 14.11494636 59001
CZ-6A DEB
1 64644U 24140AEJ 25317.25289365  .00000256  00000-0  12903-3 0  9994
2 64644  89.0266 301.3538 0081057 172.3749 187.8691 14.11495420 59223
CZ-6A DEB
1 64644U 24140AEJ 25317.25289365  .00000256  00000-0  12903-3 0  9994
2 64644  89.0266 301.3538 0081057 172.3749 187.8691 14.11495420 59223
CZ-6A DEB
1 64644U 24140AEJ 25320.23036674  .00000269  00000-0  13631-3 0  9992
2 64644  89.0268 301.0294 0081448 162.9017 197.4942 14.11496719 59642
CZ-6A DEB
1 64644U 24140AEJ 25320.23036674  .00000269  00000-0  13631-3 0  9992
2 64644  89.0268 301.0294 0081448 162.9017 197.4942 14.11496719 59642
CZ-6A DEB
1 64644U 24140AEJ 25322.21534590  .00000176  00000-0  86213-4 0  9996
2 64644  89.0269 300.8132 0081706 156.6015 203.8923 14.11497433 59922
CZ-6A DEB
1 64644U 24140AEJ 25322.21534591  .00000176  00000-0  86213-4 0  9997
2 64644  89.0269 300.8132 0081706 156.6015 203.8923 14.11497433 59922
CZ-6A DEB
1 64644U 24140AEJ 25323.20783481  .00000122  00000-0  57198-4 0  9992
2 64644  89.0269 300.7050 0081821 153.4532 207.0880 14.11497683 60069
CZ-6A DEB
1 64644U 24140AEJ 25326.18529951  .00000008  00000-0 -35515-5 0  9996
2 64644  89.0273 300.3807 0082162 144.0678 216.6072 14.11498021 60488
CZ-6A DEB
1 64644U 24140AEJ 25326.18529952  .00000008  00000-0 -35515-5 0  9997
2 64644  89.0273 300.3807 0082162 144.0678 216.6072 14.11498021 60488
CZ-6A DEB
1 64644U 24140AEJ 25328.66651829  .00000024  00000-0  49867-5 0  9993
2 64644  89.0277 300.1106 0082394 136.2579 224.5175 14.11498144 60839
CZ-6A DEB
1 64644U 24140AEJ 25328.66651829  .00000024  00000-0  49867-5 0  9993
2 64644  89.0277 300.1106 0082394 136.2579 224.5175 14.11498145 60830
CZ-6A DEB
1 64644U 24140AEJ 25331.64397773  .00000132  00000-0  62587-4 0  9993
2 64644  89.0281 299.7868 0082634 126.9117 233.9677 14.11498520 61259
CZ-6A DEB
1 64644U 24140AEJ 25334.19608142  .00000186  00000-0  91504-4 0  9991
2 64644  89.0284 299.5093 0082801 118.9171 242.0352 14.11499180 61611
CZ-6A DEB
1 64644U 24140AEJ 25334.19608143  .00000186  00000-0  91504-4 0  9992
2 64644  89.0284 299.5093 0082801 118.9171 242.0352 14.11499180 61611
CZ-6A DEB
1 64644U 24140AEJ 25340.15096971  .00000110  00000-0  50795-4 0  9999
2 64644  89.0291 298.8618 0083104 100.3641 260.6925 14.11501033 62454
CZ-6A DEB
1 64644U 24140AEJ 25342.13592685  .00000090  00000-0  39974-4 0  9995
2 64644  89.0294 298.6461 0083162  94.1832 266.8863 14.11501386 62738
CZ-6A DEB
1 64644U 24140AEJ 25342.63216574  .00000124  00000-0  57962-4 0  9995
2 64644  89.0295 298.5922 0083161  92.6380 268.4328 14.11501640 62805
CZ-6A DEB
1 64644U 24140AEJ 25342.63216575  .00000124  00000-0  57962-4 0  9996
2 64644  89.0295 298.5922 0083161  92.6380 268.4328 14.11501640 62805
CZ-6A DEB
1 64644U 24140AEJ 25343.62464302  .00000125  00000-0  58810-4 0  9993
2 64644  89.0296 298.4843 0083168  89.5411 271.5304 14.11501791 62945
CZ-6A DEB
1 64644U 24140AEJ 25343.62464303  .00000125  00000-0  58810-4 0  9994
2 64644  89.0296 298.4843 0083168  89.5411 271.5304 14.11501791 62945
CZ-6A DEB
1 64644U 24140AEJ 25344.61711961  .00000139  00000-0  66193-4 0  9997
2 64644  89.0297 298.3766 0083171  86.4334 274.6358 14.11502008 63084
CZ-6A DEB
1 64644U 24140AEJ 25344.61711961  .00000139  00000-0  66193-4 0  9997
2 64644  89.0297 298.3766 0083171  86.4334 274.6358 14.11502008 63084
CZ-6A DEB
1 64644U 24140AEJ 25345.60959540  .00000160  00000-0  77398-4 0  9997
2 64644  89.0298 298.2688 0083158  83.3371 277.7270 14.11502285 63229
CZ-6A DEB
1 64644U 24140AEJ 25347.59454446  .00000176  00000-0  86290-4 0  9990
2 64644  89.0300 298.0531 0083079  77.1554 283.8897 14.11502869 63506
CZ-6A DEB
1 64644U 24140AEJ 25349.57949052  .00000137  00000-0  65070-4 0  9992
2 64644  89.0301 297.8376 0082997  70.9689 290.0464 14.11503291 63789
CZ-6A DEB
1 64644U 24140AEJ 25350.14661739  .00000126  00000-0  59354-4 0  9996
2 64644  89.0301 297.7760 0082966  69.2003 291.8045 14.11503429 63868
CZ-6A DEB
1 64644U 24140AEJ 25350.57196242  .00000118  00000-0  55280-4 0  9990
2 64644  89.0301 297.7298 0082945  67.8770 293.1194 14.11503538 63924
CZ-6A DEB
1 64644U 24140AEJ 25352.13155986  .00000085  00000-0  37538-4 0  9993
2 64644  89.0304 297.5605 0082861  63.0166 297.9450 14.11503832 64140
CZ-6A DEB
1 64644U 24140AEJ 25355.10896956  .00000054  00000-0  21104-4 0  9990
2 64644  89.0310 297.2377 0082650  53.7306 307.1478 14.11504153 64565
CZ-6A DEB
1 64644U 24140AEJ 25355.10896957  .00000054  00000-0  21104-4 0  9991
2 64644  89.0310 297.2377 0082650  53.7306 307.1478 14.11504153 64565
CZ-6A DEB
1 64644U 24140AEJ 25357.09390686  .00000098  00000-0  44443-4 0  9998
2 64644  89.0312 297.0223 0082519  47.5136 313.2984 14.11504555 64848
CZ-6A DEB
1 64644U 24140AEJ 25357.09390687  .00000098  00000-0  44443-4 0  9999
2 64644  89.0312 297.0223 0082519  47.5136 313.2984 14.11504555 64848
CZ-6A DEB
1 64644U 24140AEJ 25362.12713118  .00000178  00000-0  87488-4 0  9992
2 64644  89.0315 296.4766 0082025  31.6552 328.9528 14.11505910 65556
CZ-6A DEB
1 64644U 24140AEJ 25362.12713119  .00000178  00000-0  87488-4 0  9993
2 64644  89.0315 296.4766 0082025  31.6552 328.9528 14.11505910 65556
CZ-6A DEB
1 64644U 24140AEJ 26003.08191333  .00000158  00000-0  77194-4 0  9990
2 64644  89.0319 295.8316 0081303  12.7838 347.5383 14.11508173 66392
CZ-6A DEB
1 64644U 24140AEJ 26003.08191333  .00000158  00000-0  77194-4 0  9990
2 64644  89.0319 295.8316 0081303  12.7838 347.5383 14.11508173 66392
CZ-6A DEB
1 64644U 24140AEJ 26004.07437580  .00000144  00000-0  69665-4 0  9996
2 64644  89.0319 295.7240 0081176   9.6300 350.6418 14.11508412 66530
CZ-6A DEB
1 64644U 24140AEJ 26004.07437580  .00000144  00000-0  69665-4 0  9996
2 64644  89.0319 295.7240 0081176   9.6300 350.6418 14.11508412 66530
CZ-6A DEB
1 64644U 24140AEJ 26006.05930032  .00000133  00000-0  63661-4 0  9994
2 64644  89.0322 295.5087 0080944   3.3643 356.8069 14.11508783 66816
CZ-6A DEB
1 64644U 24140AEJ 26006.05930033  .00000133  00000-0  63661-4 0  9995
2 64644  89.0322 295.5087 0080944   3.3643 356.8069 14.11508783 66816
CZ-6A DEB
1 64644U 24140AEJ 26008.04422418  .00000137  00000-0  65890-4 0  9999
2 64644  89.0322 295.2937 0080700 357.0191   3.0502 14.11509192 67093
CZ-6A DEB
1 64644U 24140AEJ 26008.04422418  .00000137  00000-0  65890-4 0  9999
2 64644  89.0322 295.2937 0080700 357.0191   3.0502 14.11509192 67093
CZ-6A DEB
1 64644U 24140AEJ 26010.52537824  .00000149  00000-0  72390-4 0  9999
2 64644  89.0318 295.0251 0080429 349.0079  10.9345 14.11509859 67440
CZ-6A DEB
1 64644U 24140AEJ 26011.51783958  .00000143  00000-0  69279-4 0  9996
2 64644  89.0319 294.9175 0080304 345.8091  14.0837 14.11510115 67587
CZ-6A DEB
1 64644U 24140AEJ 26012.51030087  .00000129  00000-0  61832-4 0  9996
2 64644  89.0318 294.8100 0080187 342.6038  17.2402 14.11510342 67729
CZ-6A DEB
1 64644U 24140AEJ 26012.51030088  .00000129  00000-0  61832-4 0  9997
2 64644  89.0318 294.8100 0080187 342.6038  17.2402 14.11510342 67729
CZ-6A DEB
1 64644U 24140AEJ 26013.50276222  .00000102  00000-0  47694-4 0  9990
2 64644  89.0318 294.7025 0080076 339.3934  20.4027 14.11510487 67863
CZ-6A DEB
1 64644U 24140AEJ 26019.03219269  .00000071  00000-0  30767-4 0  9990
2 64644  89.0319 294.1037 0079455 321.4350  38.1174 14.11511298 68641
CZ-6A DEB
1 64644U 24140AEJ 26021.01711774  .00000166  00000-0  81878-4 0  9993
2 64644  89.0316 293.8887 0079250 314.9641  44.5136 14.11512203 68927
CZ-6A DEB
1 64644U 24140AEJ 26023.00204343  .00000169  00000-0  83400-4 0  9999
2 64644  89.0313 293.6734 0079066 308.4794  50.9316 14.11512778 69205
CZ-6A DEB
1 64644U 24140AEJ 26023.99450649  .00000191  00000-0  95478-4 0  9992
2 64644  89.0312 293.5659 0078988 305.2350  54.1459 14.11513249 69347
CZ-6A DEB
1 64644U 24140AEJ 26023.99450650  .00000191  00000-0  95478-4 0  9994
2 64644  89.0312 293.5659 0078988 305.2350  54.1459 14.11513249 69347
CZ-6A DEB
1 64644U 24140AEJ 26025.48320160  .00000160  00000-0  78990-4 0  9998
2 64644  89.0311 293.4046 0078882 300.3660  58.9742 14.11513627 69558
CZ-6A DEB
1 64644U 24140AEJ 26025.48320160  .00000160  00000-0  78990-4 0  9998
2 64644  89.0311 293.4046 0078882 300.3660  58.9742 14.11513628 69559
CZ-6A DEB
1 64644U 24140AEJ 26028.46059366  .00000147  00000-0  71647-4 0  9993
2 64644  89.0307 293.0819 0078733 290.6064  68.6689 14.11514500 69976
CZ-6A DEB
1 64644U 24140AEJ 26032.00511238  .00000128  00000-0  61479-4 0  9990
2 64644  89.0303 292.6975 0078604 278.9724  80.2570 14.11515258 70476
CZ-6A DEB
1 64644U 24140AEJ 26034.48627822  .00000133  00000-0  64292-4 0  9993
2 64644  89.0301 292.4285 0078570 270.7764  88.4420 14.11515913 70823
CZ-6A DEB
1 64644U 24140AEJ 26034.48627822  .00000133  00000-0  64292-4 0  9993
2 64644  89.0301 292.4285 0078570 270.7764  88.4420 14.11515913 70823
CZ-6A DEB
1 64644U 24140AEJ 26035.97497870  .00000129  00000-0  62399-4 0  9997
2 64644  89.0299 292.2671 0078571 265.8634  93.3568 14.11516339 71033
CZ-6A DEB
1 64644U 24140AEJ 26035.97497871  .00000129  00000-0  62399-4 0  9998
2 64644  89.0299 292.2671 0078571 265.8634  93.3568 14.11516339 71033
CZ-6A DEB
1 64644U 24140AEJ 26053.91034833  .00000036  00000-0  11646-4 0  9993
2 64644  89.0268 290.3182 0079772 207.1076 152.5935 14.11519184 73565
CZ-6A DEB
1 64644U 24140AEJ 26053.91034834  .00000036  00000-0  11646-4 0  9994
2 64644  89.0268 290.3182 0079772 207.1076 152.5935 14.11519184 73565
CZ-6A DEB
1 64644U 24140AEJ 26054.40658505  .00000017  00000-0  17231-5 0  9992
2 64644  89.0268 290.2646 0079791 205.4862 154.2381 14.11519230 73638
CZ-6A DEB
1 64644U 24140AEJ 26054.40658505  .00000017  00000-0  17231-5 0  9992
2 64644  89.0268 290.2646 0079791 205.4862 154.2381 14.11519230 73638
CZ-6A DEB
1 64644U 24140AEJ 26057.38400715 -.00000026  00000-0 -21305-4 0  9998
2 64644  89.0264 289.9408 0080154 195.8576 164.0099 14.11519184 74054
CZ-6A DEB
1 64644U 24140AEJ 26057.38400715 -.00000026  00000-0 -21305-4 0  9998
2 64644  89.0264 289.9408 0080154 195.8576 164.0099 14.11519184 74054
CZ-6A DEB
1 64644U 24140AEJ 26058.87271925  .00000013  00000-0 -84742-6 0  9993
2 64644  89.0262 289.7786 0080323 191.0564 168.8860 14.11519187 74266
CZ-6A DEB
1 64644U 24140AEJ 26058.87271926  .00000013  00000-0 -84742-6 0  9994
2 64644  89.0262 289.7786 0080323 191.0564 168.8860 14.11519187 74266
CZ-6A DEB
1 64644U 24140AEJ 26063.90598414  .00000206  00000-0  10241-3 0  9991
2 64644  89.0254 289.2302 0080947 174.9488 185.2534 14.11520242 74976
CZ-6A DEB
1 64644U 24140AEJ 26063.90598415  .00000206  00000-0  10241-3 0  9992
2 64644  89.0254 289.2302 0080947 174.9488 185.2534 14.11520242 74976
CZ-6A DEB
1 64644U 24140AEJ 26064.89845816  .00000200  00000-0  99402-4 0  9992
2 64644  89.0253 289.1221 0081079 171.7850 188.4685 14.11520538 75116
CZ-6A DEB
1 64644U 24140AEJ 26066.38716835  .00000180  00000-0  88495-4 0  9993
2 64644  89.0250 288.9598 0081283 167.0352 193.2950 14.11521076 75329
CZ-6A DEB
1 64644U 24140AEJ 26066.38716835  .00000180  00000-0  88495-4 0  9993
2 64644  89.0250 288.9598 0081283 167.0352 193.2950 14.11521076 75329
CZ-6A DEB
1 64644U 24140AEJ 26067.37964125  .00000145  00000-0  69599-4 0  9995
2 64644  89.0247 288.8513 0081425 163.8694 196.5113 14.11521362 75462
CZ-6A DEB
1 64644U 24140AEJ 26067.37964126  .00000145  00000-0  69599-4 0  9996
2 64644  89.0247 288.8513 0081425 163.8694 196.5113 14.11521362 75462
CZ-6A DEB
1 64644U 24140AEJ 26069.36458620  .00000051  00000-0  19235-4 0  9992
2 64644  89.0244 288.6347 0081690 157.5649 202.9143 14.11521640 75741
CZ-6A DEB
1 64644U 24140AEJ 26069.86082228  .00000031  00000-0  87918-5 0  9996
2 64644  89.0243 288.5805 0081748 155.9918 204.5114 14.11521674 75814
CZ-6A DEB
1 64644U 24140AEJ 26069.86082229  .00000031  00000-0  87918-5 0  9997
2 64644  89.0243 288.5805 0081748 155.9918 204.5114 14.11521674 75814
CZ-6A DEB
1 64644U 24140AEJ 26070.85329433  .00000000  00000-0 -77289-5 0  9996
2 64644  89.0242 288.4722 0081863 152.8469 207.7034 14.11521706 75952
CZ-6A DEB
1 64644U 24140AEJ 26070.85329434  .00000000  00000-0 -77289-5 0  9997
2 64644  89.0242 288.4722 0081863 152.8469 207.7034 14.11521706 75952
CZ-6A DEB
1 64644U 24140AEJ 26071.34953029 -.00000001  00000-0 -84553-5 0  9999
2 64644  89.0242 288.4181 0081916 151.2774 209.2959 14.11521759 76022
CZ-6A DEB
1 64644U 24140AEJ 26071.34953029 -.00000001  00000-0 -84553-5 0  9999
2 64644  89.0242 288.4181 0081916 151.2774 209.2959 14.11521759 76022
CZ-6A DEB
1 64644U 24140AEJ 26073.33447366  .00000007  00000-0 -42946-5 0  9997
2 64644  89.0238 288.2011 0082127 144.9997 215.6625 14.11521785 76309
CZ-6A DEB
1 64644U 24140AEJ 26073.83070933  .00000020  00000-0  26347-5 0  9995
2 64644  89.0238 288.1471 0082165 143.4402 217.2432 14.11521822 76378
CZ-6A DEB
1 64644U 24140AEJ 26076.31188649  .00000102  00000-0  46279-4 0  9991
2 64644  89.0234 287.8762 0082375 135.6376 225.1449 14.11522033 76729
CZ-6A DEB
1 64644U 24140AEJ 26077.30435648  .00000136  00000-0  64730-4 0  9994
2 64644  89.0233 287.7678 0082448 132.5266 228.2921 14.11522228 76868
CZ-6A DEB
1 64644U 24140AEJ 26077.30435648  .00000136  00000-0  64730-4 0  9994
2 64644  89.0233 287.7678 0082448 132.5266 228.2921 14.11522228 76868
CZ-6A DEB
1 64644U 24140AEJ 26081.34512043  .00000142  00000-0  68010-4 0  9990
2 64644  89.0227 287.3262 0082764 119.9035 241.0404 14.11523179 77439
CZ-6A DEB
1 64644U 24140AEJ 26083.82628555  .00000075  00000-0  32238-4 0  9999
2 64644  89.0225 287.0550 0082914 112.1614 248.8397 14.11523640 77786
CZ-6A DEB
1 64644U 24140AEJ 26086.30744688  .00000037  00000-0  11892-4 0  9992
2 64644  89.0222 286.7834 0083052 104.4170 256.6251 14.11523952 78131
CZ-6A DEB
1 64644U 24140AEJ 26086.30744688  .00000037  00000-0  11892-4 0  9992
2 64644  89.0222 286.7834 0083052 104.4170 256.6251 14.11523952 78131
CZ-6A DEB
1 64644U 24140AEJ 26087.29991046  .00000042  00000-0  14620-4 0  9991
2 64644  89.0223 286.6749 0083076 101.3227 259.7308 14.11524055 78278
CZ-6A DEB
1 64644U 24140AEJ 26087.29991047  .00000042  00000-0  14620-4 0  9992
2 64644  89.0223 286.6749 0083076 101.3227 259.7308 14.11524055 78278
CZ-6A DEB
1 64644U 24140AEJ 26087.79614198  .00000045  00000-0  16148-4 0  9996
2 64644  89.0222 286.6207 0083078  99.7712 261.2867 14.11524106 78340
CZ-6A DEB
1 64644U 24140AEJ 26087.79614198  .00000045  00000-0  16148-4 0  9996
2 64644  89.0222 286.6207 0083078  99.7712 261.2868 14.11524106 78341
CZ-6A DEB
1 64644U 24140AEJ 26091.26975847  .00000109  00000-0  50304-4 0  9997
2 64644  89.0220 286.2407 0083094  88.9349 272.1355 14.11524648 78838
CZ-6A DEB
1 64644U 24140AEJ 26091.26975847  .00000109  00000-0  50304-4 0  9997
2 64644  89.0220 286.2407 0083094  88.9349 272.1355 14.11524648 78838
CZ-6A DEB
1 64644U 24140AEJ 26092.26221867  .00000145  00000-0  69354-4 0  9999
2 64644  89.0221 286.1322 0083078  85.8469 275.2206 14.11524992 78971
CZ-6A DEB
1 64644U 24140AEJ 26095.23959453  .00000137  00000-0  65248-4 0  9997
2 64644  89.0221 285.8065 0082981  76.5816 284.4601 14.11525736 79391
CZ-6A DEB
1 64644U 24140AEJ 26095.80671303  .00000131  00000-0  62172-4 0  9992
2 64644  89.0220 285.7444 0082966  74.8170 286.2172 14.11525873 79471
CZ-6A DEB
1 64644U 24140AEJ 26095.80671304  .00000131  00000-0  62172-4 0  9993
2 64644  89.0220 285.7444 0082966  74.8170 286.2172 14.11525873 79471
CZ-6A DEB
1 64644U 24140AEJ 26096.79916981  .00000112  00000-0  51774-4 0  9990
2 64644  89.0220 285.6357 0082926  71.7306 289.2880 14.11526073 79614
CZ-6A DEB
1 64644U 24140AEJ 26097.79162598  .00000087  00000-0  38627-4 0  9991
2 64644  89.0220 285.5271 0082882  68.6430 292.3575 14.11526209 79754
CZ-6A DEB
1 64644U 24140AEJ 26097.79162598  .00000087  00000-0  38627-4 0  9991
2 64644  89.0220 285.5271 0082882  68.6430 292.3575 14.11526209 79754
CZ-6A DEB
1 64644U 24140AEJ 26098.78408152  .00000069  00000-0  28879-4 0  9998
2 64644  89.0220 285.4185 0082832  65.5517 295.4281 14.11526336 79898
CZ-6A DEB
1 64644U 24140AEJ 26100.76899097  .00000069  00000-0  28966-4 0  9999
2 64644  89.0219 285.2011 0082727  59.3528 301.5780 14.11526630 80171
CZ-6A DEB
1 64644U 24140AEJ 26102.25767174  .00000071  00000-0  30225-4 0  9999
2 64644  89.0219 285.0381 0082632  54.6993 306.1884 14.11526752 80382
CZ-6A DEB
1 64644U 24140AEJ 26102.25767174  .00000071  00000-0  30225-4 0  9999
2 64644  89.0219 285.0381 0082632  54.6993 306.1884 14.11526752 80382
CZ-6A DEB
1 64644U 24140AEJ 26104.24257766  .00000089  00000-0  39609-4 0  9995
2 64644  89.0219 284.8208 0082476  48.4755 312.3468 14.11526985 80666
CZ-6A DEB
1 64644U 24140AEJ 26104.24257767  .00000089  00000-0  39609-4 0  9996
2 64644  89.0219 284.8208 0082476  48.4755 312.3468 14.11526985 80666
CZ-6A DEB
1 64644U 24140AEJ 26105.23502985  .00000092  00000-0  41321-4 0  9999
2 64644  89.0217 284.7120 0082372  45.3612 315.4250 14.11527099 80805
CZ-6A DEB
1 64644U 24140AEJ 26105.23502986  .00000092  00000-0  41321-4 0  9990
2 64644  89.0217 284.7120 0082372  45.3612 315.4250 14.11527099 80805
CZ-6A DEB
1 64644U 24140AEJ 26106.22748152  .00000096  00000-0  43797-4 0  9990
2 64644  89.0217 284.6032 0082274  42.2385 318.5098 14.11527252 80940
CZ-6A DEB
1 64644U 24140AEJ 26106.22748152  .00000096  00000-0  43797-4 0  9990
2 64644  89.0217 284.6033 0082274  42.2385 318.5098 14.11527252 80941
CZ-6A DEB
1 64644U 24140AEJ 26109.20483369  .00000072  00000-0  30673-4 0  9990
2 64644  89.0220 284.2776 0081967  32.8437 327.7804 14.11527610 81368
CZ-6A DEB
1 64644U 24140AEJ 26109.20483370  .00000072  00000-0  30673-4 0  9992
2 64644  89.0220 284.2776 0081967  32.8437 327.7804 14.11527610 81368
CZ-6A DEB
1 64644U 24140AEJ 26110.19728361  .00000054  00000-0  21179-4 0  9995
2 64644  89.0221 284.1691 0081847  29.7043 330.8752 14.11527678 81506
CZ-6A DEB
1 64644U 24140AEJ 26110.19728362  .00000054  00000-0  21179-4 0  9996
2 64644  89.0221 284.1691 0081847  29.7043 330.8752 14.11527678 81506
CZ-6A DEB
1 64644U 24140AEJ 26111.75684734  .00000036  00000-0  11595-4 0  9994
2 64644  89.0221 283.9984 0081690  24.7819 335.7256 14.11527779 81729
CZ-6A DEB
1 64644U 24140AEJ 26111.75684734  .00000036  00000-0  11595-4 0  9994
2 64644  89.0221 283.9984 0081690  24.7819 335.7256 14.11527779 81729
CZ-6A DEB
1 64644U 24140AEJ 26113.24552117  .00000030  00000-0  85986-5 0  9999
2 64644  89.0222 283.8354 0081496  20.0694 340.3664 14.11527874 81938
CZ-6A DEB
1 64644U 24140AEJ 26113.24552117  .00000030  00000-0  85986-5 0  9999
2 64644  89.0222 283.8354 0081496  20.0694 340.3664 14.11527874 81938
CZ-6A DEB
1 64644U 24140AEJ 26114.73419462  .00000042  00000-0  14698-4 0  9993
2 64644  89.0224 283.6726 0081304  15.3453 345.0170 14.11527977 82141
CZ-6A DEB
1 64644U 24140AEJ 26115.72664337  .00000055  00000-0  21736-4 0  9991
2 64644  89.0225 283.5639 0081188  12.1917 348.1207 14.11528068 82286
CZ-6A DEB
1 64644U 24140AEJ 26115.72664337  .00000055  00000-0  21736-4 0  9991
2 64644  89.0225 283.5639 0081188  12.1917 348.1207 14.11528068 82286
CZ-6A DEB
1 64644U 24140AEJ 26117.21531622  .00000085  00000-0  38180-4 0  9991
2 64644  89.0226 283.4010 0081002   7.4526 352.7842 14.11528277 82498
CZ-6A DEB
1 64644U 24140AEJ 26117.21531622  .00000085  00000-0  38180-4 0  9991
2 64644  89.0226 283.4010 0081002   7.4526 352.7842 14.11528277 82498
CZ-6A DEB
1 64644U 24140AEJ 26118.20776461  .00000098  00000-0  45072-4 0  9995
2 64644  89.0226 283.2925 0080880   4.2854 355.9005 14.11528405 82638
CZ-6A DEB
1 64644U 24140AEJ 26118.20776461  .00000098  00000-0  45072-4 0  9995
2 64644  89.0226 283.2925 0080880   4.2854 355.9005 14.11528405 82638
CZ-6A DEB
1 64644U 24140AEJ 26118.70398868  .00000103  00000-0  47848-4 0  9991
2 64644  89.0227 283.2382 0080818   2.6974 357.4630 14.11528492 82707
CZ-6A DEB
1 64644U 24140AEJ 26118.70398869  .00000103  00000-0  47848-4 0  9992
2 64644  89.0227 283.2382 0080818   2.6974 357.4630 14.11528492 82707
CZ-6A DEB
1 64644U 24140AEJ 26120.19266082  .00000109  00000-0  51096-4 0  9995
2 64644  89.0228 283.0754 0080630 357.9269   2.1569 14.11528732 82919
CZ-6A DEB
1 64644U 24140AEJ 26120.19266083  .00000109  00000-0  51096-4 0  9996
2 64644  89.0228 283.0754 0080630 357.9269   2.1569 14.11528732 82919
CZ-6A DEB
1 64644U 24140AEJ 26121.18510872  .00000114  00000-0  53572-4 0  9991
2 64644  89.0229 282.9668 0080515 354.7408   5.2922 14.11528949 83057
CZ-6A DEB
1 64644U 24140AEJ 26121.18510872  .00000114  00000-0  53572-4 0  9991
2 64644  89.0229 282.9668 0080515 354.7408   5.2922 14.11528948 83056
CZ-6A DEB
1 64644U 24140AEJ 26123.17000427  .00000095  00000-0  43349-4 0  9991
2 64644  89.0231 282.7498 0080279 348.3468  11.5856 14.11529270 83336
CZ-6A DEB
1 64644U 24140AEJ 26123.17000428  .00000095  00000-0  43349-4 0  9992
2 64644  89.0231 282.7498 0080279 348.3468  11.5856 14.11529270 83336
CZ-6A DEB
1 64644U 24140AEJ 26128.69935757  .00000045  00000-0  17080-4 0  9994
2 64644  89.0240 282.1456 0079612 330.4251  29.2443 14.11529878 84114
CZ-6A DEB
1 64644U 24140AEJ 26128.69935758  .00000045  00000-0  17080-4 0  9995
2 64644  89.0240 282.1456 0079612 330.4251  29.2443 14.11529878 84114
CZ-6A DEB
1 64644U 24140AEJ 26129.19558188  .00000044  00000-0  16595-4 0  9998
2 64644  89.0241 282.0915 0079557 328.8104  30.8372 14.11529916 84189
CZ-6A DEB
1 64644U 24140AEJ 26129.19558188  .00000044  00000-0  16595-4 0  9998
2 64644  89.0241 282.0915 0079557 328.8104  30.8372 14.11529916 84189
CZ-6A DEB
1 64644U 24140AEJ 26129.69180625  .00000044  00000-0  16477-4 0  9999
2 64644  89.0242 282.0373 0079503 327.1955  32.4308 14.11529944 84251
CZ-6A DEB
1 64644U 24140AEJ 26129.69180626  .00000044  00000-0  16477-4 0  9990
2 64644  89.0242 282.0373 0079503 327.1955  32.4308 14.11529944 84251
CZ-6A DEB
1 64644U 24140AEJ 26130.68425523  .00000047  00000-0  17999-4 0  9992
2 64644  89.0242 281.9288 0079396 323.9697  35.6151 14.11530015 84398
CZ-6A DEB
1 64644U 24140AEJ 26130.68425524  .00000047  00000-0  17999-4 0  9993
2 64644  89.0242 281.9288 0079396 323.9697  35.6151 14.11530015 84398
CZ-6A DEB
1 64644U 24140AEJ 26131.18047983  .00000048  00000-0  18498-4 0  9994
2 64644  89.0242 281.8746 0079342 322.3576  37.2072 14.11530050 84463
CZ-6A DEB
1 64644U 24140AEJ 26131.18047983  .00000048  00000-0  18498-4 0  9994
2 64644  89.0242 281.8746 0079342 322.3576  37.2072 14.11530050 84463
CZ-6A DEB
1 64644U 24140AEJ 26131.67670449  .00000049  00000-0  19386-4 0  9995
2 64644  89.0242 281.8203 0079294 320.7439  38.8012 14.11530084 84533
CZ-6A DEB
1 64644U 24140AEJ 26131.67670450  .00000049  00000-0  19386-4 0  9997
2 64644  89.0242 281.8203 0079294 320.7439  38.8012 14.11530084 84533
CZ-6A DEB
1 64644U 24140AEJ 26132.17292924  .00000052  00000-0  20927-4 0  9996
2 64644  89.0242 281.7661 0079241 319.1314  40.3946 14.11530127 84606
CZ-6A DEB
1 64644U 24140AEJ 26132.17292924  .00000052  00000-0  20927-4 0  9996
2 64644  89.0242 281.7660 0079241 319.1314  40.3946 14.11530127 84605
CZ-6A DEB
1 64644U 24140AEJ 26132.66915405  .00000053  00000-0  21590-4 0  9994
2 64644  89.0243 281.7119 0079198 317.5144  41.9928 14.11530162 84672
CZ-6A DEB
1 64644U 24140AEJ 26132.66915406  .00000053  00000-0  21590-4 0  9995
2 64644  89.0243 281.7119 0079198 317.5144  41.9928 14.11530162 84672
CZ-6A DEB
1 64644U 24140AEJ 26135.64650478  .00000055  00000-0  22685-4 0  9999
2 64644  89.0245 281.3868 0078951 307.7921  51.6132 14.11530395 85091
CZ-6A DEB
1 64644U 24140AEJ 26137.13518134  .00000059  00000-0  24740-4 0  9995
2 64644  89.0248 281.2243 0078849 302.9195  56.4423 14.11530561 85301
CZ-6A DEB
1 64644U 24140AEJ 26137.13518135  .00000059  00000-0  24740-4 0  9996
2 64644  89.0248 281.2243 0078849 302.9195  56.4423 14.11530561 85301
CZ-6A DEB
1 64644U 24140AEJ 26138.12763289  .00000063  00000-0  26980-4 0  9991
2 64644  89.0249 281.1160 0078792 299.6668  59.6688 14.11530674 85441
CZ-6A DEB
1 64644U 24140AEJ 26138.12763290  .00000063  00000-0  26980-4 0  9993
2 64644  89.0249 281.1160 0078792 299.6668  59.6688 14.11530674 85441
CZ-6A DEB
1 64644U 24140AEJ 26139.12008486  .00000069  00000-0  29949-4 0  9997
2 64644  89.0251 281.0077 0078741 296.4095  62.9024 14.11530789 85586
CZ-6A DEB
1 64644U 24140AEJ 26139.12008487  .00000069  00000-0  29949-4 0  9998
2 64644  89.0251 281.0078 0078741 296.4095  62.9024 14.11530789 85587
CZ-6A DEB
1 64644U 24140AEJ 26139.68720041  .00000074  00000-0  32410-4 0  9999
2 64644  89.0253 280.9459 0078719 294.5398  64.7596 14.11530873 85667
CZ-6A DEB
1 64644U 24140AEJ 26139.68720041  .00000074  00000-0  32410-4 0  9999
2 64644  89.0253 280.9459 0078719 294.5398  64.7596 14.11530873 85667
CZ-6A DEB
1 64644U 24140AEJ 26141.10499002  .00000084  00000-0  38183-4 0  9993
2 64644  89.0256 280.7913 0078658 289.8770  69.3951 14.11531065 85868
CZ-6A DEB
1 64644U 24140AEJ 26141.67210602  .00000090  00000-0  41502-4 0  9998
2 64644  89.0255 280.7293 0078647 288.0084  71.2542 14.11531175 85944
CZ-6A DEB
1 64644U 24140AEJ 26141.67210602  .00000090  00000-0  41502-4 0  9998
2 64644  89.0255 280.7293 0078647 288.0084  71.2542 14.11531175 85944
CZ-6A DEB
1 64644U 24140AEJ 26142.66455946  .00000097  00000-0  44934-4 0  9999
2 64644  89.0257 280.6211 0078613 284.7398  74.5085 14.11531342 86089
CZ-6A DEB
1 64644U 24140AEJ 26142.66455946  .00000097  00000-0  44934-4 0  9999
2 64644  89.0257 280.6211 0078613 284.7398  74.5085 14.11531342 86089
CZ-6A DEB
1 64644U 24140AEJ 26148.61928878  .00000056  00000-0  22792-4 0  9992
2 64644  89.0263 279.9720 0078520 265.1150  94.1067 14.11532247 86924
CZ-6A DEB
1 64644U 24140AEJ 26149.11551698  .00000048  00000-0  18550-4 0  9998
2 64644  89.0263 279.9179 0078536 263.4750  95.7490 14.11532281 86998
CZ-6A DEB
1 64644U 24140AEJ 26149.11551699  .00000048  00000-0  18550-4 0  9999
2 64644  89.0263 279.9179 0078536 263.4750  95.7490 14.11532281 86998
CZ-6A DEB
1 64644U 24140AEJ 26153.08534733  .00000064  00000-0  27455-4 0  9992
2 64644  89.0270 279.4857 0078653 250.4240 108.8442 14.11532681 87554
CZ-6A DEB
1 64644U 24140AEJ 26158.61476558  .00000189  00000-0  93937-4 0  9992
2 64644  89.0276 278.8838 0079023 232.2841 127.1164 14.11533971 88334
CZ-6A DEB
1 64644U 24140AEJ 26158.61476559  .00000189  00000-0  93937-4 0  9993
2 64644  89.0276 278.8839 0079023 232.2841 127.1164 14.11533971 88335
CZ-6A DEB
1 64644U 24140AEJ 26161.59214754  .00000111  00000-0  52151-4 0  9999
2 64644  89.0277 278.5599 0079292 222.5314 136.9712 14.11534622 88758
CZ-6A DEB
1 64644U 24140AEJ 26163.57706993  .00000045  00000-0  16986-4 0  9992
2 64644  89.0277 278.3439 0079469 216.0497 143.5315 14.11534941 89034
CZ-6A DEB
1 64644U 24140AEJ 26165.06576259 -.00000001  00000-0 -77220-5 0  9991
2 64644  89.0278 278.1821 0079634 211.2100 148.4344 14.11534984 89246
CZ-6A DEB
1 64644U 24140AEJ 26165.06576260 -.00000001  00000-0 -77220-5 0  9993
2 64644  89.0278 278.1821 0079634 211.2100 148.4344 14.11534984 89246
CZ-6A DEB
1 64644U 24140AEJ 26166.05822485 -.00000015  00000-0 -15416-4 0  9999
2 64644  89.0279 278.0742 0079739 207.9892 151.6995 14.11534980 89383
CZ-6A DEB
1 64644U 24140AEJ 26166.05822486 -.00000015  00000-0 -15416-4 0  9990
2 64644  89.0279 278.0742 0079739 207.9892 151.6995 14.11534980 89383
CZ-6A DEB
1 64644U 24140AEJ 26166.55445613 -.00000016  00000-0 -16090-4 0  9998
2 64644  89.0280 278.0202 0079788 206.3792 153.3322 14.11534976 89458
CZ-6A DEB
1 64644U 24140AEJ 26166.55445614 -.00000016  00000-0 -16090-4 0  9999
2 64644  89.0280 278.0202 0079788 206.3792 153.3322 14.11534976 89458
CZ-6A DEB
1 64644U 24140AEJ 26167.05068751 -.00000012  00000-0 -13715-4 0  9995
2 64644  89.0281 277.9663 0079849 204.7712 154.9631 14.11534979 89521
CZ-6A DEB
1 64644U 24140AEJ 26167.05068752 -.00000012  00000-0 -13715-4 0  9996
2 64644  89.0281 277.9663 0079849 204.7712 154.9631 14.11534979 89521
CZ-6A DEB
1 64644U 24140AEJ 26170.02807725  .00000073  00000-0  31454-4 0  9993
2 64644  89.0284 277.6425 0080208 195.1689 164.7091 14.11535099 89943
CZ-6A DEB
1 64644U 24140AEJ 26170.02807725  .00000073  00000-0  31454-4 0  9993
2 64644  89.0284 277.6425 0080208 195.1689 164.7091 14.11535099 89943
CZ-6A DEB
1 64644U 24140AEJ 26173.57258979  .00000172  00000-0  84533-4 0  9993
2 64644  89.0285 277.2573 0080649 183.7855 176.2731 14.11535792 90447
CZ-6A DEB
1 64644U 24140AEJ 26173.57258979  .00000172  00000-0  84533-4 0  9993
2 64644  89.0285 277.2573 0080649 183.7855 176.2731 14.11535792 90447
CZ-6A DEB
1 64644U 24140AEJ 26175.55751567  .00000166  00000-0  81288-4 0  9991
2 64644  89.0285 277.0416 0080925 177.4303 182.7315 14.11536392 90724
CZ-6A DEB
1 64644U 24140AEJ 26177.54244036  .00000107  00000-0  49439-4 0  9997
2 64644  89.0285 276.8259 0081190 171.0957 189.1691 14.11536879 91006
CZ-6A DEB
1 64644U 24140AEJ 26177.54244037  .00000107  00000-0  49439-4 0  9998
2 64644  89.0285 276.8259 0081190 171.0957 189.1691 14.11536879 91006
CZ-6A DEB
1 64644U 24140AEJ 26178.53490238  .00000068  00000-0  28576-4 0  9999
2 64644  89.0285 276.7181 0081319 167.9319 192.3841 14.11537025 91140
CZ-6A DEB
1 64644U 24140AEJ 26178.53490239  .00000068  00000-0  28576-4 0  9990
2 64644  89.0285 276.7181 0081319 167.9319 192.3841 14.11537025 91140
CZ-6A DEB
1 64644U 24140AEJ 26179.52736427  .00000031  00000-0  87525-5 0  9992
2 64644  89.0286 276.6102 0081451 164.7716 195.5950 14.11537110 91282
CZ-6A DEB
1 64644U 24140AEJ 26180.51982602  .00000007  00000-0 -41529-5 0  9999
2 64644  89.0286 276.5024 0081568 161.6198 198.7965 14.11537165 91420
CZ-6A DEB
1 64644U 24140AEJ 26181.58317779 -.00000004  00000-0 -10127-4 0  9991
2 64644  89.0286 276.3868 0081695 158.2432 202.2257 14.11537200 91579
CZ-6A DEB
1 64644U 24140AEJ 26181.58317780 -.00000004  00000-0 -10127-4 0  9993
2 64644  89.0286 276.3869 0081695 158.2432 202.2257 14.11537200 91570
CZ-6A DEB
1 64644U 24140AEJ 26181.58317780 -.00000004  00000-0 -10127-4 0  9993
2 64644  89.0286 276.3869 0081695 158.2432 202.2257 14.11537200 91570
CZ-6A DEB
1 64644U 24140AEJ 26182.00851845 -.00000001  00000-0 -83067-5 0  9997
2 64644  89.0287 276.3407 0081745 156.8994 203.5901 14.11537232 91634
CZ-6A DEB
1 64644U 24140AEJ 26182.00851845 -.00000001  00000-0 -83067-5 0  9997
2 64644  89.0287 276.3407 0081745 156.8994 203.5901 14.11537232 91634
CZ-6A DEB
1 64644U 24140AEJ 26183.00097992  .00000012  00000-0 -15239-5 0  9990
2 64644  89.0286 276.2329 0081853 153.7589 206.7780 14.11537263 91770
CZ-6A DEB
1 64644U 24140AEJ 26183.49721060  .00000029  00000-0  74593-5 0  9998
2 64644  89.0286 276.1790 0081903 152.1897 208.3704 14.11537305 91841
CZ-6A DEB
1 64644U 24140AEJ 26183.49721061  .00000029  00000-0  74593-5 0  9999
2 64644  89.0286 276.1790 0081903 152.1897 208.3704 14.11537305 91841
CZ-6A DEB
1 64644U 24140AEJ 26184.56056188  .00000060  00000-0  24317-4 0  9992
2 64644  89.0286 276.0635 0082016 148.8309 211.7779 14.11537361 91992
CZ-6A DEB
1 64644U 24140AEJ 26184.98590227  .00000078  00000-0  33662-4 0  9997
2 64644  89.0286 276.0173 0082060 147.4910 213.1368 14.11537415 92059
CZ-6A DEB
1 64644U 24140AEJ 26184.98590228  .00000078  00000-0  33662-4 0  9998
2 64644  89.0286 276.0173 0082060 147.4910 213.1368 14.11537415 92059
CZ-6A DEB
1 64644U 24140AEJ 26189.52286079  .00000151  00000-0  72720-4 0  9999
2 64644  89.0282 275.5243 0082490 133.2582 227.5527 14.11538245 92690
CZ-6A DEB
1 64644U 24140AEJ 26189.52286079  .00000151  00000-0  72720-4 0  9999
2 64644  89.0282 275.5243 0082490 133.2582 227.5527 14.11538245 92690
CZ-6A DEB
1 64644U 24140AEJ 26189.52286079  .00000151  00000-0  72720-4 0  9999
2 64644  89.0282 275.5243 0082490 133.2582 227.5527 14.11538245 92690
CZ-6A DEB
1 64644U 24140AEJ 26194.48514473  .00000027  00000-0  63264-5 0  9998
2 64644  89.0280 274.9852 0082880 117.7552 243.2070 14.11538997 93394
CZ-6A DEB
1 64644U 24140AEJ 26194.48514474  .00000027  00000-0  63264-5 0  9999
2 64644  89.0280 274.9852 0082880 117.7552 243.2070 14.11538997 93394
CZ-6A DEB
1 64644U 24140AEJ 26195.47759993  .00000009  00000-0 -34684-5 0  9991
2 64644  89.0280 274.8772 0082941 114.6477 246.3375 14.11539030 93531
CZ-6A DEB
1 64644U 24140AEJ 26199.51830549  .00000022  00000-0  35507-5 0  9996
2 64644  89.0276 274.4379 0083090 102.0358 259.0155 14.11539051 94104
CZ-6A DEB
1 64644U 24140AEJ 26201.92854664  .00000073  00000-0  30782-4 0  9994
2 64644  89.0272 274.1758 0083115  94.5239 266.5447 14.11539226 94447
CZ-6A DEB
1 64644U 24140AEJ 26202.49566161  .00000085  00000-0  37564-4 0  9997
2 64644  89.0270 274.1139 0083107  92.7576 268.3126 14.11539321 94522
CZ-6A DEB
1 64644U 24140AEJ 26204.48056233  .00000100  00000-0  45445-4 0  9997
2 64644  89.0269 273.8982 0083084  86.5861 274.4824 14.11539593 94809
CZ-6A DEB
1 64644U 24140AEJ 26204.48056233  .00000100  00000-0  45445-4 0  9997
2 64644  89.0269 273.8982 0083084  86.5861 274.4824 14.11539593 94809
CZ-6A DEB
1 64644U 24140AEJ 26205.47301159  .00000103  00000-0  46777-4 0  9999
2 64644  89.0268 273.7903 0083064  83.5025 277.5609 14.11539790 94946
CZ-6A DEB
1 64644U 24140AEJ 26206.46546024  .00000092  00000-0  41207-4 0  9991
2 64644  89.0267 273.6822 0083046  80.4153 280.6404 14.11539930 95082
CZ-6A DEB
1 64644U 24140AEJ 26208.94657891  .00000066  00000-0  27135-4 0  9996
2 64644  89.0265 273.4123 0082965  72.7047 288.3195 14.11540268 95434
CZ-6A DEB
1 64644U 24140AEJ 26209.93902532  .00000057  00000-0  22388-4 0  9996
2 64644  89.0264 273.3043 0082917  69.6155 291.3912 14.11540356 95579
CZ-6A DEB
1 64644U 24140AEJ 26209.93902533  .00000057  00000-0  22388-4 0  9997
2 64644  89.0264 273.3043 0082917  69.6155 291.3912 14.11540356 95579
CZ-6A DEB
1 64644U 24140AEJ 26209.93902533  .00000057  00000-0  22388-4 0  9997
2 64644  89.0264 273.3043 0082917  69.6155 291.3912 14.11540356 95579
CZ-6A DEB
1 64644U 24140AEJ 26210.93147126  .00000057  00000-0  22515-4 0  9990
2 64644  89.0263 273.1963 0082879  66.5210 294.4659 14.11540447 95711
CZ-6A DEB
1 64644U 24140AEJ 26212.91636141  .00000065  00000-0  26790-4 0  9998
2 64644  89.0260 272.9802 0082769  60.3184 300.6209 14.11540627 95998
CZ-6A DEB
1 64644U 24140AEJ 26213.90880567  .00000073  00000-0  31246-4 0  9992
2 64644  89.0259 272.8721 0082703  57.2118 303.6999 14.11540737 96133
CZ-6A DEB
1 64644U 24140AEJ 26213.90880568  .00000073  00000-0  31246-4 0  9993
2 64644  89.0259 272.8721 0082703  57.2119 303.6999 14.11540737 96134
CZ-6A DEB
1 64644U 24140AEJ 26214.90124938  .00000080  00000-0  35003-4 0  9999
2 64644  89.0257 272.7640 0082630  54.1015 306.7805 14.11540858 96270
CZ-6A DEB
1 64644U 24140AEJ 26223.40789032  .00000021  00000-0  34231-5 0  9994
2 64644  89.0246 271.8369 0081717  27.3268 333.2180 14.11541462 97479
CZ-6A DEB
1 64644U 24140AEJ 26223.40789033  .00000021  00000-0  34231-5 0  9995
2 64644  89.0246 271.8369 0081717  27.3268 333.2180 14.11541462 97479
CZ-6A DEB
1 64644U 24140AEJ 26224.40033027  .00000022  00000-0  44394-5 0  9993
2 64644  89.0245 271.7287 0081630  24.1943 336.3041 14.11541493 97615
CZ-6A DEB
1 64644U 24140AEJ 26224.40033027  .00000022  00000-0  44394-5 0  9993
2 64644  89.0245 271.7287 0081630  24.1943 336.3041 14.11541493 97615
CZ-6A DEB
1 64644U 24140AEJ 26224.89655014  .00000026  00000-0  63040-5 0  9995
2 64644  89.0243 271.6745 0081575  22.6311 337.8438 14.11541521 97686
CZ-6A DEB
1 64644U 24140AEJ 26225.39276998  .00000031  00000-0  92298-5 0  9994
2 64644  89.0243 271.6204 0081516  21.0592 339.3918 14.11541541 97755
CZ-6A DEB
1 64644U 24140AEJ 26225.39276998  .00000031  00000-0  92298-5 0  9994
2 64644  89.0243 271.6204 0081516  21.0592 339.3918 14.11541541 97755
CZ-6A DEB
1 64644U 24140AEJ 26226.88142917  .00000049  00000-0  18549-4 0  9997
2 64644  89.0241 271.4582 0081331  16.3339 344.0438 14.11541622 97964
CZ-6A DEB
1 64644U 24140AEJ 26226.88142917  .00000049  00000-0  18549-4 0  9997
2 64644  89.0241 271.4581 0081331  16.3339 344.0438 14.11541622 97963
CZ-6A DEB
1 64644U 24140AEJ 26233.40316964  .00000080  00000-0  35661-4 0  9997
2 64644  89.0234 270.7465 0080556 355.4812   4.5636 14.11542391 98883
CZ-6A DEB
1 64644U 24140AEJ 26233.40316965  .00000080  00000-0  35661-4 0  9998
2 64644  89.0234 270.7465 0080556 355.4812   4.5636 14.11542391 98883
CZ-6A DEB
1 64644U 24140AEJ 26235.38804636  .00000058  00000-0  24029-4 0  9995
2 64644  89.0232 270.5297 0080303 349.0872  10.8568 14.11542576 99168
CZ-6A DEB
1 64644U 24140AEJ 26236.38048481  .00000048  00000-0  18433-4 0  9995
2 64644  89.0231 270.4214 0080181 345.8969  13.9976 14.11542649 99304
CZ-6A DEB
1 64644U 24140AEJ 26236.38048482  .00000048  00000-0  18433-4 0  9996
2 64644  89.0231 270.4214 0080181 345.8969  13.9976 14.11542650 99306
CZ-6A DEB
1 64644U 24140AEJ 26238.36536211  .00000042  00000-0  15128-4 0  9990
2 64644  89.0228 270.2045 0079928 339.4847  20.3133 14.11542805 99582
CZ-6A DEB
1 64644U 24140AEJ 26238.36536211  .00000042  00000-0  15128-4 0  9990
2 64644  89.0228 270.2045 0079928 339.4847  20.3133 14.11542805 99582
CZ-6A DEB
1 64644U 24140AEJ 26238.86158150  .00000040  00000-0  14388-4 0  9992
2 64644  89.0226 270.1502 0079863 337.8582  21.9160 14.11542829 99654
CZ-6A DEB
1 64644U 24140AEJ 26238.86158151  .00000040  00000-0  14388-4 0  9993
2 64644  89.0226 270.1502 0079863 337.8582  21.9160 14.11542829 99654
CZ-6A DEB
1 64644U 24140AEJ 26240.35024014  .00000042  00000-0  15596-4 0  9994
2 64644  89.0224 269.9875 0079686 333.0373  26.6682 14.11542902 99866
CZ-6A DEB
1 64644U 24140AEJ 26240.35024014  .00000042  00000-0  15596-4 0  9994
2 64644  89.0224 269.9875 0079686 333.0373  26.6682 14.11542902 99866
CZ-6A DEB
1 64644U 24140AEJ 26242.33511906  .00000053  00000-0  21467-4 0  9991
2 64644  89.0222 269.7706 0079460 326.5900  33.0284 14.11543039100144
CZ-6A DEB
1 64644U 24140AEJ 26242.33511907  .00000053  00000-0  21467-4 0  9992
2 64644  89.0222 269.7706 0079460 326.5900  33.0285 14.11543039100145
CZ-6A DEB
1 64644U 24140AEJ 26242.83133895  .00000053  00000-0  21507-4 0  9998
2 64644  89.0220 269.7162 0079411 324.9843  34.6135 14.11543066100212
CZ-6A DEB
1 64644U 24140AEJ 26242.83133895  .00000053  00000-0  21507-4 0  9998
2 64644  89.0220 269.7162 0079411 324.9843  34.6135 14.11543066100212
