CZ-6A R/B DEB
1 64643U 24140AEH 25176.11505411  .00001503  00000-0  62241-3 0  9990
2 64643  89.1566 320.5263 0072088 321.7479  37.8611 14.24812591 41108
TBA - TO BE ASSIGNED
1 64643U 24140AEH 25176.11505411  .00001503  00000-0  62241-3 0  9990
2 64643  89.1566 320.5263 0072088 321.7479  37.8611 14.24812591 41108
CZ-6A R/B DEB
1 64643U 24140AEH 25181.80357258  .00001617  00000-0  66988-3 0  9994
2 64643  89.1572 319.9776 0071747 302.3200  57.1058 14.24830752 39920
CZ-6A R/B DEB
1 64643U 24140AEH 25181.80357258  .00001617  00000-0  66988-3 0  9994
2 64643  89.1572 319.9776 0071747 302.3200  57.1058 14.24830752 41912
CZ-6A R/B DEB
1 64643U 24140AEH 25182.36539824  .00001806  00000-0  74872-3 0  9998
2 64643  89.1572 319.9235 0071726 300.4260  58.9858 14.24833630 40008
CZ-6A R/B DEB
1 64643U 24140AEH 25182.64631091  .00001770  00000-0  73375-3 0  9995
2 64643  89.1572 319.8965 0071697 299.4665  59.9388 14.24834338 40049
CZ-6A R/B DEB
1 64643U 24140AEH 25183.34859197  .00001702  00000-0  70519-3 0  9994
2 64643  89.1571 319.8287 0071669 297.0702  62.3189 14.24836290 40147
CZ-6A R/B DEB
1 64643U 24140AEH 25183.34859197  .00001702  00000-0  70519-3 0  9994
2 64643  89.1571 319.8287 0071669 297.0702  62.3189 14.24836290 42138
CZ-6A R/B DEB
1 64643U 24140AEH 25184.33178334  .00001755  00000-0  72751-3 0  9999
2 64643  89.1572 319.7338 0071661 293.7103  65.6582 14.24839969 40288
CZ-6A R/B DEB
1 64643U 24140AEH 25184.82337802  .00001788  00000-0  74124-3 0  9992
2 64643  89.1571 319.6864 0071669 292.0344  67.3247 14.24841945 40359
CZ-6A R/B DEB
1 64643U 24140AEH 25184.82337802  .00001788  00000-0  74124-3 0  9992
2 64643  89.1571 319.6864 0071669 292.0344  67.3247 14.24841945 42340
CZ-6A R/B DEB
1 64643U 24140AEH 25185.10428901  .00001799  00000-0  74587-3 0  9990
2 64643  89.1571 319.6593 0071642 291.0812  68.2731 14.24843044 40392
CZ-6A R/B DEB
1 64643U 24140AEH 25185.80656612  .00001835  00000-0  76089-3 0  9999
2 64643  89.1571 319.5915 0071642 288.6835  70.6591 14.24845768 40493
CZ-6A R/B DEB
1 64643U 24140AEH 25186.36838676  .00001925  00000-0  79822-3 0  9991
2 64643  89.1572 319.5373 0071637 286.7801  72.5541 14.24848391 40578
CZ-6A R/B DEB
1 64643U 24140AEH 25186.36838676  .00001925  00000-0  79822-3 0  9991
2 64643  89.1572 319.5373 0071637 286.7801  72.5541 14.24848391 42569
CZ-6A R/B DEB
1 64643U 24140AEH 25187.35157160  .00001879  00000-0  77921-3 0  9999
2 64643  89.1572 319.4425 0071650 283.4221  75.8993 14.24851828 40712
CZ-6A R/B DEB
1 64643U 24140AEH 25188.61568258  .00001136  00000-0  46898-3 0  9998
2 64643  89.1577 319.3199 0071137 279.4438  79.8719 14.24847537 40890
CZ-6A R/B DEB
1 64643U 24140AEH 25188.61568258  .00001136  00000-0  46898-3 0  9998
2 64643  89.1577 319.3199 0071137 279.4438  79.8719 14.24847537 42881
CZ-6A R/B DEB
1 64643U 24140AEH 25189.80952366  .00001728  00000-0  71569-3 0  9997
2 64643  89.1573 319.2056 0071806 275.0218  84.2781 14.24860603 41066
CZ-6A R/B DEB
1 64643U 24140AEH 25190.86292913  .00001572  00000-0  65080-3 0  9998
2 64643  89.1575 319.1035 0071792 271.3795  87.9175 14.24864284 41210
CZ-6A R/B DEB
1 64643U 24140AEH 25190.86292913  .00001572  00000-0  65080-3 0  9998
2 64643  89.1575 319.1035 0071792 271.3795  87.9175 14.24864284 43201
CZ-6A R/B DEB
1 64643U 24140AEH 25192.33769316  .00001570  00000-0  64989-3 0  9993
2 64643  89.1574 318.9616 0071933 266.4195  92.8769 14.24868556 41420
CZ-6A R/B DEB
1 64643U 24140AEH 25192.33769316  .00001570  00000-0  64989-3 0  9993
2 64643  89.1574 318.9616 0071933 266.4195  92.8769 14.24868556 43411
CZ-6A R/B DEB
1 64643U 24140AEH 25193.32086594  .00001763  00000-0  73000-3 0  9991
2 64643  89.1575 318.8668 0072009 263.0833  96.2165 14.24873160 41564
CZ-6A R/B DEB
1 64643U 24140AEH 25194.30403722  .00001827  00000-0  75668-3 0  9999
2 64643  89.1575 318.7720 0072102 259.7439  99.5618 14.24876932 41705
CZ-6A R/B DEB
1 64643U 24140AEH 25194.30403722  .00001827  00000-0  75668-3 0  9999
2 64643  89.1575 318.7720 0072102 259.7439  99.5618 14.24876932 43695
CZ-6A R/B DEB
1 64643U 24140AEH 25194.79562223  .00001814  00000-0  75114-3 0  9996
2 64643  89.1576 318.7247 0072157 258.0768 101.2328 14.24878558 41779
CZ-6A R/B DEB
1 64643U 24140AEH 25196.76195711  .00001917  00000-0  79385-3 0  9997
2 64643  89.1575 318.5351 0072400 251.4224 107.9095 14.24886097 42050
CZ-6A R/B DEB
1 64643U 24140AEH 25196.76195711  .00001917  00000-0  79385-3 0  9997
2 64643  89.1575 318.5351 0072400 251.4224 107.9095 14.24886097 44041
CZ-6A R/B DEB
1 64643U 24140AEH 25199.29008922  .00002031  00000-0  84118-3 0  9993
2 64643  89.1574 318.2913 0072657 242.9191 116.4577 14.24896415 42417
CZ-6A R/B DEB
1 64643U 24140AEH 25199.29008922  .00002031  00000-0  84118-3 0  9993
2 64643  89.1574 318.2913 0072657 242.9191 116.4577 14.24896415 44408
CZ-6A R/B DEB
1 64643U 24140AEH 25199.78166841  .00002059  00000-0  85250-3 0  9990
2 64643  89.1577 318.2441 0072741 241.2800 118.1070 14.24898594 42483
CZ-6A R/B DEB
1 64643U 24140AEH 25201.74797933  .00002076  00000-0  85919-3 0  9993
2 64643  89.1573 318.0542 0073032 234.6787 124.7563 14.24906883 42765
CZ-6A R/B DEB
1 64643U 24140AEH 25201.74797933  .00002076  00000-0  85919-3 0  9993
2 64643  89.1573 318.0542 0073032 234.6787 124.7563 14.24906883 44756
CZ-6A R/B DEB
1 64643U 24140AEH 25202.30978052  .00002213  00000-0  91634-3 0  9993
2 64643  89.1574 318.0001 0073087 232.8020 126.6488 14.24910060 42844
CZ-6A DEB
1 64643U 24140AEH 25203.29293080  .00002319  00000-0  96009-3 0  9991
2 64643  89.1576 317.9054 0073253 229.5296 129.9497 14.24914845 42981
CZ-6A R/B DEB
1 64643U 24140AEH 25203.29293080  .00002319  00000-0  96009-3 0  9991
2 64643  89.1576 317.9054 0073253 229.5296 129.9497 14.24914845 44972
CZ-6A DEB
1 64643U 24140AEH 25204.27607653  .00002647  00000-0  10963-2 0  9993
2 64643  89.1576 317.8106 0073396 226.2630 133.2473 14.24921462 43124
CZ-6A DEB
1 64643U 24140AEH 25206.31258439  .00002643  00000-0  10945-2 0  9990
2 64643  89.1573 317.6141 0073678 219.5233 140.0575 14.24931552 43417
CZ-6A DEB
1 64643U 24140AEH 25207.99795749  .00003106  00000-0  12861-2 0  9999
2 64643  89.1588 317.4520 0074102 213.9313 145.7129 14.24943195 43651
CZ-6A DEB
1 64643U 24140AEH 25207.99795749  .00003106  00000-0  12861-2 0  9999
2 64643  89.1588 317.4520 0074102 213.9313 145.7129 14.24943195 45642
CZ-6A DEB
1 64643U 24140AEH 25209.47265098  .00002745  00000-0  11356-2 0  9999
2 64643  89.1571 317.3091 0074271 209.0540 150.6511 14.24950227 43867
CZ-6A DEB
1 64643U 24140AEH 25209.47265098  .00002745  00000-0  11356-2 0  9999
2 64643  89.1571 317.3091 0074271 209.0540 150.6511 14.24950227 45858
CZ-6A DEB
1 64643U 24140AEH 25210.45577537  .00002904  00000-0  12017-2 0  9995
2 64643  89.1571 317.2144 0074421 205.8380 153.9089 14.24956190 44006
CZ-6A DEB
1 64643U 24140AEH 25210.73666743  .00002903  00000-0  12011-2 0  9997
2 64643  89.1569 317.1875 0074460 204.9188 154.8404 14.24957761 44042
CZ-6A DEB
1 64643U 24140AEH 25210.73666743  .00002903  00000-0  12011-2 0  9997
2 64643  89.1569 317.1875 0074460 204.9188 154.8404 14.24957761 46033
CZ-6A DEB
1 64643U 24140AEH 25211.01755905  .00002933  00000-0  12136-2 0  9999
2 64643  89.1569 317.1604 0074513 203.9930 155.7786 14.24959437 44084
CZ-6A DEB
1 64643U 24140AEH 25212.56245743  .00003192  00000-0  13205-2 0  9990
2 64643  89.1566 317.0118 0074747 198.9297 160.9116 14.24969362 44306
CZ-6A DEB
1 64643U 24140AEH 25212.56245743  .00003192  00000-0  13205-2 0  9990
2 64643  89.1566 317.0118 0074747 198.9297 160.9116 14.24969362 46296
CZ-6A DEB
1 64643U 24140AEH 25213.47534722  .00003080  00000-0  12736-2 0  9993
2 64643  89.1566 316.9239 0074970 195.9783 163.9045 14.24974640 44436
CZ-6A DEB
1 64643U 24140AEH 25214.03712390  .00002809  00000-0  11608-2 0  9990
2 64643  89.1565 316.8697 0075061 194.1553 165.7538 14.24977311 46505
CZ-6A DEB
1 64643U 24140AEH 25214.52867725  .00002840  00000-0  11738-2 0  9996
2 64643  89.1566 316.8224 0075158 192.5652 167.3670 14.24980531 44580
CZ-6A DEB
1 64643U 24140AEH 25216.00333256  .00002494  00000-0  10294-2 0  9999
2 64643  89.1566 316.6799 0075396 187.7883 172.2146 14.24988060 44792
CZ-6A DEB
1 64643U 24140AEH 25216.00333256  .00002494  00000-0  10294-2 0  9999
2 64643  89.1566 316.6799 0075396 187.7883 172.2146 14.24988060 46783
CZ-6A DEB
1 64643U 24140AEH 25217.47798062  .00002518  00000-0  10392-2 0  9997
2 64643  89.1568 316.5376 0075597 182.9855 177.0898 14.24995843 45002
CZ-6A DEB
1 64643U 24140AEH 25217.47798062  .00002518  00000-0  10392-2 0  9997
2 64643  89.1568 316.5376 0075597 182.9855 177.0898 14.24995843 46991
CZ-6A DEB
1 64643U 24140AEH 25218.46107511  .00002333  00000-0  96234-3 0  9995
2 64643  89.1570 316.4427 0075740 179.8216 180.3018 14.25000227 45147
CZ-6A DEB
1 64643U 24140AEH 25219.23350426  .00002334  00000-0  96228-3 0  9990
2 64643  89.1572 316.3683 0075851 177.3470 182.8141 14.25004041 47245
CZ-6A DEB
1 64643U 24140AEH 25219.23350426  .00002334  00000-0  96228-3 0  9990
2 64643  89.1572 316.3683 0075851 177.3470 182.8141 14.25004041 45254
CZ-6A DEB
1 64643U 24140AEH 25220.70813679  .00002347  00000-0  96771-3 0  9995
2 64643  89.1575 316.2259 0076047 172.6111 187.6223 14.25010838 45461
CZ-6A DEB
1 64643U 24140AEH 25220.70813679  .00002347  00000-0  96771-3 0  9995
2 64643  89.1575 316.2259 0076047 172.6111 187.6223 14.25010838 47452
CZ-6A DEB
1 64643U 24140AEH 25221.19967900  .00002573  00000-0  10612-2 0  9996
2 64643  89.1574 316.1785 0076107 171.0254 189.2321 14.25013940 45533
CZ-6A DEB
1 64643U 24140AEH 25222.53385965  .00003015  00000-0  12440-2 0  9993
2 64643  89.1573 316.0499 0076286 166.7672 193.5547 14.25022441 45721
CZ-6A DEB
1 64643U 24140AEH 25222.53385965  .00003015  00000-0  12440-2 0  9993
2 64643  89.1573 316.0499 0076286 166.7672 193.5547 14.25022441 47712
CZ-6A DEB
1 64643U 24140AEH 25223.23605687  .00003045  00000-0  12564-2 0  9997
2 64643  89.1571 315.9823 0076371 164.5370 195.8182 14.25026706 45823
CZ-6A DEB
1 64643U 24140AEH 25224.21912948  .00002904  00000-0  11977-2 0  9997
2 64643  89.1570 315.8875 0076480 161.4151 198.9863 14.25032249 45966
CZ-6A DEB
1 64643U 24140AEH 25224.21912948  .00002904  00000-0  11977-2 0  9997
2 64643  89.1570 315.8875 0076480 161.4151 198.9863 14.25032249 47957
CZ-6A DEB
1 64643U 24140AEH 25225.97460666  .00002505  00000-0  10319-2 0  9992
2 64643  89.1567 315.7182 0076681 155.8272 204.6550 14.25040978 46211
CZ-6A DEB
1 64643U 24140AEH 25225.97460666  .00002505  00000-0  10319-2 0  9992
2 64643  89.1567 315.7182 0076681 155.8272 204.6550 14.25040978 48202
CZ-6A DEB
1 64643U 24140AEH 25226.67679453  .00002602  00000-0  10720-2 0  9990
2 64643  89.1564 315.6503 0076750 153.5986 206.9150 14.25044874 46319
CZ-6A DEB
1 64643U 24140AEH 25227.65985415  .00002419  00000-0  99582-3 0  9997
2 64643  89.1563 315.5554 0076847 150.4798 210.0768 14.25049433 46459
CZ-6A DEB
1 64643U 24140AEH 25227.65985415  .00002419  00000-0  99582-3 0  9997
2 64643  89.1563 315.5554 0076847 150.4798 210.0768 14.25049433 48440
CZ-6A DEB
1 64643U 24140AEH 25229.48552790  .00002198  00000-0  90414-3 0  9995
2 64643  89.1563 315.3790 0076991 144.6991 215.9336 14.25057362 46713
CZ-6A DEB
1 64643U 24140AEH 25229.48552790  .00002198  00000-0  90414-3 0  9995
2 64643  89.1563 315.3790 0076991 144.6991 215.9336 14.25057362 48704
CZ-6A DEB
1 64643U 24140AEH 25230.25792525  .00002121  00000-0  87207-3 0  9996
2 64643  89.1564 315.3043 0077043 142.2653 218.3979 14.25060385 46824
CZ-6A DEB
1 64643U 24140AEH 25231.73249604  .00002288  00000-0  94096-3 0  9993
2 64643  89.1560 315.1615 0077174 137.5613 223.1584 14.25067151 47039
CZ-6A DEB
1 64643U 24140AEH 25231.73249604  .00002288  00000-0  94096-3 0  9993
2 64643  89.1560 315.1615 0077174 137.5613 223.1584 14.25067151 49020
CZ-6A DEB
1 64643U 24140AEH 25233.48792757  .00002059  00000-0  84589-3 0  9991
2 64643  89.1561 314.9920 0077266 132.0225 228.7580 14.25074177 47287
CZ-6A DEB
1 64643U 24140AEH 25235.66464870  .00001899  00000-0  77955-3 0  9995
2 64643  89.1561 314.7823 0077303 125.1754 235.6712 14.25082955 47590
CZ-6A DEB
1 64643U 24140AEH 25236.15616428  .00001975  00000-0  81099-3 0  9997
2 64643  89.1559 314.7348 0077308 123.6214 237.2388 14.25085109 47667
CZ-6A DEB
1 64643U 24140AEH 25237.70092205  .00002198  00000-0  90305-3 0  9998
2 64643  89.1554 314.5857 0077330 118.7514 242.1476 14.25092049 47886
CZ-6A DEB
1 64643U 24140AEH 25239.17545456  .00002615  00000-0  10756-2 0  9997
2 64643  89.1549 314.4432 0077308 114.0997 246.8307 14.25100244 48092
CZ-6A DEB
1 64643U 24140AEH 25239.94782447  .00003113  00000-0  12812-2 0  9994
2 64643  89.1549 314.3687 0077284 111.6660 249.2787 14.25105945 48201
CZ-6A DEB
1 64643U 24140AEH 25241.21169584  .00003344  00000-0  13763-2 0  9990
2 64643  89.1549 314.2468 0077258 107.6569 253.3079 14.25114523 48382
CZ-6A DEB
1 64643U 24140AEH 25242.19470076  .00003820  00000-0  15731-2 0  9995
2 64643  89.1550 314.1517 0077213 104.5537 256.4236 14.25122618 48529
CZ-6A DEB
1 64643U 24140AEH 25243.17769955  .00004007  00000-0  16502-2 0  9996
2 64643  89.1552 314.0567 0077186 101.4262 259.5613 14.25130592 48663
CZ-6A DEB
1 64643U 24140AEH 25244.16069302  .00004485  00000-0  18475-2 0  9996
2 64643  89.1554 313.9621 0077120  98.3215 262.6732 14.25139342 48809
CZ-6A DEB
1 64643U 24140AEH 25245.14367888  .00005451  00000-0  22457-2 0  9994
2 64643  89.1555 313.8670 0077065  95.2053 265.7940 14.25150687 48942
CZ-6A DEB
1 64643U 24140AEH 25246.68835800  .00004874  00000-0  20073-2 0  9998
2 64643  89.1548 313.7170 0076996  90.3224 270.6792 14.25162658 49162
CZ-6A DEB
1 64643U 24140AEH 25248.16280945  .00003523  00000-0  14495-2 0  9998
2 64643  89.1547 313.5744 0076845  85.6676 275.3292 14.25172750 49371
CZ-6A DEB
1 64643U 24140AEH 25248.65429085  .00003406  00000-0  14010-2 0  9995
2 64643  89.1549 313.5271 0076758  84.1134 276.8802 14.25175945 49444
CZ-6A DEB
1 64643U 24140AEH 25249.14577070  .00003311  00000-0  13619-2 0  9997
2 64643  89.1551 313.4797 0076670  82.5345 278.4551 14.25179215 49519
CZ-6A DEB
1 64643U 24140AEH 25254.13072352  .00001675  00000-0  68624-3 0  9993
2 64643  89.1534 312.9975 0076176  66.6609 294.2575 14.25202194 50224
CZ-6A DEB
1 64643U 24140AEH 25254.62219359  .00001810  00000-0  74187-3 0  9999
2 64643  89.1532 312.9497 0076105  65.0770 295.8307 14.25204143 50298
CZ-6A DEB
1 64643U 24140AEH 25255.88597003  .00001565  00000-0  64048-3 0  9995
2 64643  89.1534 312.8274 0076009  61.0101 299.8683 14.25207951 50470
CZ-6A DEB
1 64643U 24140AEH 25256.86890412  .00001709  00000-0  70036-3 0  9998
2 64643  89.1539 312.7322 0075904  57.8646 302.9883 14.25211793 50611
CZ-6A DEB
1 64643U 24140AEH 25257.14974179  .00001668  00000-0  68318-3 0  9997
2 64643  89.1537 312.7053 0075816  56.9617 303.8829 14.25212574 50652
CZ-6A DEB
1 64643U 24140AEH 25258.13267215  .00001767  00000-0  72431-3 0  9994
2 64643  89.1541 312.6101 0075651  53.7956 307.0201 14.25216261 50790
CZ-6A DEB
1 64643U 24140AEH 25258.62413571  .00002118  00000-0  86926-3 0  9991
2 64643  89.1542 312.5624 0075558  52.1976 308.6026 14.25219319 50868
CZ-6A DEB
1 64643U 24140AEH 25259.11559859  .00002185  00000-0  89699-3 0  9990
2 64643  89.1543 312.5151 0075467  50.6117 310.1727 14.25221531 50936
CZ-6A DEB
1 64643U 24140AEH 25260.09852232  .00002136  00000-0  87664-3 0  9996
2 64643  89.1542 312.4198 0075332  47.4327 313.3190 14.25225396 51071
CZ-6A DEB
1 64643U 24140AEH 25262.13456803  .00002064  00000-0  84709-3 0  9994
2 64643  89.1541 312.2227 0075036  40.8443 319.8340 14.25233978 51363
CZ-6A DEB
1 64643U 24140AEH 25263.11748200  .00002207  00000-0  90631-3 0  9998
2 64643  89.1539 312.1277 0074863  37.6311 323.0086 14.25238339 51505
CZ-6A DEB
1 64643U 24140AEH 25263.39831403  .00002448  00000-0  10061-2 0  9991
2 64643  89.1539 312.1005 0074835  36.7307 323.8981 14.25240167 51546
CZ-6A DEB
1 64643U 24140AEH 25264.10039264  .00002730  00000-0  11225-2 0  9993
2 64643  89.1537 312.0326 0074723  34.4372 326.1630 14.25244028 51640
CZ-6A DEB
1 64643U 24140AEH 25265.08329890  .00003543  00000-0  14583-2 0  9991
2 64643  89.1535 311.9375 0074572  31.2265 329.3326 14.25251289 51787
CZ-6A DEB
1 64643U 24140AEH 25266.13640716  .00004313  00000-0  17763-2 0  9990
2 64643  89.1533 311.8356 0074440  27.8209 332.6934 14.25259908 51931
CZ-6A DEB
1 64643U 24140AEH 25269.08507401  .00004268  00000-0  17577-2 0  9992
2 64643  89.1525 311.5492 0073969  18.1621 342.2188 14.25283126 52350
CZ-6A DEB
1 64643U 24140AEH 25270.55938939  .00004042  00000-0  16640-2 0  9990
2 64643  89.1523 311.4058 0073759  13.1937 347.1162 14.25293817 52564
CZ-6A DEB
1 64643U 24140AEH 25271.05082511  .00004025  00000-0  16572-2 0  9997
2 64643  89.1524 311.3583 0073713  11.6101 348.6770 14.25297568 52639
CZ-6A DEB
1 64643U 24140AEH 25271.54225934  .00004255  00000-0  17520-2 0  9998
2 64643  89.1526 311.3105 0073599   9.9908 350.2727 14.25301684 52702
CZ-6A DEB
1 64643U 24140AEH 25272.10389671  .00004446  00000-0  18308-2 0  9997
2 64643  89.1524 311.2561 0073551   8.1465 352.0903 14.25306734 52787
CZ-6A DEB
1 64643U 24140AEH 25274.06960413  .00005572  00000-0  22953-2 0  9995
2 64643  89.1525 311.0652 0073274   1.6561 358.4860 14.25331522 53061
CZ-6A DEB
1 64643U 24140AEH 25274.06960414  .00005572  00000-0  22953-2 0  9996
2 64643  89.1525 311.0652 0073274   1.6561 358.4860 14.25331522 53061
CZ-6A DEB
1 64643U 24140AEH 25275.05244272  .00006236  00000-0  25686-2 0  9997
2 64643  89.1528 310.9701 0073132 358.3248   1.7688 14.25347086 53208
CZ-6A DEB
1 64643U 24140AEH 25275.05244272  .00006236  00000-0  25686-2 0  9997
2 64643  89.1528 310.9701 0073132 358.3248   1.7688 14.25347086 53208
CZ-6A DEB
1 64643U 24140AEH 25276.52668552  .00005213  00000-0  21464-2 0  9995
2 64643  89.1529 310.8274 0072917 353.3621   6.6598 14.25364144 53414
CZ-6A DEB
1 64643U 24140AEH 25279.05393082  .00003410  00000-0  14023-2 0  9999
2 64643  89.1527 310.5834 0072569 345.0340  14.8704 14.25382352 53770
CZ-6A DEB
1 64643U 24140AEH 25279.54533582  .00003243  00000-0  13333-2 0  9991
2 64643  89.1524 310.5354 0072526 343.3875  16.4942 14.25385514 53844
CZ-6A DEB
1 64643U 24140AEH 25280.80894503  .00003750  00000-0  15426-2 0  9993
2 64643  89.1514 310.4121 0072417 339.1362  20.6879 14.25394103 54028
CZ-6A DEB
1 64643U 24140AEH 25280.80894504  .00003750  00000-0  15426-2 0  9994
2 64643  89.1514 310.4122 0072417 339.1362  20.6879 14.25394103 54029
CZ-6A DEB
1 64643U 24140AEH 25281.51094683  .00003416  00000-0  14046-2 0  9999
2 64643  89.1512 310.3439 0072352 336.7643  23.0284 14.25398223 54125
CZ-6A DEB
1 64643U 24140AEH 25281.51094684  .00003416  00000-0  14046-2 0  9990
2 64643  89.1512 310.3439 0072352 336.7643  23.0284 14.25398223 54125
CZ-6A DEB
1 64643U 24140AEH 25282.07254667  .00003286  00000-0  13511-2 0  9992
2 64643  89.1512 310.2891 0072287 334.9118  24.8568 14.25401908 54208
CZ-6A DEB
1 64643U 24140AEH 25282.07254667  .00003286  00000-0  13511-2 0  9992
2 64643  89.1512 310.2891 0072287 334.9118  24.8568 14.25401908 54208
CZ-6A DEB
1 64643U 24140AEH 25283.05534367  .00002652  00000-0  10893-2 0  9995
2 64643  89.1512 310.1935 0072203 331.5946  28.1319 14.25406717 54345
CZ-6A DEB
1 64643U 24140AEH 25283.05534367  .00002652  00000-0  10893-2 0  9995
2 64643  89.1512 310.1935 0072203 331.5946  28.1319 14.25406718 54346
CZ-6A DEB
1 64643U 24140AEH 25283.33614205  .00002843  00000-0  11679-2 0  9991
2 64643  89.1512 310.1661 0072183 330.6489  29.0657 14.25408828 54384
CZ-6A DEB
1 64643U 24140AEH 25283.54674073  .00002738  00000-0  11248-2 0  9998
2 64643  89.1512 310.1457 0072174 329.9293  29.7764 14.25409901 54414
CZ-6A DEB
1 64643U 24140AEH 25283.54674074  .00002738  00000-0  11248-2 0  9999
2 64643  89.1512 310.1457 0072174 329.9293  29.7764 14.25409901 54414
CZ-6A DEB
1 64643U 24140AEH 25284.03813692  .00002789  00000-0  11458-2 0  9994
2 64643  89.1516 310.0979 0072142 328.2806  31.4050 14.25412851 54486
CZ-6A DEB
1 64643U 24140AEH 25284.03813693  .00002789  00000-0  11458-2 0  9995
2 64643  89.1516 310.0979 0072142 328.2806  31.4050 14.25412851 54486
CZ-6A DEB
1 64643U 24140AEH 25284.52953193  .00003252  00000-0  13365-2 0  9994
2 64643  89.1516 310.0501 0072124 326.6281  33.0375 14.25417107 54551
CZ-6A DEB
1 64643U 24140AEH 25285.51231878  .00003441  00000-0  14147-2 0  9992
2 64643  89.1517 309.9546 0072052 323.3258  36.3015 14.25423881 54694
CZ-6A DEB
1 64643U 24140AEH 25285.79311417  .00003598  00000-0  14794-2 0  9991
2 64643  89.1514 309.9273 0072018 322.3887  37.2281 14.25426192 54735
CZ-6A DEB
1 64643U 24140AEH 25286.49510053  .00003491  00000-0  14352-2 0  9998
2 64643  89.1516 309.8590 0072007 320.0046  39.5856 14.25430934 54831
CZ-6A DEB
1 64643U 24140AEH 25288.53084916  .00003391  00000-0  13937-2 0  9996
2 64643  89.1519 309.6612 0071783 313.1833  46.3375 14.25445582 55124
CZ-6A DEB
1 64643U 24140AEH 25288.53084916  .00003391  00000-0  13937-2 0  9996
2 64643  89.1519 309.6612 0071783 313.1833  46.3375 14.25445582 55124
CZ-6A DEB
1 64643U 24140AEH 25290.49638361  .00003897  00000-0  16018-2 0  9997
2 64643  89.1514 309.4703 0071685 306.5671  52.8938 14.25458903 55404
CZ-6A DEB
1 64643U 24140AEH 25290.49638362  .00003897  00000-0  16018-2 0  9998
2 64643  89.1514 309.4703 0071685 306.5671  52.8938 14.25458903 55404
CZ-6A DEB
1 64643U 24140AEH 25291.05796138  .00004257  00000-0  17503-2 0  9998
2 64643  89.1507 309.4151 0071611 304.7006  54.7454 14.25464527 55485
CZ-6A DEB
1 64643U 24140AEH 25293.02346757  .00005322  00000-0  21887-2 0  9999
2 64643  89.1502 309.2239 0071557 298.0942  61.3030 14.25484127 55761
CZ-6A DEB
1 64643U 24140AEH 25293.02346758  .00005322  00000-0  21887-2 0  9990
2 64643  89.1502 309.2239 0071557 298.0942  61.3030 14.25484127 55761
CZ-6A DEB
1 64643U 24140AEH 25295.48031510  .00003785  00000-0  15547-2 0  9996
2 64643  89.1504 308.9848 0071553 289.8268  69.5222 14.25504410 56111
CZ-6A DEB
1 64643U 24140AEH 25295.48031511  .00003785  00000-0  15547-2 0  9997
2 64643  89.1504 308.9848 0071553 289.8268  69.5222 14.25504410 56111
CZ-6A DEB
1 64643U 24140AEH 25296.04187584  .00003738  00000-0  15351-2 0  9993
2 64643  89.1495 308.9292 0071469 287.9261  71.4149 14.25508983 56198
CZ-6A DEB
1 64643U 24140AEH 25297.02460325  .00003834  00000-0  15747-2 0  9995
2 64643  89.1506 308.8345 0071456 284.6438  74.6840 14.25517204 56330
CZ-6A DEB
1 64643U 24140AEH 25297.51596536  .00003833  00000-0  15738-2 0  9992
2 64643  89.1514 308.7873 0071548 283.0114  76.3097 14.25520932 56403
CZ-6A DEB
1 64643U 24140AEH 25297.51596537  .00003833  00000-0  15738-2 0  9993
2 64643  89.1514 308.7873 0071548 283.0114  76.3097 14.25520932 56403
CZ-6A DEB
1 64643U 24140AEH 25298.00732613  .00003851  00000-0  15812-2 0  9998
2 64643  89.1508 308.7394 0071529 281.3240  77.9922 14.25524785 56475
CZ-6A DEB
1 64643U 24140AEH 25298.28810307  .00003953  00000-0  16233-2 0  9996
2 64643  89.1497 308.7114 0071522 280.3631  78.9506 14.25527155 56516
CZ-6A DEB
1 64643U 24140AEH 25298.28810307  .00003953  00000-0  16233-2 0  9996
2 64643  89.1497 308.7114 0071522 280.3631  78.9506 14.25527155 56516
CZ-6A DEB
1 64643U 24140AEH 25298.99004418  .00003684  00000-0  15122-2 0  9999
2 64643  89.1496 308.6429 0071523 278.0141  81.2940 14.25531981 56616
CZ-6A DEB
1 64643U 24140AEH 25298.99004418  .00003684  00000-0  15122-2 0  9999
2 64643  89.1496 308.6429 0071523 278.0141  81.2940 14.25531981 56616
CZ-6A DEB
1 64643U 24140AEH 25299.97275815  .00003746  00000-0  15374-2 0  9997
2 64643  89.1498 308.5470 0071508 274.7039  84.5991 14.25539288 56750
CZ-6A DEB
1 64643U 24140AEH 25299.97275815  .00003746  00000-0  15374-2 0  9997
2 64643  89.1498 308.5470 0071508 274.7039  84.5991 14.25539289 56751
CZ-6A DEB
1 64643U 24140AEH 25301.02566179  .00003904  00000-0  16026-2 0  9994
2 64643  89.1498 308.4441 0071493 271.1589  88.1414 14.25546718 56904
CZ-6A DEB
1 64643U 24140AEH 25302.28913891  .00004033  00000-0  16551-2 0  9997
2 64643  89.1499 308.3212 0071539 266.9509  92.3496 14.25556040 57081
CZ-6A DEB
1 64643U 24140AEH 25302.28913892  .00004033  00000-0  16551-2 0  9998
2 64643  89.1499 308.3212 0071539 266.9510  92.3496 14.25556040 57083
CZ-6A DEB
1 64643U 24140AEH 25303.27183780  .00004095  00000-0  16804-2 0  9992
2 64643  89.1499 308.2257 0071549 263.6401  95.6640 14.25563840 57224
CZ-6A DEB
1 64643U 24140AEH 25303.97376201  .00004283  00000-0  17573-2 0  9994
2 64643  89.1498 308.1574 0071556 261.2872  98.0211 14.25570418 57329
CZ-6A DEB
1 64643U 24140AEH 25304.46510742  .00004083  00000-0  16750-2 0  9993
2 64643  89.1497 308.1094 0071565 259.6389  99.6732 14.25574249 57397
CZ-6A DEB
1 64643U 24140AEH 25304.46510742  .00004083  00000-0  16750-2 0  9993
2 64643  89.1497 308.1094 0071565 259.6389  99.6732 14.25574249 57397
CZ-6A DEB
1 64643U 24140AEH 25306.99200930  .00003274  00000-0  13418-2 0  9997
2 64643  89.1496 307.8637 0071527 251.1309 108.2119 14.25591950 57756
CZ-6A DEB
1 64643U 24140AEH 25311.48420875  .00004427  00000-0  18145-2 0  9992
2 64643  89.1486 307.4242 0071691 236.0318 123.4049 14.25627078 58390
CZ-6A DEB
1 64643U 24140AEH 25311.97553605  .00004374  00000-0  17923-2 0  9998
2 64643  89.1485 307.3762 0071668 234.4170 125.0331 14.25631719 58464
CZ-6A DEB
1 64643U 24140AEH 25311.97553606  .00004374  00000-0  17923-2 0  9999
2 64643  89.1485 307.3762 0071668 234.4170 125.0331 14.25631719 58464
CZ-6A DEB
1 64643U 24140AEH 25314.43215327  .00004415  00000-0  18086-2 0  9995
2 64643  89.1494 307.1366 0071732 226.2235 133.3010 14.25653462 58819
CZ-6A DEB
1 64643U 24140AEH 25314.99366123  .00004063  00000-0  16639-2 0  9998
2 64643  89.1500 307.0824 0071667 224.3702 135.1736 14.25657412 58892
CZ-6A DEB
1 64643U 24140AEH 25317.94152485  .00008307  00000-0  34021-2 0  9990
2 64643  89.1496 306.7953 0071777 214.4896 145.1630 14.25707188 59319
CZ-6A DEB
1 64643U 24140AEH 25318.43282632  .00005181  00000-0  21202-2 0  9997
2 64643  89.1490 306.7470 0071829 212.8129 146.8594 14.25709942 59380
CZ-6A DEB
1 64643U 24140AEH 25318.92412607  .00004226  00000-0  17283-2 0  9991
2 64643  89.1488 306.6991 0071847 211.1622 148.5302 14.25714557 59456
CZ-6A DEB
1 64643U 24140AEH 25321.94208154  .00003648  00000-0  14907-2 0  9994
2 64643  89.1480 306.4045 0071964 201.0726 158.7500 14.25740599 59884
CZ-6A DEB
1 64643U 24140AEH 25321.94208154  .00003648  00000-0  14907-2 0  9994
2 64643  89.1480 306.4045 0071964 201.0726 158.7500 14.25740599 59884
CZ-6A DEB
1 64643U 24140AEH 25322.22281907  .00003633  00000-0  14843-2 0  9996
2 64643  89.1487 306.3779 0071983 200.1027 159.7329 14.25742836 59920
CZ-6A DEB
1 64643U 24140AEH 25322.22281908  .00003633  00000-0  14843-2 0  9997
2 64643  89.1487 306.3779 0071983 200.1027 159.7330 14.25742836 59922
CZ-6A DEB
1 64643U 24140AEH 25323.90723715  .00002695  00000-0  10994-2 0  9990
2 64643  89.1492 306.2137 0072111 194.4655 165.4476 14.25752637 60164
CZ-6A DEB
1 64643U 24140AEH 25323.97742152  .00002622  00000-0  10695-2 0  9991
2 64643  89.1483 306.2056 0072104 194.2480 165.6681 14.25752481 60178
CZ-6A DEB
1 64643U 24140AEH 25324.39852442  .00002656  00000-0  10831-2 0  9991
2 64643  89.1481 306.1643 0072121 192.8288 167.1073 14.25754926 60231
CZ-6A DEB
1 64643U 24140AEH 25324.39852443  .00002656  00000-0  10831-2 0  9992
2 64643  89.1481 306.1643 0072121 192.8288 167.1073 14.25754926 60231
CZ-6A DEB
1 64643U 24140AEH 25326.92512494  .00002722  00000-0  11096-2 0  9990
2 64643  89.1489 305.9175 0072340 184.3690 175.6882 14.25771192 60597
CZ-6A DEB
1 64643U 24140AEH 25326.92512495  .00002722  00000-0  11096-2 0  9991
2 64643  89.1489 305.9175 0072340 184.3690 175.6882 14.25771192 60597
CZ-6A DEB
1 64643U 24140AEH 25328.89024020  .00003324  00000-0  13556-2 0  9993
2 64643  89.1492 305.7258 0072598 177.8940 182.2573 14.25783937 60873
CZ-6A DEB
1 64643U 24140AEH 25328.89024020  .00003324  00000-0  13556-2 0  9993
2 64643  89.1492 305.7258 0072598 177.8940 182.2573 14.25783937 60873
CZ-6A DEB
1 64643U 24140AEH 25330.92552038  .00003198  00000-0  13034-2 0  9995
2 64643  89.1484 305.5262 0072887 171.1953 189.0538 14.25796326 61164
CZ-6A DEB
1 64643U 24140AEH 25330.92552039  .00003198  00000-0  13034-2 0  9996
2 64643  89.1484 305.5262 0072887 171.1954 189.0538 14.25796326 61165
CZ-6A DEB
1 64643U 24140AEH 25331.90806257  .00003108  00000-0  12662-2 0  9996
2 64643  89.1487 305.4311 0072960 167.9309 192.3654 14.25802546 61305
CZ-6A DEB
1 64643U 24140AEH 25331.90806258  .00003108  00000-0  12662-2 0  9997
2 64643  89.1487 305.4311 0072960 167.9309 192.3655 14.25802546 61306
CZ-6A DEB
1 64643U 24140AEH 25332.89060086  .00002937  00000-0  11964-2 0  9990
2 64643  89.1482 305.3353 0073007 164.6867 195.6560 14.25807956 61448
CZ-6A DEB
1 64643U 24140AEH 25332.89060086  .00002937  00000-0  11964-2 0  9990
2 64643  89.1482 305.3353 0073007 164.6867 195.6560 14.25807956 61448
CZ-6A DEB
1 64643U 24140AEH 25334.85566558  .00002777  00000-0  11304-2 0  9993
2 64643  89.1490 305.1457 0073171 158.1286 202.3059 14.25818976 61729
CZ-6A DEB
1 64643U 24140AEH 25334.85566558  .00002777  00000-0  11304-2 0  9993
2 64643  89.1490 305.1457 0073171 158.1286 202.3059 14.25818976 61729
CZ-6A DEB
1 64643U 24140AEH 25337.17161035  .00003703  00000-0  15084-2 0  9991
2 64643  89.1496 304.9212 0073287 150.4784 210.0579 14.25836748 62054
CZ-6A DEB
1 64643U 24140AEH 25337.17161035  .00003703  00000-0  15084-2 0  9991
2 64643  89.1496 304.9212 0073287 150.4784 210.0579 14.25836748 62054
CZ-6A DEB
1 64643U 24140AEH 25339.90859024  .00004865  00000-0  19814-2 0  9991
2 64643  89.1503 304.6543 0073643 141.4049 219.2441 14.25864506 62442
CZ-6A DEB
1 64643U 24140AEH 25340.18930295  .00004843  00000-0  19723-2 0  9998
2 64643  89.1499 304.6268 0073667 140.4692 220.1908 14.25867343 62484
CZ-6A DEB
1 64643U 24140AEH 25340.89108193  .00004633  00000-0  18865-2 0  9993
2 64643  89.1500 304.5585 0073782 138.1838 222.5026 14.25874170 62586
CZ-6A DEB
1 64643U 24140AEH 25341.17179270  .00004607  00000-0  18754-2 0  9997
2 64643  89.1502 304.5314 0073822 137.2917 223.4048 14.25876655 62620
CZ-6A DEB
1 64643U 24140AEH 25341.87356719  .00004922  00000-0  20038-2 0  9997
2 64643  89.1503 304.4632 0073899 135.0467 225.6743 14.25883972 62720
CZ-6A DEB
1 64643U 24140AEH 25342.85604792  .00005029  00000-0  20469-2 0  9990
2 64643  89.1503 304.3675 0074002 131.8291 228.9253 14.25891906 62865
CZ-6A DEB
1 64643U 24140AEH 25342.85604792  .00005029  00000-0  20469-2 0  9990
2 64643  89.1503 304.3675 0074002 131.8291 228.9254 14.25891906 62866
CZ-6A DEB
1 64643U 24140AEH 25344.39993378  .00004384  00000-0  17832-2 0  9995
2 64643  89.1501 304.2172 0074192 126.8056 233.9975 14.25902593 63084
CZ-6A DEB
1 64643U 24140AEH 25344.39993379  .00004384  00000-0  17832-2 0  9996
2 64643  89.1501 304.2172 0074192 126.8056 233.9975 14.25902593 63084
CZ-6A DEB
1 64643U 24140AEH 25345.17187141  .00004447  00000-0  18082-2 0  9993
2 64643  89.1500 304.1420 0074296 124.2470 236.5791 14.25908993 63192
CZ-6A DEB
1 64643U 24140AEH 25345.17187142  .00004447  00000-0  18082-2 0  9994
2 64643  89.1500 304.1420 0074296 124.2470 236.5791 14.25908993 63192
CZ-6A DEB
1 64643U 24140AEH 25345.31222253  .00005137  00000-0  20895-2 0  9995
2 64643  89.1500 304.1284 0074322 123.7751 237.0551 14.25912400 63217
CZ-6A DEB
1 64643U 24140AEH 25346.85608189  .00004494  00000-0  18265-2 0  9994
2 64643  89.1493 303.9779 0074537 118.7691 242.1016 14.25925726 63431
CZ-6A DEB
1 64643U 24140AEH 25347.13678149  .00004490  00000-0  18249-2 0  9997
2 64643  89.1493 303.9505 0074564 117.8881 242.9890 14.25928477 63477
CZ-6A DEB
1 64643U 24140AEH 25347.83852899  .00003790  00000-0  15393-2 0  9999
2 64643  89.1492 303.8823 0074639 115.5965 245.2966 14.25933423 63577
CZ-6A DEB
1 64643U 24140AEH 25348.32975043  .00003519  00000-0  14287-2 0  9991
2 64643  89.1492 303.8343 0074693 114.0024 246.9012 14.25937018 63646
CZ-6A DEB
1 64643U 24140AEH 25348.82097140  .00002968  00000-0  12041-2 0  9992
2 64643  89.1491 303.7864 0074757 112.4010 248.5126 14.25939104 63710
CZ-6A DEB
1 64643U 24140AEH 25350.85601937  .00002437  00000-0  98715-3 0  9997
2 64643  89.1490 303.5875 0075000 105.8270 255.1209 14.25948784 64008
CZ-6A DEB
1 64643U 24140AEH 25351.83845066  .00002391  00000-0  96833-3 0  9997
2 64643  89.1492 303.4915 0075076 102.6831 258.2769 14.25953271 64142
CZ-6A DEB
1 64643U 24140AEH 25354.85589623  .00002058  00000-0  83236-3 0  9999
2 64643  89.1498 303.1973 0075408  92.9514 268.0313 14.25966244 64572
CZ-6A DEB
1 64643U 24140AEH 25354.85589623  .00002058  00000-0  83236-3 0  9999
2 64643  89.1498 303.1973 0075408  92.9514 268.0313 14.25966244 64572
CZ-6A DEB
1 64643U 24140AEH 25355.83831277  .00002494  00000-0  10094-2 0  9998
2 64643  89.1500 303.1017 0075463  89.8121 271.1720 14.25971915 64719
CZ-6A DEB
1 64643U 24140AEH 25355.83831277  .00002494  00000-0  10094-2 0  9998
2 64643  89.1500 303.1017 0075463  89.8121 271.1720 14.25971915 64719
CZ-6A DEB
1 64643U 24140AEH 25358.85570412  .00003209  00000-0  13000-2 0  9999
2 64643  89.1501 302.8082 0075673  80.1573 280.8154 14.25992135 65149
CZ-6A DEB
1 64643U 24140AEH 25358.85570413  .00003209  00000-0  13000-2 0  9990
2 64643  89.1501 302.8082 0075673  80.1573 280.8154 14.25992135 65149
CZ-6A DEB
1 64643U 24140AEH 25360.82048980  .00003464  00000-0  14031-2 0  9997
2 64643  89.1497 302.6170 0075808  73.8848 287.0674 14.26006996 65422
CZ-6A DEB
1 64643U 24140AEH 25360.82048981  .00003464  00000-0  14031-2 0  9998
2 64643  89.1497 302.6170 0075808  73.8848 287.0674 14.26006996 65422
CZ-6A DEB
1 64643U 24140AEH 25361.80287321  .00003964  00000-0  16063-2 0  9992
2 64643  89.1492 302.5211 0075761  70.7620 290.1750 14.26016272 65567
CZ-6A DEB
1 64643U 24140AEH 25361.80287321  .00003964  00000-0  16063-2 0  9992
2 64643  89.1492 302.5211 0075761  70.7620 290.1750 14.26016272 65567
CZ-6A DEB
1 64643U 24140AEH 25362.29406259  .00004404  00000-0  17847-2 0  9990
2 64643  89.1496 302.4734 0075812  69.2261 291.7033 14.26021619 65631
CZ-6A DEB
1 64643U 24140AEH 25362.29406260  .00004404  00000-0  17847-2 0  9992
2 64643  89.1496 302.4734 0075812  69.2261 291.7033 14.26021619 65631
CZ-6A DEB
1 64643U 24140AEH 25362.57474159  .00004324  00000-0  17521-2 0  9995
2 64643  89.1497 302.4463 0075855  68.3712 292.5540 14.26023644 65675
CZ-6A DEB
1 64643U 24140AEH 25362.57474159  .00004324  00000-0  17521-2 0  9995
2 64643  89.1497 302.4463 0075855  68.3712 292.5540 14.26023644 65675
CZ-6A DEB
1 64643U 24140AEH 25364.25880039  .00005776  00000-0  23413-2 0  9999
2 64643  89.1505 302.2823 0075799  63.0065 297.8842 14.26044520 65919
CZ-6A DEB
1 64643U 24140AEH 25365.24115726  .00006167  00000-0  24993-2 0  9992
2 64643  89.1503 302.1865 0075824  59.9067 300.9615 14.26056068 66057
CZ-6A DEB
1 64643U 24140AEH 25365.24115726  .00006167  00000-0  24993-2 0  9992
2 64643  89.1503 302.1865 0075824  59.9067 300.9615 14.26056068 66057
CZ-6A DEB
1 64643U 24140AEH 26003.81966808  .00006290  00000-0  25474-2 0  9992
2 64643  89.1512 301.8379 0075797  48.5774 312.1899 14.26099897 66563
CZ-6A DEB
1 64643U 24140AEH 26004.80198524  .00004885  00000-0  19768-2 0  9991
2 64643  89.1510 301.7420 0075868  45.4758 315.2600 14.26108404 66709
CZ-6A DEB
1 64643U 24140AEH 26004.80198525  .00004885  00000-0  19768-2 0  9992
2 64643  89.1510 301.7420 0075868  45.4758 315.2600 14.26108404 66709
CZ-6A DEB
1 64643U 24140AEH 26006.76660037  .00004101  00000-0  16584-2 0  9995
2 64643  89.1510 301.5509 0075781  39.2547 321.4106 14.26125063 66986
CZ-6A DEB
1 64643U 24140AEH 26007.25775054  .00003427  00000-0  13852-2 0  9991
2 64643  89.1503 301.5029 0075765  37.6885 322.9582 14.26127923 67054
CZ-6A DEB
1 64643U 24140AEH 26007.25775056  .00003427  00000-0  13852-2 0  9993
2 64643  89.1503 301.5029 0075765  37.6885 322.9582 14.26127923 67054
CZ-6A DEB
1 64643U 24140AEH 26007.81906338  .00003369  00000-0  13615-2 0  9996
2 64643  89.1503 301.4480 0075664  35.8872 324.7369 14.26132081 67131
CZ-6A DEB
1 64643U 24140AEH 26007.81906339  .00003369  00000-0  13615-2 0  9997
2 64643  89.1503 301.4481 0075664  35.8872 324.7370 14.26132081 67134
CZ-6A DEB
1 64643U 24140AEH 26009.08201094  .00003329  00000-0  13451-2 0  9998
2 64643  89.1500 301.3256 0075698  31.8710 328.7030 14.26141651 67314
CZ-6A DEB
1 64643U 24140AEH 26009.08201094  .00003329  00000-0  13451-2 0  9998
2 64643  89.1500 301.3256 0075698  31.8710 328.7030 14.26141651 67314
CZ-6A DEB
1 64643U 24140AEH 26013.78291327  .00002076  00000-0  83640-3 0  9994
2 64643  89.1501 300.8680 0075437  16.9179 343.4504 14.26170109 67987
CZ-6A DEB
1 64643U 24140AEH 26015.04582820  .00001836  00000-0  73933-3 0  9993
2 64643  89.1504 300.7449 0075269  12.8483 347.4605 14.26174836 68166
CZ-6A DEB
1 64643U 24140AEH 26015.04582820  .00001836  00000-0  73933-3 0  9993
2 64643  89.1504 300.7449 0075269  12.8483 347.4605 14.26174836 68166
CZ-6A DEB
1 64643U 24140AEH 26015.74744579  .00001925  00000-0  77532-3 0  9999
2 64643  89.1506 300.6769 0075200  10.5825 349.6929 14.26177750 68264
CZ-6A DEB
1 64643U 24140AEH 26015.74744579  .00001925  00000-0  77532-3 0  9999
2 64643  89.1506 300.6769 0075200  10.5825 349.6929 14.26177750 68264
CZ-6A DEB
1 64643U 24140AEH 26017.22083670  .00003054  00000-0  12332-2 0  9993
2 64643  89.1507 300.5332 0075056   5.8557 354.3495 14.26187643 68474
CZ-6A DEB
1 64643U 24140AEH 26019.04502248  .00003156  00000-0  12746-2 0  9994
2 64643  89.1503 300.3546 0074843   0.0114   0.1068 14.26197965 68733
CZ-6A DEB
1 64643U 24140AEH 26019.74662790  .00003404  00000-0  13749-2 0  9990
2 64643  89.1503 300.2865 0074755 357.7831   2.3020 14.26203365 68831
CZ-6A DEB
1 64643U 24140AEH 26021.21997182  .00007966  00000-0  32216-2 0  9998
2 64643  89.1498 300.1420 0074570 353.0505   6.9647 14.26237549 69042
CZ-6A DEB
1 64643U 24140AEH 26021.21997182  .00007966  00000-0  32216-2 0  9998
2 64643  89.1498 300.1420 0074570 353.0506   6.9647 14.26237549 69043
CZ-6A DEB
1 64643U 24140AEH 26023.74565072  .00005076  00000-0  20511-2 0  9992
2 64643  89.1493 299.8970 0074140 344.8765  15.0211 14.26271163 69408
CZ-6A DEB
1 64643U 24140AEH 26024.72784656  .00005397  00000-0  21809-2 0  9999
2 64643  89.1487 299.8007 0073996 341.6980  18.1552 14.26282054 69542
CZ-6A DEB
1 64643U 24140AEH 26025.71003483  .00005435  00000-0  21961-2 0  9993
2 64643  89.1483 299.7049 0073814 338.4685  21.3408 14.26293173 69683
CZ-6A DEB
1 64643U 24140AEH 26025.71003483  .00005435  00000-0  21961-2 0  9993
2 64643  89.1483 299.7049 0073814 338.4685  21.3408 14.26293173 69683
CZ-6A DEB
1 64643U 24140AEH 26026.48174951  .00005218  00000-0  21082-2 0  9990
2 64643  89.1493 299.6301 0073728 335.9491  23.8264 14.26301083 69794
CZ-6A DEB
1 64643U 24140AEH 26026.48174951  .00005218  00000-0  21082-2 0  9990
2 64643  89.1493 299.6301 0073728 335.9491  23.8264 14.26301084 69795
CZ-6A DEB
1 64643U 24140AEH 26026.69221642  .00005204  00000-0  21023-2 0  9993
2 64643  89.1497 299.6100 0073693 335.2638  24.5028 14.26303380 69824
CZ-6A DEB
1 64643U 24140AEH 26026.69221642  .00005204  00000-0  21023-2 0  9993
2 64643  89.1497 299.6101 0073693 335.2638  24.5028 14.26303380 69825
CZ-6A DEB
1 64643U 24140AEH 26027.74454545  .00005389  00000-0  21771-2 0  9994
2 64643  89.1498 299.5075 0073533 331.8065  27.9155 14.26315334 69970
CZ-6A DEB
1 64643U 24140AEH 26027.74454545  .00005389  00000-0  21771-2 0  9994
2 64643  89.1498 299.5075 0073533 331.8065  27.9155 14.26315334 69970
CZ-6A DEB
1 64643U 24140AEH 26028.72671280  .00005225  00000-0  21107-2 0  9992
2 64643  89.1506 299.4121 0073375 328.5876  31.0945 14.26325090 70119
CZ-6A DEB
1 64643U 24140AEH 26029.70887295  .00004706  00000-0  19003-2 0  9991
2 64643  89.1508 299.3165 0073227 325.3382  34.3050 14.26334411 70256
CZ-6A DEB
1 64643U 24140AEH 26030.69102698  .00003905  00000-0  15760-2 0  9994
2 64643  89.1501 299.2202 0073084 322.1314  37.4751 14.26342862 70397
CZ-6A DEB
1 64643U 24140AEH 26031.18210208  .00003262  00000-0  13158-2 0  9991
2 64643  89.1501 299.1723 0073003 320.5221  39.0667 14.26346096 70469
CZ-6A DEB
1 64643U 24140AEH 26031.18210209  .00003262  00000-0  13158-2 0  9992
2 64643  89.1501 299.1723 0073003 320.5221  39.0667 14.26346096 70469
CZ-6A DEB
1 64643U 24140AEH 26031.74332950  .00003197  00000-0  12894-2 0  9995
2 64643  89.1500 299.1175 0072898 318.6855  40.8836 14.26350032 70543
CZ-6A DEB
1 64643U 24140AEH 26031.74332950  .00003197  00000-0  12894-2 0  9995
2 64643  89.1500 299.1175 0072898 318.6855  40.8836 14.26350032 70543
CZ-6A DEB
1 64643U 24140AEH 26032.23440233  .00002930  00000-0  11815-2 0  9990
2 64643  89.1498 299.0696 0072826 317.0606  42.4915 14.26353169 70612
CZ-6A DEB
1 64643U 24140AEH 26032.72547441  .00002861  00000-0  11536-2 0  9996
2 64643  89.1499 299.0219 0072747 315.4429  44.0930 14.26356291 70682
CZ-6A DEB
1 64643U 24140AEH 26034.19868337  .00003366  00000-0  13580-2 0  9991
2 64643  89.1496 298.8784 0072527 310.5731  48.9164 14.26367679 70898
CZ-6A DEB
1 64643U 24140AEH 26034.19868337  .00003366  00000-0  13580-2 0  9991
2 64643  89.1496 298.8784 0072527 310.5731  48.9164 14.26367679 70898
CZ-6A DEB
1 64643U 24140AEH 26034.68975039  .00003556  00000-0  14348-2 0  9997
2 64643  89.1496 298.8307 0072475 308.9164  50.5581 14.26371856 70964
CZ-6A DEB
1 64643U 24140AEH 26039.17944895  .00003129  00000-0  12616-2 0  9994
2 64643  89.1487 298.3929 0071864 293.9515  65.4164 14.26406367 71603
CZ-6A DEB
1 64643U 24140AEH 26039.17944895  .00003129  00000-0  12616-2 0  9994
2 64643  89.1487 298.3929 0071864 293.9515  65.4164 14.26406367 71603
CZ-6A DEB
1 64643U 24140AEH 26040.16155843  .00002837  00000-0  11432-2 0  9992
2 64643  89.1486 298.2969 0071798 290.6301  68.7203 14.26412139 71747
CZ-6A DEB
1 64643U 24140AEH 26041.14366472  .00002826  00000-0  11389-2 0  9992
2 64643  89.1483 298.2006 0071733 287.3009  72.0345 14.26417969 71889
CZ-6A DEB
1 64643U 24140AEH 26041.14366473  .00002826  00000-0  11389-2 0  9993
2 64643  89.1483 298.2006 0071733 287.3009  72.0345 14.26417969 71889
CZ-6A DEB
1 64643U 24140AEH 26042.12576789  .00002813  00000-0  11334-2 0  9991
2 64643  89.1483 298.1046 0071616 283.9987  75.3251 14.26423596 72021
CZ-6A DEB
1 64643U 24140AEH 26042.68696848  .00002767  00000-0  11149-2 0  9993
2 64643  89.1485 298.0499 0071480 282.1784  77.1410 14.26426815 72102
CZ-6A DEB
1 64643U 24140AEH 26043.66906629  .00002625  00000-0  10573-2 0  9996
2 64643  89.1486 297.9539 0071397 278.8689  80.4425 14.26432106 72247
CZ-6A DEB
1 64643U 24140AEH 26043.66906629  .00002625  00000-0  10573-2 0  9996
2 64643  89.1486 297.9539 0071397 278.8689  80.4425 14.26432106 72247
CZ-6A DEB
1 64643U 24140AEH 26045.14220710  .00002610  00000-0  10512-2 0  9998
2 64643  89.1485 297.8102 0071264 273.8982  85.4067 14.26440213 72453
CZ-6A DEB
1 64643U 24140AEH 26046.68549046  .00002777  00000-0  11188-2 0  9998
2 64643  89.1483 297.6596 0071160 268.6796  90.6245 14.26448638 72675
CZ-6A DEB
1 64643U 24140AEH 26046.68549047  .00002777  00000-0  11188-2 0  9999
2 64643  89.1483 297.6596 0071160 268.6796  90.6245 14.26448638 72675
CZ-6A DEB
1 64643U 24140AEH 26047.10638477  .00002736  00000-0  11022-2 0  9995
2 64643  89.1485 297.6187 0071105 267.2582  92.0472 14.26450622 72731
CZ-6A DEB
1 64643U 24140AEH 26047.10638477  .00002736  00000-0  11022-2 0  9995
2 64643  89.1485 297.6187 0071105 267.2582  92.0472 14.26450622 72731
CZ-6A DEB
1 64643U 24140AEH 26047.66757600  .00002578  00000-0  10383-2 0  9999
2 64643  89.1482 297.5640 0071064 265.3600  93.9474 14.26453145 72819
CZ-6A DEB
1 64643U 24140AEH 26047.66757600  .00002578  00000-0  10383-2 0  9999
2 64643  89.1482 297.5640 0071064 265.3600  93.9474 14.26453145 72819
CZ-6A DEB
1 64643U 24140AEH 26048.64965857  .00002385  00000-0  96002-3 0  9992
2 64643  89.1479 297.4680 0070995 262.0453  97.2679 14.26457680 72957
CZ-6A DEB
1 64643U 24140AEH 26050.12277710  .00002236  00000-0  89972-3 0  9995
2 64643  89.1473 297.3240 0070913 257.0276 102.2993 14.26464707 73167
CZ-6A DEB
1 64643U 24140AEH 26050.12277710  .00002236  00000-0  89972-3 0  9995
2 64643  89.1473 297.3240 0070913 257.0276 102.2993 14.26464707 73167
CZ-6A DEB
1 64643U 24140AEH 26051.66603752  .00002176  00000-0  87506-3 0  9998
2 64643  89.1471 297.1734 0070899 251.7836 107.5631 14.26471914 73386
CZ-6A DEB
1 64643U 24140AEH 26051.94662976  .00002278  00000-0  91644-3 0  9993
2 64643  89.1473 297.1460 0070897 250.8278 108.5233 14.26473408 73426
CZ-6A DEB
1 64643U 24140AEH 26052.08692580  .00002281  00000-0  91756-3 0  9991
2 64643  89.1473 297.1323 0070879 250.3614 108.9920 14.26474116 73449
CZ-6A DEB
1 64643U 24140AEH 26052.08692580  .00002281  00000-0  91756-3 0  9991
2 64643  89.1473 297.1324 0070879 250.3614 108.9920 14.26474116 73440
CZ-6A DEB
1 64643U 24140AEH 26052.64810927  .00002164  00000-0  87046-3 0  9997
2 64643  89.1472 297.0774 0070880 248.4391 110.9239 14.26476304 73525
CZ-6A DEB
1 64643U 24140AEH 26053.63017801  .00002596  00000-0  10450-2 0  9990
2 64643  89.1470 296.9813 0070879 245.1043 114.2773 14.26482295 73662
CZ-6A DEB
1 64643U 24140AEH 26054.12121117  .00002695  00000-0  10852-2 0  9997
2 64643  89.1469 296.9330 0070866 243.4233 115.9687 14.26485074 73730
CZ-6A DEB
1 64643U 24140AEH 26054.12121117  .00002695  00000-0  10852-2 0  9997
2 64643  89.1469 296.9330 0070866 243.4233 115.9687 14.26485074 73730
CZ-6A DEB
1 64643U 24140AEH 26054.61224329  .00002609  00000-0  10500-2 0  9995
2 64643  89.1470 296.8852 0070871 241.7638 117.6389 14.26487485 73800
CZ-6A DEB
1 64643U 24140AEH 26054.61224329  .00002609  00000-0  10500-2 0  9995
2 64643  89.1470 296.8852 0070871 241.7638 117.6389 14.26487485 73800
CZ-6A DEB
1 64643U 24140AEH 26055.10327519  .00002489  00000-0  10015-2 0  9992
2 64643  89.1470 296.8371 0070869 240.0887 119.3256 14.26489544 73878
CZ-6A DEB
1 64643U 24140AEH 26056.15548318  .00002246  00000-0  90297-3 0  9992
2 64643  89.1470 296.7340 0070885 236.5093 122.9314 14.26494376 74022
CZ-6A DEB
1 64643U 24140AEH 26056.15548319  .00002246  00000-0  90297-3 0  9993
2 64643  89.1470 296.7340 0070885 236.5093 122.9314 14.26494377 74023
CZ-6A DEB
1 64643U 24140AEH 26056.64651272  .00002254  00000-0  90637-3 0  9997
2 64643  89.1470 296.6858 0070882 234.8310 124.6231 14.26496814 74098
CZ-6A DEB
1 64643U 24140AEH 26057.62856903  .00002399  00000-0  96493-3 0  9990
2 64643  89.1470 296.5897 0070902 231.4945 127.9878 14.26502289 74233
CZ-6A DEB
1 64643U 24140AEH 26057.62856904  .00002399  00000-0  96493-3 0  9991
2 64643  89.1470 296.5897 0070902 231.4945 127.9878 14.26502289 74233
CZ-6A DEB
1 64643U 24140AEH 26058.11959624  .00002445  00000-0  98337-3 0  9990
2 64643  89.1470 296.5416 0070913 229.8194 129.6778 14.26504830 74309
CZ-6A DEB
1 64643U 24140AEH 26058.11959624  .00002445  00000-0  98337-3 0  9990
2 64643  89.1470 296.5416 0070913 229.8194 129.6778 14.26504830 74309
CZ-6A DEB
1 64643U 24140AEH 26058.61062258  .00002455  00000-0  98739-3 0  9990
2 64643  89.1470 296.4936 0070935 228.1539 131.3586 14.26507278 74377
CZ-6A DEB
1 64643U 24140AEH 26058.61062259  .00002455  00000-0  98739-3 0  9991
2 64643  89.1470 296.4936 0070935 228.1539 131.3586 14.26507278 74377
CZ-6A DEB
1 64643U 24140AEH 26059.66281927  .00002603  00000-0  10469-2 0  9990
2 64643  89.1469 296.3907 0070968 224.5831 134.9641 14.26513083 74522
CZ-6A DEB
1 64643U 24140AEH 26059.66281928  .00002603  00000-0  10469-2 0  9991
2 64643  89.1469 296.3908 0070968 224.5831 134.9642 14.26513083 74524
CZ-6A DEB
1 64643U 24140AEH 26060.64486594  .00002826  00000-0  11368-2 0  9993
2 64643  89.1467 296.2947 0071006 221.2459 138.3359 14.26518986 74663
CZ-6A DEB
1 64643U 24140AEH 26060.64486595  .00002826  00000-0  11368-2 0  9994
2 64643  89.1467 296.2947 0071006 221.2459 138.3359 14.26518986 74663
CZ-6A DEB
1 64643U 24140AEH 26061.06574207  .00002725  00000-0  10960-2 0  9994
2 64643  89.1465 296.2536 0071031 219.8183 139.7787 14.26520939 74728
CZ-6A DEB
1 64643U 24140AEH 26061.62690933  .00002885  00000-0  11604-2 0  9994
2 64643  89.1464 296.1987 0071071 217.9238 141.6939 14.26524414 74802
CZ-6A DEB
1 64643U 24140AEH 26061.62690933  .00002885  00000-0  11604-2 0  9994
2 64643  89.1464 296.1987 0071071 217.9238 141.6940 14.26524414 74804
CZ-6A DEB
1 64643U 24140AEH 26061.90749242  .00002811  00000-0  11306-2 0  9991
2 64643  89.1464 296.1713 0071082 216.9813 142.6470 14.26525741 74848
CZ-6A DEB
1 64643U 24140AEH 26061.90749243  .00002811  00000-0  11306-2 0  9992
2 64643  89.1464 296.1713 0071082 216.9813 142.6470 14.26525741 74848
CZ-6A DEB
1 64643U 24140AEH 26062.39851253  .00002995  00000-0  12049-2 0  9999
2 64643  89.1466 296.1235 0071104 215.3093 144.3381 14.26528910 74916
CZ-6A DEB
1 64643U 24140AEH 26062.60894905  .00003129  00000-0  12591-2 0  9996
2 64643  89.1465 296.1029 0071125 214.5946 145.0611 14.26530685 74946
CZ-6A DEB
1 64643U 24140AEH 26062.60894906  .00003129  00000-0  12591-2 0  9997
2 64643  89.1465 296.1029 0071125 214.5946 145.0611 14.26530685 74946
CZ-6A DEB
1 64643U 24140AEH 26063.59098442  .00003368  00000-0  13553-2 0  9991
2 64643  89.1463 296.0069 0071188 211.2733 148.4217 14.26537478 75086
CZ-6A DEB
1 64643U 24140AEH 26063.59098442  .00003368  00000-0  13553-2 0  9991
2 64643  89.1463 296.0069 0071188 211.2733 148.4217 14.26537478 75086
CZ-6A DEB
1 64643U 24140AEH 26064.08200073  .00003110  00000-0  12511-2 0  9999
2 64643  89.1462 295.9588 0071216 209.6124 150.1029 14.26539759 75159
CZ-6A DEB
1 64643U 24140AEH 26064.08200073  .00003110  00000-0  12511-2 0  9999
2 64643  89.1462 295.9588 0071216 209.6124 150.1029 14.26539759 75159
CZ-6A DEB
1 64643U 24140AEH 26065.62518903  .00003294  00000-0  13249-2 0  9996
2 64643  89.1459 295.8076 0071295 204.3795 155.4021 14.26549679 75375
CZ-6A DEB
1 64643U 24140AEH 26066.04605669  .00002820  00000-0  11335-2 0  9997
2 64643  89.1458 295.7664 0071354 202.9675 156.8324 14.26550868 75433
CZ-6A DEB
1 64643U 24140AEH 26066.04605670  .00002820  00000-0  11335-2 0  9999
2 64643  89.1458 295.7664 0071354 202.9675 156.8324 14.26550868 75433
CZ-6A DEB
1 64643U 24140AEH 26066.60721248  .00003338  00000-0  13423-2 0  9996
2 64643  89.1457 295.7114 0071393 201.0632 158.7618 14.26555939 75518
CZ-6A DEB
1 64643U 24140AEH 26066.60721248  .00003338  00000-0  13423-2 0  9996
2 64643  89.1457 295.7114 0071393 201.0632 158.7619 14.26555939 75519
CZ-6A DEB
1 64643U 24140AEH 26067.09822252  .00003482  00000-0  14005-2 0  9994
2 64643  89.1457 295.6634 0071439 199.4170 160.4301 14.26559527 75585
CZ-6A DEB
1 64643U 24140AEH 26067.09822253  .00003482  00000-0  14005-2 0  9995
2 64643  89.1457 295.6634 0071439 199.4170 160.4301 14.26559527 75585
CZ-6A DEB
1 64643U 24140AEH 26068.08023959  .00003261  00000-0  13109-2 0  9990
2 64643  89.1456 295.5671 0071537 196.0897 163.8025 14.26565232 75728
CZ-6A DEB
1 64643U 24140AEH 26069.06225291  .00002994  00000-0  12028-2 0  9993
2 64643  89.1456 295.4708 0071667 192.8123 167.1253 14.26570569 75862
CZ-6A DEB
1 64643U 24140AEH 26069.06225291  .00002994  00000-0  12028-2 0  9993
2 64643  89.1456 295.4708 0071667 192.8123 167.1253 14.26570569 75862
CZ-6A DEB
1 64643U 24140AEH 26070.04426181  .00002824  00000-0  11342-2 0  9994
2 64643  89.1457 295.3745 0071775 189.5123 170.4717 14.26576395 76008
CZ-6A DEB
1 64643U 24140AEH 26070.04426181  .00002824  00000-0  11342-2 0  9994
2 64643  89.1457 295.3745 0071775 189.5123 170.4717 14.26576395 76008
CZ-6A DEB
1 64643U 24140AEH 26070.60540843  .00002806  00000-0  11266-2 0  9993
2 64643  89.1458 295.3195 0071811 187.6024 172.4089 14.26579680 76080
CZ-6A DEB
1 64643U 24140AEH 26070.60540843  .00002806  00000-0  11266-2 0  9993
2 64643  89.1458 295.3195 0071811 187.6024 172.4089 14.26579680 76080
CZ-6A DEB
1 64643U 24140AEH 26071.58741175  .00002859  00000-0  11475-2 0  9992
2 64643  89.1457 295.2233 0072001 184.3986 175.6585 14.26585271 76229
CZ-6A DEB
1 64643U 24140AEH 26071.58741175  .00002859  00000-0  11475-2 0  9992
2 64643  89.1457 295.2233 0072001 184.3986 175.6585 14.26585271 76229
CZ-6A DEB
1 64643U 24140AEH 26072.56941175  .00002879  00000-0  11554-2 0  9993
2 64643  89.1457 295.1271 0072122 181.1277 178.9766 14.26590728 76367
CZ-6A DEB
1 64643U 24140AEH 26073.55140746  .00003093  00000-0  12413-2 0  9992
2 64643  89.1455 295.0309 0072254 177.8633 182.2885 14.26597019 76506
CZ-6A DEB
1 64643U 24140AEH 26075.58553042  .00002413  00000-0  96683-3 0  9991
2 64643  89.1455 294.8320 0072555 171.0699 189.1805 14.26606184 76791
CZ-6A DEB
1 64643U 24140AEH 26075.58553042  .00002413  00000-0  96683-3 0  9991
2 64643  89.1455 294.8320 0072555 171.0700 189.1805 14.26606184 76794
CZ-6A DEB
1 64643U 24140AEH 26076.56751573  .00002199  00000-0  88065-3 0  9995
2 64643  89.1451 294.7358 0072694 167.8508 192.4461 14.26610511 76933
CZ-6A DEB
1 64643U 24140AEH 26078.53147879  .00002169  00000-0  86789-3 0  9990
2 64643  89.1448 294.5436 0072985 161.3276 199.0622 14.26618525 77215
CZ-6A DEB
1 64643U 24140AEH 26079.02246788  .00002341  00000-0  93738-3 0  9998
2 64643  89.1444 294.4951 0073057 159.7378 200.6743 14.26620828 77286
CZ-6A DEB
1 64643U 24140AEH 26079.02246788  .00002341  00000-0  93738-3 0  9998
2 64643  89.1444 294.4951 0073057 159.7378 200.6743 14.26620828 77286
CZ-6A DEB
1 64643U 24140AEH 26084.07258375  .00002458  00000-0  98307-3 0  9990
2 64643  89.1441 293.9989 0073894 143.1797 217.4505 14.26647783 78001
CZ-6A DEB
1 64643U 24140AEH 26085.54551365  .00002423  00000-0  96864-3 0  9996
2 64643  89.1440 293.8542 0074010 138.5157 222.1689 14.26655490 78216
CZ-6A DEB
1 64643U 24140AEH 26085.54551365  .00002423  00000-0  96864-3 0  9996
2 64643  89.1440 293.8542 0074010 138.5157 222.1689 14.26655490 78216
CZ-6A DEB
1 64643U 24140AEH 26087.50940752  .00002804  00000-0  11214-2 0  9994
2 64643  89.1440 293.6617 0074274 132.1717 228.5818 14.26666730 78494
CZ-6A DEB
1 64643U 24140AEH 26087.50940753  .00002804  00000-0  11214-2 0  9995
2 64643  89.1440 293.6617 0074274 132.1717 228.5818 14.26666730 78494
CZ-6A DEB
1 64643U 24140AEH 26088.00037848  .00002956  00000-0  11822-2 0  9996
2 64643  89.1438 293.6133 0074346 130.5805 230.1891 14.26669828 78563
CZ-6A DEB
1 64643U 24140AEH 26088.00037849  .00002956  00000-0  11822-2 0  9997
2 64643  89.1438 293.6133 0074346 130.5806 230.1891 14.26669828 78564
CZ-6A DEB
1 64643U 24140AEH 26089.54342031  .00003504  00000-0  14022-2 0  9994
2 64643  89.1436 293.4622 0074449 125.6844 235.1310 14.26681261 78784
CZ-6A DEB
1 64643U 24140AEH 26090.52534976  .00003591  00000-0  14370-2 0  9997
2 64643  89.1431 293.3656 0074550 122.5282 238.3143 14.26688228 78925
CZ-6A DEB
1 64643U 24140AEH 26090.52534976  .00003591  00000-0  14370-2 0  9997
2 64643  89.1431 293.3656 0074550 122.5283 238.3143 14.26688228 78926
CZ-6A DEB
1 64643U 24140AEH 26091.01631213  .00003536  00000-0  14145-2 0  9993
2 64643  89.1426 293.3170 0074679 120.9533 239.9028 14.26691723 78993
CZ-6A DEB
1 64643U 24140AEH 26091.01631213  .00003536  00000-0  14145-2 0  9993
2 64643  89.1426 293.3170 0074679 120.9533 239.9028 14.26691723 78993
CZ-6A DEB
1 64643U 24140AEH 26092.98014863  .00004327  00000-0  17312-2 0  9994
2 64643  89.1440 293.1258 0074840 114.6708 246.2303 14.26708445 79277
CZ-6A DEB
1 64643U 24140AEH 26093.54123975  .00004657  00000-0  18637-2 0  9999
2 64643  89.1426 293.0691 0074762 112.8873 248.0236 14.26714009 79354
CZ-6A DEB
1 64643U 24140AEH 26093.54123975  .00004657  00000-0  18637-2 0  9999
2 64643  89.1426 293.0691 0074762 112.8873 248.0236 14.26714009 79354
CZ-6A DEB
1 64643U 24140AEH 26095.01409330  .00003748  00000-0  14983-2 0  9995
2 64643  89.1424 292.9239 0074954 108.2301 252.7069 14.26725678 79569
CZ-6A DEB
1 64643U 24140AEH 26095.50504153  .00003664  00000-0  14644-2 0  9999
2 64643  89.1425 292.8758 0075000 106.6898 254.2545 14.26729738 79636
CZ-6A DEB
1 64643U 24140AEH 26095.50504154  .00003664  00000-0  14644-2 0  9990
2 64643  89.1425 292.8758 0075000 106.6898 254.2545 14.26729738 79636
CZ-6A DEB
1 64643U 24140AEH 26095.99598848  .00003377  00000-0  13493-2 0  9998
2 64643  89.1433 292.8280 0075044 105.1559 255.7951 14.26732980 79709
CZ-6A DEB
1 64643U 24140AEH 26096.55706912  .00003304  00000-0  13197-2 0  9995
2 64643  89.1436 292.7732 0075089 103.3958 257.5621 14.26736954 79782
CZ-6A DEB
1 64643U 24140AEH 26096.97787892  .00003085  00000-0  12317-2 0  9996
2 64643  89.1438 292.7317 0075102 102.0677 258.8945 14.26739108 79847
CZ-6A DEB
1 64643U 24140AEH 26096.97787893  .00003085  00000-0  12317-2 0  9997
2 64643  89.1438 292.7317 0075102 102.0677 258.8945 14.26739108 79847
CZ-6A DEB
1 64643U 24140AEH 26098.52084201  .00002382  00000-0  94955-3 0  9991
2 64643  89.1440 292.5800 0075179  97.1974 263.7774 14.26746275 80067
CZ-6A DEB
1 64643U 24140AEH 26100.48459929  .00002735  00000-0  10910-2 0  9993
2 64643  89.1441 292.3871 0075166  90.9613 270.0194 14.26756974 80346
CZ-6A DEB
1 64643U 24140AEH 26100.48459930  .00002735  00000-0  10910-2 0  9995
2 64643  89.1441 292.3871 0075166  90.9613 270.0194 14.26756974 80346
CZ-6A DEB
1 64643U 24140AEH 26100.97553703  .00002580  00000-0  10288-2 0  9998
2 64643  89.1442 292.3393 0075128  89.4031 271.5771 14.26758565 80414
CZ-6A DEB
1 64643U 24140AEH 26100.97553703  .00002580  00000-0  10288-2 0  9998
2 64643  89.1442 292.3393 0075128  89.4031 271.5771 14.26758565 80414
CZ-6A DEB
1 64643U 24140AEH 26102.23794334  .00001958  00000-0  77914-3 0  9994
2 64643  89.1432 292.2148 0075160  85.4661 275.5113 14.26762431 80591
CZ-6A DEB
1 64643U 24140AEH 26102.23794335  .00001958  00000-0  77914-3 0  9995
2 64643  89.1432 292.2148 0075160  85.4661 275.5113 14.26762431 80591
CZ-6A DEB
1 64643U 24140AEH 26103.50034477  .00001797  00000-0  71454-3 0  9994
2 64643  89.1431 292.0908 0075169  81.5297 279.4408 14.26766941 80773
CZ-6A DEB
1 64643U 24140AEH 26103.50034477  .00001797  00000-0  71454-3 0  9994
2 64643  89.1431 292.0908 0075169  81.5297 279.4408 14.26766941 80773
CZ-6A DEB
1 64643U 24140AEH 26104.48220948  .00001640  00000-0  65183-3 0  9991
2 64643  89.1429 291.9943 0075124  78.4424 282.5192 14.26769925 80911
CZ-6A DEB
1 64643U 24140AEH 26104.48220949  .00001640  00000-0  65183-3 0  9992
2 64643  89.1429 291.9943 0075124  78.4424 282.5192 14.26769925 80911
CZ-6A DEB
1 64643U 24140AEH 26104.97314112  .00001644  00000-0  65321-3 0  9990
2 64643  89.1431 291.9462 0075098  76.8481 284.1079 14.26771450 80980
CZ-6A DEB
1 64643U 24140AEH 26104.97314113  .00001644  00000-0  65321-3 0  9991
2 64643  89.1431 291.9462 0075098  76.8481 284.1079 14.26771450 80980
CZ-6A DEB
1 64643U 24140AEH 26109.95255316  .00001982  00000-0  78900-3 0  9995
2 64643  89.1431 291.4558 0074682  61.1120 299.7540 14.26787905 81692
CZ-6A DEB
1 64643U 24140AEH 26109.95255317  .00001982  00000-0  78900-3 0  9996
2 64643  89.1431 291.4559 0074682  61.1120 299.7540 14.26787905 81693
CZ-6A DEB
1 64643U 24140AEH 26110.44347676  .00001732  00000-0  68889-3 0  9990
2 64643  89.1432 291.4080 0074595  59.5061 301.3471 14.26789079 81766
CZ-6A DEB
1 64643U 24140AEH 26110.44347676  .00001732  00000-0  68889-3 0  9990
2 64643  89.1432 291.4080 0074595  59.5061 301.3471 14.26789079 81766
CZ-6A DEB
1 64643U 24140AEH 26112.96821631  .00001832  00000-0  72902-3 0  9999
2 64643  89.1435 291.1599 0074264  51.4602 309.3217 14.26798773 82124
CZ-6A DEB
1 64643U 24140AEH 26112.96821631  .00001832  00000-0  72902-3 0  9999
2 64643  89.1435 291.1599 0074264  51.4602 309.3217 14.26798773 82124
CZ-6A DEB
1 64643U 24140AEH 26112.96821631  .00001832  00000-0  72902-3 0  9999
2 64643  89.1435 291.1599 0074264  51.4602 309.3217 14.26798773 82124
CZ-6A DEB
1 64643U 24140AEH 26114.44097191  .00001944  00000-0  77385-3 0  9994
2 64643  89.1434 291.0149 0074107  46.7108 314.0235 14.26805034 82332
CZ-6A DEB
1 64643U 24140AEH 26114.44097192  .00001944  00000-0  77385-3 0  9995
2 64643  89.1434 291.0149 0074107  46.7108 314.0235 14.26805034 82332
CZ-6A DEB
1 64643U 24140AEH 26115.49293462  .00002113  00000-0  84174-3 0  9992
2 64643  89.1435 290.9115 0073890  43.3519 317.3455 14.26810410 82481
CZ-6A DEB
1 64643U 24140AEH 26115.91371840  .00002356  00000-0  93926-3 0  9990
2 64643  89.1435 290.8700 0073803  42.0059 318.6761 14.26813588 82549
CZ-6A DEB
1 64643U 24140AEH 26117.94749866  .00002524  00000-0  10065-2 0  9991
2 64643  89.1431 290.6695 0073472  35.4616 325.1430 14.26823739 82830
CZ-6A DEB
1 64643U 24140AEH 26117.94749866  .00002524  00000-0  10065-2 0  9991
2 64643  89.1431 290.6695 0073472  35.4616 325.1430 14.26823739 82830
CZ-6A DEB
1 64643U 24140AEH 26118.43840918  .00002523  00000-0  10063-2 0  9993
2 64643  89.1432 290.6211 0073393  33.8632 326.7215 14.26825948 82907
CZ-6A DEB
1 64643U 24140AEH 26118.43840918  .00002523  00000-0  10063-2 0  9993
2 64643  89.1432 290.6211 0073393  33.8632 326.7215 14.26825948 82907
CZ-6A DEB
1 64643U 24140AEH 26121.45397896  .00002630  00000-0  10492-2 0  9996
2 64643  89.1429 290.3243 0072833  24.0479 336.4087 14.26841809 83331
CZ-6A DEB
1 64643U 24140AEH 26121.73449632  .00002606  00000-0  10398-2 0  9991
2 64643  89.1425 290.2964 0072726  23.1834 337.2612 14.26842554 83377
CZ-6A DEB
1 64643U 24140AEH 26121.73449633  .00002606  00000-0  10398-2 0  9992
2 64643  89.1425 290.2964 0072726  23.1834 337.2612 14.26842554 83377
CZ-6A DEB
1 64643U 24140AEH 26122.43578604  .00002557  00000-0  10200-2 0  9998
2 64643  89.1428 290.2276 0072584  20.8973 339.5160 14.26846053 83478
CZ-6A DEB
1 64643U 24140AEH 26122.43578605  .00002557  00000-0  10200-2 0  9999
2 64643  89.1428 290.2276 0072584  20.8973 339.5161 14.26846053 83479
CZ-6A DEB
1 64643U 24140AEH 26122.71630152  .00002518  00000-0  10045-2 0  9990
2 64643  89.1432 290.2001 0072511  19.9850 340.4158 14.26847305 83516
CZ-6A DEB
1 64643U 24140AEH 26122.71630152  .00002518  00000-0  10045-2 0  9990
2 64643  89.1432 290.2001 0072511  19.9850 340.4158 14.26847305 83516
CZ-6A DEB
1 64643U 24140AEH 26123.41758834  .00002554  00000-0  10190-2 0  9997
2 64643  89.1433 290.1311 0072375  17.6783 342.6905 14.26851275 83614
CZ-6A DEB
1 64643U 24140AEH 26123.41758835  .00002554  00000-0  10190-2 0  9998
2 64643  89.1433 290.1311 0072375  17.6783 342.6905 14.26851275 83614
CZ-6A DEB
1 64643U 24140AEH 26123.90848840  .00002369  00000-0  94508-3 0  9998
2 64643  89.1439 290.0831 0072269  16.0685 344.2777 14.26853201 83685
CZ-6A DEB
1 64643U 24140AEH 26123.90848841  .00002369  00000-0  94508-3 0  9999
2 64643  89.1439 290.0831 0072269  16.0685 344.2777 14.26853201 83685
CZ-6A DEB
1 64643U 24140AEH 26124.39938757  .00002181  00000-0  86949-3 0  9991
2 64643  89.1440 290.0349 0072180  14.4568 345.8668 14.26855079 83754
CZ-6A DEB
1 64643U 24140AEH 26124.39938758  .00002181  00000-0  86949-3 0  9992
2 64643  89.1440 290.0349 0072180  14.4568 345.8668 14.26855079 83754
CZ-6A DEB
1 64643U 24140AEH 26124.89028573  .00002200  00000-0  87715-3 0  9996
2 64643  89.1441 289.9865 0072072  12.8379 347.4628 14.26857656 83822
CZ-6A DEB
1 64643U 24140AEH 26124.89028573  .00002200  00000-0  87715-3 0  9996
2 64643  89.1441 289.9865 0072072  12.8379 347.4628 14.26857656 83822
CZ-6A DEB
1 64643U 24140AEH 26125.45131093  .00002612  00000-0  10427-2 0  9993
2 64643  89.1447 289.9317 0071965  10.9962 349.2784 14.26861839 83907
CZ-6A DEB
1 64643U 24140AEH 26125.45131093  .00002612  00000-0  10427-2 0  9993
2 64643  89.1447 289.9317 0071965  10.9962 349.2784 14.26861839 83907
CZ-6A DEB
1 64643U 24140AEH 26126.43310372  .00002170  00000-0  86540-3 0  9990
2 64643  89.1451 289.8355 0071738   7.7514 352.4770 14.26864863 84045
CZ-6A DEB
1 64643U 24140AEH 26126.43310372  .00002170  00000-0  86540-3 0  9990
2 64643  89.1451 289.8355 0071738   7.7514 352.4770 14.26864863 84045
CZ-6A DEB
1 64643U 24140AEH 26127.41489343  .00001950  00000-0  77702-3 0  9999
2 64643  89.1452 289.7392 0071543   4.4745 355.7072 14.26868480 84185
CZ-6A DEB
1 64643U 24140AEH 26127.41489343  .00001950  00000-0  77702-3 0  9999
2 64643  89.1452 289.7392 0071543   4.4745 355.7072 14.26868480 84185
CZ-6A DEB
1 64643U 24140AEH 26128.39668065  .00001818  00000-0  72420-3 0  9992
2 64643  89.1452 289.6430 0071360   1.2121 358.9232 14.26872043 84326
CZ-6A DEB
1 64643U 24140AEH 26128.88757356  .00001846  00000-0  73547-3 0  9990
2 64643  89.1452 289.5948 0071273 359.5517   0.5600 14.26873871 84396
CZ-6A DEB
1 64643U 24140AEH 26128.88757357  .00001846  00000-0  73547-3 0  9991
2 64643  89.1452 289.5948 0071273 359.5517   0.5600 14.26873871 84396
CZ-6A DEB
1 64643U 24140AEH 26129.86935840  .00001560  00000-0  62089-3 0  9997
2 64643  89.1443 289.4976 0071108 356.2691   3.7963 14.26875986 84532
CZ-6A DEB
1 64643U 24140AEH 26129.86935841  .00001560  00000-0  62089-3 0  9998
2 64643  89.1443 289.4976 0071108 356.2691   3.7963 14.26875986 84532
CZ-6A DEB
1 64643U 24140AEH 26130.43037778  .00001485  00000-0  59082-3 0  9990
2 64643  89.1444 289.4427 0071067 354.4377   5.6019 14.26877377 84617
CZ-6A DEB
1 64643U 24140AEH 26130.85114147  .00001470  00000-0  58455-3 0  9999
2 64643  89.1443 289.4013 0070989 353.0087   7.0110 14.26878618 84675
CZ-6A DEB
1 64643U 24140AEH 26130.92126870  .00001463  00000-0  58170-3 0  9999
2 64643  89.1443 289.3945 0070956 352.7749   7.2416 14.26878808 84686
CZ-6A DEB
1 64643U 24140AEH 26130.92126871  .00001463  00000-0  58170-3 0  9990
2 64643  89.1443 289.3945 0070956 352.7749   7.2416 14.26878808 84686
CZ-6A DEB
1 64643U 24140AEH 26131.41215926  .00001426  00000-0  56726-3 0  9999
2 64643  89.1443 289.3464 0070862 351.1202   8.8733 14.26880121 84753
CZ-6A DEB
1 64643U 24140AEH 26131.41215927  .00001426  00000-0  56726-3 0  9990
2 64643  89.1443 289.3464 0070862 351.1202   8.8733 14.26880121 84753
CZ-6A DEB
1 64643U 24140AEH 26132.39393934  .00001421  00000-0  56524-3 0  9994
2 64643  89.1443 289.2498 0070777 347.7938  12.1537 14.26882603 84893
CZ-6A DEB
1 64643U 24140AEH 26132.39393935  .00001421  00000-0  56524-3 0  9995
2 64643  89.1443 289.2498 0070777 347.7938  12.1538 14.26882603 84894
CZ-6A DEB
1 64643U 24140AEH 26132.88482869  .00001399  00000-0  55632-3 0  9997
2 64643  89.1443 289.2016 0070679 346.1521  13.7732 14.26883911 84966
CZ-6A DEB
1 64643U 24140AEH 26132.88482870  .00001399  00000-0  55632-3 0  9999
2 64643  89.1443 289.2016 0070679 346.1521  13.7732 14.26883911 84966
CZ-6A DEB
1 64643U 24140AEH 26133.37571801  .00001358  00000-0  54002-3 0  9992
2 64643  89.1442 289.1534 0070604 344.4993  15.4038 14.26884967 85030
CZ-6A DEB
1 64643U 24140AEH 26133.37571802  .00001358  00000-0  54002-3 0  9993
2 64643  89.1442 289.1534 0070604 344.4993  15.4038 14.26884967 85030
CZ-6A DEB
1 64643U 24140AEH 26134.84838393  .00001297  00000-0  51543-3 0  9996
2 64643  89.1440 289.0082 0070375 339.5479  20.2899 14.26888284 85242
CZ-6A DEB
1 64643U 24140AEH 26135.40939895  .00001234  00000-0  49033-3 0  9990
2 64643  89.1441 288.9532 0070297 337.6492  22.1642 14.26889194 85325
CZ-6A DEB
1 64643U 24140AEH 26136.88205949  .00001277  00000-0  50746-3 0  9999
2 64643  89.1441 288.8086 0070103 332.6344  27.1163 14.26893137 85533
CZ-6A DEB
1 64643U 24140AEH 26136.88205950  .00001277  00000-0  50746-3 0  9991
2 64643  89.1441 288.8086 0070103 332.6344  27.1163 14.26893137 85533
CZ-6A DEB
1 64643U 24140AEH 26137.37294605  .00001265  00000-0  50266-3 0  9995
2 64643  89.1440 288.7604 0070039 330.9606  28.7699 14.26894174 85608
CZ-6A DEB
1 64643U 24140AEH 26137.37294606  .00001265  00000-0  50266-3 0  9996
2 64643  89.1440 288.7604 0070039 330.9606  28.7699 14.26894174 85608
CZ-6A DEB
1 64643U 24140AEH 26138.35471802  .00001250  00000-0  49677-3 0  9998
2 64643  89.1438 288.6638 0069928 327.6391  32.0522 14.26896382 85741
CZ-6A DEB
1 64643U 24140AEH 26138.35471803  .00001250  00000-0  49677-3 0  9999
2 64643  89.1438 288.6638 0069928 327.6391  32.0522 14.26896382 85741
CZ-6A DEB
1 64643U 24140AEH 26139.82737258  .00001291  00000-0  51339-3 0  9994
2 64643  89.1440 288.5191 0069769 322.6029  37.0320 14.26900311 85955
CZ-6A DEB
1 64643U 24140AEH 26139.82737259  .00001291  00000-0  51339-3 0  9995
2 64643  89.1440 288.5191 0069769 322.6029  37.0320 14.26900311 85955
CZ-6A DEB
1 64643U 24140AEH 26140.38838314  .00001280  00000-0  50882-3 0  9992
2 64643  89.1440 288.4640 0069719 320.6857  38.9286 14.26901643 86035
CZ-6A DEB
1 64643U 24140AEH 26140.38838314  .00001280  00000-0  50882-3 0  9992
2 64643  89.1440 288.4640 0069719 320.6856  38.9286 14.26901643 86034
CZ-6A DEB
1 64643U 24140AEH 26142.14153712  .00001395  00000-0  55506-3 0  9995
2 64643  89.1440 288.2917 0069577 314.6606  44.8929 14.26906955 86285
CZ-6A DEB
1 64643U 24140AEH 26142.35191534  .00001392  00000-0  55395-3 0  9995
2 64643  89.1440 288.2710 0069561 313.9512  45.5956 14.26907512 86319
CZ-6A DEB
1 64643U 24140AEH 26142.35191534  .00001392  00000-0  55395-3 0  9995
2 64643  89.1440 288.2710 0069561 313.9512  45.5956 14.26907512 86319
CZ-6A DEB
1 64643U 24140AEH 26142.84279726  .00001418  00000-0  56424-3 0  9992
2 64643  89.1440 288.2228 0069527 312.2557  47.2752 14.26909048 86382
CZ-6A DEB
1 64643U 24140AEH 26144.38556680  .00001510  00000-0  60119-3 0  9999
2 64643  89.1440 288.0712 0069431 306.9699  52.5150 14.26913902 86609
CZ-6A DEB
1 64643U 24140AEH 26145.36732639  .00001698  00000-0  67666-3 0  9999
2 64643  89.1441 287.9748 0069387 303.6206  55.8379 14.26918021 86746
CZ-6A DEB
1 64643U 24140AEH 26145.36732639  .00001698  00000-0  67666-3 0  9999
2 64643  89.1441 287.9748 0069387 303.6206  55.8379 14.26918021 86746
CZ-6A DEB
1 64643U 24140AEH 26147.40096339  .00002160  00000-0  86211-3 0  9998
2 64643  89.1440 287.7750 0069331 296.6230  62.7873 14.26927797 87032
CZ-6A DEB
1 64643U 24140AEH 26147.40096340  .00002160  00000-0  86211-3 0  9990
2 64643  89.1440 287.7750 0069331 296.6230  62.7873 14.26927797 87032
CZ-6A DEB
1 64643U 24140AEH 26147.82171475  .00002118  00000-0  84509-3 0  9990
2 64643  89.1440 287.7337 0069303 295.2063  64.1956 14.26929196 87090
CZ-6A DEB
1 64643U 24140AEH 26147.82171475  .00002118  00000-0  84509-3 0  9990
2 64643  89.1440 287.7337 0069303 295.2063  64.1956 14.26929196 87090
CZ-6A DEB
1 64643U 24140AEH 26148.38271517  .00002254  00000-0  89991-3 0  9991
2 64643  89.1440 287.6786 0069312 293.2734  66.1174 14.26932296 87178
CZ-6A DEB
1 64643U 24140AEH 26149.36446389  .00002385  00000-0  95237-3 0  9996
2 64643  89.1441 287.5822 0069316 289.8951  69.4783 14.26937308 87312
CZ-6A DEB
1 64643U 24140AEH 26149.36446389  .00002385  00000-0  95237-3 0  9996
2 64643  89.1441 287.5821 0069316 289.8951  69.4783 14.26937308 87311
CZ-6A DEB
1 64643U 24140AEH 26150.34620861  .00002664  00000-0  10641-2 0  9990
2 64643  89.1442 287.4859 0069322 286.5180  72.8406 14.26943686 87458
CZ-6A DEB
1 64643U 24140AEH 26150.34620862  .00002664  00000-0  10641-2 0  9991
2 64643  89.1442 287.4859 0069322 286.5180  72.8406 14.26943686 87458
CZ-6A DEB
1 64643U 24140AEH 26150.83708039  .00002588  00000-0  10334-2 0  9992
2 64643  89.1440 287.4373 0069328 284.8287  74.5235 14.26945648 87529
CZ-6A DEB
1 64643U 24140AEH 26150.83708040  .00002588  00000-0  10334-2 0  9994
2 64643  89.1440 287.4373 0069328 284.8287  74.5235 14.26945648 87529
CZ-6A DEB
1 64643U 24140AEH 26151.32795027  .00002798  00000-0  11178-2 0  9990
2 64643  89.1440 287.3890 0069345 283.1513  76.1949 14.26949527 87592
CZ-6A DEB
1 64643U 24140AEH 26151.81882088  .00002624  00000-0  10478-2 0  9998
2 64643  89.1443 287.3406 0069333 281.3814  77.9597 14.26951281 87665
CZ-6A DEB
1 64643U 24140AEH 26151.81882088  .00002624  00000-0  10478-2 0  9998
2 64643  89.1443 287.3406 0069333 281.3814  77.9597 14.26951280 87664
CZ-6A DEB
1 64643U 24140AEH 26156.09636873  .00002747  00000-0  10964-2 0  9998
2 64643  89.1446 286.9208 0069633 266.6737  92.6489 14.26973555 88276
CZ-6A DEB
1 64643U 24140AEH 26156.09636873  .00002747  00000-0  10964-2 0  9998
2 64643  89.1446 286.9207 0069633 266.6737  92.6489 14.26973555 88275
CZ-6A DEB
1 64643U 24140AEH 26158.34030791  .00002693  00000-0  10745-2 0  9992
2 64643  89.1445 286.7008 0069771 259.0259 100.3081 14.26984170 88594
CZ-6A DEB
1 64643U 24140AEH 26158.34030791  .00002693  00000-0  10745-2 0  9992
2 64643  89.1445 286.7008 0069771 259.0259 100.3081 14.26984170 88594
CZ-6A DEB
1 64643U 24140AEH 26163.24887837  .00002363  00000-0  94135-3 0  9998
2 64643  89.1444 286.2185 0070378 242.3800 117.0237 14.27004915 89293
CZ-6A DEB
1 64643U 24140AEH 26163.73973184  .00002483  00000-0  98931-3 0  9994
2 64643  89.1445 286.1698 0070472 240.6649 118.7493 14.27007490 89360
CZ-6A DEB
1 64643U 24140AEH 26164.23058490  .00002295  00000-0  91390-3 0  9997
2 64643  89.1445 286.1217 0070555 239.0178 120.4072 14.27009096 89433
CZ-6A DEB
1 64643U 24140AEH 26164.51107196  .00002396  00000-0  95415-3 0  9990
2 64643  89.1446 286.0941 0070600 238.0686 121.3630 14.27010698 89475
CZ-6A DEB
1 64643U 24140AEH 26164.58119371  .00002403  00000-0  95725-3 0  9998
2 64643  89.1446 286.0872 0070610 237.8331 121.6002 14.27011029 89489
CZ-6A DEB
1 64643U 24140AEH 26164.79155881  .00002386  00000-0  95024-3 0  9999
2 64643  89.1447 286.0666 0070646 237.1190 122.3193 14.27012015 89515
CZ-6A DEB
1 64643U 24140AEH 26164.79155881  .00002386  00000-0  95024-3 0  9999
2 64643  89.1447 286.0666 0070646 237.1190 122.3193 14.27012015 89515
CZ-6A DEB
1 64643U 24140AEH 26165.07204547  .00002378  00000-0  94715-3 0  9992
2 64643  89.1447 286.0391 0070684 236.1759 123.2693 14.27013264 89558
CZ-6A DEB
1 64643U 24140AEH 26165.28241034  .00002257  00000-0  89841-3 0  9997
2 64643  89.1447 286.0184 0070719 235.4668 123.9837 14.27013910 89586
CZ-6A DEB
1 64643U 24140AEH 26165.49277521  .00002236  00000-0  89016-3 0  9991
2 64643  89.1448 285.9977 0070751 234.7566 124.6994 14.27014727 89613
CZ-6A DEB
1 64643U 24140AEH 26165.56289677  .00002243  00000-0  89263-3 0  9996
2 64643  89.1448 285.9908 0070760 234.5214 124.9364 14.27015050 89620
CZ-6A DEB
1 64643U 24140AEH 26165.77326137  .00002228  00000-0  88679-3 0  9995
2 64643  89.1448 285.9702 0070792 233.8151 125.6483 14.27016005 89653
CZ-6A DEB
1 64643U 24140AEH 26165.77326137  .00002228  00000-0  88679-3 0  9995
2 64643  89.1448 285.9702 0070792 233.8151 125.6483 14.27016005 89653
CZ-6A DEB
1 64643U 24140AEH 26166.19399032  .00002083  00000-0  82879-3 0  9991
2 64643  89.1449 285.9288 0070866 232.4013 127.0734 14.27017394 89711
CZ-6A DEB
1 64643U 24140AEH 26166.19399033  .00002083  00000-0  82879-3 0  9992
2 64643  89.1449 285.9288 0070866 232.4013 127.0734 14.27017394 89711
CZ-6A DEB
1 64643U 24140AEH 26166.47447603  .00002124  00000-0  84514-3 0  9994
2 64643  89.1449 285.9013 0070908 231.4604 128.0222 14.27018757 89750
CZ-6A DEB
1 64643U 24140AEH 26166.61471884  .00002126  00000-0  84588-3 0  9991
2 64643  89.1450 285.8877 0070923 230.9889 128.4977 14.27019347 89774
CZ-6A DEB
1 64643U 24140AEH 26166.68484021  .00002121  00000-0  84356-3 0  9993
2 64643  89.1450 285.8808 0070936 230.7530 128.7356 14.27019654 89789
CZ-6A DEB
1 64643U 24140AEH 26167.17568961  .00002068  00000-0  82234-3 0  9997
2 64643  89.1450 285.8327 0071023 229.1114 130.3914 14.27021503 89856
CZ-6A DEB
1 64643U 24140AEH 26167.24581090  .00002062  00000-0  81984-3 0  9998
2 64643  89.1450 285.8258 0071035 228.8771 130.6278 14.27021796 89868
CZ-6A DEB
1 64643U 24140AEH 26167.52629604  .00002019  00000-0  80293-3 0  9997
2 64643  89.1450 285.7982 0071089 227.9393 131.5740 14.27022725 89902
CZ-6A DEB
1 64643U 24140AEH 26167.59641726  .00002034  00000-0  80887-3 0  9999
2 64643  89.1450 285.7914 0071105 227.7059 131.8095 14.27023051 89913
CZ-6A DEB
1 64643U 24140AEH 26167.66653846  .00002042  00000-0  81202-3 0  9994
2 64643  89.1451 285.7845 0071117 227.4720 132.0456 14.27023377 89928
CZ-6A DEB
1 64643U 24140AEH 26168.15738698  .00002016  00000-0  80141-3 0  9990
2 64643  89.1446 285.7367 0071182 225.8770 133.6556 14.27024919 89998
CZ-6A DEB
1 64643U 24140AEH 26168.50799235  .00001988  00000-0  79030-3 0  9995
2 64643  89.1447 285.7023 0071252 224.7078 134.8360 14.27026323 90040
CZ-6A DEB
1 64643U 24140AEH 26168.57811346  .00001990  00000-0  79093-3 0  9992
2 64643  89.1447 285.6954 0071260 224.4747 135.0714 14.27026596 90050
CZ-6A DEB
1 64643U 24140AEH 26168.78847654  .00001983  00000-0  78833-3 0  9999
2 64643  89.1447 285.6747 0071296 223.7728 135.7801 14.27027462 90080
CZ-6A DEB
1 64643U 24140AEH 26168.78847654  .00001983  00000-0  78833-3 0  9999
2 64643  89.1447 285.6747 0071296 223.7728 135.7801 14.27027462 90080
CZ-6A DEB
1 64643U 24140AEH 26169.27932401  .00001984  00000-0  78844-3 0  9992
2 64643  89.1446 285.6262 0071362 222.1556 137.4138 14.27029328 90150
CZ-6A DEB
1 64643U 24140AEH 26169.55980772  .00001954  00000-0  77660-3 0  9999
2 64643  89.1446 285.5987 0071418 221.2242 138.3547 14.27030322 90191
CZ-6A DEB
1 64643U 24140AEH 26169.62992860  .00001962  00000-0  77964-3 0  9994
2 64643  89.1446 285.5918 0071428 220.9912 138.5901 14.27030645 90202
CZ-6A DEB
1 64643U 24140AEH 26169.77017039  .00001943  00000-0  77185-3 0  9990
2 64643  89.1446 285.5780 0071451 220.5248 139.0614 14.27031131 90223
CZ-6A DEB
1 64643U 24140AEH 26169.77017040  .00001943  00000-0  77185-3 0  9992
2 64643  89.1446 285.5780 0071451 220.5248 139.0614 14.27031131 90223
CZ-6A DEB
1 64643U 24140AEH 26170.19089552  .00001955  00000-0  77657-3 0  9994
2 64643  89.1447 285.5369 0071531 219.1157 140.4855 14.27032831 90286
CZ-6A DEB
1 64643U 24140AEH 26170.26101633  .00001956  00000-0  77724-3 0  9993
2 64643  89.1447 285.5300 0071543 218.8817 140.7219 14.27033115 90297
CZ-6A DEB
1 64643U 24140AEH 26170.54149971  .00001899  00000-0  75407-3 0  9993
2 64643  89.1447 285.5025 0071600 217.9485 141.6652 14.27033817 90331
CZ-6A DEB
1 64643U 24140AEH 26170.82198264  .00001934  00000-0  76802-3 0  9993
2 64643  89.1447 285.4749 0071645 217.0185 142.6055 14.27035087 90373
CZ-6A DEB
1 64643U 24140AEH 26170.82198264  .00001934  00000-0  76802-3 0  9993
2 64643  89.1447 285.4749 0071645 217.0185 142.6055 14.27035087 90373
CZ-6A DEB
1 64643U 24140AEH 26173.27620221  .00001835  00000-0  72824-3 0  9998
2 64643  89.1447 285.2340 0072104 208.9028 150.8165 14.27043600 90726
CZ-6A DEB
1 64643U 24140AEH 26174.74872649  .00001933  00000-0  76693-3 0  9991
2 64643  89.1447 285.0894 0072370 204.0631 155.7177 14.27049743 90934
CZ-6A DEB
1 64643U 24140AEH 26176.29136319  .00002402  00000-0  95411-3 0  9991
2 64643  89.1447 284.9380 0072616 198.9894 160.8591 14.27058872 91152
CZ-6A DEB
1 64643U 24140AEH 26176.29136320  .00002402  00000-0  95411-3 0  9993
2 64643  89.1447 284.9380 0072616 198.9894 160.8591 14.27058872 91152
CZ-6A DEB
1 64643U 24140AEH 26176.29136320  .00002402  00000-0  95411-3 0  9993
2 64643  89.1447 284.9380 0072616 198.9894 160.8591 14.27058872 91152
CZ-6A DEB
1 64643U 24140AEH 26177.55351559  .00002617  00000-0  10397-2 0  9993
2 64643  89.1448 284.8141 0072913 194.8184 165.0874 14.27065003 91339
CZ-6A DEB
1 64643U 24140AEH 26177.55351560  .00002617  00000-0  10397-2 0  9995
2 64643  89.1448 284.8141 0072913 194.8184 165.0875 14.27065003 91330
CZ-6A DEB
1 64643U 24140AEH 26177.76387359  .00002582  00000-0  10255-2 0  9997
2 64643  89.1448 284.7934 0072951 194.1325 165.7830 14.27066100 91361
CZ-6A DEB
1 64643U 24140AEH 26178.53518456  .00002642  00000-0  10491-2 0  9996
2 64643  89.1450 284.7177 0073086 191.6313 168.3196 14.27070632 91473
CZ-6A DEB
1 64643U 24140AEH 26178.74554176  .00002597  00000-0  10312-2 0  9999
2 64643  89.1450 284.6970 0073128 190.9528 169.0078 14.27071725 91505
CZ-6A DEB
1 64643U 24140AEH 26178.74554177  .00002597  00000-0  10312-2 0  9990
2 64643  89.1450 284.6970 0073128 190.9528 169.0078 14.27071725 91505
CZ-6A DEB
1 64643U 24140AEH 26179.72720688  .00002454  00000-0  97404-3 0  9991
2 64643  89.1451 284.6006 0073300 187.7662 172.2404 14.27076510 91642
CZ-6A DEB
1 64643U 24140AEH 26180.70886891  .00002621  00000-0  10402-2 0  9998
2 64643  89.1451 284.5042 0073473 184.5952 175.4577 14.27081811 91780
CZ-6A DEB
1 64643U 24140AEH 26180.70886891  .00002621  00000-0  10402-2 0  9998
2 64643  89.1451 284.5042 0073473 184.5952 175.4577 14.27081811 91780
CZ-6A DEB
1 64643U 24140AEH 26183.02277265  .00003039  00000-0  12062-2 0  9993
2 64643  89.1452 284.2772 0073869 177.1794 182.9833 14.27094748 92118
CZ-6A DEB
1 64643U 24140AEH 26183.72395198  .00003269  00000-0  12979-2 0  9998
2 64643  89.1449 284.2086 0073957 174.9356 185.2604 14.27099055 92218
CZ-6A DEB
1 64643U 24140AEH 26183.72395199  .00003269  00000-0  12979-2 0  9999
2 64643  89.1449 284.2086 0073957 174.9356 185.2604 14.27099055 92218
CZ-6A DEB
1 64643U 24140AEH 26184.70559852  .00003179  00000-0  12616-2 0  9994
2 64643  89.1447 284.1123 0074147 171.8654 188.3762 14.27104404 92355
CZ-6A DEB
1 64643U 24140AEH 26185.26653838  .00003326  00000-0  13202-2 0  9991
2 64643  89.1448 284.0574 0074188 169.9791 190.2904 14.27108097 92431
CZ-6A DEB
1 64643U 24140AEH 26185.26653838  .00003326  00000-0  13202-2 0  9991
2 64643  89.1448 284.0574 0074188 169.9791 190.2904 14.27108097 92431
CZ-6A DEB
1 64643U 24140AEH 26185.26653838  .00003326  00000-0  13202-2 0  9991
2 64643  89.1448 284.0574 0074188 169.9791 190.2904 14.27108097 92431
CZ-6A DEB
1 64643U 24140AEH 26185.68724022  .00004567  00000-0  18140-2 0  9995
2 64643  89.1449 284.0162 0074215 168.5692 191.7210 14.27115421 92492
CZ-6A DEB
1 64643U 24140AEH 26186.24817697  .00004031  00000-0  16004-2 0  9992
2 64643  89.1447 283.9612 0074287 166.7522 193.5647 14.27117306 92576
CZ-6A DEB
1 64643U 24140AEH 26186.24817697  .00004031  00000-0  16004-2 0  9992
2 64643  89.1447 283.9612 0074287 166.7522 193.5647 14.27117306 92576
CZ-6A DEB
1 64643U 24140AEH 26186.73899513  .00003716  00000-0  14750-2 0  9998
2 64643  89.1452 283.9130 0074354 165.2009 195.1387 14.27119491 92640
CZ-6A DEB
1 64643U 24140AEH 26186.73899513  .00003716  00000-0  14750-2 0  9998
2 64643  89.1452 283.9130 0074354 165.2009 195.1387 14.27119491 92640
CZ-6A DEB
1 64643U 24140AEH 26187.22981221  .00002989  00000-0  11851-2 0  9991
2 64643  89.1450 283.8649 0074431 163.6394 196.7229 14.27120492 92710
CZ-6A DEB
1 64643U 24140AEH 26188.21144381  .00002146  00000-0  84908-3 0  9998
2 64643  89.1448 283.7685 0074573 160.4856 199.9220 14.27123917 92857
CZ-6A DEB
1 64643U 24140AEH 26188.21144381  .00002146  00000-0  84908-3 0  9998
2 64643  89.1448 283.7685 0074573 160.4856 199.9220 14.27123917 92857
CZ-6A DEB
1 64643U 24140AEH 26188.56202569  .00001990  00000-0  78686-3 0  9991
2 64643  89.1448 283.7341 0074624 159.3839 201.0395 14.27125336 92902
CZ-6A DEB
1 64643U 24140AEH 26188.56202570  .00001990  00000-0  78686-3 0  9993
2 64643  89.1448 283.7341 0074624 159.3839 201.0395 14.27125337 92903
CZ-6A DEB
1 64643U 24140AEH 26190.24481497  .00001736  00000-0  68569-3 0  9995
2 64643  89.1446 283.5686 0074825 154.0230 206.4751 14.27131545 93141
CZ-6A DEB
1 64643U 24140AEH 26191.22643898  .00001623  00000-0  64036-3 0  9999
2 64643  89.1447 283.4722 0074930 150.9186 209.6214 14.27134492 93282
CZ-6A DEB
1 64643U 24140AEH 26192.20806095  .00001473  00000-0  58077-3 0  9999
2 64643  89.1449 283.3758 0075027 147.8144 212.7663 14.27137078 93421
CZ-6A DEB
1 64643U 24140AEH 26192.20806095  .00001473  00000-0  58077-3 0  9999
2 64643  89.1449 283.3758 0075027 147.8144 212.7663 14.27137078 93421
CZ-6A DEB
1 64643U 24140AEH 26192.20806095  .00001473  00000-0  58077-3 0  9999
2 64643  89.1449 283.3758 0075027 147.8144 212.7663 14.27137078 93421
CZ-6A DEB
1 64643U 24140AEH 26194.24141353  .00001385  00000-0  54526-3 0  9991
2 64643  89.1452 283.1763 0075217 141.3668 219.2942 14.27142787 93717
CZ-6A DEB
1 64643U 24140AEH 26194.24141354  .00001385  00000-0  54526-3 0  9992
2 64643  89.1452 283.1763 0075217 141.3668 219.2942 14.27142787 93717
CZ-6A DEB
1 64643U 24140AEH 26195.22302869  .00001346  00000-0  52967-3 0  9995
2 64643  89.1452 283.0801 0075286 138.2716 222.4255 14.27145376 93859
CZ-6A DEB
1 64643U 24140AEH 26195.22302870  .00001346  00000-0  52967-3 0  9997
2 64643  89.1452 283.0801 0075286 138.2716 222.4255 14.27145376 93859
CZ-6A DEB
1 64643U 24140AEH 26195.99429611  .00001326  00000-0  52183-3 0  9992
2 64643  89.1450 283.0042 0075347 135.8320 224.8924 14.27147467 93960
CZ-6A DEB
1 64643U 24140AEH 26195.99429612  .00001326  00000-0  52183-3 0  9993
2 64643  89.1450 283.0042 0075347 135.8320 224.8924 14.27147467 93960
CZ-6A DEB
1 64643U 24140AEH 26197.18625266  .00001211  00000-0  47593-3 0  9991
2 64643  89.1448 282.8873 0075424 132.0603 228.7041 14.27150296 94132
CZ-6A DEB
1 64643U 24140AEH 26197.18625267  .00001211  00000-0  47593-3 0  9992
2 64643  89.1448 282.8873 0075424 132.0603 228.7041 14.27150296 94132
CZ-6A DEB
1 64643U 24140AEH 26198.02763167  .00001242  00000-0  48811-3 0  9996
2 64643  89.1445 282.8047 0075416 129.3719 231.4188 14.27152348 94256
CZ-6A DEB
1 64643U 24140AEH 26198.02763167  .00001242  00000-0  48811-3 0  9996
2 64643  89.1445 282.8047 0075416 129.3719 231.4188 14.27152348 94256
CZ-6A DEB
1 64643U 24140AEH 26198.65866515  .00001179  00000-0  46314-3 0  9991
2 64643  89.1445 282.7427 0075449 127.3824 233.4272 14.27153650 94341
CZ-6A DEB
1 64643U 24140AEH 26198.65866516  .00001179  00000-0  46314-3 0  9992
2 64643  89.1445 282.7427 0075449 127.3824 233.4272 14.27153650 94341
CZ-6A DEB
1 64643U 24140AEH 26199.21958304  .00001194  00000-0  46905-3 0  9995
2 64643  89.1444 282.6876 0075469 125.6114 235.2143 14.27155161 94427
CZ-6A DEB
1 64643U 24140AEH 26199.71038550  .00001148  00000-0  45079-3 0  9992
2 64643  89.1443 282.6393 0075502 124.0627 236.7765 14.27156213 94492
CZ-6A DEB
1 64643U 24140AEH 26199.71038550  .00001148  00000-0  45079-3 0  9992
2 64643  89.1443 282.6393 0075502 124.0627 236.7765 14.27156213 94492
CZ-6A DEB
1 64643U 24140AEH 26200.20118760  .00001189  00000-0  46713-3 0  9992
2 64643  89.1443 282.5912 0075513 122.5112 238.3409 14.27157641 94569
CZ-6A DEB
1 64643U 24140AEH 26200.69198902  .00001144  00000-0  44927-3 0  9997
2 64643  89.1442 282.5429 0075538 120.9673 239.8972 14.27158671 94635
CZ-6A DEB
1 64643U 24140AEH 26200.69198902  .00001144  00000-0  44927-3 0  9997
2 64643  89.1442 282.5429 0075538 120.9673 239.8972 14.27158671 94635
CZ-6A DEB
1 64643U 24140AEH 26202.16438975  .00001575  00000-0  62074-3 0  9999
2 64643  89.1440 282.3984 0075555 116.3046 244.5935 14.27164782 94844
CZ-6A DEB
1 64643U 24140AEH 26202.23450398  .00001577  00000-0  62134-3 0  9999
2 64643  89.1440 282.3915 0075564 116.0745 244.8252 14.27164978 94854
CZ-6A DEB
1 64643U 24140AEH 26203.63678273  .00001892  00000-0  74665-3 0  9990
2 64643  89.1440 282.2538 0075568 111.6440 249.2825 14.27171212 95058
CZ-6A DEB
1 64643U 24140AEH 26204.19769301  .00001949  00000-0  76917-3 0  9990
2 64643  89.1439 282.1987 0075566 109.8720 251.0638 14.27173308 95131
CZ-6A DEB
1 64643U 24140AEH 26204.47814749  .00001979  00000-0  78108-3 0  9995
2 64643  89.1439 282.1711 0075556 109.0058 251.9342 14.27174446 95170
CZ-6A DEB
1 64643U 24140AEH 26204.47814749  .00001979  00000-0  78108-3 0  9995
2 64643  89.1439 282.1711 0075556 109.0058 251.9342 14.27174446 95170
CZ-6A DEB
1 64643U 24140AEH 26205.17928098  .00002328  00000-0  91963-3 0  9999
2 64643  89.1438 282.1022 0075546 106.7776 254.1724 14.27179418 95278
CZ-6A DEB
1 64643U 24140AEH 26206.23098038  .00002348  00000-0  92759-3 0  9995
2 64643  89.1439 281.9989 0075536 103.4513 257.5114 14.27183655 95425
CZ-6A DEB
1 64643U 24140AEH 26207.21256154  .00002545  00000-0  10058-2 0  9999
2 64643  89.1439 281.9025 0075514 100.3422 260.6296 14.27189186 95563
CZ-6A DEB
1 64643U 24140AEH 26207.21256154  .00002545  00000-0  10058-2 0  9999
2 64643  89.1439 281.9025 0075514 100.3422 260.6296 14.27189186 95563
CZ-6A DEB
1 64643U 24140AEH 26208.19413905  .00002458  00000-0  97144-3 0  9991
2 64643  89.1438 281.8061 0075477  97.2428 263.7354 14.27193375 95709
CZ-6A DEB
1 64643U 24140AEH 26209.66649841  .00002353  00000-0  92950-3 0  9998
2 64643  89.1441 281.6614 0075388  92.6601 268.3225 14.27199743 95914
CZ-6A DEB
1 64643U 24140AEH 26210.92851404  .00002285  00000-0  90254-3 0  9998
2 64643  89.1439 281.5377 0075299  88.6686 272.3133 14.27205427 96095
CZ-6A DEB
1 64643U 24140AEH 26211.13884927  .00002287  00000-0  90309-3 0  9991
2 64643  89.1439 281.5170 0075257  88.0013 272.9797 14.27206486 96120
CZ-6A DEB
1 64643U 24140AEH 26212.61119260  .00002222  00000-0  87741-3 0  9991
2 64643  89.1436 281.3725 0075154  83.3281 277.6459 14.27212936 96339
CZ-6A DEB
1 64643U 24140AEH 26212.61119261  .00002222  00000-0  87741-3 0  9992
2 64643  89.1436 281.3725 0075154  83.3281 277.6459 14.27212936 96339
CZ-6A DEB
1 64643U 24140AEH 26213.17208341  .00002061  00000-0  81332-3 0  9993
2 64643  89.1434 281.3174 0075111  81.5406 279.4292 14.27214850 96418
CZ-6A DEB
1 64643U 24140AEH 26213.66286201  .00002228  00000-0  87962-3 0  9998
2 64643  89.1433 281.2692 0075045  79.9689 280.9962 14.27217382 96482
CZ-6A DEB
1 64643U 24140AEH 26214.15363963  .00002039  00000-0  80470-3 0  9991
2 64643  89.1432 281.2210 0074998  78.3984 282.5616 14.27218911 96555
CZ-6A DEB
1 64643U 24140AEH 26214.15363963  .00002039  00000-0  80470-3 0  9991
2 64643  89.1432 281.2210 0074998  78.3984 282.5616 14.27218911 96555
CZ-6A DEB
1 64643U 24140AEH 26214.64441671  .00001927  00000-0  76001-3 0  9998
2 64643  89.1430 281.1726 0074949  76.8448 284.1095 14.27220475 96623
CZ-6A DEB
1 64643U 24140AEH 26215.13519239  .00002056  00000-0  81157-3 0  9991
2 64643  89.1429 281.1243 0074896  75.2819 285.6661 14.27223078 96695
CZ-6A DEB
1 64643U 24140AEH 26216.60751596  .00001853  00000-0  73063-3 0  9999
2 64643  89.1430 280.9797 0074743  70.6006 290.3248 14.27228366 96909
CZ-6A DEB
1 64643U 24140AEH 26217.16839943  .00001605  00000-0  63240-3 0  9995
2 64643  89.1429 280.9244 0074670  68.8173 292.0979 14.27229747 96989
CZ-6A DEB
1 64643U 24140AEH 26219.13148537  .00001152  00000-0  45213-3 0  9993
2 64643  89.1431 280.7312 0074403  62.5328 298.3405 14.27234935 97263
CZ-6A DEB
1 64643U 24140AEH 26219.90269567  .00001110  00000-0  43557-3 0  9998
2 64643  89.1431 280.6554 0074339  60.0759 300.7791 14.27236729 97370
CZ-6A DEB
1 64643U 24140AEH 26220.11302605  .00001251  00000-0  49157-3 0  9992
2 64643  89.1429 280.6348 0074325  59.3422 301.5071 14.27236893 97407
CZ-6A DEB
1 64643U 24140AEH 26220.11302606  .00001251  00000-0  49157-3 0  9993
2 64643  89.1429 280.6348 0074325  59.3422 301.5071 14.27236893 97407
CZ-6A DEB
1 64643U 24140AEH 26220.60379543  .00001218  00000-0  47852-3 0  9994
2 64643  89.1429 280.5866 0074250  57.7683 303.0680 14.27238114 97477
CZ-6A DEB
1 64643U 24140AEH 26220.60379543  .00001218  00000-0  47852-3 0  9994
2 64643  89.1429 280.5866 0074250  57.7683 303.0680 14.27238114 97477
CZ-6A DEB
1 64643U 24140AEH 26221.16467319  .00001298  00000-0  51024-3 0  9999
2 64643  89.1429 280.5314 0074174  55.9708 304.8501 14.27240326 97556
CZ-6A DEB
1 64643U 24140AEH 26221.16467320  .00001298  00000-0  51024-3 0  9991
2 64643  89.1429 280.5314 0074174  55.9708 304.8501 14.27240326 97556
CZ-6A DEB
1 64643U 24140AEH 26221.58533174  .00001224  00000-0  48080-3 0  9995
2 64643  89.1429 280.4902 0074117  54.6221 306.1868 14.27241031 97613
CZ-6A DEB
1 64643U 24140AEH 26222.14620885  .00001186  00000-0  46586-3 0  9990
2 64643  89.1428 280.4349 0074045  52.8158 307.9766 14.27242346 97690
CZ-6A DEB
1 64643U 24140AEH 26222.14620886  .00001186  00000-0  46586-3 0  9991
2 64643  89.1428 280.4349 0074045  52.8158 307.9766 14.27242346 97690
CZ-6A DEB
1 64643U 24140AEH 26223.12774275  .00001169  00000-0  45927-3 0  9991
2 64643  89.1427 280.3382 0073901  49.6496 311.1121 14.27244610 97838
CZ-6A DEB
1 64643U 24140AEH 26223.12774276  .00001169  00000-0  45927-3 0  9992
2 64643  89.1427 280.3383 0073901  49.6496 311.1121 14.27244610 97839
CZ-6A DEB
1 64643U 24140AEH 26223.61850890  .00001161  00000-0  45599-3 0  9990
2 64643  89.1425 280.2897 0073838  48.0725 312.6732 14.27245743 97903
CZ-6A DEB
1 64643U 24140AEH 26223.61850891  .00001161  00000-0  45599-3 0  9991
2 64643  89.1425 280.2897 0073838  48.0725 312.6732 14.27245744 97904
CZ-6A DEB
1 64643U 24140AEH 26224.10927425  .00001188  00000-0  46666-3 0  9999
2 64643  89.1425 280.2414 0073759  46.4778 314.2512 14.27247142 97976
CZ-6A DEB
1 64643U 24140AEH 26224.60003954  .00001114  00000-0  43731-3 0  9995
2 64643  89.1426 280.1933 0073694  44.9079 315.8044 14.27247894 98047
CZ-6A DEB
1 64643U 24140AEH 26225.58156843  .00001155  00000-0  45371-3 0  9996
2 64643  89.1426 280.0968 0073548  41.7377 318.9395 14.27250463 98182
CZ-6A DEB
1 64643U 24140AEH 26225.58156843  .00001155  00000-0  45371-3 0  9996
2 64643  89.1426 280.0968 0073548  41.7377 318.9395 14.27250463 98182
CZ-6A DEB
1 64643U 24140AEH 26226.14244119  .00001189  00000-0  46712-3 0  9990
2 64643  89.1425 280.0416 0073471  39.9191 320.7373 14.27251991 98260
CZ-6A DEB
1 64643U 24140AEH 26226.14244120  .00001189  00000-0  46712-3 0  9992
2 64643  89.1425 280.0416 0073471  39.9191 320.7373 14.27251991 98260
CZ-6A DEB
1 64643U 24140AEH 26227.12396664  .00001259  00000-0  49524-3 0  9994
2 64643  89.1424 279.9450 0073294  36.7318 323.8867 14.27254814 98408
CZ-6A DEB
1 64643U 24140AEH 26227.12396665  .00001259  00000-0  49524-3 0  9995
2 64643  89.1424 279.9450 0073294  36.7318 323.8867 14.27254814 98408
CZ-6A DEB
1 64643U 24140AEH 26227.40440235  .00001247  00000-0  49053-3 0  9993
2 64643  89.1424 279.9174 0073222  35.8176 324.7896 14.27255342 98447
CZ-6A DEB
1 64643U 24140AEH 26227.40440236  .00001247  00000-0  49053-3 0  9994
2 64643  89.1424 279.9174 0073222  35.8176 324.7896 14.27255342 98447
CZ-6A DEB
1 64643U 24140AEH 26228.10549021  .00001345  00000-0  52939-3 0  9990
2 64643  89.1424 279.8485 0073126  33.5397 327.0395 14.27257680 98542
CZ-6A DEB
1 64643U 24140AEH 26228.10549021  .00001345  00000-0  52939-3 0  9990
2 64643  89.1424 279.8484 0073126  33.5397 327.0395 14.27257680 98541
CZ-6A DEB
1 64643U 24140AEH 26228.59625143  .00001345  00000-0  52926-3 0  9999
2 64643  89.1424 279.8001 0073041  31.9409 328.6182 14.27258840 98616
CZ-6A DEB
1 64643U 24140AEH 26229.08701202  .00001459  00000-0  57473-3 0  9993
2 64643  89.1423 279.7519 0072970  30.3343 330.2043 14.27260664 98687
CZ-6A DEB
1 64643U 24140AEH 26229.57777202  .00001411  00000-0  55570-3 0  9994
2 64643  89.1423 279.7036 0072880  28.7295 331.7882 14.27261679 98750
CZ-6A DEB
1 64643U 24140AEH 26230.55928980  .00001725  00000-0  68082-3 0  9995
2 64643  89.1422 279.6069 0072724  25.5153 334.9601 14.27266146 98892
CZ-6A DEB
1 64643U 24140AEH 26231.12015623  .00001792  00000-0  70731-3 0  9998
2 64643  89.1421 279.5518 0072641  23.6824 336.7685 14.27268120 98976
CZ-6A DEB
1 64643U 24140AEH 26231.12015623  .00001792  00000-0  70731-3 0  9998
2 64643  89.1421 279.5517 0072641  23.6824 336.7685 14.27268120 98975
CZ-6A DEB
1 64643U 24140AEH 26232.59242621  .00001815  00000-0  71669-3 0  9997
2 64643  89.1421 279.4069 0072387  18.8356 341.5490 14.27272891 99181
CZ-6A DEB
1 64643U 24140AEH 26233.08318126  .00001922  00000-0  75928-3 0  9997
2 64643  89.1421 279.3586 0072320  17.2276 343.1348 14.27275204 99254
CZ-6A DEB
1 64643U 24140AEH 26235.53694897  .00001834  00000-0  72435-3 0  9993
2 64643  89.1419 279.1168 0071929   9.1493 351.0992 14.27283235 99605
CZ-6A DEB
1 64643U 24140AEH 26236.09780748  .00001828  00000-0  72205-3 0  9994
2 64643  89.1418 279.0616 0071824   7.2713 352.9505 14.27285312 99685
CZ-6A DEB
1 64643U 24140AEH 26237.07930830  .00001850  00000-0  73102-3 0  9994
2 64643  89.1417 278.9649 0071678   4.0293 356.1463 14.27289059 99820
CZ-6A DEB
1 64643U 24140AEH 26237.57005777  .00001907  00000-0  75356-3 0  9998
2 64643  89.1418 278.9166 0071591   2.3786 357.7734 14.27291138 99893
CZ-6A DEB
1 64643U 24140AEH 26237.57005777  .00001907  00000-0  75356-3 0  9998
2 64643  89.1418 278.9166 0071591   2.3786 357.7734 14.27291138 99893
CZ-6A DEB
1 64643U 24140AEH 26237.57005808  .00001896  00000-0  74908-3 0  9992
2 64643  89.1418 278.9167 0071609   2.3968 357.7555 14.27291007 99892
CZ-6A DEB
1 64643U 24140AEH 26237.57005809  .00001896  00000-0  74908-3 0  9993
2 64643  89.1418 278.9167 0071609   2.3968 357.7555 14.27291007 99892
CZ-6A DEB
1 64643U 24140AEH 26240.09390280  .00001878  00000-0  74230-3 0  9992
2 64643  89.1413 278.6678 0071220 354.0002   6.0330 14.27300152100256
CZ-6A DEB
1 64643U 24140AEH 26240.09390281  .00001878  00000-0  74230-3 0  9993
2 64643  89.1413 278.6678 0071220 354.0002   6.0330 14.27300152100256
CZ-6A DEB
1 64643U 24140AEH 26241.56613800  .00002010  00000-0  79459-3 0  9998
2 64643  89.1411 278.5226 0070985 349.0506  10.9139 14.27306283100467
CZ-6A DEB
1 64643U 24140AEH 26241.56613800  .00002010  00000-0  79459-3 0  9998
2 64643  89.1411 278.5226 0070985 349.0506  10.9139 14.27306283100467
CZ-6A DEB
1 64643U 24140AEH 26242.54762520  .00001875  00000-0  74109-3 0  9996
2 64643  89.1410 278.4259 0070862 345.7558  14.1636 14.27309237100601
CZ-6A DEB
1 64643U 24140AEH 26242.54762520  .00001875  00000-0  74109-3 0  9996
2 64643  89.1410 278.4259 0070862 345.7558  14.1636 14.27309237100601
CZ-6A DEB
1 64643U 24140AEH 26243.52910962  .00001786  00000-0  70551-3 0  9998
2 64643  89.1411 278.3295 0070793 342.4121  17.4622 14.27312567100740
CZ-6A DEB
1 64643U 24140AEH 26243.52910962  .00001786  00000-0  70551-3 0  9998
2 64643  89.1411 278.3295 0070793 342.4121  17.4622 14.27312567100740
