CZ-6A DEB
1 64655U 24140AEV 25173.37396157  .00002148  00000-0  83446-3 0  9999
2 64655  89.1258 319.5873 0077502 333.9637  25.7667 14.27966244 33129
TBA - TO BE ASSIGNED
1 64655U 24140AEV 25173.37396157  .00002148  00000-0  83446-3 0  9999
2 64655  89.1258 319.5873 0077502 333.9637  25.7667 14.27966244 33129
CZ-6A DEB
1 64655U 24140AEV 25183.39439602  .00002474  00000-0  96172-3 0  9997
2 64655  89.1272 318.5821 0076668 299.8044  59.5542 14.28011446 34552
CZ-6A DEB
1 64655U 24140AEV 25183.39439602  .00002474  00000-0  96172-3 0  9997
2 64655  89.1272 318.5821 0076668 299.8044  59.5542 14.28011446 34552
CZ-6A DEB
1 64655U 24140AEV 25186.33740312  .00002942  00000-0  11441-2 0  9992
2 64655  89.1268 318.2867 0076701 289.7288  69.5645 14.28028655 34971
CZ-6A DEB
1 64655U 24140AEV 25186.33740312  .00002942  00000-0  11441-2 0  9992
2 64655  89.1268 318.2867 0076701 289.7288  69.5645 14.28028655 34971
CZ-6A DEB
1 64655U 24140AEV 25187.31839913  .00002802  00000-0  10895-2 0  9994
2 64655  89.1269 318.1882 0076672 286.3937  72.8838 14.28033750 35119
CZ-6A DEB
1 64655U 24140AEV 25187.80889602  .00002601  00000-0  10108-2 0  9992
2 64655  89.1264 318.1379 0076687 284.7141  74.5563 14.28035858 35182
CZ-6A DEB
1 64655U 24140AEV 25189.35045138  .00002548  00000-0  99000-3 0  9991
2 64655  89.1269 317.9836 0076691 279.4392  79.8140 14.28044662 35403
CZ-6A DEB
1 64655U 24140AEV 25189.35045138  .00002548  00000-0  99000-3 0  9991
2 64655  89.1269 317.9836 0076691 279.4392  79.8140 14.28044662 35403
CZ-6A DEB
1 64655U 24140AEV 25189.63073341  .00002480  00000-0  96343-3 0  9991
2 64655  89.1269 317.9553 0076708 278.4809  80.7697 14.28045966 35440
CZ-6A DEB
1 64655U 24140AEV 25190.33143749  .00002374  00000-0  92199-3 0  9997
2 64655  89.1269 317.8848 0076751 276.0935  83.1518 14.28049479 35541
CZ-6A DEB
1 64655U 24140AEV 25192.29340274  .00002113  00000-0  81991-3 0  9995
2 64655  89.1274 317.6880 0076888 269.3795  89.8589 14.28057915 35827
CZ-6A DEB
1 64655U 24140AEV 25192.29340274  .00002113  00000-0  81991-3 0  9995
2 64655  89.1274 317.6880 0076888 269.3795  89.8589 14.28057915 35827
CZ-6A DEB
1 64655U 24140AEV 25192.78389204  .00002375  00000-0  92192-3 0  9990
2 64655  89.1276 317.6388 0076917 267.6988  91.5399 14.28061139 35899
CZ-6A DEB
1 64655U 24140AEV 25193.76486939  .00002555  00000-0  99219-3 0  9999
2 64655  89.1280 317.5408 0076960 264.3609  94.8806 14.28066237 36038
CZ-6A DEB
1 64655U 24140AEV 25194.32542545  .00002913  00000-0  11317-2 0  9998
2 64655  89.1278 317.4844 0077079 262.4404  96.8030 14.28070517 36118
CZ-6A DEB
1 64655U 24140AEV 25194.32542545  .00002913  00000-0  11317-2 0  9998
2 64655  89.1278 317.4844 0077079 262.4404  96.8030 14.28070517 36118
CZ-6A DEB
1 64655U 24140AEV 25195.30639760  .00002704  00000-0  10497-2 0  9999
2 64655  89.1279 317.3863 0077212 259.0950 100.1549 14.28074983 36256
CZ-6A DEB
1 64655U 24140AEV 25198.31936264  .00002952  00000-0  11458-2 0  9995
2 64655  89.1272 317.0839 0077628 248.8702 110.4183 14.28092585 36684
CZ-6A DEB
1 64655U 24140AEV 25198.31936264  .00002952  00000-0  11458-2 0  9995
2 64655  89.1272 317.0839 0077628 248.8702 110.4183 14.28092585 36684
CZ-6A DEB
1 64655U 24140AEV 25199.30032061  .00003191  00000-0  12389-2 0  9997
2 64655  89.1270 316.9848 0077409 245.6166 113.6936 14.28099809 36829
CZ-6A DEB
1 64655U 24140AEV 25200.28127332  .00003108  00000-0  12060-2 0  9997
2 64655  89.1267 316.8860 0077671 242.2921 117.0379 14.28106151 36964
CZ-6A DEB
1 64655U 24140AEV 25200.28127332  .00003108  00000-0  12060-2 0  9997
2 64655  89.1267 316.8860 0077671 242.2921 117.0379 14.28106151 36964
CZ-6A DEB
1 64655U 24140AEV 25203.57444351  .00003944  00000-0  15303-2 0  9996
2 64655  89.1258 316.5532 0078202 231.2282 128.1910 14.28130957 37434
CZ-6A DEB
1 64655U 24140AEV 25204.27511066  .00004490  00000-0  17426-2 0  9997
2 64655  89.1280 316.4851 0078275 228.8730 130.5691 14.28138202 37537
CZ-6A DEB
1 64655U 24140AEV 25205.25604037  .00005004  00000-0  19416-2 0  9990
2 64655  89.1285 316.3868 0078493 225.6003 133.8749 14.28147174 37672
CZ-6A DEB
1 64655U 24140AEV 25205.25604037  .00005004  00000-0  19416-2 0  9990
2 64655  89.1285 316.3868 0078493 225.6003 133.8749 14.28147174 37672
CZ-6A DEB
1 64655U 24140AEV 25207.56820678  .00004482  00000-0  17372-2 0  9995
2 64655  89.1287 316.1561 0078859 217.9659 141.5961 14.28168373 38003
CZ-6A DEB
1 64655U 24140AEV 25207.56820678  .00004482  00000-0  17372-2 0  9995
2 64655  89.1287 316.1561 0078859 217.9659 141.5961 14.28168373 38003
CZ-6A DEB
1 64655U 24140AEV 25208.26885644  .00004425  00000-0  17150-2 0  9998
2 64655  89.1283 316.0857 0078960 215.6316 143.9594 14.28175076 38101
CZ-6A DEB
1 64655U 24140AEV 25209.24976132  .00004283  00000-0  16593-2 0  9992
2 64655  89.1281 315.9873 0079114 212.3929 147.2397 14.28183785 38240
CZ-6A DEB
1 64655U 24140AEV 25210.30072472  .00004715  00000-0  18262-2 0  9990
2 64655  89.1279 315.8819 0079268 208.9217 150.7574 14.28194182 38392
CZ-6A DEB
1 64655U 24140AEV 25210.30072472  .00004715  00000-0  18262-2 0  9990
2 64655  89.1279 315.8819 0079268 208.9217 150.7574 14.28194182 38392
CZ-6A DEB
1 64655U 24140AEV 25212.26250322  .00005063  00000-0  19600-2 0  9993
2 64655  89.1276 315.6853 0079577 202.4792 157.2910 14.28213924 38678
CZ-6A DEB
1 64655U 24140AEV 25213.24338190  .00005094  00000-0  19713-2 0  9991
2 64655  89.1276 315.5870 0079717 199.2662 160.5515 14.28224516 38814
CZ-6A DEB
1 64655U 24140AEV 25213.24338190  .00005094  00000-0  19713-2 0  9991
2 64655  89.1276 315.5870 0079717 199.2662 160.5515 14.28224516 38814
CZ-6A DEB
1 64655U 24140AEV 25214.01406777  .00004712  00000-0  18229-2 0  9991
2 64655  89.1274 315.5094 0079839 196.7595 163.0960 14.28231585 38920
CZ-6A DEB
1 64655U 24140AEV 25215.27518159  .00004659  00000-0  18013-2 0  9999
2 64655  89.1273 315.3825 0080026 192.6203 167.2991 14.28244093 39109
CZ-6A DEB
1 64655U 24140AEV 25215.27518159  .00004659  00000-0  18013-2 0  9999
2 64655  89.1273 315.3825 0080026 192.6203 167.2991 14.28244093 39109
CZ-6A DEB
1 64655U 24140AEV 25216.25604157  .00004357  00000-0  16839-2 0  9991
2 64655  89.1274 315.2840 0080190 189.4366 170.5328 14.28252240 39241
CZ-6A DEB
1 64655U 24140AEV 25217.51713853  .00004204  00000-0  16238-2 0  9999
2 64655  89.1280 315.1575 0080403 185.3749 174.6592 14.28262834 39427
CZ-6A DEB
1 64655U 24140AEV 25218.70816662  .00003987  00000-0  15392-2 0  9990
2 64655  89.1281 315.0379 0080586 181.5117 178.5847 14.28272261 39597
CZ-6A DEB
1 64655U 24140AEV 25219.26864789  .00003977  00000-0  15351-2 0  9999
2 64655  89.1283 314.9818 0080652 179.6758 180.4504 14.28276670 39677
CZ-6A DEB
1 64655U 24140AEV 25222.21114379  .00005094  00000-0  19657-2 0  9996
2 64655  89.1285 314.6873 0081043 170.1587 190.1219 14.28303856 40094
CZ-6A DEB
1 64655U 24140AEV 25222.21114379  .00005094  00000-0  19657-2 0  9996
2 64655  89.1285 314.6873 0081043 170.1587 190.1219 14.28303856 40094
CZ-6A DEB
1 64655U 24140AEV 25225.22363501  .00004817  00000-0  18569-2 0  9996
2 64655  89.1280 314.3856 0081404 160.5137 199.9201 14.28333421 40529
CZ-6A DEB
1 64655U 24140AEV 25225.22363501  .00004817  00000-0  18569-2 0  9996
2 64655  89.1280 314.3856 0081404 160.5137 199.9201 14.28333421 40529
CZ-6A DEB
1 64655U 24140AEV 25226.20443347  .00004492  00000-0  17311-2 0  9995
2 64655  89.1279 314.2871 0081514 157.3883 203.0937 14.28341574 40663
CZ-6A DEB
1 64655U 24140AEV 25226.69483024  .00004445  00000-0  17125-2 0  9995
2 64655  89.1267 314.2366 0081536 155.8528 204.6524 14.28345866 40737
CZ-6A DEB
1 64655U 24140AEV 25228.23606834  .00003827  00000-0  14733-2 0  9998
2 64655  89.1262 314.0814 0081698 150.9189 209.6594 14.28357574 40951
CZ-6A DEB
1 64655U 24140AEV 25228.23606834  .00003827  00000-0  14733-2 0  9998
2 64655  89.1262 314.0814 0081698 150.9189 209.6594 14.28357574 40951
CZ-6A DEB
1 64655U 24140AEV 25229.21684899  .00003607  00000-0  13879-2 0  9990
2 64655  89.1264 313.9829 0081784 147.8008 212.8220 14.28364860 41092
CZ-6A DEB
1 64655U 24140AEV 25232.22921533  .00004296  00000-0  16528-2 0  9993
2 64655  89.1269 313.6799 0081975 138.2037 222.5458 14.28388230 41524
CZ-6A DEB
1 64655U 24140AEV 25232.22921533  .00004296  00000-0  16528-2 0  9993
2 64655  89.1269 313.6799 0081975 138.2037 222.5458 14.28388230 41524
CZ-6A DEB
1 64655U 24140AEV 25234.19072844  .00003422  00000-0  13151-2 0  9992
2 64655  89.1270 313.4831 0082056 131.9697 228.8527 14.28401438 41807
CZ-6A DEB
1 64655U 24140AEV 25235.17147720  .00003388  00000-0  13017-2 0  9999
2 64655  89.1267 313.3845 0082068 128.8736 231.9818 14.28408309 41946
CZ-6A DEB
1 64655U 24140AEV 25238.18374551  .00003949  00000-0  15174-2 0  9996
2 64655  89.1255 313.0817 0082084 119.3084 241.6345 14.28430495 42370
CZ-6A DEB
1 64655U 24140AEV 25239.16447115  .00004676  00000-0  17977-2 0  9993
2 64655  89.1260 312.9838 0081983 116.2036 244.7618 14.28440668 42513
CZ-6A DEB
1 64655U 24140AEV 25241.19594853  .00005963  00000-0  22927-2 0  9992
2 64655  89.1256 312.7794 0081947 109.7232 251.2825 14.28465377 42801
CZ-6A DEB
1 64655U 24140AEV 25242.66699407  .00006635  00000-0  25505-2 0  9998
2 64655  89.1258 312.6314 0081834 105.0528 255.9741 14.28485293 43013
CZ-6A DEB
1 64655U 24140AEV 25247.15003811  .00006919  00000-0  26570-2 0  9993
2 64655  89.1263 312.1804 0081530  90.7496 270.3041 14.28551434 43650
CZ-6A DEB
1 64655U 24140AEV 25249.67165840  .00005948  00000-0  22831-2 0  9990
2 64655  89.1261 311.9270 0081105  82.6804 278.3601 14.28581477 44014
CZ-6A DEB
1 64655U 24140AEV 25251.14257964  .00004190  00000-0  16067-2 0  9996
2 64655  89.1271 311.7791 0080931  77.8724 283.1523 14.28595272 44222
CZ-6A DEB
1 64655U 24140AEV 25251.91305692  .00003385  00000-0  12970-2 0  9997
2 64655  89.1251 311.7007 0080944  75.4544 285.5612 14.28600048 44333
CZ-6A DEB
1 64655U 24140AEV 25256.11560887  .00002548  00000-0  97500-3 0  9996
2 64655  89.1242 311.2770 0080389  61.9368 298.9926 14.28625023 44934
CZ-6A DEB
1 64655U 24140AEV 25256.60590137  .00002952  00000-0  11307-2 0  9990
2 64655  89.1242 311.2275 0080326  60.3576 300.5588 14.28628702 45009
CZ-6A DEB
1 64655U 24140AEV 25259.40755028  .00004031  00000-0  15454-2 0  9990
2 64655  89.1245 310.9448 0079952  51.2944 309.5365 14.28648560 45401
CZ-6A DEB
1 64655U 24140AEV 25260.10795581  .00003615  00000-0  13857-2 0  9999
2 64655  89.1244 310.8741 0079820  49.0129 311.7934 14.28652696 45502
CZ-6A DEB
1 64655U 24140AEV 25260.87839872  .00003423  00000-0  13119-2 0  9993
2 64655  89.1244 310.7965 0079669  46.4809 314.2969 14.28657847 45617
CZ-6A DEB
1 64655U 24140AEV 25264.10021814  .00004567  00000-0  17516-2 0  9997
2 64655  89.1236 310.4720 0079163  35.9568 324.6916 14.28682485 46072
CZ-6A DEB
1 64655U 24140AEV 25265.08075962  .00006023  00000-0  23113-2 0  9997
2 64655  89.1232 310.3733 0079002  32.7310 327.8743 14.28693690 46212
CZ-6A DEB
1 64655U 24140AEV 25266.13133077  .00007354  00000-0  28225-2 0  9993
2 64655  89.1230 310.2671 0078844  29.2856 331.2724 14.28707463 46367
CZ-6A DEB
1 64655U 24140AEV 25267.11185319  .00007614  00000-0  29219-2 0  9991
2 64655  89.1231 310.1681 0078681  26.0615 334.4507 14.28721014 46503
CZ-6A DEB
1 64655U 24140AEV 25267.39200098  .00007100  00000-0  27244-2 0  9999
2 64655  89.1230 310.1400 0078686  25.1951 335.3049 14.28723566 46548
CZ-6A DEB
1 64655U 24140AEV 25268.09236654  .00006764  00000-0  25954-2 0  9995
2 64655  89.1231 310.0692 0078531  22.7935 337.6715 14.28732634 46647
CZ-6A DEB
1 64655U 24140AEV 25269.07287023  .00006877  00000-0  26384-2 0  9993
2 64655  89.1229 309.9702 0078342  19.5095 340.9068 14.28746193 46782
CZ-6A DEB
1 64655U 24140AEV 25270.12340134  .00006277  00000-0  24077-2 0  9995
2 64655  89.1227 309.8637 0078200  16.0865 344.2785 14.28757987 46939
CZ-6A DEB
1 64655U 24140AEV 25270.54361123  .00006224  00000-0  23872-2 0  9996
2 64655  89.1226 309.8212 0078136  14.6913 345.6526 14.28762886 46991
CZ-6A DEB
1 64655U 24140AEV 25273.06483063  .00007853  00000-0  30116-2 0  9992
2 64655  89.1232 309.5664 0077726   6.3225 353.8931 14.28802305 47357
CZ-6A DEB
1 64655U 24140AEV 25273.06483063  .00007853  00000-0  30116-2 0  9992
2 64655  89.1232 309.5664 0077726   6.3225 353.8931 14.28802305 47357
CZ-6A DEB
1 64655U 24140AEV 25275.09574060  .00009863  00000-0  37797-2 0  9990
2 64655  89.1231 309.3611 0077394 359.6178   0.4945 14.28854046 47649
CZ-6A DEB
1 64655U 24140AEV 25275.09574061  .00009863  00000-0  37797-2 0  9991
2 64655  89.1231 309.3611 0077394 359.6178   0.4945 14.28854046 47649
CZ-6A DEB
1 64655U 24140AEV 25276.07615882  .00008406  00000-0  32205-2 0  9998
2 64655  89.1240 309.2631 0077253 356.2146   3.8454 14.28871275 47782
CZ-6A DEB
1 64655U 24140AEV 25279.08738315  .00005275  00000-0  20192-2 0  9992
2 64655  89.1233 308.9608 0076861 346.1936  13.7155 14.28909507 48210
CZ-6A DEB
1 64655U 24140AEV 25279.08738315  .00005275  00000-0  20192-2 0  9992
2 64655  89.1233 308.9608 0076861 346.1936  13.7155 14.28909507 48210
CZ-6A DEB
1 64655U 24140AEV 25280.06776744  .00005272  00000-0  20175-2 0  9998
2 64655  89.1225 308.8608 0076877 342.7346  17.1236 14.28919051 48352
CZ-6A DEB
1 64655U 24140AEV 25280.48793009  .00005183  00000-0  19834-2 0  9998
2 64655  89.1224 308.8180 0076718 341.3925  18.4467 14.28922826 48419
CZ-6A DEB
1 64655U 24140AEV 25281.04814436  .00006476  00000-0  24791-2 0  9993
2 64655  89.1216 308.7609 0076655 339.5173  20.2952 14.28931190 48491
CZ-6A DEB
1 64655U 24140AEV 25281.04814437  .00006476  00000-0  24791-2 0  9994
2 64655  89.1216 308.7609 0076655 339.5173  20.2952 14.28931190 48491
CZ-6A DEB
1 64655U 24140AEV 25282.51869600  .00004742  00000-0  18141-2 0  9995
2 64655  89.1212 308.6117 0076536 334.5392  25.2040 14.28944941 48701
CZ-6A DEB
1 64655U 24140AEV 25282.51869600  .00004742  00000-0  18141-2 0  9995
2 64655  89.1212 308.6117 0076536 334.5392  25.2040 14.28944942 48702
CZ-6A DEB
1 64655U 24140AEV 25284.05925971  .00004473  00000-0  17106-2 0  9991
2 64655  89.1207 308.4549 0076362 329.3742  30.3005 14.28959080 48922
CZ-6A DEB
1 64655U 24140AEV 25284.05925972  .00004473  00000-0  17106-2 0  9992
2 64655  89.1207 308.4549 0076362 329.3742  30.3005 14.28959080 48922
CZ-6A DEB
1 64655U 24140AEV 25284.47941082  .00004620  00000-0  17671-2 0  9999
2 64655  89.1207 308.4123 0076234 328.0182  31.6397 14.28963314 48981
CZ-6A DEB
1 64655U 24140AEV 25285.03960944  .00005483  00000-0  20974-2 0  9998
2 64655  89.1206 308.3550 0076225 326.1100  33.5237 14.28971114 49063
CZ-6A DEB
1 64655U 24140AEV 25286.01995054  .00006616  00000-0  25312-2 0  9997
2 64655  89.1208 308.2558 0076119 322.8141  36.7795 14.28985270 49200
CZ-6A DEB
1 64655U 24140AEV 25286.51011789  .00006221  00000-0  23797-2 0  9993
2 64655  89.1209 308.2054 0076126 321.1496  38.4241 14.28990978 49278
CZ-6A DEB
1 64655U 24140AEV 25287.49044629  .00005480  00000-0  20952-2 0  9996
2 64655  89.1204 308.1064 0076147 317.8630  41.6726 14.29002810 49418
CZ-6A DEB
1 64655U 24140AEV 25288.47076817  .00005503  00000-0  21039-2 0  9992
2 64655  89.1202 308.0073 0076062 314.5709  44.9293 14.29013929 49555
CZ-6A DEB
1 64655U 24140AEV 25289.03094971  .00006018  00000-0  23007-2 0  9995
2 64655  89.1205 307.9506 0075988 312.6724  46.8084 14.29020095 49639
CZ-6A DEB
1 64655U 24140AEV 25289.03094972  .00006018  00000-0  23007-2 0  9996
2 64655  89.1205 307.9506 0075988 312.6725  46.8084 14.29020095 49630
CZ-6A DEB
1 64655U 24140AEV 25290.08128324  .00008223  00000-0  31437-2 0  9998
2 64655  89.1203 307.8442 0075930 309.1139  50.3321 14.29035106 49782
CZ-6A DEB
1 64655U 24140AEV 25290.08128325  .00008223  00000-0  31437-2 0  9999
2 64655  89.1203 307.8442 0075930 309.1139  50.3321 14.29035106 49782
CZ-6A DEB
1 64655U 24140AEV 25290.50141472  .00006705  00000-0  25634-2 0  9999
2 64655  89.1202 307.8015 0075833 307.7054  51.7281 14.29036640 49840
CZ-6A DEB
1 64655U 24140AEV 25290.50141473  .00006705  00000-0  25634-2 0  9990
2 64655  89.1202 307.8015 0075833 307.7054  51.7281 14.29036640 49840
CZ-6A DEB
1 64655U 24140AEV 25291.06158625  .00007925  00000-0  30296-2 0  9994
2 64655  89.1200 307.7451 0075795 305.7996  53.6170 14.29046425 49920
CZ-6A DEB
1 64655U 24140AEV 25291.06158625  .00007925  00000-0  30296-2 0  9994
2 64655  89.1200 307.7451 0075795 305.7996  53.6170 14.29046425 49920
CZ-6A DEB
1 64655U 24140AEV 25291.55173471  .00007882  00000-0  30130-2 0  9993
2 64655  89.1198 307.6953 0075689 304.1466  55.2566 14.29052675 49997
CZ-6A DEB
1 64655U 24140AEV 25293.44227688  .00008843  00000-0  33785-2 0  9990
2 64655  89.1192 307.5041 0075576 297.7147  61.6395 14.29087432 50268
CZ-6A DEB
1 64655U 24140AEV 25295.05270735  .00006986  00000-0  26675-2 0  9996
2 64655  89.1191 307.3404 0075523 292.2766  67.0433 14.29110800 50491
CZ-6A DEB
1 64655U 24140AEV 25295.05270736  .00006986  00000-0  26675-2 0  9997
2 64655  89.1191 307.3404 0075523 292.2766  67.0433 14.29110800 50491
CZ-6A DEB
1 64655U 24140AEV 25295.47281590  .00006358  00000-0  24274-2 0  9999
2 64655  89.1187 307.2975 0075565 290.8355  68.4759 14.29115384 50557
CZ-6A DEB
1 64655U 24140AEV 25295.47281591  .00006358  00000-0  24274-2 0  9990
2 64655  89.1187 307.2975 0075565 290.8355  68.4759 14.29115384 50557
CZ-6A DEB
1 64655U 24140AEV 25296.03295815  .00006283  00000-0  23982-2 0  9999
2 64655  89.1181 307.2408 0075543 288.9319  70.3699 14.29122885 50634
CZ-6A DEB
1 64655U 24140AEV 25297.01320048  .00006415  00000-0  24483-2 0  9999
2 64655  89.1188 307.1411 0075512 285.6264  73.6607 14.29136296 50774
CZ-6A DEB
1 64655U 24140AEV 25299.46377016  .00006035  00000-0  23015-2 0  9995
2 64655  89.1196 306.8930 0075470 277.2769  81.9852 14.29167882 51124
CZ-6A DEB
1 64655U 24140AEV 25299.46377017  .00006035  00000-0  23015-2 0  9996
2 64655  89.1196 306.8930 0075470 277.2769  81.9852 14.29167882 51124
CZ-6A DEB
1 64655U 24140AEV 25301.00410464  .00006476  00000-0  24692-2 0  9995
2 64655  89.1197 306.7366 0075444 272.1053  87.1504 14.29186235 51347
CZ-6A DEB
1 64655U 24140AEV 25304.01470021  .00007531  00000-0  28694-2 0  9993
2 64655  89.1188 306.4307 0075448 261.9687  97.2943 14.29228132 51771
CZ-6A DEB
1 64655U 24140AEV 25305.97504292  .00005339  00000-0  20325-2 0  9994
2 64655  89.1187 306.2323 0075428 255.2733 104.0095 14.29251695 52059
CZ-6A DEB
1 64655U 24140AEV 25306.95520342  .00005416  00000-0  20612-2 0  9992
2 64655  89.1185 306.1328 0075461 251.9554 107.3410 14.29262691 52192
CZ-6A DEB
1 64655U 24140AEV 25310.94578260  .00006094  00000-0  23177-2 0  9990
2 64655  89.1174 305.7255 0075387 238.2742 121.1091 14.29310759 52769
CZ-6A DEB
1 64655U 24140AEV 25310.94578261  .00006094  00000-0  23177-2 0  9991
2 64655  89.1174 305.7255 0075387 238.2742 121.1091 14.29310759 52769
CZ-6A DEB
1 64655U 24140AEV 25314.93620754  .00006692  00000-0  25420-2 0  9996
2 64655  89.1220 305.3248 0075492 224.7686 134.7403 14.29371987 53334
CZ-6A DEB
1 64655U 24140AEV 25315.42624975  .00008008  00000-0  30413-2 0  9991
2 64655  89.1193 305.2706 0075667 223.2246 136.2997 14.29380568 53409
CZ-6A DEB
1 64655U 24140AEV 25319.97643520  .00006631  00000-0  25117-2 0  9997
2 64655  89.1179 304.8078 0076128 207.9414 151.7685 14.29482074 54052
CZ-6A DEB
1 64655U 24140AEV 25323.19642709  .00004665  00000-0  17643-2 0  9994
2 64655  89.1191 304.4820 0076131 197.0175 162.8466 14.29522727 54515
CZ-6A DEB
1 64655U 24140AEV 25324.94639220  .00004383  00000-0  16569-2 0  9995
2 64655  89.1211 304.3048 0076228 190.9265 169.0279 14.29538154 54767
CZ-6A DEB
1 64655U 24140AEV 25325.43637848  .00005218  00000-0  19729-2 0  9993
2 64655  89.1193 304.2542 0076303 189.4782 170.4979 14.29544407 54834
CZ-6A DEB
1 64655U 24140AEV 25325.92636375  .00004858  00000-0  18370-2 0  9991
2 64655  89.1214 304.2071 0075883 187.8841 172.1169 14.29548990 54904
CZ-6A DEB
1 64655U 24140AEV 25325.92636376  .00004858  00000-0  18370-2 0  9992
2 64655  89.1214 304.2071 0075883 187.8841 172.1169 14.29548990 54904
CZ-6A DEB
1 64655U 24140AEV 25326.69633608  .00004412  00000-0  16677-2 0  9996
2 64655  89.1204 304.1278 0075952 185.2189 174.8224 14.29556044 55018
CZ-6A DEB
1 64655U 24140AEV 25326.69633608  .00004412  00000-0  16677-2 0  9996
2 64655  89.1204 304.1278 0075952 185.2189 174.8224 14.29556045 55019
CZ-6A DEB
1 64655U 24140AEV 25327.95628137  .00004861  00000-0  18370-2 0  9997
2 64655  89.1203 303.9993 0076220 180.9853 179.1205 14.29569943 55195
CZ-6A DEB
1 64655U 24140AEV 25328.23626796  .00004632  00000-0  17499-2 0  9995
2 64655  89.1201 303.9698 0076336 179.9914 180.1296 14.29571937 55232
CZ-6A DEB
1 64655U 24140AEV 25328.37626081  .00004571  00000-0  17263-2 0  9998
2 64655  89.1202 303.9553 0076508 179.5716 180.5560 14.29573147 55255
CZ-6A DEB
1 64655U 24140AEV 25328.37626082  .00004571  00000-0  17263-2 0  9999
2 64655  89.1202 303.9553 0076508 179.5716 180.5560 14.29573147 55255
CZ-6A DEB
1 64655U 24140AEV 25328.93623097  .00005817  00000-0  21975-2 0  9993
2 64655  89.1203 303.8988 0076628 177.7470 182.4087 14.29581406 55338
CZ-6A DEB
1 64655U 24140AEV 25328.93623098  .00005817  00000-0  21975-2 0  9994
2 64655  89.1203 303.8988 0076628 177.7470 182.4087 14.29581406 55338
CZ-6A DEB
1 64655U 24140AEV 25330.19615534  .00005467  00000-0  20641-2 0  9991
2 64655  89.1203 303.7710 0076861 173.6022 186.6174 14.29594595 55513
CZ-6A DEB
1 64655U 24140AEV 25330.19615534  .00005467  00000-0  20641-2 0  9991
2 64655  89.1203 303.7710 0076861 173.6022 186.6174 14.29594595 55513
CZ-6A DEB
1 64655U 24140AEV 25330.40614161  .00005134  00000-0  19381-2 0  9990
2 64655  89.1203 303.7497 0076889 172.9033 187.3271 14.29596441 55540
CZ-6A DEB
1 64655U 24140AEV 25330.40614161  .00005134  00000-0  19381-2 0  9990
2 64655  89.1203 303.7497 0076889 172.9033 187.3271 14.29596441 55540
CZ-6A DEB
1 64655U 24140AEV 25330.89610826  .00005096  00000-0  19233-2 0  9990
2 64655  89.1208 303.6994 0076950 171.2699 188.9857 14.29601721 55618
CZ-6A DEB
1 64655U 24140AEV 25330.89610827  .00005096  00000-0  19233-2 0  9991
2 64655  89.1208 303.6994 0076950 171.2699 188.9857 14.29601721 55618
CZ-6A DEB
1 64655U 24140AEV 25333.41591006  .00004553  00000-0  17167-2 0  9990
2 64655  89.1206 303.4438 0077285 162.9641 197.4177 14.29626217 55979
CZ-6A DEB
1 64655U 24140AEV 25334.88577338  .00004927  00000-0  18571-2 0  9999
2 64655  89.1199 303.2947 0077440 158.0727 202.3813 14.29642023 56187
CZ-6A DEB
1 64655U 24140AEV 25336.35562088  .00005699  00000-0  21478-2 0  9996
2 64655  89.1186 303.1443 0077592 153.1293 207.3955 14.29658530 56390
CZ-6A DEB
1 64655U 24140AEV 25336.35562088  .00005699  00000-0  21478-2 0  9996
2 64655  89.1186 303.1443 0077592 153.1293 207.3955 14.29658530 56390
CZ-6A DEB
1 64655U 24140AEV 25339.92515079  .00008007  00000-0  30140-2 0  9992
2 64655  89.1189 302.7818 0077988 141.3125 219.3694 14.29719539 56903
CZ-6A DEB
1 64655U 24140AEV 25344.33437304  .00007356  00000-0  27641-2 0  9995
2 64655  89.1193 302.3350 0078623 126.4628 234.3847 14.29780928 57531
CZ-6A DEB
1 64655U 24140AEV 25344.33437305  .00007356  00000-0  27641-2 0  9996
2 64655  89.1193 302.3350 0078623 126.4628 234.3848 14.29780928 57532
CZ-6A DEB
1 64655U 24140AEV 25345.38415644  .00009264  00000-0  34797-2 0  9994
2 64655  89.1182 302.2317 0078787 123.5627 237.3124 14.29799896 57680
CZ-6A DEB
1 64655U 24140AEV 25347.83360182  .00006101  00000-0  22885-2 0  9994
2 64655  89.1185 301.9822 0079066 115.4948 245.4453 14.29836326 58032
CZ-6A DEB
1 64655U 24140AEV 25348.32348320  .00005700  00000-0  21376-2 0  9997
2 64655  89.1192 301.9320 0079058 113.9708 246.9791 14.29842237 58108
CZ-6A DEB
1 64655U 24140AEV 25349.30324239  .00003709  00000-0  13891-2 0  9999
2 64655  89.1190 301.8324 0079134 110.8295 250.1399 14.29848582 58246
CZ-6A DEB
1 64655U 24140AEV 25349.86310287  .00003615  00000-0  13534-2 0  9998
2 64655  89.1194 301.7752 0079275 108.9636 252.0172 14.29852675 58324
CZ-6A DEB
1 64655U 24140AEV 25352.31246605  .00004489  00000-0  16806-2 0  9999
2 64655  89.1200 301.5262 0079593 100.9653 260.0510 14.29874844 58675
CZ-6A DEB
1 64655U 24140AEV 25353.29220089  .00003889  00000-0  14550-2 0  9992
2 64655  89.1201 301.4265 0079723  97.7854 263.2402 14.29881682 58818
CZ-6A DEB
1 64655U 24140AEV 25353.29220090  .00003889  00000-0  14550-2 0  9994
2 64655  89.1201 301.4265 0079723  97.7854 263.2402 14.29881683 58819
CZ-6A DEB
1 64655U 24140AEV 25354.83177126  .00003637  00000-0  13601-2 0  9993
2 64655  89.1205 301.2699 0079811  92.8573 268.1761 14.29893909 59035
CZ-6A DEB
1 64655U 24140AEV 25354.83177127  .00003637  00000-0  13601-2 0  9994
2 64655  89.1205 301.2699 0079811  92.8573 268.1761 14.29893909 59035
CZ-6A DEB
1 64655U 24140AEV 25355.81149024  .00004449  00000-0  16643-2 0  9999
2 64655  89.1205 301.1704 0079901  89.7069 271.3282 14.29903549 59177
CZ-6A DEB
1 64655U 24140AEV 25355.81149025  .00004449  00000-0  16643-2 0  9990
2 64655  89.1205 301.1704 0079901  89.7069 271.3282 14.29903549 59177
CZ-6A DEB
1 64655U 24140AEV 25358.82057372  .00005850  00000-0  21879-2 0  9991
2 64655  89.1215 300.8657 0080043  80.0664 280.9555 14.29940491 59609
CZ-6A DEB
1 64655U 24140AEV 25358.82057372  .00005850  00000-0  21879-2 0  9991
2 64655  89.1215 300.8657 0080043  80.0664 280.9555 14.29940491 59609
CZ-6A DEB
1 64655U 24140AEV 25359.80025742  .00006108  00000-0  22835-2 0  9996
2 64655  89.1222 300.7666 0080185  76.9267 284.0863 14.29953265 59741
CZ-6A DEB
1 64655U 24140AEV 25359.80025743  .00006108  00000-0  22835-2 0  9997
2 64655  89.1222 300.7667 0080185  76.9267 284.0863 14.29953265 59742
CZ-6A DEB
1 64655U 24140AEV 25360.84990850  .00006114  00000-0  22851-2 0  9998
2 64655  89.1229 300.6611 0080344  73.5660 287.4347 14.29966525 59897
CZ-6A DEB
1 64655U 24140AEV 25360.84990850  .00006114  00000-0  22851-2 0  9998
2 64655  89.1229 300.6611 0080344  73.5660 287.4347 14.29966525 59897
CZ-6A DEB
1 64655U 24140AEV 25361.33974169  .00006578  00000-0  24585-2 0  9998
2 64655  89.1213 300.6105 0080283  71.9890 289.0033 14.29973905 59965
CZ-6A DEB
1 64655U 24140AEV 25361.33974169  .00006578  00000-0  24585-2 0  9998
2 64655  89.1213 300.6105 0080283  71.9890 289.0033 14.29973905 59965
CZ-6A DEB
1 64655U 24140AEV 25362.24942400  .00008182  00000-0  30575-2 0  9991
2 64655  89.1209 300.5184 0080270  69.1205 291.8562 14.29990391 60093
CZ-6A DEB
1 64655U 24140AEV 25362.24942401  .00008182  00000-0  30575-2 0  9992
2 64655  89.1209 300.5184 0080270  69.1205 291.8562 14.29990391 60093
CZ-6A DEB
1 64655U 24140AEV 26001.58775686  .00011702  00000-0  43632-2 0  9999
2 64655  89.1210 300.0764 0080927  55.1981 305.6795 14.30078756 60714
CZ-6A DEB
1 64655U 24140AEV 26001.58775687  .00011702  00000-0  43632-2 0  9990
2 64655  89.1210 300.0765 0080927  55.1981 305.6795 14.30078756 60715
CZ-6A DEB
1 64655U 24140AEV 26002.77724900  .00011183  00000-0  41698-2 0  9997
2 64655  89.1221 299.9557 0080408  51.4655 309.3712 14.30101526 60883
CZ-6A DEB
1 64655U 24140AEV 26002.77724902  .00011183  00000-0  41698-2 0  9999
2 64655  89.1221 299.9557 0080408  51.4655 309.3712 14.30101526 60883
CZ-6A DEB
1 64655U 24140AEV 26003.26703334  .00012398  00000-0  46215-2 0  9999
2 64655  89.1223 299.9062 0080334  49.9134 310.9068 14.30114522 60958
CZ-6A DEB
1 64655U 24140AEV 26003.26703335  .00012398  00000-0  46215-2 0  9990
2 64655  89.1223 299.9062 0080334  49.9134 310.9068 14.30114522 60958
CZ-6A DEB
1 64655U 24140AEV 26004.24659370  .00008409  00000-0  31335-2 0  9993
2 64655  89.1220 299.8071 0080382  46.8831 313.9051 14.30128539 61091
CZ-6A DEB
1 64655U 24140AEV 26004.24659371  .00008409  00000-0  31335-2 0  9994
2 64655  89.1220 299.8071 0080382  46.8831 313.9051 14.30128539 61091
CZ-6A DEB
1 64655U 24140AEV 26004.80633686  .00007876  00000-0  29347-2 0  9994
2 64655  89.1216 299.7505 0080287  45.0816 315.6857 14.30137818 61177
CZ-6A DEB
1 64655U 24140AEV 26004.80633687  .00007876  00000-0  29347-2 0  9995
2 64655  89.1216 299.7505 0080287  45.0816 315.6857 14.30137818 61177
CZ-6A DEB
1 64655U 24140AEV 26007.25517256  .00005691  00000-0  21183-2 0  9993
2 64655  89.1215 299.5023 0080276  37.2921 323.3810 14.30172903 61525
CZ-6A DEB
1 64655U 24140AEV 26007.25517256  .00005691  00000-0  21183-2 0  9993
2 64655  89.1215 299.5023 0080276  37.2921 323.3810 14.30172903 61525
CZ-6A DEB
1 64655U 24140AEV 26008.23469073  .00006638  00000-0  24704-2 0  9999
2 64655  89.1207 299.4033 0080274  34.1846 326.4481 14.30187066 61665
CZ-6A DEB
1 64655U 24140AEV 26011.24315091  .00007174  00000-0  26702-2 0  9990
2 64655  89.1157 299.0983 0079444  24.2624 336.2280 14.30226308 62097
CZ-6A DEB
1 64655U 24140AEV 26013.76180938  .00003532  00000-0  13115-2 0  9997
2 64655  89.1169 298.8418 0079786  16.3981 343.9767 14.30248400 62459
CZ-6A DEB
1 64655U 24140AEV 26015.23100907  .00003656  00000-0  13578-2 0  9999
2 64655  89.1186 298.6918 0079754  11.9222 348.3837 14.30259182 62664
CZ-6A DEB
1 64655U 24140AEV 26015.23100907  .00003656  00000-0  13578-2 0  9999
2 64655  89.1186 298.6918 0079754  11.9222 348.3837 14.30259182 62664
CZ-6A DEB
1 64655U 24140AEV 26016.21046869  .00004185  00000-0  15547-2 0  9990
2 64655  89.1212 298.5932 0079736   8.7633 351.4932 14.30267494 62801
CZ-6A DEB
1 64655U 24140AEV 26017.74960466  .00005620  00000-0  20886-2 0  9994
2 64655  89.1213 298.4372 0079510   3.7430 356.4343 14.30285417 63020
CZ-6A DEB
1 64655U 24140AEV 26018.72904506  .00005745  00000-0  21347-2 0  9997
2 64655  89.1214 298.3380 0079384   0.5763 359.5510 14.30296890 63164
CZ-6A DEB
1 64655U 24140AEV 26019.21876164  .00006819  00000-0  25343-2 0  9993
2 64655  89.1216 298.2887 0079295 359.0178   1.0848 14.30305240 63231
CZ-6A DEB
1 64655U 24140AEV 26019.49859901  .00006905  00000-0  25664-2 0  9995
2 64655  89.1214 298.2601 0079272 358.0870   2.0010 14.30308634 63272
CZ-6A DEB
1 64655U 24140AEV 26022.22690897  .00011237  00000-0  41713-2 0  9994
2 64655  89.1204 297.9837 0078780 349.3058  10.6458 14.30398083 63663
CZ-6A DEB
1 64655U 24140AEV 26022.22690897  .00011237  00000-0  41713-2 0  9994
2 64655  89.1204 297.9837 0078780 349.3058  10.6458 14.30398083 63663
CZ-6A DEB
1 64655U 24140AEV 26022.71658997  .00008328  00000-0  30913-2 0  9990
2 64655  89.1204 297.9339 0078674 347.7308  12.1969 14.30407116 63732
CZ-6A DEB
1 64655U 24140AEV 26024.53538456  .00009298  00000-0  34501-2 0  9993
2 64655  89.1195 297.7494 0078372 341.8198  18.0198 14.30439721 63992
CZ-6A DEB
1 64655U 24140AEV 26025.23490868  .00010088  00000-0  37425-2 0  9992
2 64655  89.1193 297.6784 0078260 339.5347  20.2718 14.30455155 64091
CZ-6A DEB
1 64655U 24140AEV 26025.23490869  .00010088  00000-0  37425-2 0  9993
2 64655  89.1193 297.6784 0078260 339.5347  20.2718 14.30455155 64091
CZ-6A DEB
1 64655U 24140AEV 26025.72457203  .00009528  00000-0  35344-2 0  9997
2 64655  89.1195 297.6282 0078135 337.9506  21.8334 14.30463838 64162
CZ-6A DEB
1 64655U 24140AEV 26025.72457203  .00009528  00000-0  35344-2 0  9997
2 64655  89.1195 297.6282 0078135 337.9506  21.8334 14.30463838 64162
CZ-6A DEB
1 64655U 24140AEV 26026.70388900  .00008868  00000-0  32888-2 0  9999
2 64655  89.1195 297.5282 0077940 334.7978  24.9422 14.30482053 64300
CZ-6A DEB
1 64655U 24140AEV 26026.70388900  .00008868  00000-0  32888-2 0  9999
2 64655  89.1195 297.5282 0077940 334.7978  24.9422 14.30482053 64300
CZ-6A DEB
1 64655U 24140AEV 26027.47334289  .00009997  00000-0  37069-2 0  9995
2 64655  89.1197 297.4499 0077774 332.2543  27.4512 14.30498224 64414
CZ-6A DEB
1 64655U 24140AEV 26027.47334290  .00009997  00000-0  37069-2 0  9997
2 64655  89.1197 297.4499 0077774 332.2543  27.4512 14.30498224 64414
CZ-6A DEB
1 64655U 24140AEV 26029.71171279  .00008265  00000-0  30634-2 0  9990
2 64655  89.1202 297.2221 0077361 324.9422  34.6695 14.30537819 64739
CZ-6A DEB
1 64655U 24140AEV 26031.46039809  .00005317  00000-0  19692-2 0  9993
2 64655  89.1201 297.0444 0077027 319.1901  40.3541 14.30562305 64989
CZ-6A DEB
1 64655U 24140AEV 26031.74018539  .00005319  00000-0  19702-2 0  9995
2 64655  89.1202 297.0161 0076979 318.2696  41.2643 14.30566098 65024
CZ-6A DEB
1 64655U 24140AEV 26031.74018539  .00005319  00000-0  19702-2 0  9995
2 64655  89.1202 297.0161 0076979 318.2696  41.2643 14.30566098 65024
CZ-6A DEB
1 64655U 24140AEV 26033.13911294  .00004931  00000-0  18259-2 0  9995
2 64655  89.1213 296.8753 0076715 313.6388  45.8462 14.30581879 65220
CZ-6A DEB
1 64655U 24140AEV 26034.18829614  .00006274  00000-0  23237-2 0  9999
2 64655  89.1200 296.7678 0076525 310.1775  49.2737 14.30598406 65375
CZ-6A DEB
1 64655U 24140AEV 26034.46807664  .00006102  00000-0  22600-2 0  9994
2 64655  89.1200 296.7396 0076483 309.2354  50.2070 14.30601941 65413
CZ-6A DEB
1 64655U 24140AEV 26034.46807665  .00006102  00000-0  22600-2 0  9995
2 64655  89.1200 296.7396 0076483 309.2354  50.2070 14.30601941 65413
CZ-6A DEB
1 64655U 24140AEV 26035.16752502  .00006278  00000-0  23250-2 0  9998
2 64655  89.1196 296.6686 0076341 306.9350  52.4869 14.30612204 65516
CZ-6A DEB
1 64655U 24140AEV 26035.16752502  .00006278  00000-0  23250-2 0  9998
2 64655  89.1196 296.6686 0076341 306.9350  52.4869 14.30612204 65516
CZ-6A DEB
1 64655U 24140AEV 26035.72708000  .00006521  00000-0  24148-2 0  9992
2 64655  89.1193 296.6121 0076264 305.0244  54.3811 14.30620562 65595
CZ-6A DEB
1 64655U 24140AEV 26036.14674413  .00007555  00000-0  27978-2 0  9991
2 64655  89.1192 296.5695 0076206 303.5946  55.7991 14.30628179 65650
CZ-6A DEB
1 64655U 24140AEV 26036.14674414  .00007555  00000-0  27978-2 0  9992
2 64655  89.1192 296.5695 0076206 303.5946  55.7991 14.30628179 65650
CZ-6A DEB
1 64655U 24140AEV 26038.73463595  .00006499  00000-0  24056-2 0  9995
2 64655  89.1183 296.3063 0075640 295.0067  64.3287 14.30663684 66023
CZ-6A DEB
1 64655U 24140AEV 26038.73463596  .00006499  00000-0  24056-2 0  9996
2 64655  89.1183 296.3063 0075640 295.0067  64.3287 14.30663684 66023
CZ-6A DEB
1 64655U 24140AEV 26040.13347629  .00004835  00000-0  17889-2 0  9999
2 64655  89.1184 296.1637 0075332 290.3454  68.9659 14.30676048 66228
CZ-6A DEB
1 64655U 24140AEV 26043.14093653  .00005192  00000-0  19208-2 0  9992
2 64655  89.1185 295.8567 0074916 280.1827  79.0925 14.30708135 66654
CZ-6A DEB
1 64655U 24140AEV 26043.14093654  .00005192  00000-0  19208-2 0  9993
2 64655  89.1185 295.8567 0074916 280.1827  79.0925 14.30708135 66654
CZ-6A DEB
1 64655U 24140AEV 26043.70045663  .00004695  00000-0  17362-2 0  9998
2 64655  89.1184 295.7998 0074987 278.2250  81.0447 14.30713208 66734
CZ-6A DEB
1 64655U 24140AEV 26043.70045663  .00004695  00000-0  17362-2 0  9998
2 64655  89.1184 295.7998 0074987 278.2250  81.0447 14.30713208 66734
CZ-6A DEB
1 64655U 24140AEV 26044.67961394  .00004368  00000-0  16148-2 0  9991
2 64655  89.1183 295.6998 0074893 274.8981  84.3667 14.30722099 66874
CZ-6A DEB
1 64655U 24140AEV 26046.63791093  .00005059  00000-0  18702-2 0  9992
2 64655  89.1184 295.5007 0074853 268.2441  91.0181 14.30741457 67156
CZ-6A DEB
1 64655U 24140AEV 26047.12748163  .00004988  00000-0  18439-2 0  9994
2 64655  89.1184 295.4511 0074758 266.5566  92.7076 14.30745961 67221
CZ-6A DEB
1 64655U 24140AEV 26047.12748164  .00004988  00000-0  18439-2 0  9995
2 64655  89.1184 295.4511 0074758 266.5567  92.7076 14.30745961 67222
CZ-6A DEB
1 64655U 24140AEV 26048.17655718  .00005431  00000-0  20080-2 0  9992
2 64655  89.1187 295.3450 0074460 263.0010  96.2713 14.30757020 67373
CZ-6A DEB
1 64655U 24140AEV 26048.17655719  .00005431  00000-0  20080-2 0  9993
2 64655  89.1187 295.3450 0074460 263.0010  96.2713 14.30757021 67374
CZ-6A DEB
1 64655U 24140AEV 26051.11393644  .00003897  00000-0  14394-2 0  9992
2 64655  89.1177 295.0463 0074307 252.9647 106.3399 14.30778940 67799
CZ-6A DEB
1 64655U 24140AEV 26051.11393644  .00003897  00000-0  14394-2 0  9992
2 64655  89.1177 295.0463 0074307 252.9647 106.3399 14.30778940 67799
CZ-6A DEB
1 64655U 24140AEV 26052.09305362  .00004045  00000-0  14939-2 0  9991
2 64655  89.1176 294.9465 0074274 249.6119 109.7088 14.30786743 67936
CZ-6A DEB
1 64655U 24140AEV 26052.09305363  .00004045  00000-0  14939-2 0  9992
2 64655  89.1176 294.9465 0074274 249.6119 109.7088 14.30786743 67936
CZ-6A DEB
1 64655U 24140AEV 26053.63165660  .00004699  00000-0  17358-2 0  9990
2 64655  89.1174 294.7898 0074097 244.3539 114.9990 14.30800674 68158
CZ-6A DEB
1 64655U 24140AEV 26055.10030903  .00004336  00000-0  16012-2 0  9999
2 64655  89.1180 294.6399 0074058 239.3012 120.0873 14.30813447 68360
CZ-6A DEB
1 64655U 24140AEV 26056.07940423  .00003767  00000-0  13902-2 0  9995
2 64655  89.1182 294.5399 0073960 235.8992 123.5172 14.30820974 68509
CZ-6A DEB
1 64655U 24140AEV 26056.07940423  .00003767  00000-0  13902-2 0  9995
2 64655  89.1182 294.5399 0073960 235.8992 123.5172 14.30820974 68509
CZ-6A DEB
1 64655U 24140AEV 26057.61797147  .00004211  00000-0  15543-2 0  9997
2 64655  89.1196 294.3832 0074027 230.6458 128.8164 14.30834943 68723
CZ-6A DEB
1 64655U 24140AEV 26057.61797147  .00004211  00000-0  15543-2 0  9997
2 64655  89.1196 294.3832 0074027 230.6458 128.8164 14.30834943 68723
CZ-6A DEB
1 64655U 24140AEV 26059.08659155  .00004464  00000-0  16472-2 0  9998
2 64655  89.1194 294.2337 0074107 225.6354 133.8757 14.30848193 68937
CZ-6A DEB
1 64655U 24140AEV 26059.08659155  .00004464  00000-0  16472-2 0  9998
2 64655  89.1194 294.2337 0074107 225.6354 133.8757 14.30848194 68938
CZ-6A DEB
1 64655U 24140AEV 26060.13559818  .00004563  00000-0  16834-2 0  9993
2 64655  89.1182 294.1268 0074119 222.0474 137.5020 14.30857858 69082
CZ-6A DEB
1 64655U 24140AEV 26060.13559819  .00004563  00000-0  16834-2 0  9994
2 64655  89.1182 294.1268 0074119 222.0474 137.5020 14.30857858 69082
CZ-6A DEB
1 64655U 24140AEV 26060.62513294  .00004751  00000-0  17529-2 0  9996
2 64655  89.1179 294.0768 0074098 220.3255 139.2434 14.30862360 69156
CZ-6A DEB
1 64655U 24140AEV 26060.62513294  .00004751  00000-0  17529-2 0  9996
2 64655  89.1179 294.0768 0074098 220.3255 139.2434 14.30862360 69156
CZ-6A DEB
1 64655U 24140AEV 26061.60419739  .00004720  00000-0  17411-2 0  9990
2 64655  89.1175 293.9773 0074177 216.9973 142.6096 14.30870906 69294
CZ-6A DEB
1 64655U 24140AEV 26061.60419739  .00004720  00000-0  17411-2 0  9990
2 64655  89.1175 293.9773 0074177 216.9973 142.6096 14.30870906 69294
CZ-6A DEB
1 64655U 24140AEV 26062.58325580  .00005150  00000-0  18993-2 0  9992
2 64655  89.1170 293.8776 0074229 213.6524 145.9947 14.30880912 69430
CZ-6A DEB
1 64655U 24140AEV 26062.58325581  .00005150  00000-0  18993-2 0  9993
2 64655  89.1170 293.8776 0074229 213.6524 145.9947 14.30880912 69430
CZ-6A DEB
1 64655U 24140AEV 26063.07278256  .00005715  00000-0  21079-2 0  9990
2 64655  89.1166 293.8278 0074199 211.9293 147.7396 14.30887052 69500
CZ-6A DEB
1 64655U 24140AEV 26063.07278256  .00005715  00000-0  21079-2 0  9990
2 64655  89.1166 293.8278 0074199 211.9293 147.7396 14.30887052 69500
CZ-6A DEB
1 64655U 24140AEV 26064.61128376  .00005456  00000-0  20113-2 0  9998
2 64655  89.1161 293.6708 0074305 206.6906 153.0459 14.30902395 69724
CZ-6A DEB
1 64655U 24140AEV 26064.61128377  .00005456  00000-0  20113-2 0  9999
2 64655  89.1161 293.6708 0074305 206.6906 153.0459 14.30902395 69724
CZ-6A DEB
1 64655U 24140AEV 26065.10080344  .00004423  00000-0  16299-2 0  9998
2 64655  89.1167 293.6213 0074340 205.0204 154.7383 14.30905316 69791
CZ-6A DEB
1 64655U 24140AEV 26065.59032195  .00005224  00000-0  19252-2 0  9994
2 64655  89.1163 293.5712 0074384 203.3579 156.4233 14.30911745 69868
CZ-6A DEB
1 64655U 24140AEV 26067.05886729  .00005849  00000-0  21550-2 0  9994
2 64655  89.1159 293.4208 0074505 198.3879 161.4623 14.30927426 70070
CZ-6A DEB
1 64655U 24140AEV 26067.61830891  .00005873  00000-0  21635-2 0  9996
2 64655  89.1159 293.3637 0074545 196.4691 163.4083 14.30933305 70154
CZ-6A DEB
1 64655U 24140AEV 26068.03788825  .00005514  00000-0  20311-2 0  9994
2 64655  89.1165 293.3215 0074623 195.0409 164.8569 14.30937465 70214
CZ-6A DEB
1 64655U 24140AEV 26069.08683216  .00004599  00000-0  16927-2 0  9998
2 64655  89.1169 293.2147 0074739 191.4943 168.4550 14.30946890 70360
CZ-6A DEB
1 64655U 24140AEV 26069.08683217  .00004599  00000-0  16927-2 0  9999
2 64655  89.1169 293.2147 0074739 191.4943 168.4550 14.30946891 70361
CZ-6A DEB
1 64655U 24140AEV 26070.06584021  .00004413  00000-0  16236-2 0  9990
2 64655  89.1171 293.1146 0074822 188.1458 171.8530 14.30955869 70506
CZ-6A DEB
1 64655U 24140AEV 26070.06584022  .00004413  00000-0  16236-2 0  9991
2 64655  89.1171 293.1146 0074822 188.1458 171.8530 14.30955869 70506
CZ-6A DEB
1 64655U 24140AEV 26070.62527041  .00004559  00000-0  16771-2 0  9996
2 64655  89.1171 293.0577 0074892 186.2474 173.7797 14.30961413 70583
CZ-6A DEB
1 64655U 24140AEV 26070.62527041  .00004559  00000-0  16771-2 0  9996
2 64655  89.1171 293.0577 0074892 186.2474 173.7797 14.30961413 70583
CZ-6A DEB
1 64655U 24140AEV 26072.58326334  .00004491  00000-0  16511-2 0  9992
2 64655  89.1168 292.8580 0075179 179.7545 180.3702 14.30977382 70868
CZ-6A DEB
1 64655U 24140AEV 26076.07961971  .00003442  00000-0  12630-2 0  9995
2 64655  89.1166 292.5020 0075661 167.9034 192.4002 14.31006277 71360
CZ-6A DEB
1 64655U 24140AEV 26076.07961971  .00003442  00000-0  12630-2 0  9995
2 64655  89.1166 292.5020 0075661 167.9034 192.4002 14.31006277 71360
CZ-6A DEB
1 64655U 24140AEV 26076.56910410  .00003182  00000-0  11673-2 0  9998
2 64655  89.1150 292.4516 0075814 166.3359 193.9914 14.31009103 71432
CZ-6A DEB
1 64655U 24140AEV 26079.01651487  .00003553  00000-0  13030-2 0  9998
2 64655  89.1142 292.2012 0076172 158.1997 202.2471 14.31023494 71786
CZ-6A DEB
1 64655U 24140AEV 26079.01651488  .00003553  00000-0  13030-2 0  9999
2 64655  89.1142 292.2012 0076172 158.1997 202.2471 14.31023494 71786
CZ-6A DEB
1 64655U 24140AEV 26080.55487265  .00004778  00000-0  17531-2 0  9990
2 64655  89.1145 292.0444 0076391 153.1762 207.3418 14.31036359 72001
CZ-6A DEB
1 64655U 24140AEV 26081.53381843  .00004860  00000-0  17828-2 0  9995
2 64655  89.1148 291.9436 0076497 149.9311 210.6311 14.31045773 72147
CZ-6A DEB
1 64655U 24140AEV 26086.56829219  .00004043  00000-0  14798-2 0  9993
2 64655  89.1152 291.4287 0077315 133.3674 227.3998 14.31090231 72864
CZ-6A DEB
1 64655U 24140AEV 26086.56829220  .00004043  00000-0  14798-2 0  9995
2 64655  89.1152 291.4287 0077315 133.3674 227.3998 14.31090231 72864
CZ-6A DEB
1 64655U 24140AEV 26089.99442999  .00006180  00000-0  22617-2 0  9992
2 64655  89.1144 291.0785 0077632 122.3489 238.5254 14.31130481 73354
CZ-6A DEB
1 64655U 24140AEV 26089.99442999  .00006180  00000-0  22617-2 0  9992
2 64655  89.1144 291.0785 0077632 122.3489 238.5254 14.31130481 73354
CZ-6A DEB
1 64655U 24140AEV 26090.97330756  .00005958  00000-0  21799-2 0  9991
2 64655  89.1147 290.9785 0077729 119.2336 241.6662 14.31141551 73491
CZ-6A DEB
1 64655U 24140AEV 26090.97330757  .00005958  00000-0  21799-2 0  9992
2 64655  89.1147 290.9785 0077729 119.2336 241.6662 14.31141551 73491
CZ-6A DEB
1 64655U 24140AEV 26093.97980113  .00008591  00000-0  31411-2 0  9990
2 64655  89.1133 290.6695 0077829 109.5725 251.3896 14.31186947 73921
CZ-6A DEB
1 64655U 24140AEV 26094.53913679  .00007471  00000-0  27308-2 0  9992
2 64655  89.1128 290.6125 0077853 107.7607 253.2105 14.31194737 74009
CZ-6A DEB
1 64655U 24140AEV 26094.53913680  .00007471  00000-0  27308-2 0  9994
2 64655  89.1128 290.6125 0077853 107.7607 253.2105 14.31194737 74009
CZ-6A DEB
1 64655U 24140AEV 26095.51796733  .00005677  00000-0  20738-2 0  9997
2 64655  89.1129 290.5121 0077842 104.6510 256.3333 14.31206244 74141
CZ-6A DEB
1 64655U 24140AEV 26095.51796733  .00005677  00000-0  20738-2 0  9997
2 64655  89.1129 290.5121 0077842 104.6510 256.3333 14.31206244 74141
CZ-6A DEB
1 64655U 24140AEV 26096.00737964  .00005521  00000-0  20166-2 0  9996
2 64655  89.1137 290.4622 0077929 103.1156 257.8752 14.31211573 74211
CZ-6A DEB
1 64655U 24140AEV 26096.98619907  .00005113  00000-0  18668-2 0  9990
2 64655  89.1138 290.3616 0077909  99.9593 261.0407 14.31221259 74350
CZ-6A DEB
1 64655U 24140AEV 26096.98619908  .00005113  00000-0  18668-2 0  9991
2 64655  89.1138 290.3616 0077909  99.9593 261.0407 14.31221259 74350
CZ-6A DEB
1 64655U 24140AEV 26099.01373370  .00003583  00000-0  13063-2 0  9991
2 64655  89.1143 290.1541 0077977  93.4824 267.5295 14.31236763 74646
CZ-6A DEB
1 64655U 24140AEV 26099.01373371  .00003583  00000-0  13063-2 0  9992
2 64655  89.1143 290.1541 0077977  93.4824 267.5295 14.31236763 74646
CZ-6A DEB
1 64655U 24140AEV 26099.50313527  .00003988  00000-0  14543-2 0  9996
2 64655  89.1149 290.1044 0078063  91.9595 269.0544 14.31241179 74714
CZ-6A DEB
1 64655U 24140AEV 26099.50313528  .00003988  00000-0  14543-2 0  9997
2 64655  89.1149 290.1044 0078063  91.9595 269.0544 14.31241179 74714
CZ-6A DEB
1 64655U 24140AEV 26100.48193374  .00004174  00000-0  15222-2 0  9995
2 64655  89.1152 290.0046 0078040  88.8286 272.1850 14.31248701 74854
CZ-6A DEB
1 64655U 24140AEV 26100.48193374  .00004174  00000-0  15222-2 0  9995
2 64655  89.1152 290.0046 0078040  88.8286 272.1850 14.31248701 74854
CZ-6A DEB
1 64655U 24140AEV 26101.95012169  .00003366  00000-0  12265-2 0  9996
2 64655  89.1149 289.8544 0078039  84.1704 276.8381 14.31257597 75068
CZ-6A DEB
1 64655U 24140AEV 26101.95012169  .00003366  00000-0  12265-2 0  9996
2 64655  89.1149 289.8544 0078039  84.1704 276.8381 14.31257597 75068
CZ-6A DEB
1 64655U 24140AEV 26102.50942846  .00002988  00000-0  10878-2 0  9999
2 64655  89.1146 289.7972 0078024  82.3953 278.6096 14.31260547 75140
CZ-6A DEB
1 64655U 24140AEV 26102.50942847  .00002988  00000-0  10878-2 0  9990
2 64655  89.1146 289.7972 0078024  82.3953 278.6097 14.31260547 75141
CZ-6A DEB
1 64655U 24140AEV 26103.48821235  .00002695  00000-0  98075-3 0  9996
2 64655  89.1141 289.6971 0077966  79.2628 281.7334 14.31265720 75284
CZ-6A DEB
1 64655U 24140AEV 26103.48821235  .00002695  00000-0  98075-3 0  9996
2 64655  89.1141 289.6971 0077966  79.2628 281.7334 14.31265720 75284
CZ-6A DEB
1 64655U 24140AEV 26104.46699218  .00002480  00000-0  90222-3 0  9997
2 64655  89.1140 289.5968 0077910  76.1622 284.8228 14.31270476 75423
CZ-6A DEB
1 64655U 24140AEV 26104.46699218  .00002480  00000-0  90222-3 0  9997
2 64655  89.1140 289.5968 0077910  76.1622 284.8228 14.31270476 75423
CZ-6A DEB
1 64655U 24140AEV 26104.95638122  .00002546  00000-0  92631-3 0  9997
2 64655  89.1130 289.5457 0077841  74.5100 286.4675 14.31272800 75495
CZ-6A DEB
1 64655U 24140AEV 26104.95638122  .00002546  00000-0  92631-3 0  9997
2 64655  89.1130 289.5458 0077841  74.5100 286.4675 14.31272800 75496
CZ-6A DEB
1 64655U 24140AEV 26107.47322446  .00002651  00000-0  96460-3 0  9997
2 64655  89.1126 289.2874 0077657  66.4551 294.4779 14.31284129 75856
CZ-6A DEB
1 64655U 24140AEV 26108.94137097  .00003067  00000-0  11166-2 0  9997
2 64655  89.1130 289.1368 0077543  61.8047 299.0952 14.31292945 76064
CZ-6A DEB
1 64655U 24140AEV 26108.94137098  .00003067  00000-0  11166-2 0  9998
2 64655  89.1130 289.1368 0077543  61.8047 299.0952 14.31292945 76064
CZ-6A DEB
1 64655U 24140AEV 26112.50682796  .00002788  00000-0  10146-2 0  9991
2 64655  89.1145 288.7722 0077168  50.3329 310.4640 14.31313103 76576
CZ-6A DEB
1 64655U 24140AEV 26112.50682797  .00002788  00000-0  10146-2 0  9992
2 64655  89.1145 288.7722 0077168  50.3329 310.4640 14.31313103 76576
CZ-6A DEB
1 64655U 24140AEV 26112.92628954  .00002907  00000-0  10581-2 0  9999
2 64655  89.1148 288.7296 0077162  48.9901 311.7933 14.31316036 76632
CZ-6A DEB
1 64655U 24140AEV 26112.92628954  .00002907  00000-0  10581-2 0  9999
2 64655  89.1148 288.7296 0077162  48.9901 311.7933 14.31316036 76632
CZ-6A DEB
1 64655U 24140AEV 26113.48557014  .00002891  00000-0  10521-2 0  9995
2 64655  89.1148 288.6723 0077066  47.1762 313.5877 14.31319480 76717
CZ-6A DEB
1 64655U 24140AEV 26113.48557014  .00002891  00000-0  10521-2 0  9995
2 64655  89.1148 288.6723 0077066  47.1762 313.5877 14.31319480 76717
CZ-6A DEB
1 64655U 24140AEV 26114.46430811  .00003058  00000-0  11133-2 0  9995
2 64655  89.1150 288.5724 0076934  44.0266 316.7022 14.31325912 76857
CZ-6A DEB
1 64655U 24140AEV 26114.46430812  .00003058  00000-0  11133-2 0  9996
2 64655  89.1150 288.5724 0076934  44.0266 316.7022 14.31325912 76857
CZ-6A DEB
1 64655U 24140AEV 26115.44304016  .00003845  00000-0  14010-2 0  9992
2 64655  89.1149 288.4717 0076844  40.8148 319.8768 14.31335011 76996
CZ-6A DEB
1 64655U 24140AEV 26115.44304017  .00003845  00000-0  14010-2 0  9993
2 64655  89.1149 288.4717 0076844  40.8148 319.8768 14.31335011 76996
CZ-6A DEB
1 64655U 24140AEV 26116.42176704  .00004257  00000-0  15517-2 0  9993
2 64655  89.1151 288.3716 0076691  37.6312 323.0215 14.31343240 77138
CZ-6A DEB
1 64655U 24140AEV 26116.42176704  .00004257  00000-0  15517-2 0  9993
2 64655  89.1151 288.3716 0076691  37.6312 323.0215 14.31343240 77138
CZ-6A DEB
1 64655U 24140AEV 26118.93846543  .00004003  00000-0  14589-2 0  9993
2 64655  89.1153 288.1144 0076272  29.4609 331.0853 14.31362994 77499
CZ-6A DEB
1 64655U 24140AEV 26118.93846543  .00004003  00000-0  14589-2 0  9993
2 64655  89.1153 288.1144 0076272  29.4609 331.0853 14.31362994 77499
CZ-6A DEB
1 64655U 24140AEV 26119.42781936  .00003766  00000-0  13720-2 0  9993
2 64655  89.1149 288.0643 0076172  27.8784 332.6461 14.31366440 77562
CZ-6A DEB
1 64655U 24140AEV 26119.42781937  .00003766  00000-0  13720-2 0  9994
2 64655  89.1149 288.0643 0076172  27.8784 332.6461 14.31366440 77562
CZ-6A DEB
1 64655U 24140AEV 26119.91717190  .00004020  00000-0  14650-2 0  9995
2 64655  89.1147 288.0140 0076090  26.2582 334.2440 14.31370732 77632
CZ-6A DEB
1 64655U 24140AEV 26119.91717190  .00004020  00000-0  14650-2 0  9995
2 64655  89.1147 288.0140 0076090  26.2582 334.2440 14.31370732 77632
CZ-6A DEB
1 64655U 24140AEV 26121.45512751  .00004803  00000-0  17511-2 0  9991
2 64655  89.1150 287.8565 0075834  21.2181 339.2131 14.31384786 77859
CZ-6A DEB
1 64655U 24140AEV 26121.45512752  .00004803  00000-0  17511-2 0  9992
2 64655  89.1150 287.8565 0075834  21.2181 339.2132 14.31384786 77850
CZ-6A DEB
1 64655U 24140AEV 26122.43381947  .00004091  00000-0  14908-2 0  9997
2 64655  89.1148 287.7553 0075554  17.9749 342.4092 14.31391157 77990
CZ-6A DEB
1 64655U 24140AEV 26122.43381947  .00004091  00000-0  14908-2 0  9997
2 64655  89.1148 287.7553 0075554  17.9749 342.4092 14.31391156 77999
CZ-6A DEB
1 64655U 24140AEV 26123.20278744  .00004070  00000-0  14834-2 0  9998
2 64655  89.1140 287.6757 0075449  15.3710 344.9752 14.31397677 78107
CZ-6A DEB
1 64655U 24140AEV 26123.41250551  .00004022  00000-0  14659-2 0  9999
2 64655  89.1142 287.6542 0075438  14.6886 345.6477 14.31399323 78130
CZ-6A DEB
1 64655U 24140AEV 26123.41250552  .00004022  00000-0  14659-2 0  9990
2 64655  89.1142 287.6542 0075438  14.6886 345.6477 14.31399323 78130
CZ-6A DEB
1 64655U 24140AEV 26123.90184663  .00003723  00000-0  13564-2 0  9994
2 64655  89.1141 287.6040 0075316  13.0654 347.2470 14.31402486 78207
CZ-6A DEB
1 64655U 24140AEV 26124.18146938  .00003484  00000-0  12691-2 0  9992
2 64655  89.1148 287.5754 0075261  12.1605 348.1385 14.31404183 78245
CZ-6A DEB
1 64655U 24140AEV 26124.46109226  .00003348  00000-0  12193-2 0  9998
2 64655  89.1150 287.5470 0075249  11.2601 349.0256 14.31405867 78286
CZ-6A DEB
1 64655U 24140AEV 26124.46109226  .00003348  00000-0  12193-2 0  9998
2 64655  89.1150 287.5470 0075249  11.2601 349.0256 14.31405867 78286
CZ-6A DEB
1 64655U 24140AEV 26125.43976737  .00003875  00000-0  14119-2 0  9990
2 64655  89.1150 287.4467 0075084   8.0239 352.2139 14.31414762 78425
CZ-6A DEB
1 64655U 24140AEV 26125.43976738  .00003875  00000-0  14119-2 0  9991
2 64655  89.1150 287.4467 0075084   8.0239 352.2139 14.31414762 78425
CZ-6A DEB
1 64655U 24140AEV 26126.41843787  .00003358  00000-0  12231-2 0  9996
2 64655  89.1151 287.3466 0074896   4.7457 355.4433 14.31420792 78566
CZ-6A DEB
1 64655U 24140AEV 26126.41843788  .00003358  00000-0  12231-2 0  9997
2 64655  89.1151 287.3466 0074896   4.7457 355.4433 14.31420793 78567
CZ-6A DEB
1 64655U 24140AEV 26127.46700917  .00002848  00000-0  10368-2 0  9991
2 64655  89.1153 287.2393 0074728   1.2469 358.8900 14.31426455 78710
CZ-6A DEB
1 64655U 24140AEV 26127.88643645  .00002825  00000-0  10284-2 0  9993
2 64655  89.1153 287.1964 0074661 359.8543   0.2618 14.31428888 78776
CZ-6A DEB
1 64655U 24140AEV 26127.88643645  .00002825  00000-0  10284-2 0  9993
2 64655  89.1153 287.1964 0074661 359.8543   0.2618 14.31428888 78776
CZ-6A DEB
1 64655U 24140AEV 26128.86509750  .00002969  00000-0  10811-2 0  9995
2 64655  89.1152 287.0963 0074503 356.5972   3.4707 14.31434683 78918
CZ-6A DEB
1 64655U 24140AEV 26128.86509751  .00002969  00000-0  10811-2 0  9996
2 64655  89.1152 287.0963 0074503 356.5972   3.4707 14.31434683 78918
CZ-6A DEB
1 64655U 24140AEV 26129.42433058  .00002790  00000-0  10154-2 0  9997
2 64655  89.1149 287.0390 0074407 354.7139   5.3263 14.31437497 78998
CZ-6A DEB
1 64655U 24140AEV 26129.70394679  .00002584  00000-0  94011-3 0  9999
2 64655  89.1147 287.0103 0074341 353.7586   6.2676 14.31438423 79034
CZ-6A DEB
1 64655U 24140AEV 26129.70394680  .00002584  00000-0  94011-3 0  9991
2 64655  89.1147 287.0103 0074341 353.7586   6.2676 14.31438423 79034
CZ-6A DEB
1 64655U 24140AEV 26131.87096477  .00002212  00000-0  80415-3 0  9996
2 64655  89.1142 286.7886 0073963 346.4224  13.4981 14.31447891 79342
CZ-6A DEB
1 64655U 24140AEV 26131.87096477  .00002212  00000-0  80415-3 0  9996
2 64655  89.1142 286.7886 0073963 346.4224  13.4981 14.31447890 79341
CZ-6A DEB
1 64655U 24140AEV 26132.84961346  .00002292  00000-0  83364-3 0  9994
2 64655  89.1142 286.6884 0073823 343.1291  16.7451 14.31452504 79482
CZ-6A DEB
1 64655U 24140AEV 26132.84961347  .00002292  00000-0  83364-3 0  9995
2 64655  89.1142 286.6884 0073823 343.1291  16.7451 14.31452504 79482
CZ-6A DEB
1 64655U 24140AEV 26134.17777588  .00002333  00000-0  84848-3 0  9999
2 64655  89.1142 286.5524 0073639 338.6419  21.1708 14.31458055 79671
CZ-6A DEB
1 64655U 24140AEV 26134.17777589  .00002333  00000-0  84848-3 0  9990
2 64655  89.1142 286.5524 0073639 338.6419  21.1708 14.31458055 79671
CZ-6A DEB
1 64655U 24140AEV 26135.36612783  .00002145  00000-0  77983-3 0  9999
2 64655  89.1143 286.4308 0073452 334.5503  25.2082 14.31462237 79849
CZ-6A DEB
1 64655U 24140AEV 26136.83408588  .00002427  00000-0  88304-3 0  9990
2 64655  89.1146 286.2803 0073268 329.5280  30.1667 14.31469578 80055
CZ-6A DEB
1 64655U 24140AEV 26136.83408588  .00002427  00000-0  88304-3 0  9990
2 64655  89.1146 286.2803 0073268 329.5280  30.1667 14.31469578 80055
CZ-6A DEB
1 64655U 24140AEV 26137.18359891  .00002345  00000-0  85305-3 0  9998
2 64655  89.1146 286.2445 0073227 328.3253  31.3546 14.31470801 80105
CZ-6A DEB
1 64655U 24140AEV 26137.18359892  .00002345  00000-0  85305-3 0  9999
2 64655  89.1146 286.2445 0073227 328.3253  31.3546 14.31470801 80105
CZ-6A DEB
1 64655U 24140AEV 26137.67291687  .00002298  00000-0  83605-3 0  9998
2 64655  89.1148 286.1943 0073202 326.7249  32.9355 14.31472840 80176
CZ-6A DEB
1 64655U 24140AEV 26137.67291688  .00002298  00000-0  83605-3 0  9999
2 64655  89.1148 286.1943 0073202 326.7249  32.9355 14.31472840 80176
CZ-6A DEB
1 64655U 24140AEV 26138.37194083  .00002236  00000-0  81314-3 0  9995
2 64655  89.1150 286.1227 0073124 324.3340  35.2982 14.31475890 80274
CZ-6A DEB
1 64655U 24140AEV 26138.37194084  .00002236  00000-0  81314-3 0  9996
2 64655  89.1150 286.1227 0073124 324.3340  35.2982 14.31475890 80274
CZ-6A DEB
1 64655U 24140AEV 26140.39910155  .00002315  00000-0  84210-3 0  9992
2 64655  89.1151 285.9153 0072914 317.4091  42.1464 14.31485817 80566
CZ-6A DEB
1 64655U 24140AEV 26140.39910156  .00002315  00000-0  84210-3 0  9993
2 64655  89.1151 285.9153 0072914 317.4091  42.1464 14.31485817 80566
CZ-6A DEB
1 64655U 24140AEV 26141.86703792  .00002512  00000-0  91422-3 0  9994
2 64655  89.1151 285.7651 0072786 312.3726  47.1322 14.31493419 80771
CZ-6A DEB
1 64655U 24140AEV 26141.86703792  .00002512  00000-0  91422-3 0  9994
2 64655  89.1151 285.7651 0072786 312.3726  47.1322 14.31493419 80771
CZ-6A DEB
1 64655U 24140AEV 26142.35634825  .00002560  00000-0  93167-3 0  9990
2 64655  89.1152 285.7151 0072766 310.6714  48.8172 14.31496099 80849
CZ-6A DEB
1 64655U 24140AEV 26142.35634826  .00002560  00000-0  93167-3 0  9991
2 64655  89.1152 285.7151 0072766 310.6714  48.8172 14.31496100 80842
CZ-6A DEB
1 64655U 24140AEV 26142.84565766  .00002658  00000-0  96769-3 0  9990
2 64655  89.1151 285.6651 0072741 308.9688  50.5042 14.31499073 80914
CZ-6A DEB
1 64655U 24140AEV 26143.33496644  .00002741  00000-0  99799-3 0  9992
2 64655  89.1150 285.6151 0072711 307.2957  52.1625 14.31501964 80981
CZ-6A DEB
1 64655U 24140AEV 26144.80288744  .00003036  00000-0  11057-2 0  9993
2 64655  89.1151 285.4653 0072654 302.2601  57.1569 14.31511134 81190
CZ-6A DEB
1 64655U 24140AEV 26145.36209294  .00003252  00000-0  11845-2 0  9993
2 64655  89.1149 285.4081 0072628 300.3315  59.0712 14.31515281 81271
CZ-6A DEB
1 64655U 24140AEV 26145.36209295  .00003252  00000-0  11845-2 0  9994
2 64655  89.1149 285.4081 0072628 300.3315  59.0712 14.31515281 81271
CZ-6A DEB
1 64655U 24140AEV 26146.34069936  .00003794  00000-0  13826-2 0  9991
2 64655  89.1149 285.3080 0072607 296.9602  62.4191 14.31523289 81417
CZ-6A DEB
1 64655U 24140AEV 26147.17950105  .00004343  00000-0  15828-2 0  9995
2 64655  89.1148 285.2221 0072600 294.0627  65.2985 14.31530853 81531
CZ-6A DEB
1 64655U 24140AEV 26147.17950106  .00004343  00000-0  15828-2 0  9996
2 64655  89.1148 285.2221 0072600 294.0627  65.2985 14.31530853 81531
CZ-6A DEB
1 64655U 24140AEV 26147.31930090  .00004361  00000-0  15895-2 0  9996
2 64655  89.1149 285.2079 0072604 293.5771  65.7811 14.31532037 81552
CZ-6A DEB
1 64655U 24140AEV 26147.31930091  .00004361  00000-0  15895-2 0  9997
2 64655  89.1149 285.2079 0072604 293.5771  65.7811 14.31532037 81552
CZ-6A DEB
1 64655U 24140AEV 26148.36779729  .00004375  00000-0  15945-2 0  9993
2 64655  89.1149 285.1003 0072550 290.0111  69.3284 14.31540210 81701
CZ-6A DEB
1 64655U 24140AEV 26149.34638775  .00004650  00000-0  16944-2 0  9993
2 64655  89.1151 285.0002 0072580 286.5910  72.7325 14.31549196 81843
CZ-6A DEB
1 64655U 24140AEV 26149.34638776  .00004650  00000-0  16944-2 0  9994
2 64655  89.1151 285.0002 0072580 286.5910  72.7325 14.31549196 81843
CZ-6A DEB
1 64655U 24140AEV 26150.39487034  .00005185  00000-0  18892-2 0  9998
2 64655  89.1154 284.8928 0072600 282.9970  76.3127 14.31560693 81990
CZ-6A DEB
1 64655U 24140AEV 26150.39487034  .00005185  00000-0  18892-2 0  9998
2 64655  89.1154 284.8928 0072600 282.9970  76.3127 14.31560693 81990
CZ-6A DEB
1 64655U 24140AEV 26150.81426159  .00004844  00000-0  17647-2 0  9994
2 64655  89.1154 284.8498 0072586 281.5412  77.7641 14.31563945 82058
CZ-6A DEB
1 64655U 24140AEV 26150.81426159  .00004844  00000-0  17647-2 0  9994
2 64655  89.1154 284.8498 0072586 281.5412  77.7641 14.31563945 82058
CZ-6A DEB
1 64655U 24140AEV 26151.37344771  .00005356  00000-0  19513-2 0  9998
2 64655  89.1154 284.7924 0072579 279.6305  79.6697 14.31570897 82137
CZ-6A DEB
1 64655U 24140AEV 26151.79283642  .00004637  00000-0  16887-2 0  9995
2 64655  89.1158 284.7497 0072588 278.2005  81.0963 14.31573318 82198
CZ-6A DEB
1 64655U 24140AEV 26151.79283643  .00004637  00000-0  16887-2 0  9996
2 64655  89.1158 284.7497 0072588 278.2005  81.0963 14.31573318 82198
CZ-6A DEB
1 64655U 24140AEV 26165.07299404  .00004324  00000-0  15690-2 0  9998
2 64655  89.1164 283.3923 0074373 232.7844 126.6551 14.31682138 84095
CZ-6A DEB
1 64655U 24140AEV 26165.07299404  .00004324  00000-0  15690-2 0  9998
2 64655  89.1164 283.3923 0074373 232.7844 126.6551 14.31682138 84095
CZ-6A DEB
1 64655U 24140AEV 26167.30956794  .00003562  00000-0  12910-2 0  9993
2 64655  89.1173 283.1634 0074432 225.3185 134.1933 14.31696946 84410
CZ-6A DEB
1 64655U 24140AEV 26167.30956794  .00003562  00000-0  12910-2 0  9993
2 64655  89.1173 283.1634 0074432 225.3185 134.1933 14.31696946 84410
CZ-6A DEB
1 64655U 24140AEV 26167.30956794  .00003562  00000-0  12910-2 0  9993
2 64655  89.1173 283.1634 0074432 225.3185 134.1933 14.31696946 84410
CZ-6A DEB
1 64655U 24140AEV 26170.31492969  .00003584  00000-0  12981-2 0  9999
2 64655  89.1188 282.8580 0074853 215.4322 144.1890 14.31716746 84843
CZ-6A DEB
1 64655U 24140AEV 26170.73427962  .00003517  00000-0  12736-2 0  9990
2 64655  89.1177 282.8131 0074849 213.7554 145.8866 14.31719216 84909
CZ-6A DEB
1 64655U 24140AEV 26170.73427962  .00003517  00000-0  12736-2 0  9990
2 64655  89.1177 282.8131 0074849 213.7554 145.8866 14.31719216 84909
CZ-6A DEB
1 64655U 24140AEV 26171.29341058  .00003755  00000-0  13598-2 0  9994
2 64655  89.1174 282.7569 0075077 211.8911 147.7730 14.31724131 84981
CZ-6A DEB
1 64655U 24140AEV 26171.29341059  .00003755  00000-0  13598-2 0  9995
2 64655  89.1174 282.7569 0075077 211.8911 147.7730 14.31724131 84981
CZ-6A DEB
1 64655U 24140AEV 26173.25036172  .00003332  00000-0  12056-2 0  9999
2 64655  89.1165 282.5575 0075374 205.4238 154.3244 14.31735882 85268
CZ-6A DEB
1 64655U 24140AEV 26174.71806394  .00003518  00000-0  12724-2 0  9990
2 64655  89.1165 282.4072 0075609 200.5644 159.2506 14.31745914 85472
CZ-6A DEB
1 64655U 24140AEV 26176.74486850  .00005023  00000-0  18173-2 0  9993
2 64655  89.1170 282.2001 0075926 194.0031 165.9063 14.31767353 85762
CZ-6A DEB
1 64655U 24140AEV 26176.74486850  .00005023  00000-0  18173-2 0  9993
2 64655  89.1170 282.2001 0075926 194.0031 165.9062 14.31767353 85761
CZ-6A DEB
1 64655U 24140AEV 26177.72331752  .00004619  00000-0  16704-2 0  9990
2 64655  89.1167 282.0997 0076138 190.6673 169.2913 14.31775060 85901
CZ-6A DEB
1 64655U 24140AEV 26177.72331753  .00004619  00000-0  16704-2 0  9991
2 64655  89.1167 282.0997 0076138 190.6673 169.2913 14.31775060 85901
CZ-6A DEB
1 64655U 24140AEV 26178.28242721  .00004979  00000-0  18002-2 0  9991
2 64655  89.1167 282.0424 0076236 188.8499 171.1360 14.31781770 85981
CZ-6A DEB
1 64655U 24140AEV 26178.28242722  .00004979  00000-0  18002-2 0  9992
2 64655  89.1167 282.0424 0076236 188.8499 171.1360 14.31781770 85981
CZ-6A DEB
1 64655U 24140AEV 26181.70693740  .00004717  00000-0  17034-2 0  9997
2 64655  89.1175 281.6930 0076824 177.7267 182.4295 14.31810724 86479
CZ-6A DEB
1 64655U 24140AEV 26181.70693740  .00004717  00000-0  17034-2 0  9997
2 64655  89.1175 281.6930 0076824 177.7267 182.4295 14.31810724 86479
CZ-6A DEB
1 64655U 24140AEV 26182.26603350  .00005917  00000-0  21376-2 0  9994
2 64655  89.1170 281.6355 0076855 175.9167 184.2674 14.31818985 86555
CZ-6A DEB
1 64655U 24140AEV 26182.26603350  .00005917  00000-0  21376-2 0  9994
2 64655  89.1170 281.6355 0076855 175.9167 184.2674 14.31818984 86554
CZ-6A DEB
1 64655U 24140AEV 26186.24953091  .00007492  00000-0  27037-2 0  9996
2 64655  89.1156 281.2281 0077298 162.9659 197.4160 14.31864044 87124
CZ-6A DEB
1 64655U 24140AEV 26186.24953092  .00007492  00000-0  27037-2 0  9997
2 64655  89.1156 281.2281 0077298 162.9659 197.4160 14.31864044 87124
CZ-6A DEB
1 64655U 24140AEV 26187.22791423  .00004723  00000-0  17024-2 0  9993
2 64655  89.1170 281.1288 0077517 159.9277 200.4998 14.31870048 87262
CZ-6A DEB
1 64655U 24140AEV 26188.20629208  .00003208  00000-0  11547-2 0  9994
2 64655  89.1171 281.0286 0077615 156.7886 203.6848 14.31875410 87403
CZ-6A DEB
1 64655U 24140AEV 26188.20629209  .00003208  00000-0  11547-2 0  9995
2 64655  89.1171 281.0286 0077615 156.7886 203.6848 14.31875410 87403
CZ-6A DEB
1 64655U 24140AEV 26190.23291784  .00002963  00000-0  10656-2 0  9991
2 64655  89.1168 280.8217 0077858 150.3348 210.2300 14.31888206 87697
CZ-6A DEB
1 64655U 24140AEV 26191.21128319  .00002861  00000-0  10283-2 0  9996
2 64655  89.1201 280.7245 0078040 147.1449 213.4635 14.31893557 87832
CZ-6A DEB
1 64655U 24140AEV 26192.18964428  .00002478  00000-0  88970-3 0  9995
2 64655  89.1182 280.6228 0078558 143.8969 216.7569 14.31898021 87972
CZ-6A DEB
1 64655U 24140AEV 26192.18964429  .00002478  00000-0  88970-3 0  9996
2 64655  89.1182 280.6228 0078558 143.8969 216.7569 14.31898022 87973
CZ-6A DEB
1 64655U 24140AEV 26192.18964429  .00002478  00000-0  88970-3 0  9996
2 64655  89.1182 280.6228 0078558 143.8969 216.7569 14.31898022 87973
CZ-6A DEB
1 64655U 24140AEV 26194.21623905  .00002310  00000-0  82877-3 0  9998
2 64655  89.1179 280.4153 0078689 137.5169 223.2155 14.31907430 88262
CZ-6A DEB
1 64655U 24140AEV 26194.21623906  .00002310  00000-0  82877-3 0  9999
2 64655  89.1179 280.4153 0078689 137.5169 223.2155 14.31907430 88262
CZ-6A DEB
1 64655U 24140AEV 26195.19458983  .00002270  00000-0  81453-3 0  9992
2 64655  89.1167 280.3145 0078224 134.5116 226.2509 14.31912043 88401
CZ-6A DEB
1 64655U 24140AEV 26195.19458983  .00002270  00000-0  81453-3 0  9992
2 64655  89.1167 280.3145 0078224 134.5116 226.2509 14.31912043 88401
CZ-6A DEB
1 64655U 24140AEV 26197.22116279  .00002011  00000-0  72066-3 0  9990
2 64655  89.1165 280.1077 0078329 128.0684 232.7614 14.31920611 88695
CZ-6A DEB
1 64655U 24140AEV 26197.22116279  .00002011  00000-0  72066-3 0  9990
2 64655  89.1165 280.1077 0078329 128.0684 232.7614 14.31920611 88695
CZ-6A DEB
1 64655U 24140AEV 26197.22116279  .00002011  00000-0  72066-3 0  9990
2 64655  89.1165 280.1077 0078329 128.0684 232.7614 14.31920611 88695
CZ-6A DEB
1 64655U 24140AEV 26199.17784040  .00002005  00000-0  71839-3 0  9993
2 64655  89.1160 279.9078 0078370 121.8338 239.0519 14.31928952 88971
CZ-6A DEB
1 64655U 24140AEV 26199.24772159  .00001982  00000-0  70989-3 0  9997
2 64655  89.1159 279.9005 0078393 121.5962 239.2917 14.31929156 88986
CZ-6A DEB
1 64655U 24140AEV 26201.48390901  .00002132  00000-0  76391-3 0  9999
2 64655  89.1155 279.6718 0078410 114.4819 246.4581 14.31938526 89307
CZ-6A DEB
1 64655U 24140AEV 26202.18271366  .00002824  00000-0  10137-2 0  9993
2 64655  89.1155 279.6004 0078387 112.2807 248.6725 14.31943688 89401
CZ-6A DEB
1 64655U 24140AEV 26203.65019430  .00003454  00000-0  12406-2 0  9999
2 64655  89.1156 279.4502 0078338 107.6228 253.3544 14.31954048 89611
CZ-6A DEB
1 64655U 24140AEV 26205.18754087  .00004357  00000-0  15660-2 0  9991
2 64655  89.1157 279.2928 0078275 102.7178 258.2783 14.31968198 89836
CZ-6A DEB
1 64655U 24140AEV 26205.46705681  .00004331  00000-0  15565-2 0  9994
2 64655  89.1158 279.2644 0078274 101.8171 259.1819 14.31970373 89876
CZ-6A DEB
1 64655U 24140AEV 26206.16584501  .00004241  00000-0  15240-2 0  9998
2 64655  89.1158 279.1929 0078227  99.6055 261.3991 14.31975634 89976
CZ-6A DEB
1 64655U 24140AEV 26206.65499509  .00003882  00000-0  13947-2 0  9997
2 64655  89.1159 279.1429 0078201  98.0512 262.9567 14.31978349 90047
CZ-6A DEB
1 64655U 24140AEV 26207.14414345  .00004109  00000-0  14762-2 0  9996
2 64655  89.1158 279.0929 0078172  96.4869 264.5235 14.31982924 90116
CZ-6A DEB
1 64655U 24140AEV 26210.63802183  .00003911  00000-0  14047-2 0  9991
2 64655  89.1156 278.7358 0077871  85.3399 275.6686 14.32008031 90613
CZ-6A DEB
1 64655U 24140AEV 26211.12715917  .00003667  00000-0  13166-2 0  9993
2 64655  89.1156 278.6860 0077830  83.7835 277.2221 14.32011021 90685
CZ-6A DEB
1 64655U 24140AEV 26213.15357247  .00003217  00000-0  11546-2 0  9997
2 64655  89.1150 278.4789 0077600  77.3037 283.6820 14.32024014 90979
CZ-6A DEB
1 64655U 24140AEV 26214.13183409  .00003194  00000-0  11460-2 0  9992
2 64655  89.1147 278.3785 0077492  74.1607 286.8115 14.32029966 91117
CZ-6A DEB
1 64655U 24140AEV 26214.13183409  .00003194  00000-0  11460-2 0  9992
2 64655  89.1146 278.3785 0077492  74.1607 286.8115 14.32029966 91116
CZ-6A DEB
1 64655U 24140AEV 26214.62096350  .00002936  00000-0  10531-2 0  9995
2 64655  89.1145 278.3284 0077430  72.5871 288.3773 14.32032081 91182
CZ-6A DEB
1 64655U 24140AEV 26214.62096350  .00002936  00000-0  10531-2 0  9995
2 64655  89.1145 278.3284 0077430  72.5871 288.3773 14.32032081 91182
CZ-6A DEB
1 64655U 24140AEV 26215.59921801  .00003255  00000-0  11681-2 0  9992
2 64655  89.1145 278.2284 0077317  69.4456 291.5014 14.32038868 91328
CZ-6A DEB
1 64655U 24140AEV 26217.13646618  .00002432  00000-0  87134-3 0  9997
2 64655  89.1145 278.0709 0077092  64.4859 296.4284 14.32046512 91542
CZ-6A DEB
1 64655U 24140AEV 26218.60383160  .00001794  00000-0  64157-3 0  9990
2 64655  89.1148 277.9206 0076888  59.7393 301.1385 14.32052224 91753
CZ-6A DEB
1 64655U 24140AEV 26218.60383160  .00001794  00000-0  64157-3 0  9990
2 64655  89.1148 277.9206 0076888  59.7393 301.1385 14.32052224 91753
CZ-6A DEB
1 64655U 24140AEV 26220.14106546  .00001656  00000-0  59173-3 0  9992
2 64655  89.1150 277.7632 0076638  54.7483 306.0854 14.32057014 91976
CZ-6A DEB
1 64655U 24140AEV 26220.14106547  .00001656  00000-0  59173-3 0  9993
2 64655  89.1150 277.7632 0076638  54.7483 306.0854 14.32057014 91976
CZ-6A DEB
1 64655U 24140AEV 26221.11930182  .00001788  00000-0  63963-3 0  9999
2 64655  89.1149 277.6629 0076528  51.5849 309.2186 14.32060669 92118
CZ-6A DEB
1 64655U 24140AEV 26221.11930182  .00001788  00000-0  63963-3 0  9999
2 64655  89.1149 277.6629 0076528  51.5849 309.2186 14.32060669 92118
CZ-6A DEB
1 64655U 24140AEV 26221.60841884  .00001809  00000-0  64696-3 0  9991
2 64655  89.1149 277.6127 0076448  49.9906 310.7967 14.32062424 92189
CZ-6A DEB
1 64655U 24140AEV 26222.09753503  .00001793  00000-0  64154-3 0  9996
2 64655  89.1148 277.5626 0076343  48.3920 312.3784 14.32064137 92250
CZ-6A DEB
1 64655U 24140AEV 26222.09753504  .00001793  00000-0  64154-3 0  9997
2 64655  89.1148 277.5626 0076343  48.3920 312.3784 14.32064137 92250
CZ-6A DEB
1 64655U 24140AEV 26223.14563941  .00001655  00000-0  59188-3 0  9996
2 64655  89.1147 277.4553 0076128  44.9661 315.7666 14.32067298 92406
CZ-6A DEB
1 64655U 24140AEV 26223.14563941  .00001655  00000-0  59188-3 0  9996
2 64655  89.1147 277.4553 0076128  44.9661 315.7666 14.32067298 92406
CZ-6A DEB
1 64655U 24140AEV 26223.63475378  .00001636  00000-0  58499-3 0  9999
2 64655  89.1149 277.4055 0076097  43.3816 317.3335 14.32068987 92479
CZ-6A DEB
1 64655U 24140AEV 26223.63475379  .00001636  00000-0  58499-3 0  9990
2 64655  89.1149 277.4055 0076097  43.3816 317.3335 14.32068987 92479
CZ-6A DEB
1 64655U 24140AEV 26224.12386731  .00001691  00000-0  60478-3 0  9999
2 64655  89.1147 277.3555 0076021  41.7792 318.9174 14.32070949 92540
CZ-6A DEB
1 64655U 24140AEV 26224.12386732  .00001691  00000-0  60478-3 0  9990
2 64655  89.1147 277.3555 0076021  41.7792 318.9174 14.32070949 92540
CZ-6A DEB
1 64655U 24140AEV 26225.59120513  .00001597  00000-0  57075-3 0  9999
2 64655  89.1143 277.2053 0075774  36.9789 323.6596 14.32075183 92753
CZ-6A DEB
1 64655U 24140AEV 26225.59120513  .00001597  00000-0  57075-3 0  9999
2 64655  89.1143 277.2053 0075774  36.9789 323.6596 14.32075183 92753
CZ-6A DEB
1 64655U 24140AEV 26228.10662819  .00001957  00000-0  70080-3 0  9990
2 64655  89.1138 276.9477 0075341  28.7098 331.8214 14.32084376 93118
CZ-6A DEB
1 64655U 24140AEV 26228.10662820  .00001957  00000-0  70080-3 0  9992
2 64655  89.1138 276.9477 0075341  28.7098 331.8214 14.32084376 93118
CZ-6A DEB
1 64655U 24140AEV 26229.08484374  .00002114  00000-0  75778-3 0  9991
2 64655  89.1137 276.8473 0075167  25.4817 335.0054 14.32088209 93253
CZ-6A DEB
1 64655U 24140AEV 26229.57394979  .00001917  00000-0  68677-3 0  9996
2 64655  89.1141 276.7971 0075137  23.8205 336.6439 14.32090012 93327
CZ-6A DEB
1 64655U 24140AEV 26232.08934098  .00002583  00000-0  92691-3 0  9991
2 64655  89.1139 276.5394 0074724  15.4945 344.8514 14.32103818 93683
CZ-6A DEB
1 64655U 24140AEV 26232.57844256  .00002523  00000-0  90545-3 0  9991
2 64655  89.1139 276.4893 0074630  13.8569 346.4652 14.32105587 93750
CZ-6A DEB
1 64655U 24140AEV 26233.06754247  .00002677  00000-0  96113-3 0  9993
2 64655  89.1139 276.4392 0074559  12.2372 348.0613 14.32108829 93824
CZ-6A DEB
1 64655U 24140AEV 26234.11561263  .00002643  00000-0  94899-3 0  9996
2 64655  89.1139 276.3314 0074335   8.8018 351.4462 14.32113388 93979
CZ-6A DEB
1 64655U 24140AEV 26235.09380675  .00002600  00000-0  93354-3 0  9998
2 64655  89.1140 276.2310 0074150   5.5168 354.6828 14.32118254 94116
CZ-6A DEB
1 64655U 24140AEV 26236.07199748  .00002549  00000-0  91508-3 0  9997
2 64655  89.1141 276.1310 0073977   2.2557 357.8959 14.32123026 94256
CZ-6A DEB
1 64655U 24140AEV 26236.56109165  .00002575  00000-0  92456-3 0  9997
2 64655  89.1139 276.0808 0073889   0.6166 359.5109 14.32125526 94325
CZ-6A DEB
1 64655U 24140AEV 26237.05018486  .00002601  00000-0  93399-3 0  9994
2 64655  89.1137 276.0306 0073829 358.9464   1.1565 14.32128104 94398
CZ-6A DEB
1 64655U 24140AEV 26240.12446639  .00002540  00000-0  91197-3 0  9997
2 64655  89.1131 275.7157 0073346 348.5883  11.3647 14.32143396 94839
CZ-6A DEB
1 64655U 24140AEV 26240.12446639  .00002540  00000-0  91197-3 0  9997
2 64655  89.1131 275.7157 0073346 348.5883  11.3647 14.32143396 94839
CZ-6A DEB
1 64655U 24140AEV 26241.52185647  .00002942  00000-0  10570-2 0  9992
2 64655  89.1128 275.5726 0073171 343.9197  15.9677 14.32151641 95036
CZ-6A DEB
1 64655U 24140AEV 26241.52185648  .00002942  00000-0  10570-2 0  9993
2 64655  89.1128 275.5726 0073171 343.9197  15.9677 14.32151642 95037
CZ-6A DEB
1 64655U 24140AEV 26243.54805892  .00002497  00000-0  89662-3 0  9991
2 64655  89.1125 275.3644 0072912 337.0851  22.7097 14.32161505 95327
CZ-6A DEB
1 64655U 24140AEV 26243.54805893  .00002497  00000-0  89662-3 0  9992
2 64655  89.1125 275.3645 0072912 337.0851  22.7097 14.32161505 95328
CZ-6A DEB
1 64655U 24140AEV 26244.52622062  .00002174  00000-0  78009-3 0  9991
2 64655  89.1125 275.2641 0072812 333.7527  25.9986 14.32165826 95462
CZ-6A DEB
1 64655U 24140AEV 26244.52622063  .00002174  00000-0  78009-3 0  9992
2 64655  89.1125 275.2641 0072812 333.7527  25.9986 14.32165826 95462
