CZ-6A DEB
1 64654U 24140AEU 25177.26488641  .00001687  00000-0  85184-3 0  9998
2 64654  88.3188 289.5534 0078535 254.3682 104.8828 14.14202395 34860
TBA - TO BE ASSIGNED
1 64654U 24140AEU 25177.26488641  .00001687  00000-0  85184-3 0  9998
2 64654  88.3188 289.5534 0078535 254.3682 104.8828 14.14202395 34860
CZ-6A DEB
1 64654U 24140AEU 25183.27911113  .00001898  00000-0  95860-3 0  9997
2 64654  88.3188 288.4171 0079189 234.5979 124.7793 14.14224372 35716
CZ-6A DEB
1 64654U 24140AEU 25183.27911113  .00001898  00000-0  95860-3 0  9997
2 64654  88.3188 288.4171 0079189 234.5979 124.7793 14.14224372 35716
CZ-6A DEB
1 64654U 24140AEU 25184.26968152  .00001937  00000-0  97845-3 0  9991
2 64654  88.3191 288.2306 0079307 231.3583 128.0488 14.14228410 35856
CZ-6A DEB
1 64654U 24140AEU 25185.26024931  .00001996  00000-0  10080-2 0  9990
2 64654  88.3191 288.0436 0079442 228.1266 131.3124 14.14232684 35997
CZ-6A DEB
1 64654U 24140AEU 25186.25081480  .00002033  00000-0  10266-2 0  9991
2 64654  88.3195 287.8572 0079608 224.9059 134.5671 14.14236872 36139
CZ-6A DEB
1 64654U 24140AEU 25187.24137827  .00001950  00000-0  98398-3 0  9998
2 64654  88.3193 287.6699 0079732 221.6951 137.8141 14.14240361 36279
CZ-6A DEB
1 64654U 24140AEU 25187.73665920  .00001881  00000-0  94911-3 0  9992
2 64654  88.3194 287.5764 0079799 220.0961 139.4320 14.14241948 36346
CZ-6A DEB
1 64654U 24140AEU 25188.72721924  .00001804  00000-0  90963-3 0  9997
2 64654  88.3189 287.3883 0079959 216.8976 142.6695 14.14245364 36489
CZ-6A DEB
1 64654U 24140AEU 25188.72721924  .00001804  00000-0  90963-3 0  9997
2 64654  88.3189 287.3883 0079959 216.8976 142.6695 14.14245364 36489
CZ-6A DEB
1 64654U 24140AEU 25189.71777725  .00001735  00000-0  87450-3 0  9997
2 64654  88.3187 287.2008 0080117 213.7048 145.9030 14.14248734 36628
CZ-6A DEB
1 64654U 24140AEU 25190.28380921  .00001728  00000-0  87069-3 0  9997
2 64654  88.3188 287.0942 0080193 211.8778 147.7543 14.14250876 36705
CZ-6A DEB
1 64654U 24140AEU 25191.20361009  .00001685  00000-0  84850-3 0  9993
2 64654  88.3189 286.9205 0080319 208.9068 150.7658 14.14253979 36837
CZ-6A DEB
1 64654U 24140AEU 25191.27436383  .00001686  00000-0  84906-3 0  9991
2 64654  88.3190 286.9073 0080322 208.6747 151.0013 14.14254279 36841
CZ-6A DEB
1 64654U 24140AEU 25191.69888659  .00001648  00000-0  82964-3 0  9994
2 64654  88.3185 286.8266 0080413 207.3177 152.3771 14.14255580 36900
CZ-6A DEB
1 64654U 24140AEU 25192.26491632  .00001661  00000-0  83612-3 0  9995
2 64654  88.3186 286.7198 0080487 205.4884 154.2325 14.14257656 36989
CZ-6A DEB
1 64654U 24140AEU 25193.25546586  .00001833  00000-0  92349-3 0  9992
2 64654  88.3187 286.5330 0080615 202.2933 157.4743 14.14262290 37125
CZ-6A DEB
1 64654U 24140AEU 25193.25546586  .00001833  00000-0  92349-3 0  9992
2 64654  88.3187 286.5330 0080615 202.2933 157.4743 14.14262290 37125
CZ-6A DEB
1 64654U 24140AEU 25194.24601343  .00001868  00000-0  94118-3 0  9999
2 64654  88.3186 286.3459 0080769 199.1148 160.7004 14.14266085 37264
CZ-6A DEB
1 64654U 24140AEU 25194.67053300  .00001848  00000-0  93088-3 0  9993
2 64654  88.3189 286.2663 0080804 197.7324 162.1040 14.14267578 37324
CZ-6A DEB
1 64654U 24140AEU 25195.23655877  .00001798  00000-0  90514-3 0  9998
2 64654  88.3189 286.1594 0080897 195.9192 163.9451 14.14269321 37403
CZ-6A DEB
1 64654U 24140AEU 25195.73183036  .00001792  00000-0  90228-3 0  9992
2 64654  88.3189 286.0658 0080977 194.3378 165.5511 14.14271166 37473
CZ-6A DEB
1 64654U 24140AEU 25195.73183036  .00001792  00000-0  90228-3 0  9992
2 64654  88.3189 286.0658 0080977 194.3378 165.5511 14.14271166 37473
CZ-6A DEB
1 64654U 24140AEU 25196.72237159  .00001835  00000-0  92393-3 0  9991
2 64654  88.3188 285.8787 0081124 191.1679 168.7711 14.14275209 37611
CZ-6A DEB
1 64654U 24140AEU 25197.21764166  .00001773  00000-0  89253-3 0  9991
2 64654  88.3187 285.7852 0081199 189.5936 170.3705 14.14276677 37680
CZ-6A DEB
1 64654U 24140AEU 25198.20817873  .00001889  00000-0  95120-3 0  9993
2 64654  88.3186 285.5981 0081341 186.4441 173.5707 14.14281270 37824
CZ-6A DEB
1 64654U 24140AEU 25198.20817873  .00001889  00000-0  95120-3 0  9993
2 64654  88.3186 285.5981 0081341 186.4441 173.5707 14.14281270 37824
CZ-6A DEB
1 64654U 24140AEU 25199.19871397  .00001818  00000-0  91461-3 0  9999
2 64654  88.3186 285.4110 0081481 183.3007 176.7653 14.14284640 37960
CZ-6A DEB
1 64654U 24140AEU 25200.25999884  .00001775  00000-0  89259-3 0  9995
2 64654  88.3185 285.2104 0081625 179.9315 180.1898 14.14288401 38110
CZ-6A DEB
1 64654U 24140AEU 25200.25999884  .00001775  00000-0  89259-3 0  9995
2 64654  88.3185 285.2104 0081625 179.9315 180.1898 14.14288401 38110
CZ-6A DEB
1 64654U 24140AEU 25201.25052822  .00001846  00000-0  92846-3 0  9993
2 64654  88.3185 285.0234 0081753 176.7924 183.3805 14.14292603 38252
CZ-6A DEB
1 64654U 24140AEU 25202.24105495  .00001938  00000-0  97511-3 0  9994
2 64654  88.3184 284.8362 0081885 173.6566 186.5679 14.14296899 38394
CZ-6A DEB
1 64654U 24140AEU 25202.73631735  .00001979  00000-0  99559-3 0  9998
2 64654  88.3188 284.7432 0081966 172.1062 188.1437 14.14298997 38469
CZ-6A DEB
1 64654U 24140AEU 25202.73631735  .00001979  00000-0  99559-3 0  9998
2 64654  88.3188 284.7432 0081966 172.1062 188.1437 14.14298997 38469
CZ-6A DEB
1 64654U 24140AEU 25203.23157881  .00002107  00000-0  10605-2 0  9997
2 64654  88.3188 284.6498 0082014 170.5354 189.7402 14.14301662 38532
CZ-6A DEB
1 64654U 24140AEU 25204.22209854  .00002355  00000-0  11861-2 0  9995
2 64654  88.3188 284.4627 0082147 167.4097 192.9168 14.14307294 38677
CZ-6A DEB
1 64654U 24140AEU 25205.21261600  .00002740  00000-0  13809-2 0  9994
2 64654  88.3192 284.2757 0082334 164.3547 196.0214 14.14312326 38813
CZ-6A DEB
1 64654U 24140AEU 25205.21261600  .00002740  00000-0  13809-2 0  9994
2 64654  88.3192 284.2757 0082334 164.3547 196.0214 14.14312326 38813
CZ-6A DEB
1 64654U 24140AEU 25205.70787303  .00002570  00000-0  12944-2 0  9991
2 64654  88.3191 284.1821 0082404 162.8076 197.5933 14.14314261 38882
CZ-6A DEB
1 64654U 24140AEU 25206.41538111  .00002408  00000-0  12121-2 0  9998
2 64654  88.3190 284.0485 0082492 160.5818 199.8543 14.14317536 38983
CZ-6A DEB
1 64654U 24140AEU 25206.91063561  .00002360  00000-0  11880-2 0  9993
2 64654  88.3190 283.9549 0082536 159.0115 201.4493 14.14320116 39055
CZ-6A DEB
1 64654U 24140AEU 25207.40588919  .00002372  00000-0  11938-2 0  9994
2 64654  88.3188 283.8613 0082588 157.4460 203.0392 14.14322819 39121
CZ-6A DEB
1 64654U 24140AEU 25207.90114162  .00002450  00000-0  12333-2 0  9991
2 64654  88.3187 283.7679 0082644 155.8843 204.6248 14.14325806 39194
CZ-6A DEB
1 64654U 24140AEU 25208.53789384  .00002279  00000-0  11462-2 0  9996
2 64654  88.3184 283.6477 0082723 153.8793 206.6604 14.14328445 39286
CZ-6A DEB
1 64654U 24140AEU 25209.38689458  .00002051  00000-0  10306-2 0  9995
2 64654  88.3181 283.4870 0082805 151.2219 209.3574 14.14331770 39409
CZ-6A DEB
1 64654U 24140AEU 25210.16514298  .00002102  00000-0  10562-2 0  9993
2 64654  88.3178 283.3399 0082863 148.7835 211.8312 14.14335580 39512
CZ-6A DEB
1 64654U 24140AEU 25210.37739218  .00002236  00000-0  11242-2 0  9991
2 64654  88.3177 283.2996 0082879 148.1205 212.5036 14.14336913 39540
CZ-6A DEB
1 64654U 24140AEU 25210.66039101  .00002201  00000-0  11065-2 0  9992
2 64654  88.3176 283.2461 0082901 147.2376 213.3991 14.14338050 39588
CZ-6A DEB
1 64654U 24140AEU 25211.22638781  .00002177  00000-0  10940-2 0  9997
2 64654  88.3175 283.1392 0082949 145.4645 215.1970 14.14340423 39663
CZ-6A DEB
1 64654U 24140AEU 25211.65088464  .00002246  00000-0  11292-2 0  9999
2 64654  88.3175 283.0589 0082983 144.1452 216.5345 14.14342441 39720
CZ-6A DEB
1 64654U 24140AEU 25212.21687931  .00002263  00000-0  11376-2 0  9998
2 64654  88.3175 282.9519 0083018 142.3826 218.3207 14.14345015 39802
CZ-6A DEB
1 64654U 24140AEU 25212.64137447  .00002405  00000-0  12094-2 0  9993
2 64654  88.3175 282.8717 0083048 141.0649 219.6559 14.14347375 39864
CZ-6A DEB
1 64654U 24140AEU 25213.41961386  .00002434  00000-0  12241-2 0  9992
2 64654  88.3176 282.7247 0083099 138.6465 222.1054 14.14351082 39977
CZ-6A DEB
1 64654U 24140AEU 25213.63186056  .00002423  00000-0  12185-2 0  9994
2 64654  88.3175 282.6846 0083110 137.9898 222.7703 14.14352106 40007
CZ-6A DEB
1 64654U 24140AEU 25214.19785084  .00002362  00000-0  11873-2 0  9997
2 64654  88.3175 282.5775 0083126 136.2301 224.5516 14.14354732 40082
CZ-6A DEB
1 64654U 24140AEU 25214.41009692  .00002340  00000-0  11760-2 0  9997
2 64654  88.3177 282.5374 0083138 135.5760 225.2135 14.14355643 40114
CZ-6A DEB
1 64654U 24140AEU 25215.18833125  .00002223  00000-0  11167-2 0  9999
2 64654  88.3177 282.3903 0083170 133.1647 227.6531 14.14359039 40225
CZ-6A DEB
1 64654U 24140AEU 25216.17880838  .00002099  00000-0  10541-2 0  9998
2 64654  88.3178 282.2031 0083218 130.0926 230.7595 14.14363140 40364
CZ-6A DEB
1 64654U 24140AEU 25217.38152607  .00001979  00000-0  99330-3 0  9998
2 64654  88.3179 281.9758 0083277 126.3569 234.5340 14.14367927 40539
CZ-6A DEB
1 64654U 24140AEU 25217.38152607  .00001979  00000-0  99330-3 0  9998
2 64654  88.3179 281.9758 0083277 126.3569 234.5340 14.14367927 40539
CZ-6A DEB
1 64654U 24140AEU 25218.37199593  .00001856  00000-0  93064-3 0  9995
2 64654  88.3179 281.7886 0083326 123.2789 237.6416 14.14371643 40677
CZ-6A DEB
1 64654U 24140AEU 25219.15022032  .00001806  00000-0  90534-3 0  9999
2 64654  88.3179 281.6416 0083361 120.8589 240.0832 14.14374509 40781
CZ-6A DEB
1 64654U 24140AEU 25220.35292746  .00001606  00000-0  80386-3 0  9996
2 64654  88.3177 281.4144 0083415 117.1174 243.8552 14.14378107 40951
CZ-6A DEB
1 64654U 24140AEU 25220.35292746  .00001606  00000-0  80386-3 0  9996
2 64654  88.3177 281.4144 0083415 117.1174 243.8552 14.14378107 40951
CZ-6A DEB
1 64654U 24140AEU 25220.91890542  .00002129  00000-0  10683-2 0  9999
2 64654  88.3175 281.3075 0083423 115.3500 245.6355 14.14381815 41034
CZ-6A DEB
1 64654U 24140AEU 25221.13114687  .00002157  00000-0  10828-2 0  9995
2 64654  88.3175 281.2674 0083426 114.6859 246.3042 14.14382760 41064
CZ-6A DEB
1 64654U 24140AEU 25222.61683250  .00002248  00000-0  11287-2 0  9997
2 64654  88.3169 280.9869 0083429 110.0731 250.9459 14.14389028 41271
CZ-6A DEB
1 64654U 24140AEU 25222.61683250  .00002248  00000-0  11287-2 0  9997
2 64654  88.3169 280.9869 0083429 110.0731 250.9459 14.14389028 41271
CZ-6A DEB
1 64654U 24140AEU 25222.89981935  .00002338  00000-0  11741-2 0  9993
2 64654  88.3168 280.9334 0083430 109.1901 251.8339 14.14390482 41315
CZ-6A DEB
1 64654U 24140AEU 25224.59773429  .00002147  00000-0  10776-2 0  9994
2 64654  88.3165 280.6125 0083377 103.9330 257.1147 14.14397356 41554
CZ-6A DEB
1 64654U 24140AEU 25225.58817991  .00001860  00000-0  93213-3 0  9996
2 64654  88.3163 280.4251 0083327 100.8674 260.1904 14.14400673 41699
CZ-6A DEB
1 64654U 24140AEU 25225.58817991  .00001860  00000-0  93213-3 0  9996
2 64654  88.3163 280.4251 0083327 100.8674 260.1904 14.14400673 41699
CZ-6A DEB
1 64654U 24140AEU 25226.57862294  .00001961  00000-0  98328-3 0  9996
2 64654  88.3162 280.2375 0083287  97.7939 263.2713 14.14404718 41838
CZ-6A DEB
1 64654U 24140AEU 25227.14458880  .00001867  00000-0  93549-3 0  9997
2 64654  88.3163 280.1305 0083269  96.0335 265.0348 14.14406661 41915
CZ-6A DEB
1 64654U 24140AEU 25228.13502668  .00001731  00000-0  86686-3 0  9995
2 64654  88.3163 279.9431 0083231  92.9616 268.1099 14.14410010 42053
CZ-6A DEB
1 64654U 24140AEU 25228.13502668  .00001731  00000-0  86686-3 0  9995
2 64654  88.3163 279.9431 0083231  92.9616 268.1099 14.14410010 42053
CZ-6A DEB
1 64654U 24140AEU 25229.12546194  .00001648  00000-0  82480-3 0  9992
2 64654  88.3164 279.7556 0083179  89.8877 271.1841 14.14413174 42193
CZ-6A DEB
1 64654U 24140AEU 25231.60153837  .00001658  00000-0  83004-3 0  9990
2 64654  88.3162 279.2873 0083028  82.1354 278.9247 14.14421036 42547
CZ-6A DEB
1 64654U 24140AEU 25231.60153837  .00001658  00000-0  83004-3 0  9990
2 64654  88.3162 279.2873 0083028  82.1354 278.9247 14.14421036 42547
CZ-6A DEB
1 64654U 24140AEU 25232.59196352  .00001653  00000-0  82729-3 0  9996
2 64654  88.3159 279.0996 0082955  79.0271 282.0234 14.14424372 42681
CZ-6A DEB
1 64654U 24140AEU 25233.58238668  .00001542  00000-0  77131-3 0  9991
2 64654  88.3160 278.9123 0082869  75.9410 285.0971 14.14426828 42822
CZ-6A DEB
1 64654U 24140AEU 25236.55363999  .00001593  00000-0  79710-3 0  9998
2 64654  88.3158 278.3502 0082643  66.6552 294.3302 14.14436264 43241
CZ-6A DEB
1 64654U 24140AEU 25237.61479579  .00001618  00000-0  80979-3 0  9995
2 64654  88.3154 278.1492 0082520  63.3315 297.6292 14.14439754 43395
CZ-6A DEB
1 64654U 24140AEU 25239.59561032  .00001979  00000-0  99267-3 0  9990
2 64654  88.3152 277.7742 0082285  57.1236 303.7835 14.14448361 43674
CZ-6A DEB
1 64654U 24140AEU 25240.09081158  .00002155  00000-0  10813-2 0  9999
2 64654  88.3151 277.6805 0082248  55.5690 305.3235 14.14451202 43745
CZ-6A DEB
1 64654U 24140AEU 25241.08121203  .00002350  00000-0  11801-2 0  9990
2 64654  88.3150 277.4932 0082155  52.4639 308.3976 14.14456076 43883
CZ-6A DEB
1 64654U 24140AEU 25241.57641175  .00002244  00000-0  11267-2 0  9997
2 64654  88.3149 277.4001 0082132  50.8961 309.9491 14.14457291 43950
CZ-6A DEB
1 64654U 24140AEU 25242.07160937  .00002352  00000-0  11809-2 0  9997
2 64654  88.3147 277.3065 0082055  49.3319 311.4962 14.14460027 44022
CZ-6A DEB
1 64654U 24140AEU 25242.56680574  .00002638  00000-0  13255-2 0  9999
2 64654  88.3146 277.2127 0081963  47.7459 313.0641 14.14463849 44097
CZ-6A DEB
1 64654U 24140AEU 25243.06200089  .00002751  00000-0  13830-2 0  9999
2 64654  88.3148 277.1189 0081884  46.1814 314.6104 14.14466926 44164
CZ-6A DEB
1 64654U 24140AEU 25243.55719689  .00003136  00000-0  15777-2 0  9994
2 64654  88.3151 277.0247 0081823  44.6697 316.1042 14.14469467 44236
CZ-6A DEB
1 64654U 24140AEU 25244.05239013  .00003406  00000-0  17137-2 0  9990
2 64654  88.3150 276.9305 0081773  43.0997 317.6553 14.14473138 44309
CZ-6A DEB
1 64654U 24140AEU 25245.53796340  .00004040  00000-0  20340-2 0  9990
2 64654  88.3152 276.6489 0081588  38.3829 322.3124 14.14483768 44516
CZ-6A DEB
1 64654U 24140AEU 25247.09426532  .00003313  00000-0  16670-2 0  9999
2 64654  88.3149 276.3543 0081371  33.4383 327.1904 14.14492119 44734
CZ-6A DEB
1 64654U 24140AEU 25248.08463295  .00003086  00000-0  15524-2 0  9990
2 64654  88.3149 276.1672 0081225  30.3006 330.2839 14.14498215 44871
CZ-6A DEB
1 64654U 24140AEU 25249.07499679  .00002701  00000-0  13575-2 0  9992
2 64654  88.3145 275.9797 0081041  27.1230 333.4155 14.14503103 45017
CZ-6A DEB
1 64654U 24140AEU 25250.06535600  .00002986  00000-0  15016-2 0  9995
2 64654  88.3142 275.7922 0080904  23.9707 336.5212 14.14509803 45158
CZ-6A DEB
1 64654U 24140AEU 25251.05571298  .00002244  00000-0  11270-2 0  9993
2 64654  88.3139 275.6046 0080766  20.8175 339.6269 14.14512298 45294
CZ-6A DEB
1 64654U 24140AEU 25252.04606691  .00001842  00000-0  92384-3 0  9998
2 64654  88.3132 275.4168 0080601  17.6260 342.7694 14.14515466 45430
CZ-6A DEB
1 64654U 24140AEU 25252.54124283  .00001766  00000-0  88545-3 0  9994
2 64654  88.3131 275.3229 0080544  16.0590 344.3122 14.14517291 45501
CZ-6A DEB
1 64654U 24140AEU 25253.03641819  .00001589  00000-0  79563-3 0  9991
2 64654  88.3130 275.2289 0080489  14.4843 345.8623 14.14518664 45570
CZ-6A DEB
1 64654U 24140AEU 25254.02676712  .00001537  00000-0  76928-3 0  9996
2 64654  88.3132 275.0413 0080360  11.3242 348.9729 14.14521962 45718
CZ-6A DEB
1 64654U 24140AEU 25254.52194072  .00001702  00000-0  85297-3 0  9998
2 64654  88.3131 274.9473 0080300   9.7446 350.5275 14.14524119 45781
CZ-6A DEB
1 64654U 24140AEU 25256.00745830  .00001503  00000-0  75234-3 0  9996
2 64654  88.3131 274.6655 0080096   4.9808 355.2156 14.14528271 45997
CZ-6A DEB
1 64654U 24140AEU 25256.50263001  .00001684  00000-0  84424-3 0  9997
2 64654  88.3136 274.5717 0080036   3.3797 356.7913 14.14530229 46066
CZ-6A DEB
1 64654U 24140AEU 25256.99780086  .00001626  00000-0  81458-3 0  9997
2 64654  88.3137 274.4777 0079969   1.7740 358.3714 14.14531600 46134
CZ-6A DEB
1 64654U 24140AEU 25259.04921591  .00001992  00000-0  99986-3 0  9995
2 64654  88.3140 274.0892 0079694 355.1375   4.9028 14.14539885 46424
CZ-6A DEB
1 64654U 24140AEU 25260.53471610  .00001812  00000-0  90868-3 0  9994
2 64654  88.3136 273.8080 0079562 350.3801   9.5857 14.14545009 46639
CZ-6A DEB
1 64654U 24140AEU 25261.02988139  .00001871  00000-0  93873-3 0  9992
2 64654  88.3132 273.7137 0079495 348.7545  11.1862 14.14547195 46709
CZ-6A DEB
1 64654U 24140AEU 25262.02021001  .00001978  00000-0  99270-3 0  9994
2 64654  88.3129 273.5256 0079384 345.5511  14.3405 14.14551671 46847
CZ-6A DEB
1 64654U 24140AEU 25262.51537332  .00001996  00000-0  10020-2 0  9992
2 64654  88.3130 273.4317 0079300 343.9567  15.9109 14.14553757 46910
CZ-6A DEB
1 64654U 24140AEU 25263.50569705  .00002348  00000-0  11802-2 0  9992
2 64654  88.3129 273.2435 0079178 340.7539  19.0660 14.14559924 47059
CZ-6A DEB
1 64654U 24140AEU 25264.49601710  .00002763  00000-0  13899-2 0  9993
2 64654  88.3125 273.0551 0079053 337.5474  22.2259 14.14566752 47198
CZ-6A DEB
1 64654U 24140AEU 25266.97179628  .00004590  00000-0  23131-2 0  9996
2 64654  88.3128 272.5863 0078721 329.4419  30.2192 14.14587503 47542
CZ-6A DEB
1 64654U 24140AEU 25269.02312453  .00004726  00000-0  23816-2 0  9991
2 64654  88.3133 272.1985 0078411 322.7432  36.8329 14.14607610 47834
CZ-6A DEB
1 64654U 24140AEU 25269.44753423  .00004641  00000-0  23383-2 0  9998
2 64654  88.3133 272.1179 0078401 321.3494  38.2096 14.14611233 47890
CZ-6A DEB
1 64654U 24140AEU 25271.00369348  .00004636  00000-0  23358-2 0  9998
2 64654  88.3137 271.8225 0078231 316.2214  43.2787 14.14625419 48116
CZ-6A DEB
1 64654U 24140AEU 25271.99396829  .00005195  00000-0  26179-2 0  9995
2 64654  88.3138 271.6344 0078130 312.9666  46.4986 14.14636204 48254
CZ-6A DEB
1 64654U 24140AEU 25272.41836988  .00005101  00000-0  25705-2 0  9999
2 64654  88.3138 271.5539 0078088 311.5782  47.8728 14.14640100 48311
CZ-6A DEB
1 64654U 24140AEU 25274.46961728  .00006779  00000-0  34164-2 0  9998
2 64654  88.3133 271.1661 0077751 304.8644  54.5249 14.14671471 48606
CZ-6A DEB
1 64654U 24140AEU 25274.96473941  .00006541  00000-0  32959-2 0  9995
2 64654  88.3134 271.0721 0077711 303.2454  56.1301 14.14678567 48678
CZ-6A DEB
1 64654U 24140AEU 25274.96473941  .00006541  00000-0  32959-2 0  9995
2 64654  88.3134 271.0721 0077711 303.2454  56.1301 14.14678567 48678
CZ-6A DEB
1 64654U 24140AEU 25278.43054816  .00003840  00000-0  19319-2 0  9991
2 64654  88.3127 270.4150 0077323 291.8919  67.4059 14.14711473 49160
CZ-6A DEB
1 64654U 24140AEU 25279.42076815  .00003327  00000-0  16729-2 0  9996
2 64654  88.3125 270.2272 0077246 288.6479  70.6332 14.14717697 49300
CZ-6A DEB
1 64654U 24140AEU 25279.42076815  .00003327  00000-0  16729-2 0  9996
2 64654  88.3125 270.2272 0077246 288.6479  70.6332 14.14717697 49300
CZ-6A DEB
1 64654U 24140AEU 25281.40119451  .00003737  00000-0  18791-2 0  9997
2 64654  88.3124 269.8503 0077330 282.0317  77.2211 14.14732160 49584
CZ-6A DEB
1 64654U 24140AEU 25281.40119452  .00003737  00000-0  18791-2 0  9998
2 64654  88.3124 269.8503 0077330 282.0317  77.2211 14.14732160 49584
CZ-6A DEB
1 64654U 24140AEU 25282.39140228  .00002947  00000-0  14803-2 0  9994
2 64654  88.3130 269.6622 0077207 278.8440  80.4010 14.14737388 49720
CZ-6A DEB
1 64654U 24140AEU 25282.39140229  .00002947  00000-0  14803-2 0  9995
2 64654  88.3130 269.6622 0077207 278.8440  80.4010 14.14737388 49720
CZ-6A DEB
1 64654U 24140AEU 25283.45233486  .00002970  00000-0  14920-2 0  9997
2 64654  88.3138 269.4615 0077135 275.3461  83.8929 14.14743933 49878
CZ-6A DEB
1 64654U 24140AEU 25283.45233487  .00002970  00000-0  14920-2 0  9998
2 64654  88.3138 269.4615 0077135 275.3461  83.8929 14.14743933 49878
CZ-6A DEB
1 64654U 24140AEU 25284.93763309  .00003359  00000-0  16878-2 0  9999
2 64654  88.3149 269.1799 0077065 270.4112  88.8245 14.14753880 50084
CZ-6A DEB
1 64654U 24140AEU 25285.57418623  .00003628  00000-0  18234-2 0  9993
2 64654  88.3147 269.0592 0077043 268.2948  90.9413 14.14758754 50176
CZ-6A DEB
1 64654U 24140AEU 25285.92782592  .00003784  00000-0  19024-2 0  9992
2 64654  88.3144 268.9928 0077039 267.0926  92.1442 14.14761765 50220
CZ-6A DEB
1 64654U 24140AEU 25286.49364843  .00003550  00000-0  17839-2 0  9993
2 64654  88.3144 268.8856 0077001 265.2307  94.0084 14.14765498 50300
CZ-6A DEB
1 64654U 24140AEU 25286.91801432  .00003456  00000-0  17366-2 0  9990
2 64654  88.3145 268.8052 0076999 263.8207  95.4204 14.14768502 50361
CZ-6A DEB
1 64654U 24140AEU 25287.27165214  .00003348  00000-0  16820-2 0  9995
2 64654  88.3145 268.7381 0076995 262.6495  96.5937 14.14770705 50416
CZ-6A DEB
1 64654U 24140AEU 25287.83747183  .00003096  00000-0  15547-2 0  9993
2 64654  88.3144 268.6310 0076954 260.7879  98.4598 14.14773925 50495
CZ-6A DEB
1 64654U 24140AEU 25288.40329005  .00003175  00000-0  15945-2 0  9996
2 64654  88.3143 268.5236 0076939 258.9239 100.3289 14.14777846 50577
CZ-6A DEB
1 64654U 24140AEU 25288.89838041  .00003494  00000-0  17554-2 0  9996
2 64654  88.3142 268.4299 0076927 257.2954 101.9625 14.14781349 50649
CZ-6A DEB
1 64654U 24140AEU 25289.11056147  .00003080  00000-0  15467-2 0  9993
2 64654  88.3142 268.3896 0076937 256.5911 102.6691 14.14781706 50678
CZ-6A DEB
1 64654U 24140AEU 25289.32274258  .00003123  00000-0  15683-2 0  9999
2 64654  88.3142 268.3494 0076952 255.8907 103.3720 14.14782980 50706
CZ-6A DEB
1 64654U 24140AEU 25289.81783091  .00004037  00000-0  20286-2 0  9993
2 64654  88.3142 268.2555 0076983 254.2720 104.9966 14.14788856 50777
CZ-6A DEB
1 64654U 24140AEU 25289.81783092  .00004037  00000-0  20286-2 0  9994
2 64654  88.3142 268.2555 0076983 254.2720 104.9966 14.14788856 50777
CZ-6A DEB
1 64654U 24140AEU 25290.38364523  .00003478  00000-0  17469-2 0  9999
2 64654  88.3142 268.1483 0076997 252.4042 106.8724 14.14790486 50852
CZ-6A DEB
1 64654U 24140AEU 25290.94945777  .00003850  00000-0  19341-2 0  9992
2 64654  88.3141 268.0410 0077012 250.5449 108.7405 14.14795278 50939
CZ-6A DEB
1 64654U 24140AEU 25290.94945777  .00003850  00000-0  19341-2 0  9992
2 64654  88.3141 268.0410 0077012 250.5449 108.7405 14.14795278 50939
CZ-6A DEB
1 64654U 24140AEU 25292.92978843  .00004774  00000-0  23991-2 0  9994
2 64654  88.3142 267.6655 0077084 244.0121 115.3112 14.14812589 51216
CZ-6A DEB
1 64654U 24140AEU 25292.92978843  .00004774  00000-0  23991-2 0  9994
2 64654  88.3142 267.6655 0077084 244.0121 115.3112 14.14812589 51216
CZ-6A DEB
1 64654U 24140AEU 25293.42486701  .00004715  00000-0  23689-2 0  9996
2 64654  88.3141 267.5714 0077105 242.3936 116.9407 14.14817233 51281
CZ-6A DEB
1 64654U 24140AEU 25293.91994474  .00004192  00000-0  21055-2 0  9995
2 64654  88.3143 267.4777 0077105 240.7507 118.5956 14.14820455 51352
CZ-6A DEB
1 64654U 24140AEU 25294.41502099  .00003970  00000-0  19931-2 0  9992
2 64654  88.3145 267.3838 0077102 239.0966 120.2624 14.14824287 51425
CZ-6A DEB
1 64654U 24140AEU 25294.91009613  .00003667  00000-0  18407-2 0  9991
2 64654  88.3144 267.2900 0077091 237.4532 121.9192 14.14827655 51498
CZ-6A DEB
1 64654U 24140AEU 25295.12227095  .00003469  00000-0  17407-2 0  9990
2 64654  88.3146 267.2498 0077105 236.7430 122.6352 14.14828677 51522
CZ-6A DEB
1 64654U 24140AEU 25295.12227095  .00003469  00000-0  17407-2 0  9990
2 64654  88.3146 267.2498 0077105 236.7430 122.6352 14.14828677 51522
CZ-6A DEB
1 64654U 24140AEU 25295.33444551  .00003442  00000-0  17269-2 0  9998
2 64654  88.3147 267.2096 0077107 236.0372 123.3471 14.14830238 51556
CZ-6A DEB
1 64654U 24140AEU 25295.90024346  .00003283  00000-0  16471-2 0  9994
2 64654  88.3148 267.1023 0077103 234.1598 125.2411 14.14833953 51632
CZ-6A DEB
1 64654U 24140AEU 25296.39531551  .00003281  00000-0  16459-2 0  9993
2 64654  88.3149 267.0084 0077096 232.5113 126.9048 14.14837404 51702
CZ-6A DEB
1 64654U 24140AEU 25296.39531552  .00003281  00000-0  16459-2 0  9994
2 64654  88.3149 267.0084 0077096 232.5113 126.9048 14.14837404 51702
CZ-6A DEB
1 64654U 24140AEU 25297.88052598  .00003075  00000-0  15415-2 0  9999
2 64654  88.3154 266.7269 0077119 227.5849 131.8798 14.14846625 51910
CZ-6A DEB
1 64654U 24140AEU 25297.88052599  .00003075  00000-0  15415-2 0  9990
2 64654  88.3154 266.7269 0077119 227.5849 131.8798 14.14846625 51910
CZ-6A DEB
1 64654U 24140AEU 25298.37559412  .00003153  00000-0  15809-2 0  9995
2 64654  88.3155 266.6330 0077141 225.9472 133.5346 14.14849948 51984
CZ-6A DEB
1 64654U 24140AEU 25298.87066154  .00002910  00000-0  14582-2 0  9993
2 64654  88.3156 266.5392 0077158 224.3082 135.1913 14.14852344 52051
CZ-6A DEB
1 64654U 24140AEU 25298.87066155  .00002910  00000-0  14582-2 0  9994
2 64654  88.3156 266.5392 0077158 224.3082 135.1913 14.14852344 52051
CZ-6A DEB
1 64654U 24140AEU 25299.36572818  .00002787  00000-0  13961-2 0  9999
2 64654  88.3157 266.4454 0077176 222.6719 136.8459 14.14854857 52120
CZ-6A DEB
1 64654U 24140AEU 25299.93151763  .00003066  00000-0  15365-2 0  9995
2 64654  88.3158 266.3384 0077186 220.8173 138.7218 14.14858733 52207
CZ-6A DEB
1 64654U 24140AEU 25299.93151763  .00003066  00000-0  15365-2 0  9995
2 64654  88.3158 266.3384 0077186 220.8173 138.7218 14.14858733 52207
CZ-6A DEB
1 64654U 24140AEU 25300.35585911  .00003067  00000-0  15373-2 0  9990
2 64654  88.3159 266.2580 0077213 219.4252 140.1301 14.14860959 52267
CZ-6A DEB
1 64654U 24140AEU 25300.92164620  .00003162  00000-0  15845-2 0  9993
2 64654  88.3158 266.1508 0077261 217.5724 142.0051 14.14864522 52343
CZ-6A DEB
1 64654U 24140AEU 25301.34598600  .00003141  00000-0  15742-2 0  9992
2 64654  88.3158 266.0704 0077306 216.1860 143.4083 14.14866726 52401
CZ-6A DEB
1 64654U 24140AEU 25301.91177100  .00003179  00000-0  15932-2 0  9995
2 64654  88.3154 265.9630 0077377 214.3509 145.2663 14.14870100 52484
CZ-6A DEB
1 64654U 24140AEU 25302.40683194  .00003231  00000-0  16190-2 0  9991
2 64654  88.3161 265.8698 0077408 212.7060 146.9322 14.14873126 52553
CZ-6A DEB
1 64654U 24140AEU 25302.90189198  .00003189  00000-0  15978-2 0  9996
2 64654  88.3160 265.7761 0077438 211.0811 148.5784 14.14875920 52623
CZ-6A DEB
1 64654U 24140AEU 25303.89200818  .00003364  00000-0  16852-2 0  9995
2 64654  88.3165 265.5884 0077566 207.8149 151.8881 14.14882896 52761
CZ-6A DEB
1 64654U 24140AEU 25304.88212018  .00003085  00000-0  15446-2 0  9998
2 64654  88.3165 265.4010 0077644 204.5641 155.1841 14.14888727 52907
CZ-6A DEB
1 64654U 24140AEU 25305.87222829  .00002799  00000-0  14004-2 0  9999
2 64654  88.3165 265.2136 0077716 201.3049 158.4898 14.14894337 53049
CZ-6A DEB
1 64654U 24140AEU 25307.85243377  .00002508  00000-0  12537-2 0  9997
2 64654  88.3168 264.8388 0077893 194.8166 165.0739 14.14904990 53324
CZ-6A DEB
1 64654U 24140AEU 25307.85243378  .00002508  00000-0  12537-2 0  9998
2 64654  88.3168 264.8388 0077893 194.8166 165.0739 14.14904990 53324
CZ-6A DEB
1 64654U 24140AEU 25308.84253159  .00002258  00000-0  11276-2 0  9997
2 64654  88.3165 264.6516 0078002 191.5144 168.4262 14.14909373 53468
CZ-6A DEB
1 64654U 24140AEU 25308.84253159  .00002258  00000-0  11276-2 0  9997
2 64654  88.3165 264.6516 0078002 191.5144 168.4262 14.14909373 53468
CZ-6A DEB
1 64654U 24140AEU 25309.83262590  .00002508  00000-0  12534-2 0  9992
2 64654  88.3168 264.4641 0078102 188.2965 171.6937 14.14915175 53601
CZ-6A DEB
1 64654U 24140AEU 25311.88352097  .00003350  00000-0  16756-2 0  9998
2 64654  88.3176 264.0757 0078292 181.7118 178.3814 14.14929955 53892
CZ-6A DEB
1 64654U 24140AEU 25311.88352098  .00003350  00000-0  16756-2 0  9999
2 64654  88.3176 264.0757 0078292 181.7118 178.3814 14.14929955 53892
CZ-6A DEB
1 64654U 24140AEU 25314.35871154  .00003614  00000-0  18074-2 0  9991
2 64654  88.3176 263.6077 0078583 173.5671 186.6545 14.14947793 54241
CZ-6A DEB
1 64654U 24140AEU 25315.27805962  .00003962  00000-0  19815-2 0  9997
2 64654  88.3173 263.4331 0078696 170.6382 189.6295 14.14955471 54372
CZ-6A DEB
1 64654U 24140AEU 25315.34877845  .00003983  00000-0  19921-2 0  9995
2 64654  88.3171 263.4193 0078686 170.4052 189.8660 14.14956094 54388
CZ-6A DEB
1 64654U 24140AEU 25317.25816992  .00005868  00000-0  29361-2 0  9996
2 64654  88.3176 263.0579 0078920 164.2256 196.1417 14.14980593 54657
CZ-6A DEB
1 64654U 24140AEU 25317.25816993  .00005868  00000-0  29361-2 0  9997
2 64654  88.3176 263.0579 0078920 164.2256 196.1417 14.14980593 54657
CZ-6A DEB
1 64654U 24140AEU 25318.81394583  .00003809  00000-0  19025-2 0  9995
2 64654  88.3176 262.7635 0079213 159.2506 201.1929 14.14996003 54876
CZ-6A DEB
1 64654U 24140AEU 25319.80397778  .00003309  00000-0  16511-2 0  9996
2 64654  88.3177 262.5763 0079351 156.0860 204.4047 14.15003720 55018
CZ-6A DEB
1 64654U 24140AEU 25319.80397778  .00003309  00000-0  16511-2 0  9996
2 64654  88.3177 262.5763 0079351 156.0860 204.4047 14.15003720 55018
CZ-6A DEB
1 64654U 24140AEU 25321.28901722  .00003530  00000-0  17612-2 0  9990
2 64654  88.3173 262.2947 0079562 151.3022 209.2579 14.15014222 55222
CZ-6A DEB
1 64654U 24140AEU 25321.28901723  .00003530  00000-0  17612-2 0  9991
2 64654  88.3173 262.2947 0079562 151.3022 209.2579 14.15014222 55222
CZ-6A DEB
1 64654U 24140AEU 25325.31978983  .00002892  00000-0  14403-2 0  9996
2 64654  88.3184 261.5318 0080016 138.3730 222.3586 14.15036504 55798
CZ-6A DEB
1 64654U 24140AEU 25325.81479179  .00002722  00000-0  13551-2 0  9999
2 64654  88.3181 261.4374 0080065 136.8142 223.9362 14.15039077 55865
CZ-6A DEB
1 64654U 24140AEU 25326.30979317  .00002836  00000-0  14120-2 0  9992
2 64654  88.3185 261.3451 0080089 135.2676 225.5008 14.15041822 55939
CZ-6A DEB
1 64654U 24140AEU 25326.30979318  .00002836  00000-0  14120-2 0  9993
2 64654  88.3185 261.3451 0080089 135.2676 225.5008 14.15041822 55939
CZ-6A DEB
1 64654U 24140AEU 25326.80479350  .00002510  00000-0  12487-2 0  9992
2 64654  88.3193 261.2511 0080212 133.7199 227.0668 14.15043643 56006
CZ-6A DEB
1 64654U 24140AEU 25326.80479350  .00002510  00000-0  12487-2 0  9992
2 64654  88.3193 261.2511 0080212 133.7199 227.0669 14.15043643 56007
CZ-6A DEB
1 64654U 24140AEU 25327.79479161  .00002265  00000-0  11261-2 0  9997
2 64654  88.3187 261.0644 0080325 130.5281 230.2939 14.15048529 56146
CZ-6A DEB
1 64654U 24140AEU 25327.79479161  .00002265  00000-0  11261-2 0  9997
2 64654  88.3187 261.0644 0080325 130.5281 230.2940 14.15048529 56148
CZ-6A DEB
1 64654U 24140AEU 25332.24972745  .00002676  00000-0  13305-2 0  9996
2 64654  88.3186 260.2227 0080849 116.3944 244.5571 14.15074287 56771
CZ-6A DEB
1 64654U 24140AEU 25333.23970303  .00002535  00000-0  12595-2 0  9998
2 64654  88.3174 260.0343 0081045 113.1095 247.8660 14.15078910 56914
CZ-6A DEB
1 64654U 24140AEU 25334.79536443  .00002655  00000-0  13195-2 0  9993
2 64654  88.3174 259.7403 0080911 108.4978 252.5023 14.15088698 57139
CZ-6A DEB
1 64654U 24140AEU 25334.79536444  .00002655  00000-0  13195-2 0  9994
2 64654  88.3174 259.7403 0080911 108.4979 252.5023 14.15088699 57131
CZ-6A DEB
1 64654U 24140AEU 25335.78532635  .00002777  00000-0  13801-2 0  9991
2 64654  88.3178 259.5530 0081024 105.3087 255.7073 14.15095044 57273
CZ-6A DEB
1 64654U 24140AEU 25336.20959421  .00003334  00000-0  16585-2 0  9997
2 64654  88.3179 259.4726 0081055 103.9766 257.0450 14.15099242 57337
CZ-6A DEB
1 64654U 24140AEU 25336.20959422  .00003334  00000-0  16585-2 0  9998
2 64654  88.3179 259.4726 0081055 103.9767 257.0450 14.15099242 57338
CZ-6A DEB
1 64654U 24140AEU 25336.77528323  .00003402  00000-0  16923-2 0  9994
2 64654  88.3187 259.3662 0081155 102.2270 258.8021 14.15102908 57413
CZ-6A DEB
1 64654U 24140AEU 25336.77528324  .00003402  00000-0  16923-2 0  9995
2 64654  88.3187 259.3662 0081155 102.2270 258.8021 14.15102908 57413
CZ-6A DEB
1 64654U 24140AEU 25340.73504543  .00004565  00000-0  22708-2 0  9992
2 64654  88.3196 258.6174 0081483  89.8578 271.1946 14.15138644 57979
CZ-6A DEB
1 64654U 24140AEU 25342.21992943  .00003989  00000-0  19831-2 0  9994
2 64654  88.3199 258.3373 0081527  85.2510 275.7981 14.15149389 58186
CZ-6A DEB
1 64654U 24140AEU 25344.19975450  .00003940  00000-0  19582-2 0  9997
2 64654  88.3196 257.9634 0081439  79.0745 281.9592 14.15164111 58469
CZ-6A DEB
1 64654U 24140AEU 25344.19975451  .00003940  00000-0  19582-2 0  9998
2 64654  88.3196 257.9634 0081439  79.0745 281.9592 14.15164111 58469
CZ-6A DEB
1 64654U 24140AEU 25345.26036566  .00004558  00000-0  22658-2 0  9996
2 64654  88.3192 257.7638 0081482  75.7140 285.3079 14.15173953 58616
CZ-6A DEB
1 64654U 24140AEU 25346.25026260  .00004124  00000-0  20492-2 0  9999
2 64654  88.3194 257.5767 0081492  72.6293 288.3785 14.15181362 58750
CZ-6A DEB
1 64654U 24140AEU 25346.74520926  .00004065  00000-0  20194-2 0  9994
2 64654  88.3194 257.4829 0081637  71.0506 289.9506 14.15185424 58828
CZ-6A DEB
1 64654U 24140AEU 25347.24015332  .00004193  00000-0  20829-2 0  9997
2 64654  88.3193 257.3894 0081658  69.5058 291.4870 14.15190253 58890
CZ-6A DEB
1 64654U 24140AEU 25347.73509697  .00003321  00000-0  16481-2 0  9994
2 64654  88.3199 257.2958 0081677  67.9857 292.9982 14.15191898 58960
CZ-6A DEB
1 64654U 24140AEU 25349.71485948  .00002059  00000-0  10187-2 0  9990
2 64654  88.3208 256.9214 0081774  61.8241 299.1175 14.15201303 59248
CZ-6A DEB
1 64654U 24140AEU 25350.20979808  .00002099  00000-0  10387-2 0  9995
2 64654  88.3203 256.8280 0081860  60.3207 300.6098 14.15203695 59313
CZ-6A DEB
1 64654U 24140AEU 25351.19967224  .00002289  00000-0  11332-2 0  9995
2 64654  88.3208 256.6411 0081888  57.2356 303.6687 14.15208587 59459
CZ-6A DEB
1 64654U 24140AEU 25351.69460764  .00002222  00000-0  10997-2 0  9990
2 64654  88.3208 256.5477 0081807  55.6715 305.2179 14.15210720 59526
CZ-6A DEB
1 64654U 24140AEU 25354.16927236  .00002088  00000-0  10331-2 0  9999
2 64654  88.3214 256.0810 0081817  47.9347 312.8762 14.15221734 59872
CZ-6A DEB
1 64654U 24140AEU 25354.16927237  .00002088  00000-0  10331-2 0  9990
2 64654  88.3214 256.0810 0081817  47.9347 312.8762 14.15221734 59872
CZ-6A DEB
1 64654U 24140AEU 25354.73490681  .00001950  00000-0  96424-3 0  9996
2 64654  88.3212 255.9742 0081736  46.1548 314.6355 14.15223832 59954
CZ-6A DEB
1 64654U 24140AEU 25354.73490681  .00001950  00000-0  96424-3 0  9996
2 64654  88.3212 255.9742 0081736  46.1548 314.6355 14.15223832 59954
CZ-6A DEB
1 64654U 24140AEU 25355.15913215  .00001956  00000-0  96707-3 0  9996
2 64654  88.3206 255.8935 0081587  44.8135 315.9602 14.15225519 60013
CZ-6A DEB
1 64654U 24140AEU 25355.22983637  .00002181  00000-0  10792-2 0  9999
2 64654  88.3206 255.8802 0081563  44.5838 316.1871 14.15226453 60027
CZ-6A DEB
1 64654U 24140AEU 25355.22983637  .00002181  00000-0  10792-2 0  9999
2 64654  88.3206 255.8802 0081563  44.5838 316.1871 14.15226453 60027
CZ-6A DEB
1 64654U 24140AEU 25355.72476483  .00002202  00000-0  10899-2 0  9992
2 64654  88.3204 255.7867 0081515  43.0275 317.7246 14.15228730 60091
CZ-6A DEB
1 64654U 24140AEU 25356.14898804  .00002692  00000-0  13340-2 0  9991
2 64654  88.3204 255.7064 0081569  41.7042 319.0324 14.15232515 60151
CZ-6A DEB
1 64654U 24140AEU 25356.21969173  .00002735  00000-0  13553-2 0  9991
2 64654  88.3204 255.6933 0081548  41.4744 319.2593 14.15233051 60165
CZ-6A DEB
1 64654U 24140AEU 25356.71461799  .00002641  00000-0  13085-2 0  9993
2 64654  88.3202 255.5996 0081527  39.9204 320.7939 14.15235264 60238
CZ-6A DEB
1 64654U 24140AEU 25357.20954317  .00002748  00000-0  13616-2 0  9999
2 64654  88.3202 255.5063 0081485  38.3685 322.3259 14.15238129 60306
CZ-6A DEB
1 64654U 24140AEU 25358.69431214  .00002793  00000-0  13840-2 0  9998
2 64654  88.3199 255.2258 0081403  33.7294 326.9034 14.15246625 60513
CZ-6A DEB
1 64654U 24140AEU 25358.69431215  .00002793  00000-0  13840-2 0  9999
2 64654  88.3199 255.2259 0081403  33.7294 326.9034 14.15246625 60514
CZ-6A DEB
1 64654U 24140AEU 25359.68415228  .00002908  00000-0  14415-2 0  9992
2 64654  88.3199 255.0387 0081342  30.6258 329.9640 14.15252969 60651
CZ-6A DEB
1 64654U 24140AEU 25359.68415229  .00002908  00000-0  14415-2 0  9993
2 64654  88.3199 255.0387 0081342  30.6258 329.9640 14.15252969 60651
CZ-6A DEB
1 64654U 24140AEU 25360.17907077  .00002890  00000-0  14322-2 0  9993
2 64654  88.3198 254.9452 0081341  29.1022 331.4662 14.15255927 60729
CZ-6A DEB
1 64654U 24140AEU 25360.67398793  .00002937  00000-0  14557-2 0  9999
2 64654  88.3198 254.8516 0081304  27.5483 332.9977 14.15259136 60799
CZ-6A DEB
1 64654U 24140AEU 25360.67398793  .00002937  00000-0  14557-2 0  9999
2 64654  88.3198 254.8516 0081304  27.5483 332.9977 14.15259136 60799
CZ-6A DEB
1 64654U 24140AEU 25362.65364388  .00003495  00000-0  17334-2 0  9998
2 64654  88.3197 254.4774 0081173  21.3426 339.1113 14.15273953 61079
CZ-6A DEB
1 64654U 24140AEU 25362.65364388  .00003495  00000-0  17334-2 0  9998
2 64654  88.3197 254.4774 0081173  21.3426 339.1113 14.15273953 61079
CZ-6A DEB
1 64654U 24140AEU 25363.71416410  .00004075  00000-0  20220-2 0  9993
2 64654  88.3208 254.2773 0081055  17.9672 342.4350 14.15283795 61224
CZ-6A DEB
1 64654U 24140AEU 25364.20907142  .00004500  00000-0  22339-2 0  9991
2 64654  88.3199 254.1825 0080944  16.3626 344.0145 14.15288611 61297
CZ-6A DEB
1 64654U 24140AEU 25364.70397698  .00004494  00000-0  22307-2 0  9992
2 64654  88.3201 254.0883 0080861  14.8197 345.5332 14.15292926 61364
CZ-6A DEB
1 64654U 24140AEU 25364.70397698  .00004494  00000-0  22307-2 0  9992
2 64654  88.3201 254.0883 0080861  14.8197 345.5332 14.15292926 61364
CZ-6A DEB
1 64654U 24140AEU 25365.12818007  .00004960  00000-0  24625-2 0  9994
2 64654  88.3203 254.0082 0080809  13.4540 346.8775 14.15297932 61420
CZ-6A DEB
1 64654U 24140AEU 25365.19888064  .00004685  00000-0  23257-2 0  9995
2 64654  88.3199 253.9945 0080798  13.2368 347.0912 14.15297863 61433
CZ-6A DEB
1 64654U 24140AEU 25365.19888064  .00004685  00000-0  23257-2 0  9995
2 64654  88.3199 253.9945 0080798  13.2368 347.0912 14.15297863 61433
CZ-6A DEB
1 64654U 24140AEU 25365.69378325  .00004698  00000-0  23320-2 0  9999
2 64654  88.3199 253.9010 0080764  11.6903 348.6135 14.15302096 61503
CZ-6A DEB
1 64654U 24140AEU 26001.18868375  .00004404  00000-0  21856-2 0  9997
2 64654  88.3202 253.8079 0080704  10.1065 350.1721 14.15305981 61571
CZ-6A DEB
1 64654U 24140AEU 26001.18868376  .00004404  00000-0  21856-2 0  9998
2 64654  88.3202 253.8079 0080704  10.1065 350.1721 14.15305981 61571
CZ-6A DEB
1 64654U 24140AEU 26001.68358292  .00004916  00000-0  24404-2 0  9994
2 64654  88.3202 253.7143 0080647   8.5464 351.7074 14.15311549 61645
CZ-6A DEB
1 64654U 24140AEU 26001.68358292  .00004916  00000-0  24404-2 0  9994
2 64654  88.3202 253.7143 0080647   8.5464 351.7075 14.15311549 61646
CZ-6A DEB
1 64654U 24140AEU 26002.10778094  .00004585  00000-0  22754-2 0  9996
2 64654  88.3197 253.6340 0080568   7.2049 353.0275 14.15314506 61704
CZ-6A DEB
1 64654U 24140AEU 26002.10778094  .00004585  00000-0  22754-2 0  9996
2 64654  88.3197 253.6340 0080568   7.2049 353.0275 14.15314506 61704
CZ-6A DEB
1 64654U 24140AEU 26002.67337700  .00004666  00000-0  23161-2 0  9996
2 64654  88.3196 253.5271 0080515   5.4269 354.7771 14.15319470 61783
CZ-6A DEB
1 64654U 24140AEU 26002.67337701  .00004666  00000-0  23161-2 0  9997
2 64654  88.3196 253.5271 0080515   5.4269 354.7771 14.15319470 61783
CZ-6A DEB
1 64654U 24140AEU 26003.66316488  .00004266  00000-0  21167-2 0  9996
2 64654  88.3196 253.3401 0080405   2.2894 357.8645 14.15327194 61925
CZ-6A DEB
1 64654U 24140AEU 26006.63249823  .00002977  00000-0  14748-2 0  9998
2 64654  88.3185 252.7789 0080067 352.9369   7.0682 14.15346661 62343
CZ-6A DEB
1 64654U 24140AEU 26008.68273082  .00002919  00000-0  14459-2 0  9994
2 64654  88.3184 252.3912 0079789 346.3940  13.5095 14.15358516 62631
CZ-6A DEB
1 64654U 24140AEU 26008.68273083  .00002919  00000-0  14459-2 0  9995
2 64654  88.3184 252.3912 0079789 346.3940  13.5095 14.15358516 62631
CZ-6A DEB
1 64654U 24140AEU 26009.67249271  .00002609  00000-0  12917-2 0  9990
2 64654  88.3182 252.2039 0079685 343.1983  16.6566 14.15363188 62778
CZ-6A DEB
1 64654U 24140AEU 26010.66225168  .00002343  00000-0  11592-2 0  9993
2 64654  88.3191 252.0174 0079581 339.9839  19.8231 14.15367552 62913
CZ-6A DEB
1 64654U 24140AEU 26011.65200738  .00002300  00000-0  11380-2 0  9997
2 64654  88.3193 251.8305 0079496 336.8596  22.9018 14.15372230 63052
CZ-6A DEB
1 64654U 24140AEU 26014.12638506  .00001670  00000-0  82454-3 0  9990
2 64654  88.3189 251.3604 0079129 328.9379  30.7141 14.15381311 63401
CZ-6A DEB
1 64654U 24140AEU 26015.11613278  .00001488  00000-0  73383-3 0  9997
2 64654  88.3194 251.1740 0079023 325.7674  33.8433 14.15384251 63541
CZ-6A DEB
1 64654U 24140AEU 26015.61100561  .00001508  00000-0  74361-3 0  9998
2 64654  88.3197 251.0816 0079027 324.1564  35.4334 14.15386029 63613
CZ-6A DEB
1 64654U 24140AEU 26015.61100561  .00001508  00000-0  74361-3 0  9998
2 64654  88.3197 251.0816 0079027 324.1564  35.4334 14.15386029 63613
CZ-6A DEB
1 64654U 24140AEU 26017.66118785  .00002097  00000-0  10371-2 0  9996
2 64654  88.3198 250.6940 0078782 317.5074  42.0031 14.15394938 63904
CZ-6A DEB
1 64654U 24140AEU 26018.65092689  .00002220  00000-0  10981-2 0  9995
2 64654  88.3195 250.5072 0078684 314.3021  45.1730 14.15399427 64048
CZ-6A DEB
1 64654U 24140AEU 26019.64066295  .00002356  00000-0  11658-2 0  9991
2 64654  88.3188 250.3197 0078588 311.0609  48.3805 14.15404309 64184
CZ-6A DEB
1 64654U 24140AEU 26021.40802568  .00005067  00000-0  25144-2 0  9996
2 64654  88.3180 249.9846 0078396 305.3208  54.0666 14.15429039 64433
CZ-6A DEB
1 64654U 24140AEU 26021.62010733  .00005504  00000-0  27321-2 0  9990
2 64654  88.3183 249.9439 0078361 304.6565  54.7252 14.15432997 64462
CZ-6A DEB
1 64654U 24140AEU 26022.60982042  .00004402  00000-0  21835-2 0  9990
2 64654  88.3186 249.7561 0078233 301.4200  57.9353 14.15440337 64608
CZ-6A DEB
1 64654U 24140AEU 26024.58923240  .00003235  00000-0  16030-2 0  9998
2 64654  88.3179 249.3831 0078077 294.9508  64.3582 14.15453996 64880
CZ-6A DEB
1 64654U 24140AEU 26029.60838434  .00003186  00000-0  15782-2 0  9994
2 64654  88.3179 248.4323 0077650 278.5180  80.7213 14.15487243 65590
CZ-6A DEB
1 64654U 24140AEU 26030.59806423  .00002751  00000-0  13615-2 0  9997
2 64654  88.3189 248.2459 0077659 275.3654  83.8676 14.15492720 65738
CZ-6A DEB
1 64654U 24140AEU 26031.02221159  .00002407  00000-0  11904-2 0  9990
2 64654  88.3179 248.1649 0077641 273.8735  85.3578 14.15494444 65790
CZ-6A DEB
1 64654U 24140AEU 26031.02221159  .00002407  00000-0  11904-2 0  9990
2 64654  88.3179 248.1649 0077641 273.8735  85.3578 14.15494444 65790
CZ-6A DEB
1 64654U 24140AEU 26032.57741511  .00002127  00000-0  10510-2 0  9991
2 64654  88.3173 247.8701 0077437 268.7184  90.5131 14.15501465 66014
CZ-6A DEB
1 64654U 24140AEU 26033.07225121  .00001985  00000-0  98020-3 0  9995
2 64654  88.3181 247.7779 0077460 267.0253  92.2068 14.15503446 66088
CZ-6A DEB
1 64654U 24140AEU 26034.98089798  .00002344  00000-0  11586-2 0  9995
2 64654  88.3164 247.4161 0077328 260.7028  98.5408 14.15513730 66358
CZ-6A DEB
1 64654U 24140AEU 26034.98089798  .00002344  00000-0  11586-2 0  9995
2 64654  88.3164 247.4161 0077328 260.7028  98.5408 14.15513730 66358
CZ-6A DEB
1 64654U 24140AEU 26035.54642066  .00002554  00000-0  12630-2 0  9995
2 64654  88.3175 247.3079 0077379 258.8792 100.3688 14.15517177 66439
CZ-6A DEB
1 64654U 24140AEU 26035.54642066  .00002554  00000-0  12630-2 0  9995
2 64654  88.3175 247.3079 0077379 258.8792 100.3688 14.15517177 66439
CZ-6A DEB
1 64654U 24140AEU 26038.02056937  .00002844  00000-0  14069-2 0  9997
2 64654  88.3177 246.8406 0077434 250.7046 108.5755 14.15531623 66789
CZ-6A DEB
1 64654U 24140AEU 26038.02056937  .00002844  00000-0  14069-2 0  9997
2 64654  88.3177 246.8406 0077434 250.7047 108.5755 14.15531623 66780
CZ-6A DEB
1 64654U 24140AEU 26039.01022390  .00002455  00000-0  12130-2 0  9998
2 64654  88.3186 246.6521 0077498 247.4725 111.8246 14.15535409 66926
CZ-6A DEB
1 64654U 24140AEU 26039.01022391  .00002455  00000-0  12130-2 0  9999
2 64654  88.3186 246.6521 0077498 247.4725 111.8246 14.15535409 66926
CZ-6A DEB
1 64654U 24140AEU 26039.57574070  .00002338  00000-0  11552-2 0  9993
2 64654  88.3172 246.5442 0077315 245.6996 113.6103 14.15537622 67001
CZ-6A DEB
1 64654U 24140AEU 26039.57574070  .00002338  00000-0  11552-2 0  9993
2 64654  88.3172 246.5442 0077315 245.6996 113.6103 14.15537622 67001
CZ-6A DEB
1 64654U 24140AEU 26041.55503927  .00002268  00000-0  11202-2 0  9991
2 64654  88.3175 246.1687 0077403 239.2188 120.1364 14.15546483 67288
CZ-6A DEB
1 64654U 24140AEU 26041.97917337  .00002305  00000-0  11382-2 0  9992
2 64654  88.3178 246.0888 0077404 237.8305 121.5358 14.15548483 67346
CZ-6A DEB
1 64654U 24140AEU 26042.54468444  .00002284  00000-0  11278-2 0  9996
2 64654  88.3182 245.9822 0077426 235.9717 123.4101 14.15551143 67420
CZ-6A DEB
1 64654U 24140AEU 26043.53432706  .00002189  00000-0  10807-2 0  9999
2 64654  88.3183 245.7952 0077482 232.6971 126.7137 14.15555367 67563
CZ-6A DEB
1 64654U 24140AEU 26043.53432706  .00002189  00000-0  10807-2 0  9999
2 64654  88.3183 245.7952 0077482 232.6971 126.7137 14.15555367 67563
CZ-6A DEB
1 64654U 24140AEU 26044.52396735  .00002237  00000-0  11040-2 0  9994
2 64654  88.3182 245.6083 0077525 229.4124 130.0300 14.15559845 67709
CZ-6A DEB
1 64654U 24140AEU 26044.52396736  .00002237  00000-0  11040-2 0  9995
2 64654  88.3182 245.6083 0077525 229.4124 130.0300 14.15559845 67709
CZ-6A DEB
1 64654U 24140AEU 26045.01878636  .00002142  00000-0  10572-2 0  9998
2 64654  88.3180 245.5147 0077529 227.7291 131.7306 14.15561782 67771
CZ-6A DEB
1 64654U 24140AEU 26045.51360488  .00002252  00000-0  11113-2 0  9998
2 64654  88.3178 245.4212 0077557 226.0922 133.3846 14.15564224 67843
CZ-6A DEB
1 64654U 24140AEU 26045.51360489  .00002252  00000-0  11113-2 0  9999
2 64654  88.3178 245.4212 0077557 226.0922 133.3846 14.15564225 67844
CZ-6A DEB
1 64654U 24140AEU 26046.50324002  .00002519  00000-0  12440-2 0  9990
2 64654  88.3173 245.2337 0077591 222.8555 136.6570 14.15569207 67989
CZ-6A DEB
1 64654U 24140AEU 26046.50324003  .00002519  00000-0  12440-2 0  9991
2 64654  88.3173 245.2337 0077591 222.8555 136.6570 14.15569207 67989
CZ-6A DEB
1 64654U 24140AEU 26049.54281814  .00002140  00000-0  10550-2 0  9990
2 64654  88.3169 244.6585 0077846 212.9453 146.6871 14.15580597 68411
CZ-6A DEB
1 64654U 24140AEU 26049.54281815  .00002140  00000-0  10550-2 0  9991
2 64654  88.3169 244.6585 0077846 212.9453 146.6871 14.15580597 68411
CZ-6A DEB
1 64654U 24140AEU 26050.53244291  .00002135  00000-0  10524-2 0  9994
2 64654  88.3170 244.4710 0077933 209.7282 149.9466 14.15584778 68558
CZ-6A DEB
1 64654U 24140AEU 26050.53244291  .00002135  00000-0  10524-2 0  9994
2 64654  88.3170 244.4710 0077933 209.7282 149.9466 14.15584778 68558
CZ-6A DEB
1 64654U 24140AEU 26051.02725428  .00002102  00000-0  10361-2 0  9998
2 64654  88.3169 244.3773 0078001 208.1061 151.5906 14.15586779 68628
CZ-6A DEB
1 64654U 24140AEU 26051.02725428  .00002102  00000-0  10361-2 0  9998
2 64654  88.3169 244.3773 0078001 208.1061 151.5906 14.15586779 68628
CZ-6A DEB
1 64654U 24140AEU 26051.52206520  .00001979  00000-0  97503-3 0  9995
2 64654  88.3169 244.2835 0078034 206.4979 153.2211 14.15588403 68692
CZ-6A DEB
1 64654U 24140AEU 26051.94618809  .00002169  00000-0  10689-2 0  9999
2 64654  88.3168 244.2027 0078102 205.1036 154.6347 14.15590779 68751
CZ-6A DEB
1 64654U 24140AEU 26051.94618809  .00002169  00000-0  10689-2 0  9999
2 64654  88.3168 244.2027 0078102 205.1036 154.6347 14.15590779 68751
CZ-6A DEB
1 64654U 24140AEU 26052.51168462  .00002052  00000-0  10107-2 0  9994
2 64654  88.3171 244.0958 0078169 203.2608 156.5035 14.15592850 68839
CZ-6A DEB
1 64654U 24140AEU 26052.51168462  .00002052  00000-0  10107-2 0  9994
2 64654  88.3171 244.0958 0078169 203.2608 156.5035 14.15592850 68839
CZ-6A DEB
1 64654U 24140AEU 26052.93580652  .00002042  00000-0  10060-2 0  9996
2 64654  88.3173 244.0156 0078221 201.8798 157.9044 14.15594568 68893
CZ-6A DEB
1 64654U 24140AEU 26053.00649343  .00002035  00000-0  10022-2 0  9998
2 64654  88.3173 244.0021 0078219 201.6531 158.1344 14.15594864 68901
CZ-6A DEB
1 64654U 24140AEU 26053.00649343  .00002035  00000-0  10022-2 0  9998
2 64654  88.3173 244.0021 0078219 201.6531 158.1344 14.15594864 68901
CZ-6A DEB
1 64654U 24140AEU 26054.49091447  .00002379  00000-0  11727-2 0  9992
2 64654  88.3172 243.7208 0078330 196.8293 163.0295 14.15602844 69119
CZ-6A DEB
1 64654U 24140AEU 26054.49091448  .00002379  00000-0  11727-2 0  9993
2 64654  88.3172 243.7208 0078330 196.8293 163.0295 14.15602844 69119
CZ-6A DEB
1 64654U 24140AEU 26055.48052475  .00002255  00000-0  11108-2 0  9996
2 64654  88.3174 243.5334 0078462 193.6146 166.2926 14.15607119 69258
CZ-6A DEB
1 64654U 24140AEU 26055.48052475  .00002255  00000-0  11108-2 0  9996
2 64654  88.3174 243.5334 0078462 193.6146 166.2926 14.15607119 69258
CZ-6A DEB
1 64654U 24140AEU 26056.47013190  .00002148  00000-0  10578-2 0  9998
2 64654  88.3177 243.3463 0078581 190.4222 169.5341 14.15611449 69397
CZ-6A DEB
1 64654U 24140AEU 26056.47013190  .00002148  00000-0  10578-2 0  9998
2 64654  88.3177 243.3464 0078581 190.4222 169.5341 14.15611449 69398
CZ-6A DEB
1 64654U 24140AEU 26057.95453656  .00002393  00000-0  11787-2 0  9992
2 64654  88.3182 243.0656 0078759 185.6396 174.3913 14.15619066 69605
CZ-6A DEB
1 64654U 24140AEU 26058.52002205  .00002539  00000-0  12514-2 0  9997
2 64654  88.3185 242.9586 0078840 183.8198 176.2398 14.15622248 69681
CZ-6A DEB
1 64654U 24140AEU 26058.94413535  .00002664  00000-0  13131-2 0  9990
2 64654  88.3170 242.8784 0078787 182.4955 177.5852 14.15624778 69746
CZ-6A DEB
1 64654U 24140AEU 26058.94413535  .00002664  00000-0  13131-2 0  9990
2 64654  88.3170 242.8784 0078787 182.4955 177.5852 14.15624778 69746
CZ-6A DEB
1 64654U 24140AEU 26059.50961890  .00002736  00000-0  13488-2 0  9990
2 64654  88.3170 242.7714 0078835 180.7017 179.4073 14.15627777 69829
CZ-6A DEB
1 64654U 24140AEU 26059.93373037  .00002838  00000-0  13992-2 0  9990
2 64654  88.3172 242.6910 0078914 179.3384 180.7923 14.15630440 69883
CZ-6A DEB
1 64654U 24140AEU 26060.00441559  .00002838  00000-0  13990-2 0  9993
2 64654  88.3175 242.6778 0078939 179.1054 181.0290 14.15630827 69898
CZ-6A DEB
1 64654U 24140AEU 26060.00441559  .00002838  00000-0  13990-2 0  9993
2 64654  88.3175 242.6778 0078939 179.1054 181.0290 14.15630827 69898
CZ-6A DEB
1 64654U 24140AEU 26060.49921140  .00003098  00000-0  15278-2 0  9995
2 64654  88.3174 242.5841 0078984 177.5269 182.6326 14.15634362 69960
CZ-6A DEB
1 64654U 24140AEU 26060.49921141  .00003098  00000-0  15278-2 0  9996
2 64654  88.3174 242.5841 0078984 177.5269 182.6326 14.15634362 69960
CZ-6A DEB
1 64654U 24140AEU 26060.99400592  .00003000  00000-0  14790-2 0  9994
2 64654  88.3174 242.4903 0079073 175.9212 184.2638 14.15637072 70033
CZ-6A DEB
1 64654U 24140AEU 26061.48879942  .00003288  00000-0  16212-2 0  9997
2 64654  88.3173 242.3965 0079138 174.3347 185.8755 14.15640921 70105
CZ-6A DEB
1 64654U 24140AEU 26061.48879943  .00003288  00000-0  16212-2 0  9998
2 64654  88.3173 242.3965 0079138 174.3347 185.8755 14.15640921 70105
CZ-6A DEB
1 64654U 24140AEU 26061.91290718  .00003150  00000-0  15530-2 0  9993
2 64654  88.3173 242.3161 0079193 172.9844 187.2473 14.15643136 70160
CZ-6A DEB
1 64654U 24140AEU 26061.91290718  .00003150  00000-0  15530-2 0  9993
2 64654  88.3173 242.3161 0079193 172.9844 187.2473 14.15643136 70160
CZ-6A DEB
1 64654U 24140AEU 26062.47838296  .00003375  00000-0  16641-2 0  9997
2 64654  88.3173 242.2087 0079238 171.1851 189.0750 14.15647370 70246
CZ-6A DEB
1 64654U 24140AEU 26062.47838297  .00003375  00000-0  16641-2 0  9998
2 64654  88.3173 242.2088 0079238 171.1851 189.0750 14.15647370 70247
CZ-6A DEB
1 64654U 24140AEU 26062.90248835  .00003716  00000-0  18327-2 0  9991
2 64654  88.3174 242.1284 0079288 169.8248 190.4568 14.15651353 70300
CZ-6A DEB
1 64654U 24140AEU 26062.90248835  .00003716  00000-0  18327-2 0  9991
2 64654  88.3174 242.1284 0079288 169.8248 190.4568 14.15651353 70300
CZ-6A DEB
1 64654U 24140AEU 26063.46796053  .00003959  00000-0  19530-2 0  9999
2 64654  88.3175 242.0214 0079323 168.0276 192.2822 14.15656288 70388
CZ-6A DEB
1 64654U 24140AEU 26063.46796053  .00003959  00000-0  19530-2 0  9999
2 64654  88.3175 242.0214 0079323 168.0276 192.2822 14.15656288 70388
CZ-6A DEB
1 64654U 24140AEU 26063.96274802  .00003374  00000-0  16631-2 0  9997
2 64654  88.3177 241.9278 0079397 166.4413 193.8934 14.15657885 70457
CZ-6A DEB
1 64654U 24140AEU 26063.96274802  .00003374  00000-0  16631-2 0  9997
2 64654  88.3177 241.9278 0079397 166.4413 193.8934 14.15657885 70457
CZ-6A DEB
1 64654U 24140AEU 26064.45753418  .00003623  00000-0  17863-2 0  9992
2 64654  88.3179 241.8342 0079421 164.8720 195.4870 14.15662017 70529
CZ-6A DEB
1 64654U 24140AEU 26064.45753419  .00003623  00000-0  17863-2 0  9993
2 64654  88.3179 241.8342 0079421 164.8720 195.4870 14.15662017 70529
CZ-6A DEB
1 64654U 24140AEU 26064.88163523  .00003114  00000-0  15339-2 0  9992
2 64654  88.3178 241.7540 0079507 163.5004 196.8800 14.15663670 70583
CZ-6A DEB
1 64654U 24140AEU 26065.44710259  .00003535  00000-0  17421-2 0  9990
2 64654  88.3184 241.6468 0079547 161.6960 198.7120 14.15668706 70662
CZ-6A DEB
1 64654U 24140AEU 26065.87120167  .00003032  00000-0  14931-2 0  9995
2 64654  88.3184 241.5665 0079621 160.3219 200.1071 14.15670550 70726
CZ-6A DEB
1 64654U 24140AEU 26065.87120168  .00003032  00000-0  14931-2 0  9996
2 64654  88.3184 241.5665 0079621 160.3219 200.1071 14.15670550 70726
CZ-6A DEB
1 64654U 24140AEU 26066.43666593  .00003794  00000-0  18700-2 0  9999
2 64654  88.3187 241.4594 0079676 158.5228 201.9334 14.15676044 70802
CZ-6A DEB
1 64654U 24140AEU 26066.43666593  .00003794  00000-0  18700-2 0  9999
2 64654  88.3187 241.4595 0079676 158.5228 201.9334 14.15676044 70803
CZ-6A DEB
1 64654U 24140AEU 26067.42622433  .00004058  00000-0  20001-2 0  9995
2 64654  88.3189 241.2721 0079763 155.4074 205.0951 14.15683399 70942
CZ-6A DEB
1 64654U 24140AEU 26067.42622434  .00004058  00000-0  20001-2 0  9996
2 64654  88.3189 241.2721 0079763 155.4074 205.0951 14.15683399 70942
CZ-6A DEB
1 64654U 24140AEU 26068.48646037  .00003300  00000-0  16248-2 0  9995
2 64654  88.3195 241.0716 0079878 152.0746 208.4764 14.15688898 71092
CZ-6A DEB
1 64654U 24140AEU 26068.48646038  .00003300  00000-0  16248-2 0  9996
2 64654  88.3195 241.0716 0079878 152.0746 208.4764 14.15688898 71092
CZ-6A DEB
1 64654U 24140AEU 26069.47600815  .00003466  00000-0  17063-2 0  9998
2 64654  88.3195 240.8844 0079950 148.9716 211.6230 14.15696419 71231
CZ-6A DEB
1 64654U 24140AEU 26069.47600816  .00003466  00000-0  17063-2 0  9999
2 64654  88.3195 240.8844 0079950 148.9716 211.6230 14.15696419 71231
CZ-6A DEB
1 64654U 24140AEU 26070.46555175  .00003148  00000-0  15491-2 0  9997
2 64654  88.3192 240.6971 0079970 145.9037 214.7325 14.15702061 71377
CZ-6A DEB
1 64654U 24140AEU 26070.88964044  .00002972  00000-0  14619-2 0  9997
2 64654  88.3192 240.6168 0079985 144.5859 216.0678 14.15704316 71436
CZ-6A DEB
1 64654U 24140AEU 26070.96032179  .00002953  00000-0  14526-2 0  9997
2 64654  88.3192 240.6034 0079991 144.3639 216.2927 14.15704746 71446
CZ-6A DEB
1 64654U 24140AEU 26070.96032180  .00002953  00000-0  14526-2 0  9999
2 64654  88.3192 240.6035 0079991 144.3639 216.2927 14.15704746 71447
CZ-6A DEB
1 64654U 24140AEU 26071.45509074  .00003184  00000-0  15664-2 0  9996
2 64654  88.3195 240.5099 0080039 142.8058 217.8712 14.15708384 71511
CZ-6A DEB
1 64654U 24140AEU 26071.45509074  .00003184  00000-0  15664-2 0  9996
2 64654  88.3195 240.5099 0080039 142.8058 217.8712 14.15708384 71511
CZ-6A DEB
1 64654U 24140AEU 26073.85823854  .00003076  00000-0  15127-2 0  9991
2 64654  88.3192 240.0554 0080229 135.2145 225.5557 14.15722537 71859
CZ-6A DEB
1 64654U 24140AEU 26074.42368105  .00002663  00000-0  13081-2 0  9996
2 64654  88.3190 239.9485 0080252 133.4374 227.3529 14.15724828 71930
CZ-6A DEB
1 64654U 24140AEU 26075.90796325  .00002241  00000-0  10993-2 0  9990
2 64654  88.3197 239.6678 0080341 128.7687 232.0714 14.15731279 72142
CZ-6A DEB
1 64654U 24140AEU 26075.90796326  .00002241  00000-0  10993-2 0  9991
2 64654  88.3197 239.6678 0080341 128.7687 232.0714 14.15731279 72142
CZ-6A DEB
1 64654U 24140AEU 26076.40272265  .00002111  00000-0  10352-2 0  9993
2 64654  88.3196 239.5740 0080387 127.1988 233.6573 14.15733046 72219
CZ-6A DEB
1 64654U 24140AEU 26078.94718671  .00002293  00000-0  11250-2 0  9999
2 64654  88.3202 239.0921 0080405 119.2962 241.6292 14.15743128 72576
CZ-6A DEB
1 64654U 24140AEU 26078.94718672  .00002293  00000-0  11250-2 0  9990
2 64654  88.3202 239.0921 0080405 119.2962 241.6292 14.15743129 72577
CZ-6A DEB
1 64654U 24140AEU 26079.44194215  .00002146  00000-0  10521-2 0  9994
2 64654  88.3204 238.9987 0080435 117.7398 243.1977 14.15744138 72644
CZ-6A DEB
1 64654U 24140AEU 26079.44194216  .00002146  00000-0  10521-2 0  9995
2 64654  88.3204 238.9987 0080435 117.7398 243.1977 14.15744138 72644
CZ-6A DEB
1 64654U 24140AEU 26080.43144782  .00002746  00000-0  13484-2 0  9996
2 64654  88.3207 238.8115 0080465 114.6317 246.3280 14.15750398 72781
CZ-6A DEB
1 64654U 24140AEU 26080.92619947  .00002699  00000-0  13251-2 0  9999
2 64654  88.3207 238.7179 0080426 113.1125 247.8565 14.15752439 72856
CZ-6A DEB
1 64654U 24140AEU 26083.39994060  .00002339  00000-0  11470-2 0  9997
2 64654  88.3210 238.2504 0080491 105.3818 255.6281 14.15764726 73205
CZ-6A DEB
1 64654U 24140AEU 26083.89468584  .00002227  00000-0  10915-2 0  9998
2 64654  88.3209 238.1569 0080490 103.8424 257.1735 14.15766990 73271
CZ-6A DEB
1 64654U 24140AEU 26084.88417362  .00002154  00000-0  10556-2 0  9996
2 64654  88.3208 237.9700 0080498 100.7530 260.2732 14.15771556 73418
CZ-6A DEB
1 64654U 24140AEU 26084.88417363  .00002154  00000-0  10556-2 0  9997
2 64654  88.3208 237.9700 0080498 100.7530 260.2732 14.15771556 73418
CZ-6A DEB
1 64654U 24140AEU 26085.37891602  .00002182  00000-0  10691-2 0  9995
2 64654  88.3209 237.8764 0080485  99.1999 261.8304 14.15773985 73481
CZ-6A DEB
1 64654U 24140AEU 26085.87365735  .00002354  00000-0  11541-2 0  9999
2 64654  88.3208 237.7830 0080442  97.6740 263.3592 14.15776813 73550
CZ-6A DEB
1 64654U 24140AEU 26085.87365735  .00002354  00000-0  11541-2 0  9999
2 64654  88.3208 237.7830 0080442  97.6740 263.3592 14.15776813 73550
CZ-6A DEB
1 64654U 24140AEU 26086.86313792  .00002319  00000-0  11369-2 0  9994
2 64654  88.3209 237.5962 0080399  94.5873 266.4503 14.15781028 73694
CZ-6A DEB
1 64654U 24140AEU 26086.86313793  .00002319  00000-0  11369-2 0  9995
2 64654  88.3209 237.5962 0080399  94.5873 266.4503 14.15781028 73694
CZ-6A DEB
1 64654U 24140AEU 26087.35787637  .00002518  00000-0  12350-2 0  9994
2 64654  88.3210 237.5026 0080353  93.0435 267.9951 14.15784013 73763
CZ-6A DEB
1 64654U 24140AEU 26087.35787638  .00002518  00000-0  12350-2 0  9995
2 64654  88.3210 237.5026 0080353  93.0435 267.9951 14.15784013 73763
CZ-6A DEB
1 64654U 24140AEU 26089.40749480  .00003056  00000-0  15005-2 0  9994
2 64654  88.3210 237.1153 0080186  86.6392 274.3964 14.15796882 74050
CZ-6A DEB
1 64654U 24140AEU 26089.40749481  .00003056  00000-0  15005-2 0  9995
2 64654  88.3210 237.1153 0080186  86.6392 274.3964 14.15796882 74050
CZ-6A DEB
1 64654U 24140AEU 26089.90222690  .00003158  00000-0  15507-2 0  9998
2 64654  88.3215 237.0220 0080183  85.1000 275.9336 14.15800374 74126
CZ-6A DEB
1 64654U 24140AEU 26089.90222690  .00003158  00000-0  15507-2 0  9998
2 64654  88.3215 237.0220 0080183  85.1000 275.9336 14.15800374 74126
CZ-6A DEB
1 64654U 24140AEU 26090.82101256  .00003074  00000-0  15090-2 0  9999
2 64654  88.3217 236.8483 0080144  82.2353 278.7925 14.15805723 74254
CZ-6A DEB
1 64654U 24140AEU 26090.82101256  .00003074  00000-0  15090-2 0  9999
2 64654  88.3217 236.8484 0080144  82.2353 278.7925 14.15805724 74256
CZ-6A DEB
1 64654U 24140AEU 26091.38641695  .00002457  00000-0  12047-2 0  9990
2 64654  88.3215 236.7411 0080103  80.4696 280.5532 14.15807386 74338
CZ-6A DEB
1 64654U 24140AEU 26091.88114438  .00002644  00000-0  12969-2 0  9996
2 64654  88.3218 236.6477 0080044  78.9111 282.1064 14.15811061 74401
CZ-6A DEB
1 64654U 24140AEU 26091.88114438  .00002644  00000-0  12969-2 0  9996
2 64654  88.3218 236.6477 0080044  78.9111 282.1064 14.15811061 74401
CZ-6A DEB
1 64654U 24140AEU 26092.87059528  .00003603  00000-0  17701-2 0  9999
2 64654  88.3222 236.4606 0079986  75.8151 285.1906 14.15820330 74543
CZ-6A DEB
1 64654U 24140AEU 26092.87059529  .00003603  00000-0  17701-2 0  9990
2 64654  88.3222 236.4606 0079986  75.8151 285.1906 14.15820330 74543
CZ-6A DEB
1 64654U 24140AEU 26094.35476102  .00003687  00000-0  18112-2 0  9994
2 64654  88.3226 236.1804 0079802  71.1361 289.8458 14.15830927 74752
CZ-6A DEB
1 64654U 24140AEU 26095.34419853  .00003057  00000-0  15004-2 0  9992
2 64654  88.3231 235.9936 0079813  68.0652 292.8995 14.15836806 74898
CZ-6A DEB
1 64654U 24140AEU 26095.34419853  .00003057  00000-0  15004-2 0  9992
2 64654  88.3231 235.9936 0079813  68.0652 292.8995 14.15836806 74898
CZ-6A DEB
1 64654U 24140AEU 26096.33363135  .00002719  00000-0  13335-2 0  9992
2 64654  88.3231 235.8068 0079696  64.9546 295.9888 14.15842111 75037
CZ-6A DEB
1 64654U 24140AEU 26097.81777369  .00002212  00000-0  10838-2 0  9997
2 64654  88.3240 235.5265 0079328  60.2396 300.6653 14.15848260 75245
CZ-6A DEB
1 64654U 24140AEU 26097.81777369  .00002212  00000-0  10838-2 0  9997
2 64654  88.3240 235.5265 0079328  60.2396 300.6653 14.15848260 75245
CZ-6A DEB
1 64654U 24140AEU 26098.87787096  .00001833  00000-0  89670-3 0  9991
2 64654  88.3240 235.3266 0079180  56.8637 304.0115 14.15851723 75394
CZ-6A DEB
1 64654U 24140AEU 26098.87787096  .00001833  00000-0  89670-3 0  9991
2 64654  88.3240 235.3266 0079180  56.8637 304.0115 14.15851723 75394
CZ-6A DEB
1 64654U 24140AEU 26099.37258275  .00002071  00000-0  10139-2 0  9997
2 64654  88.3241 235.2335 0079267  55.3310 305.5315 14.15854257 75460
CZ-6A DEB
1 64654U 24140AEU 26099.86729289  .00002025  00000-0  99142-3 0  9990
2 64654  88.3241 235.1401 0079180  53.7567 307.0904 14.15856128 75531
CZ-6A DEB
1 64654U 24140AEU 26099.86729290  .00002025  00000-0  99142-3 0  9992
2 64654  88.3241 235.1401 0079180  53.7567 307.0904 14.15856128 75531
CZ-6A DEB
1 64654U 24140AEU 26101.35141943  .00001676  00000-0  81919-3 0  9997
2 64654  88.3242 234.8602 0079027  49.0995 311.7001 14.15860600 75747
CZ-6A DEB
1 64654U 24140AEU 26101.77545449  .00001725  00000-0  84345-3 0  9993
2 64654  88.3244 234.7804 0078916  47.7508 313.0337 14.15862146 75804
CZ-6A DEB
1 64654U 24140AEU 26101.77545450  .00001725  00000-0  84345-3 0  9995
2 64654  88.3244 234.7804 0078916  47.7508 313.0337 14.15862146 75804
CZ-6A DEB
1 64654U 24140AEU 26102.83554046  .00001425  00000-0  69567-3 0  9990
2 64654  88.3243 234.5804 0078761  44.3958 316.3507 14.15864569 75953
CZ-6A DEB
1 64654U 24140AEU 26102.83554047  .00001425  00000-0  69567-3 0  9991
2 64654  88.3243 234.5804 0078761  44.3958 316.3507 14.15864569 75953
CZ-6A DEB
1 64654U 24140AEU 26103.75428019  .00001284  00000-0  62605-3 0  9991
2 64654  88.3236 234.4059 0078671  41.4867 319.2256 14.15866474 76088
CZ-6A DEB
1 64654U 24140AEU 26103.75428019  .00001284  00000-0  62605-3 0  9991
2 64654  88.3236 234.4059 0078671  41.4867 319.2256 14.15866474 76088
CZ-6A DEB
1 64654U 24140AEU 26104.31965750  .00001232  00000-0  60021-3 0  9995
2 64654  88.3235 234.2990 0078604  39.6940 320.9964 14.15867756 76164
CZ-6A DEB
1 64654U 24140AEU 26104.31965750  .00001232  00000-0  60021-3 0  9995
2 64654  88.3235 234.2990 0078604  39.6940 320.9964 14.15867756 76164
CZ-6A DEB
1 64654U 24140AEU 26104.81436227  .00001207  00000-0  58811-3 0  9998
2 64654  88.3237 234.2058 0078529  38.1092 322.5612 14.15868790 76234
CZ-6A DEB
1 64654U 24140AEU 26104.81436227  .00001207  00000-0  58811-3 0  9998
2 64654  88.3237 234.2058 0078529  38.1092 322.5612 14.15868790 76234
CZ-6A DEB
1 64654U 24140AEU 26105.80377051  .00001184  00000-0  57658-3 0  9999
2 64654  88.3240 234.0190 0078435  34.9605 325.6696 14.15870907 76377
CZ-6A DEB
1 64654U 24140AEU 26105.80377051  .00001184  00000-0  57658-3 0  9999
2 64654  88.3240 234.0190 0078435  34.9605 325.6696 14.15870907 76377
CZ-6A DEB
1 64654U 24140AEU 26107.28787869  .00001308  00000-0  63783-3 0  9999
2 64654  88.3242 233.7391 0078209  30.1571 330.4084 14.15875030 76587
CZ-6A DEB
1 64654U 24140AEU 26109.83205387  .00001372  00000-0  66977-3 0  9991
2 64654  88.3248 233.2592 0077835  22.0168 338.4332 14.15881589 76947
CZ-6A DEB
1 64654U 24140AEU 26109.83205387  .00001372  00000-0  66977-3 0  9991
2 64654  88.3248 233.2592 0077835  22.0168 338.4332 14.15881589 76947
CZ-6A DEB
1 64654U 24140AEU 26110.32675363  .00001317  00000-0  64267-3 0  9991
2 64654  88.3249 233.1660 0077796  20.4468 339.9804 14.15882410 77017
CZ-6A DEB
1 64654U 24140AEU 26110.32675364  .00001317  00000-0  64267-3 0  9992
2 64654  88.3249 233.1660 0077796  20.4468 339.9804 14.15882410 77017
CZ-6A DEB
1 64654U 24140AEU 26111.31614977  .00001440  00000-0  70358-3 0  9990
2 64654  88.3251 232.9794 0077636  17.2490 343.1307 14.15885836 77152
CZ-6A DEB
1 64654U 24140AEU 26111.31614977  .00001440  00000-0  70358-3 0  9990
2 64654  88.3252 232.9794 0077636  17.2490 343.1307 14.15885836 77153
CZ-6A DEB
1 64654U 24140AEU 26111.81084737  .00001409  00000-0  68806-3 0  9990
2 64654  88.3250 232.8859 0077587  15.6614 344.6947 14.15887020 77228
CZ-6A DEB
1 64654U 24140AEU 26111.81084738  .00001409  00000-0  68806-3 0  9991
2 64654  88.3250 232.8859 0077587  15.6614 344.6947 14.15887020 77228
CZ-6A DEB
1 64654U 24140AEU 26112.30554452  .00001413  00000-0  69000-3 0  9993
2 64654  88.3250 232.7927 0077530  14.0609 346.2712 14.15888371 77293
CZ-6A DEB
1 64654U 24140AEU 26113.29493673  .00001411  00000-0  68910-3 0  9996
2 64654  88.3251 232.6060 0077387  10.8516 349.4318 14.15891206 77436
CZ-6A DEB
1 64654U 24140AEU 26113.29493673  .00001411  00000-0  68910-3 0  9996
2 64654  88.3251 232.6060 0077387  10.8516 349.4318 14.15891206 77436
CZ-6A DEB
1 64654U 24140AEU 26114.28432660  .00001485  00000-0  72583-3 0  9997
2 64654  88.3252 232.4192 0077240   7.6391 352.5952 14.15894553 77576
CZ-6A DEB
1 64654U 24140AEU 26114.28432660  .00001485  00000-0  72583-3 0  9997
2 64654  88.3252 232.4192 0077240   7.6391 352.5952 14.15894553 77576
CZ-6A DEB
1 64654U 24140AEU 26115.27371353  .00001668  00000-0  81645-3 0  9990
2 64654  88.3255 232.2328 0077102   4.4334 355.7519 14.15898769 77710
CZ-6A DEB
1 64654U 24140AEU 26115.27371354  .00001668  00000-0  81645-3 0  9991
2 64654  88.3255 232.2328 0077102   4.4334 355.7519 14.15898769 77710
CZ-6A DEB
1 64654U 24140AEU 26115.76840660  .00001583  00000-0  77441-3 0  9991
2 64654  88.3254 232.1393 0077022   2.8368 357.3240 14.15899823 77788
CZ-6A DEB
1 64654U 24140AEU 26115.76840660  .00001583  00000-0  77441-3 0  9991
2 64654  88.3254 232.1393 0077022   2.8368 357.3240 14.15899823 77788
CZ-6A DEB
1 64654U 24140AEU 26117.32315019  .00001879  00000-0  92068-3 0  9990
2 64654  88.3258 231.8465 0076815 357.7975   2.2862 14.15906923 78005
CZ-6A DEB
1 64654U 24140AEU 26117.81784035  .00001881  00000-0  92162-3 0  9990
2 64654  88.3257 231.7529 0076747 356.1752   3.8839 14.15908639 78078
CZ-6A DEB
1 64654U 24140AEU 26117.81784035  .00001881  00000-0  92162-3 0  9990
2 64654  88.3257 231.7529 0076747 356.1752   3.8839 14.15908639 78078
CZ-6A DEB
1 64654U 24140AEU 26118.31252990  .00001881  00000-0  92183-3 0  9999
2 64654  88.3256 231.6596 0076698 354.5720   5.4627 14.15910383 78142
CZ-6A DEB
1 64654U 24140AEU 26118.31252990  .00001881  00000-0  92183-3 0  9999
2 64654  88.3256 231.6596 0076698 354.5720   5.4627 14.15910384 78143
CZ-6A DEB
1 64654U 24140AEU 26118.73654894  .00001866  00000-0  91435-3 0  9996
2 64654  88.3257 231.5797 0076625 353.1703   6.8432 14.15911808 78200
CZ-6A DEB
1 64654U 24140AEU 26118.73654894  .00001866  00000-0  91435-3 0  9996
2 64654  88.3257 231.5797 0076625 353.1703   6.8432 14.15911808 78200
CZ-6A DEB
1 64654U 24140AEU 26119.79659469  .00001852  00000-0  90733-3 0  9991
2 64654  88.3256 231.3797 0076498 349.7030  10.2585 14.15915563 78355
CZ-6A DEB
1 64654U 24140AEU 26119.79659469  .00001852  00000-0  90733-3 0  9991
2 64654  88.3256 231.3797 0076498 349.7030  10.2585 14.15915563 78355
CZ-6A DEB
1 64654U 24140AEU 26120.29128153  .00001800  00000-0  88172-3 0  9996
2 64654  88.3254 231.2864 0076441 348.0818  11.8558 14.15917154 78424
CZ-6A DEB
1 64654U 24140AEU 26120.29128153  .00001800  00000-0  88172-3 0  9996
2 64654  88.3254 231.2864 0076441 348.0818  11.8558 14.15917154 78424
CZ-6A DEB
1 64654U 24140AEU 26122.27002227  .00001884  00000-0  92346-3 0  9999
2 64654  88.3259 230.9133 0076200 341.5645  18.2783 14.15925185 78708
CZ-6A DEB
1 64654U 24140AEU 26122.27002228  .00001884  00000-0  92346-3 0  9990
2 64654  88.3259 230.9133 0076200 341.5645  18.2783 14.15925185 78708
CZ-6A DEB
1 64654U 24140AEU 26122.69403721  .00001853  00000-0  90812-3 0  9991
2 64654  88.3257 230.8329 0076142 340.1755  19.6477 14.15926524 78763
CZ-6A DEB
1 64654U 24140AEU 26122.69403722  .00001853  00000-0  90812-3 0  9992
2 64654  88.3257 230.8329 0076142 340.1755  19.6477 14.15926524 78763
CZ-6A DEB
1 64654U 24140AEU 26123.25938926  .00001860  00000-0  91170-3 0  9990
2 64654  88.3257 230.7263 0076084 338.3162  21.4809 14.15928740 78846
CZ-6A DEB
1 64654U 24140AEU 26123.25938927  .00001860  00000-0  91170-3 0  9991
2 64654  88.3257 230.7263 0076084 338.3162  21.4809 14.15928740 78846
CZ-6A DEB
1 64654U 24140AEU 26124.24875411  .00001714  00000-0  83964-3 0  9999
2 64654  88.3258 230.5397 0075976 335.0601  24.6922 14.15931589 78985
CZ-6A DEB
1 64654U 24140AEU 26124.24875412  .00001714  00000-0  83964-3 0  9990
2 64654  88.3258 230.5397 0075976 335.0601  24.6922 14.15931589 78985
CZ-6A DEB
1 64654U 24140AEU 26125.23811532  .00001953  00000-0  95753-3 0  9997
2 64654  88.3259 230.3532 0075874 331.7960  27.9127 14.15936893 79126
CZ-6A DEB
1 64654U 24140AEU 26125.23811533  .00001953  00000-0  95753-3 0  9998
2 64654  88.3259 230.3532 0075874 331.7960  27.9127 14.15936893 79126
CZ-6A DEB
1 64654U 24140AEU 26126.79282216  .00001802  00000-0  88269-3 0  9997
2 64654  88.3264 230.0607 0075706 326.6624  32.9807 14.15942152 79346
CZ-6A DEB
1 64654U 24140AEU 26126.79282217  .00001802  00000-0  88269-3 0  9998
2 64654  88.3264 230.0607 0075706 326.6624  32.9807 14.15942152 79346
CZ-6A DEB
1 64654U 24140AEU 26127.28750052  .00001680  00000-0  82275-3 0  9995
2 64654  88.3264 229.9675 0075664 325.0290  34.5940 14.15943381 79412
CZ-6A DEB
1 64654U 24140AEU 26127.28750053  .00001680  00000-0  82275-3 0  9996
2 64654  88.3264 229.9675 0075664 325.0290  34.5940 14.15943382 79413
CZ-6A DEB
1 64654U 24140AEU 26127.78217843  .00001637  00000-0  80153-3 0  9991
2 64654  88.3265 229.8746 0075631 323.4138  36.1897 14.15945011 79486
CZ-6A DEB
1 64654U 24140AEU 26127.78217843  .00001637  00000-0  80153-3 0  9991
2 64654  88.3265 229.8745 0075631 323.4138  36.1897 14.15945011 79485
CZ-6A DEB
1 64654U 24140AEU 26128.27685575  .00001583  00000-0  77489-3 0  9995
2 64654  88.3263 229.7811 0075584 321.7710  37.8131 14.15946524 79557
CZ-6A DEB
1 64654U 24140AEU 26128.27685576  .00001583  00000-0  77489-3 0  9996
2 64654  88.3263 229.7811 0075584 321.7710  37.8131 14.15946524 79557
CZ-6A DEB
1 64654U 24140AEU 26129.26620880  .00001521  00000-0  74419-3 0  9995
2 64654  88.3262 229.5946 0075508 318.5065  41.0404 14.15949774 79691
CZ-6A DEB
1 64654U 24140AEU 26129.26620880  .00001521  00000-0  74419-3 0  9995
2 64654  88.3262 229.5946 0075508 318.5065  41.0404 14.15949774 79691
CZ-6A DEB
1 64654U 24140AEU 26130.25556068  .00001385  00000-0  67706-3 0  9991
2 64654  88.3263 229.4082 0075436 315.2082  44.3030 14.15952259 79834
CZ-6A DEB
1 64654U 24140AEU 26130.25556069  .00001385  00000-0  67706-3 0  9992
2 64654  88.3263 229.4082 0075436 315.2082  44.3030 14.15952259 79834
CZ-6A DEB
1 64654U 24140AEU 26132.23425980  .00001304  00000-0  63715-3 0  9996
2 64654  88.3264 229.0353 0075326 308.6330  50.8130 14.15957738 80115
CZ-6A DEB
1 64654U 24140AEU 26132.23425981  .00001304  00000-0  63715-3 0  9997
2 64654  88.3264 229.0353 0075326 308.6330  50.8130 14.15957738 80115
CZ-6A DEB
1 64654U 24140AEU 26133.22360748  .00001282  00000-0  62614-3 0  9998
2 64654  88.3265 228.8491 0075306 305.3168  54.0993 14.15960284 80255
CZ-6A DEB
1 64654U 24140AEU 26133.22360748  .00001282  00000-0  62614-3 0  9998
2 64654  88.3265 228.8491 0075306 305.3168  54.0993 14.15960284 80255
CZ-6A DEB
1 64654U 24140AEU 26136.68631256  .00001390  00000-0  67949-3 0  9992
2 64654  88.3273 228.1979 0075198 293.8119  65.5197 14.15970301 80742
CZ-6A DEB
1 64654U 24140AEU 26136.68631256  .00001390  00000-0  67949-3 0  9992
2 64654  88.3273 228.1979 0075198 293.8119  65.5197 14.15970301 80742
CZ-6A DEB
1 64654U 24140AEU 26137.25165058  .00001363  00000-0  66585-3 0  9993
2 64654  88.3272 228.0913 0075219 291.9030  67.4172 14.15971658 80822
CZ-6A DEB
1 64654U 24140AEU 26137.25165058  .00001363  00000-0  66585-3 0  9993
2 64654  88.3272 228.0913 0075219 291.9030  67.4172 14.15971658 80822
CZ-6A DEB
1 64654U 24140AEU 26137.67565377  .00001347  00000-0  65832-3 0  9993
2 64654  88.3273 228.0114 0075198 290.4950  68.8177 14.15972739 80884
CZ-6A DEB
1 64654U 24140AEU 26137.67565378  .00001347  00000-0  65832-3 0  9994
2 64654  88.3273 228.0114 0075198 290.4950  68.8177 14.15972739 80884
CZ-6A DEB
1 64654U 24140AEU 26138.24099095  .00001362  00000-0  66551-3 0  9992
2 64654  88.3273 227.9050 0075206 288.6023  70.7007 14.15974360 80966
CZ-6A DEB
1 64654U 24140AEU 26138.24099096  .00001362  00000-0  66551-3 0  9993
2 64654  88.3273 227.9050 0075206 288.6023  70.7007 14.15974360 80966
CZ-6A DEB
1 64654U 24140AEU 26139.23032949  .00001363  00000-0  66602-3 0  9995
2 64654  88.3274 227.7187 0075200 285.3018  73.9867 14.15977233 81106
CZ-6A DEB
1 64654U 24140AEU 26139.23032950  .00001363  00000-0  66602-3 0  9997
2 64654  88.3274 227.7187 0075200 285.3018  73.9867 14.15977233 81106
CZ-6A DEB
1 64654U 24140AEU 26141.20900167  .00001429  00000-0  69834-3 0  9994
2 64654  88.3276 227.3460 0075260 278.7174  80.5495 14.15983537 81388
CZ-6A DEB
1 64654U 24140AEU 26141.20900167  .00001429  00000-0  69834-3 0  9994
2 64654  88.3276 227.3460 0075260 278.7174  80.5495 14.15983536 81387
CZ-6A DEB
1 64654U 24140AEU 26142.19833526  .00001491  00000-0  72897-3 0  9999
2 64654  88.3269 227.1586 0075273 275.4318  83.8286 14.15986917 81520
CZ-6A DEB
1 64654U 24140AEU 26143.25833356  .00001541  00000-0  75363-3 0  9995
2 64654  88.3273 226.9596 0075347 271.9015  87.3544 14.15990530 81678
CZ-6A DEB
1 64654U 24140AEU 26143.25833357  .00001541  00000-0  75363-3 0  9996
2 64654  88.3273 226.9596 0075347 271.9015  87.3544 14.15990530 81678
CZ-6A DEB
1 64654U 24140AEU 26145.23699161  .00001778  00000-0  87018-3 0  9991
2 64654  88.3271 226.5863 0075424 265.3273  93.9298 14.15998223 81955
CZ-6A DEB
1 64654U 24140AEU 26145.23699161  .00001778  00000-0  87018-3 0  9991
2 64654  88.3271 226.5863 0075424 265.3273  93.9298 14.15998223 81955
CZ-6A DEB
1 64654U 24140AEU 26146.15565130  .00001979  00000-0  96937-3 0  9994
2 64654  88.3271 226.4136 0075495 262.2789  96.9821 14.16002521 82081
CZ-6A DEB
1 64654U 24140AEU 26146.72097966  .00001918  00000-0  93934-3 0  9991
2 64654  88.3265 226.3064 0075563 260.4013  98.8631 14.16004166 82165
CZ-6A DEB
1 64654U 24140AEU 26147.21564068  .00002159  00000-0  10580-2 0  9991
2 64654  88.3265 226.2132 0075584 258.7651 100.5034 14.16007425 82238
CZ-6A DEB
1 64654U 24140AEU 26147.21564069  .00002159  00000-0  10580-2 0  9992
2 64654  88.3265 226.2132 0075584 258.7651 100.5035 14.16007425 82239
CZ-6A DEB
1 64654U 24140AEU 26147.71030181  .00002088  00000-0  10228-2 0  9990
2 64654  88.3268 226.1203 0075643 257.1376 102.1354 14.16008869 82306
CZ-6A DEB
1 64654U 24140AEU 26147.71030181  .00002088  00000-0  10228-2 0  9990
2 64654  88.3268 226.1203 0075643 257.1376 102.1354 14.16008869 82306
CZ-6A DEB
1 64654U 24140AEU 26149.19428030  .00002189  00000-0  10726-2 0  9993
2 64654  88.3268 225.8407 0075758 252.2083 107.0828 14.16015459 82512
CZ-6A DEB
1 64654U 24140AEU 26149.19428031  .00002189  00000-0  10726-2 0  9994
2 64654  88.3268 225.8407 0075758 252.2083 107.0828 14.16015459 82512
CZ-6A DEB
1 64654U 24140AEU 26149.61827348  .00002243  00000-0  10993-2 0  9992
2 64654  88.3267 225.7608 0075789 250.8118 108.4856 14.16017436 82579
CZ-6A DEB
1 64654U 24140AEU 26150.18359574  .00002397  00000-0  11752-2 0  9991
2 64654  88.3268 225.6544 0075859 248.9368 110.3696 14.16020918 82653
CZ-6A DEB
1 64654U 24140AEU 26150.18359575  .00002397  00000-0  11752-2 0  9992
2 64654  88.3268 225.6544 0075859 248.9368 110.3696 14.16020918 82653
CZ-6A DEB
1 64654U 24140AEU 26151.66756411  .00002344  00000-0  11486-2 0  9992
2 64654  88.3270 225.3751 0076027 244.0529 115.2811 14.16027367 82868
CZ-6A DEB
1 64654U 24140AEU 26152.16221905  .00002183  00000-0  10691-2 0  9991
2 64654  88.3269 225.2818 0076117 242.4201 116.9241 14.16028705 82938
CZ-6A DEB
1 64654U 24140AEU 26152.16221906  .00002183  00000-0  10691-2 0  9992
2 64654  88.3269 225.2819 0076117 242.4202 116.9241 14.16028705 82930
CZ-6A DEB
1 64654U 24140AEU 26153.22219097  .00002014  00000-0  98534-3 0  9994
2 64654  88.3268 225.0820 0076208 238.8649 120.5048 14.16033773 83088
CZ-6A DEB
1 64654U 24140AEU 26155.20079749  .00002322  00000-0  11369-2 0  9994
2 64654  88.3264 224.7093 0076475 232.3713 127.0518 14.16043304 83365
CZ-6A DEB
1 64654U 24140AEU 26157.17939352  .00002391  00000-0  11703-2 0  9995
2 64654  88.3262 224.3365 0076780 225.9034 133.5819 14.16052254 83645
CZ-6A DEB
1 64654U 24140AEU 26157.17939353  .00002391  00000-0  11703-2 0  9996
2 64654  88.3262 224.3365 0076780 225.9034 133.5819 14.16052254 83645
CZ-6A DEB
1 64654U 24140AEU 26158.16868841  .00002252  00000-0  11015-2 0  9991
2 64654  88.3264 224.1502 0076961 222.6697 136.8498 14.16055819 83782
CZ-6A DEB
1 64654U 24140AEU 26158.16868842  .00002252  00000-0  11015-2 0  9992
2 64654  88.3264 224.1502 0076961 222.6697 136.8498 14.16055819 83782
CZ-6A DEB
1 64654U 24140AEU 26165.16434839  .00001963  00000-0  95774-3 0  9998
2 64654  88.3270 222.8320 0078101 200.0127 159.7994 14.16081530 84772
CZ-6A DEB
1 64654U 24140AEU 26165.16434840  .00001963  00000-0  95774-3 0  9990
2 64654  88.3270 222.8320 0078101 200.0127 159.7994 14.16081530 84772
CZ-6A DEB
1 64654U 24140AEU 26166.15362448  .00001839  00000-0  89681-3 0  9996
2 64654  88.3267 222.6455 0078262 196.8293 163.0297 14.16084951 84919
CZ-6A DEB
1 64654U 24140AEU 26166.15362449  .00001839  00000-0  89681-3 0  9997
2 64654  88.3267 222.6455 0078262 196.8293 163.0297 14.16084951 84919
CZ-6A DEB
1 64654U 24140AEU 26166.64826160  .00001846  00000-0  89970-3 0  9995
2 64654  88.3281 222.5541 0078636 195.3480 164.5323 14.16086748 84986
CZ-6A DEB
1 64654U 24140AEU 26167.14289769  .00001787  00000-0  87077-3 0  9999
2 64654  88.3280 222.4606 0078619 193.7614 166.1432 14.16088394 85055
CZ-6A DEB
1 64654U 24140AEU 26167.14289769  .00001787  00000-0  87077-3 0  9999
2 64654  88.3280 222.4606 0078619 193.7614 166.1432 14.16088394 85055
CZ-6A DEB
1 64654U 24140AEU 26167.63753354  .00001745  00000-0  85029-3 0  9998
2 64654  88.3269 222.3661 0078496 192.0727 167.8582 14.16090114 85127
CZ-6A DEB
1 64654U 24140AEU 26168.13216935  .00001703  00000-0  82939-3 0  9994
2 64654  88.3268 222.2721 0078439 190.4778 169.4779 14.16091634 85198
CZ-6A DEB
1 64654U 24140AEU 26168.13216936  .00001703  00000-0  82939-3 0  9995
2 64654  88.3268 222.2721 0078439 190.4778 169.4780 14.16091634 85190
CZ-6A DEB
1 64654U 24140AEU 26169.12143884  .00001643  00000-0  79981-3 0  9992
2 64654  88.3275 222.0874 0078478 187.3528 172.6516 14.16094880 85331
CZ-6A DEB
1 64654U 24140AEU 26169.12143885  .00001643  00000-0  79981-3 0  9993
2 64654  88.3275 222.0874 0078478 187.3528 172.6516 14.16094880 85331
CZ-6A DEB
1 64654U 24140AEU 26170.11070632  .00001537  00000-0  74772-3 0  9998
2 64654  88.3270 221.9008 0078579 184.1572 175.8973 14.16097678 85474
CZ-6A DEB
1 64654U 24140AEU 26170.11070633  .00001537  00000-0  74772-3 0  9999
2 64654  88.3270 221.9008 0078579 184.1572 175.8973 14.16097678 85474
CZ-6A DEB
1 64654U 24140AEU 26172.08923422  .00001469  00000-0  71373-3 0  9998
2 64654  88.3269 221.5268 0078963 177.8287 182.3260 14.16103795 85756
CZ-6A DEB
1 64654U 24140AEU 26174.56238282  .00001565  00000-0  76080-3 0  9993
2 64654  88.3269 221.0615 0079345 169.9618 190.3177 14.16111836 86103
CZ-6A DEB
1 64654U 24140AEU 26175.12767171  .00001707  00000-0  83056-3 0  9999
2 64654  88.3264 220.9548 0079408 168.1752 192.1326 14.16114408 86183
CZ-6A DEB
1 64654U 24140AEU 26176.11692477  .00001933  00000-0  94092-3 0  9998
2 64654  88.3265 220.7685 0079529 165.0373 195.3195 14.16119027 86320
CZ-6A DEB
1 64654U 24140AEU 26176.11692478  .00001933  00000-0  94092-3 0  9999
2 64654  88.3265 220.7685 0079529 165.0373 195.3195 14.16119027 86320
CZ-6A DEB
1 64654U 24140AEU 26176.61155029  .00001939  00000-0  94407-3 0  9996
2 64654  88.3265 220.6754 0079569 163.5134 196.8670 14.16120825 86397
CZ-6A DEB
1 64654U 24140AEU 26177.10617551  .00001884  00000-0  91670-3 0  9992
2 64654  88.3265 220.5823 0079654 161.9413 198.4634 14.16122207 86462
CZ-6A DEB
1 64654U 24140AEU 26177.10617552  .00001884  00000-0  91670-3 0  9993
2 64654  88.3265 220.5823 0079654 161.9413 198.4634 14.16122208 86463
CZ-6A DEB
1 64654U 24140AEU 26179.57929060  .00001824  00000-0  88693-3 0  9991
2 64654  88.3266 220.1164 0079977 154.1821 206.3393 14.16130903 86814
CZ-6A DEB
1 64654U 24140AEU 26181.55776987  .00001868  00000-0  90840-3 0  9995
2 64654  88.3264 219.7436 0080172 147.9710 212.6387 14.16138590 87098
CZ-6A DEB
1 64654U 24140AEU 26181.55776988  .00001868  00000-0  90840-3 0  9996
2 64654  88.3264 219.7436 0080172 147.9710 212.6387 14.16138590 87098
CZ-6A DEB
1 64654U 24140AEU 26181.55776988  .00001868  00000-0  90840-3 0  9996
2 64654  88.3264 219.7436 0080172 147.9710 212.6387 14.16138590 87098
CZ-6A DEB
1 64654U 24140AEU 26182.82964373  .00001945  00000-0  94608-3 0  9996
2 64654  88.3259 219.5034 0080305 143.9523 216.7118 14.16143621 87278
CZ-6A DEB
1 64654U 24140AEU 26183.53623847  .00002108  00000-0  10258-2 0  9993
2 64654  88.3259 219.3703 0080362 141.7503 218.9424 14.16146916 87371
CZ-6A DEB
1 64654U 24140AEU 26183.53623848  .00002108  00000-0  10258-2 0  9994
2 64654  88.3259 219.3703 0080362 141.7503 218.9424 14.16146917 87372
CZ-6A DEB
1 64654U 24140AEU 26184.52546830  .00002101  00000-0  10221-2 0  9992
2 64654  88.3259 219.1839 0080464 138.6593 222.0723 14.16150430 87516
CZ-6A DEB
1 64654U 24140AEU 26184.59612735  .00002152  00000-0  10471-2 0  9990
2 64654  88.3260 219.1708 0080463 138.4384 222.2959 14.16150985 87527
CZ-6A DEB
1 64654U 24140AEU 26185.51469247  .00002710  00000-0  13202-2 0  9996
2 64654  88.3259 218.9977 0080543 135.5749 225.1937 14.16158085 87653
CZ-6A DEB
1 64654U 24140AEU 26185.51469247  .00002710  00000-0  13202-2 0  9996
2 64654  88.3259 218.9977 0080543 135.5749 225.1937 14.16158085 87653
CZ-6A DEB
1 64654U 24140AEU 26186.07996389  .00002465  00000-0  12000-2 0  9992
2 64654  88.3265 218.8916 0080603 133.8135 226.9755 14.16158805 87735
CZ-6A DEB
1 64654U 24140AEU 26186.07996390  .00002465  00000-0  12000-2 0  9994
2 64654  88.3265 218.8916 0080603 133.8135 226.9755 14.16158805 87735
CZ-6A DEB
1 64654U 24140AEU 26186.50391818  .00002519  00000-0  12266-2 0  9990
2 64654  88.3269 218.8119 0080658 132.5580 228.2454 14.16159240 87795
CZ-6A DEB
1 64654U 24140AEU 26186.50391819  .00002519  00000-0  12266-2 0  9991
2 64654  88.3269 218.8119 0080658 132.5580 228.2454 14.16159240 87795
CZ-6A DEB
1 64654U 24140AEU 26187.06918685  .00002133  00000-0  10371-2 0  9996
2 64654  88.3269 218.7054 0080720 130.7997 230.0230 14.16160676 87871
CZ-6A DEB
1 64654U 24140AEU 26189.04762242  .00001401  00000-0  67857-3 0  9991
2 64654  88.3266 218.3327 0080819 124.5919 236.2927 14.16164029 88150
CZ-6A DEB
1 64654U 24140AEU 26189.04762243  .00001401  00000-0  67857-3 0  9992
2 64654  88.3266 218.3327 0080819 124.5919 236.2927 14.16164029 88150
CZ-6A DEB
1 64654U 24140AEU 26189.04762243  .00001401  00000-0  67857-3 0  9992
2 64654  88.3266 218.3327 0080819 124.5919 236.2927 14.16164029 88150
CZ-6A DEB
1 64654U 24140AEU 26190.03683629  .00001319  00000-0  63797-3 0  9990
2 64654  88.3266 218.1464 0080879 121.4993 239.4129 14.16167047 88291
CZ-6A DEB
1 64654U 24140AEU 26191.02604802  .00001231  00000-0  59486-3 0  9999
2 64654  88.3266 217.9600 0080939 118.3984 242.5393 14.16169726 88432
CZ-6A DEB
1 64654U 24140AEU 26192.01525817  .00001114  00000-0  53776-3 0  9993
2 64654  88.3266 217.7737 0081001 115.2995 245.6613 14.16171763 88578
CZ-6A DEB
1 64654U 24140AEU 26192.01525818  .00001114  00000-0  53776-3 0  9994
2 64654  88.3266 217.7737 0081001 115.2995 245.6613 14.16171763 88578
CZ-6A DEB
1 64654U 24140AEU 26192.01525818  .00001114  00000-0  53776-3 0  9994
2 64654  88.3266 217.7737 0081001 115.2995 245.6613 14.16171763 88578
CZ-6A DEB
1 64654U 24140AEU 26193.00446661  .00001120  00000-0  54057-3 0  9992
2 64654  88.3266 217.5872 0081058 112.1982 248.7831 14.16174066 88711
CZ-6A DEB
1 64654U 24140AEU 26193.00446662  .00001120  00000-0  54057-3 0  9993
2 64654  88.3266 217.5872 0081058 112.1982 248.7831 14.16174066 88711
CZ-6A DEB
1 64654U 24140AEU 26193.56972779  .00001070  00000-0  51597-3 0  9997
2 64654  88.3269 217.4801 0081046 110.4810 250.5102 14.16174980 88798
CZ-6A DEB
1 64654U 24140AEU 26193.56972779  .00001070  00000-0  51597-3 0  9997
2 64654  88.3269 217.4801 0081046 110.4810 250.5102 14.16174980 88798
CZ-6A DEB
1 64654U 24140AEU 26194.48827566  .00001065  00000-0  51358-3 0  9991
2 64654  88.3269 217.3070 0081074 107.6591 253.3469 14.16176899 88923
CZ-6A DEB
1 64654U 24140AEU 26194.48827567  .00001065  00000-0  51358-3 0  9992
2 64654  88.3269 217.3070 0081074 107.6592 253.3469 14.16176900 88927
CZ-6A DEB
1 64654U 24140AEU 26195.05353507  .00001057  00000-0  50951-3 0  9993
2 64654  88.3269 217.2005 0081095 105.8909 255.1235 14.16178074 89004
CZ-6A DEB
1 64654U 24140AEU 26195.54813659  .00001029  00000-0  49573-3 0  9993
2 64654  88.3266 217.1071 0081103 104.3457 256.6752 14.16178975 89072
CZ-6A DEB
1 64654U 24140AEU 26195.54813659  .00001029  00000-0  49573-3 0  9993
2 64654  88.3266 217.1071 0081103 104.3457 256.6752 14.16178975 89072
CZ-6A DEB
1 64654U 24140AEU 26196.04273747  .00001021  00000-0  49172-3 0  9994
2 64654  88.3266 217.0139 0081109 102.8103 258.2163 14.16180001 89148
CZ-6A DEB
1 64654U 24140AEU 26196.04273747  .00001021  00000-0  49172-3 0  9994
2 64654  88.3266 217.0139 0081109 102.8103 258.2163 14.16180001 89148
CZ-6A DEB
1 64654U 24140AEU 26197.03193775  .00000987  00000-0  47547-3 0  9990
2 64654  88.3269 216.8278 0081077  99.7702 261.2654 14.16181934 89285
CZ-6A DEB
1 64654U 24140AEU 26197.03193776  .00000987  00000-0  47547-3 0  9991
2 64654  88.3269 216.8278 0081077  99.7702 261.2654 14.16181934 89285
CZ-6A DEB
1 64654U 24140AEU 26198.02113655  .00000952  00000-0  45830-3 0  9994
2 64654  88.3268 216.6416 0081075  96.6948 264.3475 14.16183717 89424
CZ-6A DEB
1 64654U 24140AEU 26198.02113656  .00000952  00000-0  45830-3 0  9995
2 64654  88.3268 216.6416 0081075  96.6948 264.3475 14.16183717 89424
CZ-6A DEB
1 64654U 24140AEU 26199.01033334  .00000944  00000-0  45408-3 0  9991
2 64654  88.3268 216.4553 0081061  93.6256 267.4206 14.16185636 89561
CZ-6A DEB
1 64654U 24140AEU 26200.07018551  .00000926  00000-0  44553-3 0  9994
2 64654  88.3265 216.2553 0081079  90.3221 270.7258 14.16187455 89713
CZ-6A DEB
1 64654U 24140AEU 26201.48331819  .00001024  00000-0  49340-3 0  9994
2 64654  88.3265 215.9890 0081063  85.9240 275.1209 14.16190545 89918
CZ-6A DEB
1 64654U 24140AEU 26202.47250793  .00001307  00000-0  63206-3 0  9996
2 64654  88.3262 215.8024 0081041  82.8411 278.1982 14.16194128 90054
CZ-6A DEB
1 64654U 24140AEU 26203.03775814  .00001505  00000-0  72865-3 0  9996
2 64654  88.3262 215.6958 0081036  81.0713 279.9637 14.16196453 90136
CZ-6A DEB
1 64654U 24140AEU 26203.46169543  .00001360  00000-0  65786-3 0  9992
2 64654  88.3262 215.6157 0081018  79.7716 281.2596 14.16196628 90194
CZ-6A DEB
1 64654U 24140AEU 26204.02694413  .00001496  00000-0  72448-3 0  9997
2 64654  88.3262 215.5093 0081003  78.0083 283.0170 14.16198768 90279
CZ-6A DEB
1 64654U 24140AEU 26204.45088072  .00001522  00000-0  73719-3 0  9994
2 64654  88.3263 215.4294 0080955  76.6846 284.3353 14.16199809 90339
CZ-6A DEB
1 64654U 24140AEU 26204.45088072  .00001522  00000-0  73719-3 0  9994
2 64654  88.3263 215.4294 0080955  76.6846 284.3353 14.16199809 90339
CZ-6A DEB
1 64654U 24140AEU 26205.01612797  .00001600  00000-0  77541-3 0  9998
2 64654  88.3264 215.3230 0080938  74.9290 286.0835 14.16201757 90413
CZ-6A DEB
1 64654U 24140AEU 26206.00530758  .00001789  00000-0  86786-3 0  9993
2 64654  88.3267 215.1369 0080867  71.8585 289.1388 14.16205891 90556
CZ-6A DEB
1 64654U 24140AEU 26208.97283014  .00001903  00000-0  92382-3 0  9998
2 64654  88.3267 214.5776 0080642  62.5991 298.3371 14.16216574 90970
CZ-6A DEB
1 64654U 24140AEU 26209.96199872  .00001781  00000-0  86429-3 0  9995
2 64654  88.3268 214.3911 0080579  59.4967 301.4145 14.16219347 91110
CZ-6A DEB
1 64654U 24140AEU 26209.96199872  .00001781  00000-0  86429-3 0  9995
2 64654  88.3268 214.3911 0080579  59.4967 301.4144 14.16219346 91118
CZ-6A DEB
1 64654U 24140AEU 26210.95116453  .00001775  00000-0  86095-3 0  9992
2 64654  88.3266 214.2046 0080525  56.3624 304.5212 14.16222705 91259
CZ-6A DEB
1 64654U 24140AEU 26212.43490768  .00001667  00000-0  80812-3 0  9992
2 64654  88.3262 213.9242 0080413  51.7306 309.1081 14.16227291 91464
CZ-6A DEB
1 64654U 24140AEU 26213.00014148  .00001691  00000-0  82026-3 0  9996
2 64654  88.3263 213.8177 0080390  49.9187 310.9013 14.16229406 91545
CZ-6A DEB
1 64654U 24140AEU 26213.49472050  .00001849  00000-0  89731-3 0  9994
2 64654  88.3266 213.7246 0080329  48.4027 312.4008 14.16231886 91617
CZ-6A DEB
1 64654U 24140AEU 26213.98929867  .00001684  00000-0  81664-3 0  9995
2 64654  88.3268 213.6315 0080282  46.8711 313.9154 14.16232720 91688
CZ-6A DEB
1 64654U 24140AEU 26213.98929868  .00001684  00000-0  81664-3 0  9996
2 64654  88.3268 213.6315 0080282  46.8711 313.9154 14.16232720 91688
CZ-6A DEB
1 64654U 24140AEU 26213.98929868  .00001684  00000-0  81664-3 0  9996
2 64654  88.3268 213.6315 0080282  46.8711 313.9154 14.16232720 91688
CZ-6A DEB
1 64654U 24140AEU 26214.48387668  .00001637  00000-0  79368-3 0  9994
2 64654  88.3267 213.5383 0080222  45.3228 315.4458 14.16234009 91756
CZ-6A DEB
1 64654U 24140AEU 26214.97845310  .00001646  00000-0  79787-3 0  9996
2 64654  88.3269 213.4453 0080157  43.7756 316.9748 14.16235862 91824
CZ-6A DEB
1 64654U 24140AEU 26215.40237599  .00001544  00000-0  74797-3 0  9992
2 64654  88.3269 213.3654 0080109  42.4485 318.2861 14.16236633 91882
CZ-6A DEB
1 64654U 24140AEU 26216.95675549  .00001393  00000-0  67440-3 0  9993
2 64654  88.3270 213.0728 0079919  37.5733 323.1001 14.16240678 92102
CZ-6A DEB
1 64654U 24140AEU 26217.45132986  .00001346  00000-0  65117-3 0  9999
2 64654  88.3269 212.9796 0079858  36.0312 324.6221 14.16241834 92174
CZ-6A DEB
1 64654U 24140AEU 26217.94590359  .00001278  00000-0  61795-3 0  9997
2 64654  88.3270 212.8864 0079806  34.4702 326.1624 14.16242883 92246
CZ-6A DEB
1 64654U 24140AEU 26218.93504966  .00001192  00000-0  57615-3 0  9997
2 64654  88.3271 212.7001 0079689  31.3597 329.2306 14.16245135 92385
CZ-6A DEB
1 64654U 24140AEU 26219.92419418  .00001109  00000-0  53526-3 0  9999
2 64654  88.3272 212.5136 0079578  28.2454 332.3014 14.16247173 92528
CZ-6A DEB
1 64654U 24140AEU 26219.92419418  .00001109  00000-0  53526-3 0  9999
2 64654  88.3272 212.5136 0079578  28.2454 332.3014 14.16247173 92528
CZ-6A DEB
1 64654U 24140AEU 26222.46770066  .00001009  00000-0  48631-3 0  9991
2 64654  88.3277 212.0345 0079237  20.2687 340.1615 14.16252535 92883
CZ-6A DEB
1 64654U 24140AEU 26222.46770066  .00001009  00000-0  48631-3 0  9991
2 64654  88.3277 212.0345 0079237  20.2687 340.1615 14.16252535 92883
CZ-6A DEB
1 64654U 24140AEU 26222.96227034  .00000982  00000-0  47314-3 0  9994
2 64654  88.3276 211.9413 0079178  18.7002 341.7065 14.16253373 92958
CZ-6A DEB
1 64654U 24140AEU 26222.96227034  .00000982  00000-0  47314-3 0  9994
2 64654  88.3276 211.9413 0079178  18.7002 341.7065 14.16253373 92958
CZ-6A DEB
1 64654U 24140AEU 26223.38618692  .00000972  00000-0  46830-3 0  9996
2 64654  88.3278 211.8616 0079116  17.3394 343.0467 14.16254135 93011
CZ-6A DEB
1 64654U 24140AEU 26223.95140846  .00000967  00000-0  46617-3 0  9997
2 64654  88.3279 211.7553 0079035  15.5464 344.8123 14.16255245 93098
CZ-6A DEB
1 64654U 24140AEU 26223.95140847  .00000967  00000-0  46617-3 0  9998
2 64654  88.3279 211.7553 0079035  15.5464 344.8123 14.16255245 93098
CZ-6A DEB
1 64654U 24140AEU 26224.37532469  .00000900  00000-0  43313-3 0  9997
2 64654  88.3280 211.6755 0078969  14.1965 346.1415 14.16255616 93157
CZ-6A DEB
1 64654U 24140AEU 26224.37532469  .00000900  00000-0  43313-3 0  9997
2 64654  88.3280 211.6755 0078969  14.1965 346.1415 14.16255616 93157
CZ-6A DEB
1 64654U 24140AEU 26224.94054558  .00000897  00000-0  43205-3 0  9993
2 64654  88.3281 211.5691 0078890  12.3980 347.9124 14.16256676 93238
CZ-6A DEB
1 64654U 24140AEU 26225.92968110  .00000969  00000-0  46725-3 0  9990
2 64654  88.3282 211.3829 0078750   9.2452 351.0163 14.16258898 93376
CZ-6A DEB
1 64654U 24140AEU 26225.92968110  .00000969  00000-0  46725-3 0  9990
2 64654  88.3282 211.3829 0078750   9.2452 351.0163 14.16258898 93376
CZ-6A DEB
1 64654U 24140AEU 26226.91881501  .00001037  00000-0  50056-3 0  9997
2 64654  88.3283 211.1967 0078609   6.0918 354.1206 14.16261159 93515
CZ-6A DEB
1 64654U 24140AEU 26226.91881502  .00001037  00000-0  50056-3 0  9998
2 64654  88.3283 211.1967 0078609   6.0918 354.1206 14.16261159 93515
CZ-6A DEB
1 64654U 24140AEU 26227.90794795  .00001086  00000-0  52479-3 0  9990
2 64654  88.3283 211.0104 0078481   2.9376 357.2256 14.16263203 93654
CZ-6A DEB
1 64654U 24140AEU 26227.90794796  .00001086  00000-0  52479-3 0  9991
2 64654  88.3283 211.0104 0078481   2.9376 357.2256 14.16263203 93654
CZ-6A DEB
1 64654U 24140AEU 26228.40251395  .00001129  00000-0  54566-3 0  9997
2 64654  88.3282 210.9171 0078406   1.3732 358.7656 14.16264319 93728
CZ-6A DEB
1 64654U 24140AEU 26228.89707932  .00001192  00000-0  57686-3 0  9999
2 64654  88.3283 210.8240 0078351 359.7829   0.3311 14.16265633 93796
CZ-6A DEB
1 64654U 24140AEU 26230.38077263  .00001492  00000-0  72350-3 0  9991
2 64654  88.3286 210.5448 0078152 355.0358   5.0045 14.16270513 94005
CZ-6A DEB
1 64654U 24140AEU 26230.94598814  .00001572  00000-0  76319-3 0  9991
2 64654  88.3286 210.4383 0078061 353.2457   6.7671 14.16272299 94085
CZ-6A DEB
1 64654U 24140AEU 26230.94598814  .00001572  00000-0  76319-3 0  9991
2 64654  88.3286 210.4383 0078061 353.2457   6.7671 14.16272299 94085
CZ-6A DEB
1 64654U 24140AEU 26231.93511364  .00001536  00000-0  74548-3 0  9998
2 64654  88.3288 210.2521 0077912 350.0813   9.8832 14.16274647 94222
CZ-6A DEB
1 64654U 24140AEU 26232.92423708  .00001590  00000-0  77218-3 0  9999
2 64654  88.3291 210.0661 0077754 346.9131  13.0037 14.16277660 94367
CZ-6A DEB
1 64654U 24140AEU 26233.91335870  .00001577  00000-0  76541-3 0  9994
2 64654  88.3293 209.8800 0077616 343.7058  16.1635 14.16280374 94500
CZ-6A DEB
1 64654U 24140AEU 26234.90247830  .00001568  00000-0  76119-3 0  9993
2 64654  88.3295 209.6940 0077466 340.5107  19.3122 14.16283237 94640
CZ-6A DEB
1 64654U 24140AEU 26235.89159576  .00001542  00000-0  74855-3 0  9998
2 64654  88.3297 209.5080 0077315 337.3185  22.4592 14.16286140 94786
CZ-6A DEB
1 64654U 24140AEU 26236.88071125  .00001554  00000-0  75473-3 0  9991
2 64654  88.3298 209.3220 0077167 334.1196  25.6140 14.16289286 94927
CZ-6A DEB
1 64654U 24140AEU 26237.37526817  .00001607  00000-0  78055-3 0  9997
2 64654  88.3298 209.2288 0077101 332.5130  27.1989 14.16291130 94994
CZ-6A DEB
1 64654U 24140AEU 26237.37526818  .00001607  00000-0  78055-3 0  9998
2 64654  88.3298 209.2288 0077101 332.5130  27.1989 14.16291130 94994
CZ-6A DEB
1 64654U 24140AEU 26241.89691214  .00001496  00000-0  72648-3 0  9991
2 64654  88.3302 208.3780 0076432 317.8450  41.6874 14.16304395 95638
CZ-6A DEB
1 64654U 24140AEU 26241.89691215  .00001496  00000-0  72648-3 0  9992
2 64654  88.3302 208.3781 0076432 317.8450  41.6874 14.16304395 95639
CZ-6A DEB
1 64654U 24140AEU 26242.88601691  .00001389  00000-0  67387-3 0  9996
2 64654  88.3304 208.1920 0076321 314.5955  44.9020 14.16306788 95777
CZ-6A DEB
1 64654U 24140AEU 26242.88601692  .00001389  00000-0  67387-3 0  9997
2 64654  88.3304 208.1920 0076321 314.5955  44.9020 14.16306788 95777
CZ-6A DEB
1 64654U 24140AEU 26243.87512019  .00001299  00000-0  62963-3 0  9996
2 64654  88.3305 208.0060 0076204 311.3446  48.1201 14.16309190 95915
CZ-6A DEB
1 64654U 24140AEU 26243.87512019  .00001299  00000-0  62963-3 0  9996
2 64654  88.3305 208.0060 0076204 311.3446  48.1201 14.16309190 95915
CZ-6A DEB
1 64654U 24140AEU 26244.86422219  .00001232  00000-0  59715-3 0  9996
2 64654  88.3308 207.8203 0076068 308.1067  51.3278 14.16311611 96052
