COSMOS 970 DEB
1 65004U 77121DR  25206.13110734  .00000677  00000-0  55418-3 0  9994
2 65004  65.9033 357.7105 0129924 265.8421  92.7794 13.92169632162476
COSMOS 970 DEB
1 65004U 77121DR  25217.05037121  .00000800  00000-0  64291-3 0  9992
2 65004  65.9031 330.0065 0130484 260.4465  98.1842 13.92190684163998
COSMOS 970 DEB
1 65004U 77121DR  25217.05037121  .00000800  00000-0  64291-3 0  9992
2 65004  65.9031 330.0065 0130484 260.4465  98.1842 13.92190684163998
COSMOS 970 DEB
1 65004U 77121DR  25222.00708745  .00000973  00000-0  76874-3 0  9991
2 65004  65.9034 317.4313 0130581 258.0695 100.5713 13.92201566164686
COSMOS 970 DEB
1 65004U 77121DR  25222.00708745  .00000973  00000-0  76874-3 0  9991
2 65004  65.9034 317.4313 0130581 258.0695 100.5713 13.92201566164686
COSMOS 970 DEB
1 65004U 77121DR  25223.51564569  .00000983  00000-0  77567-3 0  9993
2 65004  65.9031 313.6037 0130730 257.3381 101.3049 13.92204721164894
COSMOS 970 DEB
1 65004U 77121DR  25225.52705129  .00000901  00000-0  71612-3 0  9990
2 65004  65.9029 308.5004 0130827 256.3780 102.2694 13.92208613165179
COSMOS 970 DEB
1 65004U 77121DR  25225.52705129  .00000901  00000-0  71612-3 0  9990
2 65004  65.9029 308.5004 0130827 256.3780 102.2694 13.92208613165179
COSMOS 970 DEB
1 65004U 77121DR  25227.46661497  .00000894  00000-0  71034-3 0  9993
2 65004  65.9025 303.5793 0130895 255.4480 103.2044 13.92212884165442
COSMOS 970 DEB
1 65004U 77121DR  25233.42894607  .00000800  00000-0  64223-3 0  9996
2 65004  65.9016 288.4508 0131172 252.6245 106.0447 13.92223961166272
COSMOS 970 DEB
1 65004U 77121DR  25234.86564559  .00000764  00000-0  61562-3 0  9997
2 65004  65.9014 284.8051 0131201 251.9499 106.7243 13.92226370166479
COSMOS 970 DEB
1 65004U 77121DR  25236.37417722  .00000789  00000-0  63409-3 0  9993
2 65004  65.9013 280.9775 0131244 251.2390 107.4405 13.92229276166687
COSMOS 970 DEB
1 65004U 77121DR  25238.81655522  .00000835  00000-0  66727-3 0  9994
2 65004  65.9009 274.7800 0131267 250.0927 108.5962 13.92234036167029
COSMOS 970 DEB
1 65004U 77121DR  25242.76744272  .00001137  00000-0  88672-3 0  9993
2 65004  65.9002 264.7539 0131269 248.2458 110.4601 13.92243443167574
COSMOS 970 DEB
1 65004U 77121DR  25248.29863646  .00001258  00000-0  97413-3 0  9991
2 65004  65.9000 250.7178 0131031 245.6272 113.1077 13.92258432168345
COSMOS 970 DEB
1 65004U 77121DR  25258.21157093  .00000866  00000-0  68985-3 0  9992
2 65004  65.8997 225.5594 0130099 241.0022 117.7960 13.92275977169724
COSMOS 970 DEB
1 65004U 77121DR  25263.59899657  .00000740  00000-0  59914-3 0  9991
2 65004  65.9006 211.8908 0129761 238.2615 120.5759 13.92282440170478
COSMOS 970 DEB
1 65004U 77121DR  25266.11311644  .00001206  00000-0  93786-3 0  9990
2 65004  65.9022 205.5113 0129364 236.9853 121.8735 13.92289058170821
COSMOS 970 DEB
1 65004U 77121DR  25278.97078539  .00001276  00000-0  98899-3 0  9997
2 65004  65.9014 172.8833 0127741 230.4096 128.5641 13.92334617172613
COSMOS 970 DEB
1 65004U 77121DR  25279.40176145  .00001266  00000-0  98243-3 0  9990
2 65004  65.9013 171.7894 0127640 230.1694 128.8091 13.92336032172677
COSMOS 970 DEB
1 65004U 77121DR  25279.40176145  .00001266  00000-0  98243-3 0  9990
2 65004  65.9013 171.7894 0127640 230.1694 128.8091 13.92336032172677
COSMOS 970 DEB
1 65004U 77121DR  25284.35796288  .00001030  00000-0  81068-3 0  9992
2 65004  65.9010 159.2117 0127133 227.6387 131.3866 13.92348051173360
COSMOS 970 DEB
1 65004U 77121DR  25287.87756311  .00001061  00000-0  83382-3 0  9990
2 65004  65.9005 150.2797 0126700 225.7933 133.2678 13.92355563173856
COSMOS 970 DEB
1 65004U 77121DR  25292.18725420  .00001255  00000-0  97467-3 0  9991
2 65004  65.8991 139.3409 0126421 223.6155 135.4871 13.92364929174452
COSMOS 970 DEB
1 65004U 77121DR  25296.28143109  .00001154  00000-0  90139-3 0  9991
2 65004  65.9003 128.9515 0126091 221.4949 137.6499 13.92374196175020
COSMOS 970 DEB
1 65004U 77121DR  25296.28143109  .00001154  00000-0  90139-3 0  9991
2 65004  65.9003 128.9515 0126091 221.4949 137.6499 13.92374196175020
COSMOS 970 DEB
1 65004U 77121DR  25297.78980429  .00001108  00000-0  86804-3 0  9994
2 65004  65.9007 125.1232 0125971 220.7176 138.4429 13.92377835175237
COSMOS 970 DEB
1 65004U 77121DR  25297.78980430  .00001108  00000-0  86804-3 0  9996
2 65004  65.9007 125.1232 0125971 220.7176 138.4429 13.92377835175237
COSMOS 970 DEB
1 65004U 77121DR  25299.80096289  .00001133  00000-0  88621-3 0  9998
2 65004  65.9006 120.0187 0125867 219.7095 139.4712 13.92382652175511
COSMOS 970 DEB
1 65004U 77121DR  25299.80096290  .00001133  00000-0  88621-3 0  9990
2 65004  65.9006 120.0188 0125867 219.7095 139.4712 13.92382652175512
COSMOS 970 DEB
1 65004U 77121DR  25306.69630964  .00001119  00000-0  87628-3 0  9998
2 65004  65.8987 102.5158 0125623 216.3331 142.9165 13.92399170176477
COSMOS 970 DEB
1 65004U 77121DR  25315.60265064  .00001954  00000-0  14834-2 0  9999
2 65004  65.9008  79.9104 0125287 212.1550 147.1840 13.92431224177715
COSMOS 970 DEB
1 65004U 77121DR  25318.61924625  .00002527  00000-0  19001-2 0  9996
2 65004  65.9020  72.2549 0124983 210.7146 148.6570 13.92452254178134
COSMOS 970 DEB
1 65004U 77121DR  25318.61924625  .00002527  00000-0  19001-2 0  9996
2 65004  65.9020  72.2549 0124983 210.7147 148.6570 13.92452254178135
COSMOS 970 DEB
1 65004U 77121DR  25323.00042416  .00001620  00000-0  12409-2 0  9992
2 65004  65.9028  61.1332 0124192 208.2906 151.1385 13.92473835178745
COSMOS 970 DEB
1 65004U 77121DR  25324.00592762  .00001590  00000-0  12182-2 0  9991
2 65004  65.9022  58.5822 0124593 208.1659 151.2638 13.92479241178886
COSMOS 970 DEB
1 65004U 77121DR  25327.59700581  .00001408  00000-0  10859-2 0  9995
2 65004  65.9034  49.4671 0124263 206.4993 152.9692 13.92492771179383
COSMOS 970 DEB
1 65004U 77121DR  25327.59700582  .00001408  00000-0  10859-2 0  9996
2 65004  65.9034  49.4671 0124263 206.4993 152.9693 13.92492771179384
COSMOS 970 DEB
1 65004U 77121DR  25331.90626269  .00001439  00000-0  11088-2 0  9994
2 65004  65.9035  38.5285 0123872 204.5428 154.9718 13.92506322179986
COSMOS 970 DEB
1 65004U 77121DR  25331.90626269  .00001439  00000-0  11088-2 0  9994
2 65004  65.9035  38.5285 0123872 204.5428 154.9718 13.92506322179986
COSMOS 970 DEB
1 65004U 77121DR  25334.41997845  .00001233  00000-0  95900-3 0  9992
2 65004  65.9040  32.1481 0123616 203.3218 156.2219 13.92512648180330
COSMOS 970 DEB
1 65004U 77121DR  25334.41997845  .00001233  00000-0  95900-3 0  9992
2 65004  65.9041  32.1481 0123616 203.3218 156.2219 13.92512648180331
COSMOS 970 DEB
1 65004U 77121DR  25335.42546095  .00001308  00000-0  10133-2 0  9998
2 65004  65.9030  29.5957 0123520 202.8361 156.7191 13.92515738180476
COSMOS 970 DEB
1 65004U 77121DR  25335.42546096  .00001308  00000-0  10133-2 0  9999
2 65004  65.9030  29.5957 0123520 202.8361 156.7191 13.92515738180476
COSMOS 970 DEB
1 65004U 77121DR  25344.76196119  .00001398  00000-0  10796-2 0  9997
2 65004  65.9035   5.8957 0122312 198.3164 161.3485 13.92548242181774
COSMOS 970 DEB
1 65004U 77121DR  25344.76196120  .00001398  00000-0  10796-2 0  9999
2 65004  65.9035   5.8957 0122312 198.3164 161.3485 13.92548242181774
COSMOS 970 DEB
1 65004U 77121DR  25357.68914598  .00000791  00000-0  63853-3 0  9990
2 65004  65.9026 333.0769 0120198 191.8769 167.9464 13.92574352183570
COSMOS 970 DEB
1 65004U 77121DR  25357.68914599  .00000791  00000-0  63853-3 0  9991
2 65004  65.9026 333.0769 0120198 191.8769 167.9464 13.92574352183570
COSMOS 970 DEB
1 65004U 77121DR  26007.05242147  .00000931  00000-0  74196-3 0  9996
2 65004  65.9019 296.6112 0118045 183.7917 176.2274 13.92606006185577
COSMOS 970 DEB
1 65004U 77121DR  26007.05242147  .00000931  00000-0  74196-3 0  9996
2 65004  65.9019 296.6112 0118045 183.7917 176.2274 13.92606006185577
COSMOS 970 DEB
1 65004U 77121DR  26013.44396885  .00000699  00000-0  57264-3 0  9993
2 65004  65.9025 280.3865 0117253 180.5250 179.5719 13.92618090186469
COSMOS 970 DEB
1 65004U 77121DR  26013.44396886  .00000699  00000-0  57264-3 0  9994
2 65004  65.9025 280.3865 0117253 180.5250 179.5719 13.92618090186469
COSMOS 970 DEB
1 65004U 77121DR  26014.23393156  .00000664  00000-0  54689-3 0  9999
2 65004  65.9020 278.3809 0117190 180.1217 179.9847 13.92619251186576
COSMOS 970 DEB
1 65004U 77121DR  26017.96829336  .00000770  00000-0  62488-3 0  9990
2 65004  65.9014 268.8997 0116777 177.9974 182.1591 13.92625619187090
COSMOS 970 DEB
1 65004U 77121DR  26018.39918020  .00000784  00000-0  63518-3 0  9997
2 65004  65.9014 267.8058 0116734 177.7598 182.4023 13.92626344187156
COSMOS 970 DEB
1 65004U 77121DR  26019.40458196  .00000844  00000-0  67906-3 0  9995
2 65004  65.9014 265.2534 0116635 177.1933 182.9820 13.92628228187292
COSMOS 970 DEB
1 65004U 77121DR  26022.34895221  .00001614  00000-0  12425-2 0  9997
2 65004  65.9012 257.7782 0116363 175.5589 184.6545 13.92641102187703
COSMOS 970 DEB
1 65004U 77121DR  26022.34895222  .00001614  00000-0  12425-2 0  9998
2 65004  65.9012 257.7782 0116363 175.5589 184.6545 13.92641102187703
COSMOS 970 DEB
1 65004U 77121DR  26024.07247590  .00001787  00000-0  13687-2 0  9991
2 65004  65.9009 253.4023 0116215 174.6017 185.6339 13.92648164187945
COSMOS 970 DEB
1 65004U 77121DR  26024.07247591  .00001787  00000-0  13687-2 0  9992
2 65004  65.9009 253.4023 0116215 174.6017 185.6339 13.92648164187945
COSMOS 970 DEB
1 65004U 77121DR  26025.07786321  .00001517  00000-0  11710-2 0  9998
2 65004  65.9010 250.8502 0116131 174.0391 186.2096 13.92649924188084
COSMOS 970 DEB
1 65004U 77121DR  26025.07786321  .00001517  00000-0  11710-2 0  9998
2 65004  65.9010 250.8502 0116131 174.0391 186.2096 13.92649924188084
COSMOS 970 DEB
1 65004U 77121DR  26038.21954493  .00001164  00000-0  91377-3 0  9991
2 65004  65.8993 217.4813 0115065 167.0649 193.3420 13.92679920189912
COSMOS 970 DEB
1 65004U 77121DR  26055.74137073  .00000857  00000-0  68971-3 0  9997
2 65004  65.9031 172.9957 0113246 158.0911 202.5061 13.92714417192358
COSMOS 970 DEB
1 65004U 77121DR  26055.74137073  .00000857  00000-0  68971-3 0  9997
2 65004  65.9031 172.9958 0113246 158.0911 202.5061 13.92714417192359
COSMOS 970 DEB
1 65004U 77121DR  26058.54194417  .00000895  00000-0  71785-3 0  9992
2 65004  65.9026 165.8845 0112895 156.7663 203.8571 13.92721802192746
COSMOS 970 DEB
1 65004U 77121DR  26058.54194418  .00000895  00000-0  71785-3 0  9993
2 65004  65.9026 165.8845 0112895 156.7663 203.8571 13.92721802192746
COSMOS 970 DEB
1 65004U 77121DR  26061.55793009  .00001092  00000-0  86200-3 0  9997
2 65004  65.9027 158.2241 0112835 155.0449 205.6139 13.92730478193167
COSMOS 970 DEB
1 65004U 77121DR  26061.55793010  .00001092  00000-0  86200-3 0  9999
2 65004  65.9027 158.2241 0112835 155.0449 205.6139 13.92730478193167
COSMOS 970 DEB
1 65004U 77121DR  26075.84775214  .00000686  00000-0  56507-3 0  9997
2 65004  65.8999 121.9373 0110723 147.7199 213.0714 13.92760455195152
COSMOS 970 DEB
1 65004U 77121DR  26075.84775214  .00000686  00000-0  56507-3 0  9997
2 65004  65.8999 121.9374 0110723 147.7199 213.0714 13.92760455195153
COSMOS 970 DEB
1 65004U 77121DR  26083.31569227  .00000756  00000-0  61719-3 0  9992
2 65004  65.8995 102.9728 0109512 143.8607 216.9932 13.92772869196197
COSMOS 970 DEB
1 65004U 77121DR  26083.31569228  .00000756  00000-0  61719-3 0  9993
2 65004  65.8995 102.9728 0109512 143.8607 216.9932 13.92772869196197
COSMOS 970 DEB
1 65004U 77121DR  26084.75182693  .00000779  00000-0  63414-3 0  9998
2 65004  65.8996  99.3263 0109174 143.0654 217.8001 13.92775545196392
COSMOS 970 DEB
1 65004U 77121DR  26084.75182694  .00000779  00000-0  63414-3 0  9999
2 65004  65.8996  99.3263 0109174 143.0654 217.8001 13.92775545196392
COSMOS 970 DEB
1 65004U 77121DR  26087.26505824  .00000801  00000-0  64998-3 0  9996
2 65004  65.9004  92.9450 0109000 141.6065 219.2830 13.92779710196741
COSMOS 970 DEB
1 65004U 77121DR  26087.26505825  .00000801  00000-0  64998-3 0  9997
2 65004  65.9004  92.9450 0109000 141.6065 219.2830 13.92779710196741
COSMOS 970 DEB
1 65004U 77121DR  26099.61567257  .00000794  00000-0  64545-3 0  9995
2 65004  65.9027  61.5816 0108189 134.4096 226.5896 13.92802155198469
COSMOS 970 DEB
1 65004U 77121DR  26099.61567257  .00000794  00000-0  64545-3 0  9995
2 65004  65.9027  61.5816 0108189 134.4096 226.5896 13.92802155198469
COSMOS 970 DEB
1 65004U 77121DR  26100.62094639  .00000718  00000-0  58921-3 0  9995
2 65004  65.9027  59.0281 0108150 133.8337 227.1739 13.92803379198604
COSMOS 970 DEB
1 65004U 77121DR  26105.57549663  .00000540  00000-0  45839-3 0  9993
2 65004  65.9031  46.4466 0108134 130.8982 230.1519 13.92809753199297
COSMOS 970 DEB
1 65004U 77121DR  26105.57549664  .00000540  00000-0  45839-3 0  9994
2 65004  65.9031  46.4466 0108134 130.8982 230.1519 13.92809753199297
COSMOS 970 DEB
1 65004U 77121DR  26109.09392940  .00000648  00000-0  53762-3 0  9991
2 65004  65.9035  37.5116 0108091 128.9049 232.1724 13.92815244199784
COSMOS 970 DEB
1 65004U 77121DR  26109.09392940  .00000648  00000-0  53762-3 0  9991
2 65004  65.9035  37.5116 0108091 128.9049 232.1724 13.92815244199784
COSMOS 970 DEB
1 65004U 77121DR  26109.52475654  .00000738  00000-0  60390-3 0  9998
2 65004  65.9035  36.4173 0108216 128.6077 232.4747 13.92816660199840
COSMOS 970 DEB
1 65004U 77121DR  26109.52475655  .00000738  00000-0  60390-3 0  9999
2 65004  65.9035  36.4173 0108216 128.6077 232.4747 13.92816660199840
COSMOS 970 DEB
1 65004U 77121DR  26113.04316997  .00000810  00000-0  65666-3 0  9996
2 65004  65.9043  27.4829 0108155 126.5960 234.5122 13.92823455200334
COSMOS 970 DEB
1 65004U 77121DR  26113.04316997  .00000810  00000-0  65666-3 0  9996
2 65004  65.9043  27.4829 0108155 126.5960 234.5122 13.92823455200334
COSMOS 970 DEB
1 65004U 77121DR  26113.04316997  .00000810  00000-0  65666-3 0  9996
2 65004  65.9043  27.4829 0108155 126.5960 234.5122 13.92823455200334
COSMOS 970 DEB
1 65004U 77121DR  26121.94681590  .00001125  00000-0  88773-3 0  9992
2 65004  65.9031   4.8712 0108723 121.4682 239.7072 13.92845972201573
COSMOS 970 DEB
1 65004U 77121DR  26121.94681591  .00001125  00000-0  88773-3 0  9993
2 65004  65.9031   4.8712 0108723 121.4682 239.7072 13.92845972201573
COSMOS 970 DEB
1 65004U 77121DR  26128.33725034  .00000922  00000-0  73822-3 0  9997
2 65004  65.9025 348.6414 0108955 117.9210 243.2945 13.92860023202460
COSMOS 970 DEB
1 65004U 77121DR  26128.33725034  .00000922  00000-0  73822-3 0  9997
2 65004  65.9025 348.6414 0108955 117.9210 243.2945 13.92860023202460
COSMOS 970 DEB
1 65004U 77121DR  26129.84509622  .00000835  00000-0  67426-3 0  9993
2 65004  65.9027 344.8125 0108943 117.1042 244.1193 13.92862836202673
COSMOS 970 DEB
1 65004U 77121DR  26129.84509622  .00000835  00000-0  67426-3 0  9993
2 65004  65.9027 344.8125 0108943 117.1042 244.1193 13.92862836202673
COSMOS 970 DEB
1 65004U 77121DR  26131.28113843  .00000723  00000-0  59198-3 0  9993
2 65004  65.9028 341.1659 0108824 116.3312 244.8986 13.92864570202871
COSMOS 970 DEB
1 65004U 77121DR  26131.28113843  .00000723  00000-0  59198-3 0  9993
2 65004  65.9028 341.1659 0108824 116.3312 244.8986 13.92864570202871
COSMOS 970 DEB
1 65004U 77121DR  26132.28636700  .00000658  00000-0  54404-3 0  9998
2 65004  65.9054 338.6136 0108889 115.8246 245.4106 13.92865776203019
COSMOS 970 DEB
1 65004U 77121DR  26132.28636701  .00000658  00000-0  54404-3 0  9999
2 65004  65.9054 338.6136 0108889 115.8246 245.4106 13.92865776203019
COSMOS 970 DEB
1 65004U 77121DR  26132.28636701  .00000658  00000-0  54404-3 0  9999
2 65004  65.9054 338.6136 0108889 115.8246 245.4106 13.92865776203019
COSMOS 970 DEB
1 65004U 77121DR  26137.24069377  .00000566  00000-0  47668-3 0  9991
2 65004  65.9022 326.0301 0108897 113.1327 248.1265 13.92871692203705
COSMOS 970 DEB
1 65004U 77121DR  26137.24069378  .00000566  00000-0  47668-3 0  9992
2 65004  65.9022 326.0301 0108897 113.1327 248.1265 13.92871693203706
COSMOS 970 DEB
1 65004U 77121DR  26137.81510715  .00000539  00000-0  45667-3 0  9998
2 65004  65.9021 324.5715 0108910 112.8248 248.4371 13.92872233203781
COSMOS 970 DEB
1 65004U 77121DR  26137.81510716  .00000539  00000-0  45667-3 0  9999
2 65004  65.9021 324.5715 0108910 112.8248 248.4371 13.92872233203781
COSMOS 970 DEB
1 65004U 77121DR  26140.75897053  .00000471  00000-0  40738-3 0  9997
2 65004  65.9021 317.0943 0108849 111.2473 250.0266 13.92875474204193
COSMOS 970 DEB
1 65004U 77121DR  26142.19499858  .00000525  00000-0  44639-3 0  9992
2 65004  65.9020 313.4469 0108808 110.4877 250.7916 13.92877466204393
COSMOS 970 DEB
1 65004U 77121DR  26148.15449035  .00000774  00000-0  62976-3 0  9996
2 65004  65.9018 298.3103 0108531 107.3337 253.9641 13.92887295205229
COSMOS 970 DEB
1 65004U 77121DR  26148.15449035  .00000774  00000-0  62976-3 0  9996
2 65004  65.9018 298.3103 0108531 107.3337 253.9641 13.92887295205229
COSMOS 970 DEB
1 65004U 77121DR  26150.02130860  .00000876  00000-0  70419-3 0  9992
2 65004  65.9017 293.5688 0108435 106.3435 254.9593 13.92891502205485
COSMOS 970 DEB
1 65004U 77121DR  26150.02130861  .00000876  00000-0  70419-3 0  9993
2 65004  65.9017 293.5688 0108435 106.3435 254.9594 13.92891502205486
COSMOS 970 DEB
1 65004U 77121DR  26151.74452058  .00000924  00000-0  73954-3 0  9999
2 65004  65.9018 289.1923 0108328 105.3953 255.9118 13.92895330205728
COSMOS 970 DEB
1 65004U 77121DR  26151.74452059  .00000924  00000-0  73954-3 0  9990
2 65004  65.9018 289.1923 0108328 105.3953 255.9118 13.92895330205728
COSMOS 970 DEB
1 65004U 77121DR  26157.05772896  .00000805  00000-0  65211-3 0  9999
2 65004  65.9011 275.6964 0107861 102.6036 258.7124 13.92905641206466
COSMOS 970 DEB
1 65004U 77121DR  26157.05772896  .00000805  00000-0  65211-3 0  9999
2 65004  65.9011 275.6964 0107861 102.6036 258.7123 13.92905641206465
COSMOS 970 DEB
1 65004U 77121DR  26157.05772896  .00000805  00000-0  65211-3 0  9999
2 65004  65.9011 275.6964 0107861 102.6036 258.7124 13.92905641206466
COSMOS 970 DEB
1 65004U 77121DR  26160.00152000  .00000561  00000-0  47328-3 0  9995
2 65004  65.9025 268.2213 0107696 100.9154 260.4058 13.92909391206871
COSMOS 970 DEB
1 65004U 77121DR  26160.00152001  .00000561  00000-0  47328-3 0  9996
2 65004  65.9025 268.2213 0107696 100.9154 260.4058 13.92909391206871
COSMOS 970 DEB
1 65004U 77121DR  26161.00671419  .00000546  00000-0  46262-3 0  9995
2 65004  65.9024 265.6684 0107559 100.3888 260.9329 13.92910883207010
COSMOS 970 DEB
1 65004U 77121DR  26161.00671420  .00000546  00000-0  46262-3 0  9997
2 65004  65.9024 265.6684 0107559 100.3888 260.9329 13.92910883207010
COSMOS 970 DEB
1 65004U 77121DR  26161.72471011  .00000522  00000-0  44483-3 0  9997
2 65004  65.9021 263.8446 0107548  99.9831 261.3399 13.92911727207113
COSMOS 970 DEB
1 65004U 77121DR  26166.60706734  .00000476  00000-0  41080-3 0  9990
2 65004  65.9017 251.4441 0107077  97.3191 264.0066 13.92917729207797
COSMOS 970 DEB
1 65004U 77121DR  26167.61225605  .00000451  00000-0  39306-3 0  9996
2 65004  65.9017 248.8910 0106985  96.7639 264.5621 13.92918814207939
COSMOS 970 DEB
1 65004U 77121DR  26167.61225606  .00000451  00000-0  39306-3 0  9997
2 65004  65.9017 248.8910 0106985  96.7639 264.5621 13.92918814207939
COSMOS 970 DEB
1 65004U 77121DR  26169.90982720  .00000396  00000-0  35246-3 0  9995
2 65004  65.9017 243.0556 0106780  95.4832 265.8431 13.92921184208259
COSMOS 970 DEB
1 65004U 77121DR  26169.90982721  .00000396  00000-0  35246-3 0  9996
2 65004  65.9017 243.0556 0106780  95.4832 265.8431 13.92921184208259
COSMOS 970 DEB
1 65004U 77121DR  26173.42797541  .00000362  00000-0  32729-3 0  9998
2 65004  65.9014 234.1201 0106470  93.5217 267.8040 13.92924652208741
COSMOS 970 DEB
1 65004U 77121DR  26173.42797541  .00000362  00000-0  32729-3 0  9998
2 65004  65.9014 234.1201 0106470  93.5217 267.8040 13.92924652208741
COSMOS 970 DEB
1 65004U 77121DR  26177.37690534  .00000532  00000-0  45218-3 0  9996
2 65004  65.9010 224.0897 0106207  91.2829 270.0414 13.92929757209291
COSMOS 970 DEB
1 65004U 77121DR  26177.37690534  .00000532  00000-0  45218-3 0  9996
2 65004  65.9010 224.0897 0106207  91.2829 270.0413 13.92929757209290
COSMOS 970 DEB
1 65004U 77121DR  26178.81287634  .00000560  00000-0  47331-3 0  9998
2 65004  65.9007 220.4422 0106106  90.4732 270.8500 13.92931631209493
COSMOS 970 DEB
1 65004U 77121DR  26178.81287635  .00000560  00000-0  47331-3 0  9999
2 65004  65.9007 220.4422 0106106  90.4732 270.8500 13.92931631209493
COSMOS 970 DEB
1 65004U 77121DR  26181.54121563  .00000612  00000-0  51124-3 0  9993
2 65004  65.9006 213.5122 0105949  88.9208 272.4001 13.92935441209875
COSMOS 970 DEB
1 65004U 77121DR  26181.54121563  .00000612  00000-0  51124-3 0  9993
2 65004  65.9006 213.5122 0105949  88.9208 272.4001 13.92935441209875
COSMOS 970 DEB
1 65004U 77121DR  26182.33099681  .00000662  00000-0  54801-3 0  9996
2 65004  65.9005 211.5063 0105941  88.4715 272.8490 13.92936780209981
COSMOS 970 DEB
1 65004U 77121DR  26182.33099681  .00000662  00000-0  54801-3 0  9996
2 65004  65.9005 211.5063 0105941  88.4715 272.8490 13.92936780209981
COSMOS 970 DEB
1 65004U 77121DR  26182.33099681  .00000662  00000-0  54801-3 0  9996
2 65004  65.9005 211.5063 0105941  88.4715 272.8490 13.92936780209981
COSMOS 970 DEB
1 65004U 77121DR  26183.76696119  .00000673  00000-0  55593-3 0  9994
2 65004  65.9005 207.8589 0105878  87.6553 273.6637 13.92938656210182
COSMOS 970 DEB
1 65004U 77121DR  26183.76696120  .00000673  00000-0  55593-3 0  9996
2 65004  65.9005 207.8589 0105878  87.6553 273.6637 13.92938656210182
COSMOS 970 DEB
1 65004U 77121DR  26185.49011544  .00000755  00000-0  61666-3 0  9998
2 65004  65.9003 203.4824 0105861  86.6740 274.6435 13.92941428210428
COSMOS 970 DEB
1 65004U 77121DR  26185.49011544  .00000755  00000-0  61666-3 0  9998
2 65004  65.9003 203.4824 0105861  86.6740 274.6435 13.92941428210428
COSMOS 970 DEB
1 65004U 77121DR  26195.39820642  .00000338  00000-0  31022-3 0  9995
2 65004  65.9006 178.3147 0106022  80.9914 280.3140 13.92950330211801
COSMOS 970 DEB
1 65004U 77121DR  26201.28559501  .00000428  00000-0  37613-3 0  9996
2 65004  65.9010 163.3612 0106426  77.6803 283.6159 13.92955251212629
COSMOS 970 DEB
1 65004U 77121DR  26202.50614777  .00000569  00000-0  47904-3 0  9999
2 65004  65.9012 160.2610 0106537  77.0037 284.2906 13.92957247212793
COSMOS 970 DEB
1 65004U 77121DR  26214.13719076  .00000784  00000-0  63647-3 0  9990
2 65004  65.9014 130.7177 0107517  70.5828 290.6826 13.92979534214416
COSMOS 970 DEB
1 65004U 77121DR  26214.13719077  .00000784  00000-0  63647-3 0  9991
2 65004  65.9014 130.7177 0107517  70.5828 290.6826 13.92979534214416
COSMOS 970 DEB
1 65004U 77121DR  26218.44493292  .00000655  00000-0  54123-3 0  9993
2 65004  65.9021 119.7766 0107927  68.2781 292.9739 13.92988171215014
COSMOS 970 DEB
1 65004U 77121DR  26222.32188247  .00000535  00000-0  45352-3 0  9997
2 65004  65.9017 109.9285 0108238  66.2046 295.0331 13.92993873215550
COSMOS 970 DEB
1 65004U 77121DR  26222.32188247  .00000535  00000-0  45352-3 0  9997
2 65004  65.9017 109.9285 0108238  66.2046 295.0331 13.92993873215550
COSMOS 970 DEB
1 65004U 77121DR  26224.26035257  .00000490  00000-0  42014-3 0  9996
2 65004  65.9016 105.0023 0108453  65.1601 296.0703 13.92996034215826
COSMOS 970 DEB
1 65004U 77121DR  26224.26035257  .00000490  00000-0  42014-3 0  9996
2 65004  65.9016 105.0023 0108453  65.1601 296.0703 13.92996035215827
COSMOS 970 DEB
1 65004U 77121DR  26226.91676894  .00000541  00000-0  45783-3 0  9991
2 65004  65.9010  98.2560 0108621  63.7954 297.4237 13.92999530216193
COSMOS 970 DEB
1 65004U 77121DR  26226.91676894  .00000541  00000-0  45783-3 0  9991
2 65004  65.9010  98.2560 0108621  63.7954 297.4237 13.92999530216193
COSMOS 970 DEB
1 65004U 77121DR  26231.22445896  .00000659  00000-0  54378-3 0  9997
2 65004  65.9008  87.3126 0108857  61.5237 299.6748 13.93005091216796
COSMOS 970 DEB
1 65004U 77121DR  26236.17828297  .00000527  00000-0  44727-3 0  9997
2 65004  65.9008  74.7276 0109120  58.9173 302.2554 13.93010114217480
COSMOS 970 DEB
1 65004U 77121DR  26244.21922773  .00000366  00000-0  32939-3 0  9998
2 65004  65.9011  54.2990 0109230  54.5771 306.5442 13.93018334218608
COSMOS 970 DEB
1 65004U 77121DR  26244.21922774  .00000366  00000-0  32939-3 0  9999
2 65004  65.9011  54.2990 0109230  54.5771 306.5442 13.93018334218608
