OBJECT K
1 66421U 25258K   25316.71976931  .00000066  00000-0  69814-4 0  9995
2 66421  49.9959  28.2123 0064664 141.4586 219.0978 14.42307744   382
OBJECT K
1 66421U 25258K   25316.71976943  .00000032  00000-0  59934-4 0  9993
2 66421  49.9959  28.2123 0064661 141.4578 219.0986 14.42307504   383
OBJECT K
1 66421U 25258K   25317.55118811  .00000060  00000-0  68005-4 0  9998
2 66421  49.9960  24.6046 0064664 144.4464 216.0791 14.42308017   504
OBJECT K
1 66421U 25258K   25317.75904271  .00000057  00000-0  67269-4 0  9990
2 66421  49.9960  23.7027 0064663 145.1920 215.3256 14.42308105   536
OBJECT K
1 66421U 25258K   25317.75904289  .00000028  00000-0  58687-4 0  9991
2 66421  49.9960  23.7027 0064663 145.1923 215.3253 14.42307889   534
OBJECT K
1 66421U 25258K   25320.32257993 -.00000017  00000-0  45495-4 0  9993
2 66421  49.9959  12.5785 0064709 154.4426 205.9717 14.42309085   902
OBJECT K
1 66421U 25258K   25320.59971892 -.00000020  00000-0  44407-4 0  9999
2 66421  49.9960  11.3761 0064677 155.4389 204.9636 14.42309197   945
OBJECT K
1 66421U 25258K   25321.29256593 -.00000034  00000-0  40501-4 0  9997
2 66421  49.9959   8.3696 0064717 157.9461 202.4267 14.42309505  1047
OBJECT K
1 66421U 25258K   25321.63898940 -.00000044  00000-0  37492-4 0  9999
2 66421  49.9961   6.8663 0064689 159.1985 201.1590 14.42309643  1093
OBJECT K
1 66421U 25258K   25322.12398237 -.00000062  00000-0  32226-4 0  9998
2 66421  49.9962   4.7627 0064597 160.9228 199.4133 14.42309902  1167
OBJECT K
1 66421U 25258K   25322.95539833 -.00000067  00000-0  30622-4 0  9991
2 66421  49.9959   1.1553 0064605 163.9362 196.3627 14.42310212  1287
OBJECT K
1 66421U 25258K   25323.30182162 -.00000064  00000-0  31685-4 0  9997
2 66421  49.9959 359.6521 0064598 165.1765 195.1068 14.42310355  1335
OBJECT K
1 66421U 25258K   25323.57896003 -.00000063  00000-0  31970-4 0  9998
2 66421  49.9959 358.4494 0064619 166.1796 194.0912 14.42310554  1371
OBJECT K
1 66421U 25258K   25323.99466788 -.00000076  00000-0  28166-4 0  9994
2 66421  49.9958 356.6453 0064623 167.6763 192.5755 14.42310582  1436
OBJECT K
1 66421U 25258K   25324.34109101 -.00000076  00000-0  28042-4 0  9990
2 66421  49.9958 355.1422 0064632 168.9275 191.3085 14.42310712  1481
OBJECT K
1 66421U 25258K   25325.03393728 -.00000086  00000-0  24992-4 0  9998
2 66421  49.9958 352.1358 0064632 171.4236 188.7804 14.42310820  1582
OBJECT K
1 66421U 25258K   25326.55819833 -.00000089  00000-0  24277-4 0  9995
2 66421  49.9957 345.5215 0064582 176.8901 183.2433 14.42311371  1806
OBJECT K
1 66421U 25258K   25327.32032853 -.00000095  00000-0  22503-4 0  9997
2 66421  49.9956 342.2142 0064593 179.6267 180.4713 14.42311624  1919
OBJECT K
1 66421U 25258K   25328.29031219 -.00000086  00000-0  25136-4 0  9994
2 66421  49.9957 338.0051 0064613 183.1319 176.9205 14.42312026  2052
OBJECT K
1 66421U 25258K   25329.05244204 -.00000080  00000-0  26673-4 0  9990
2 66421  49.9958 334.6979 0064637 185.8760 174.1409 14.42312349  2165
OBJECT K
1 66421U 25258K   25329.32958023 -.00000078  00000-0  27410-4 0  9998
2 66421  49.9957 333.4960 0064601 186.8722 173.1319 14.42312499  2201
OBJECT K
1 66421U 25258K   25330.02242539 -.00000083  00000-0  26001-4 0  9996
2 66421  49.9958 330.4891 0064597 189.3486 170.6237 14.42312778  2303
OBJECT K
1 66421U 25258K   25330.36884797 -.00000081  00000-0  26419-4 0  9992
2 66421  49.9958 328.9864 0064566 190.5970 169.3593 14.42312979  2351
OBJECT K
1 66421U 25258K   25330.92312395 -.00000081  00000-0  26581-4 0  9994
2 66421  49.9959 326.5811 0064566 192.5979 167.3331 14.42313226  2432
OBJECT K
1 66421U 25258K   25331.26954648 -.00000085  00000-0  25258-4 0  9999
2 66421  49.9959 325.0781 0064535 193.8495 166.0657 14.42313362  2488
OBJECT K
1 66421U 25258K   25331.96239123 -.00000084  00000-0  25683-4 0  9991
2 66421  49.9961 322.0711 0064583 196.3240 163.5601 14.42313679  2583
OBJECT K
1 66421U 25258K   25332.65523590 -.00000090  00000-0  23878-4 0  9993
2 66421  49.9957 319.0649 0064625 198.7972 161.0561 14.42313995  2689
OBJECT K
1 66421U 25258K   25333.27879624 -.00000088  00000-0  24340-4 0  9996
2 66421  49.9957 316.3592 0064605 201.0382 158.7879 14.42314254  2771
OBJECT K
1 66421U 25258K   25334.45663216 -.00000090  00000-0  23739-4 0  9999
2 66421  49.9953 311.2478 0064543 205.2563 154.5197 14.42314877  2949
OBJECT K
1 66421U 25258K   25335.01090784 -.00000093  00000-0  22801-4 0  9998
2 66421  49.9952 308.8426 0064565 207.2393 152.5136 14.42315054  3029
OBJECT K
1 66421U 25258K   25335.28804557 -.00000084  00000-0  25627-4 0  9997
2 66421  49.9955 307.6400 0064585 208.2345 151.5069 14.42315248  3064
OBJECT K
1 66421U 25258K   25335.63446788 -.00000094  00000-0  22459-4 0  9995
2 66421  49.9956 306.1367 0064581 209.4804 150.2468 14.42315351  3110
OBJECT K
1 66421U 25258K   25336.32731238 -.00000071  00000-0  29463-4 0  9996
2 66421  49.9959 303.1294 0064575 211.9853 147.7140 14.42315787  3216
OBJECT K
1 66421U 25258K   25336.67373465 -.00000075  00000-0  28251-4 0  9996
2 66421  49.9959 301.6261 0064572 213.2283 146.4576 14.42315918  3262
OBJECT K
1 66421U 25258K   25337.36657913 -.00000056  00000-0  33661-4 0  9996
2 66421  49.9963 298.6189 0064579 215.7159 143.9433 14.42316353  3366
OBJECT K
1 66421U 25258K   25337.99013931 -.00000034  00000-0  40078-4 0  9997
2 66421  49.9964 295.9130 0064569 217.9673 141.6687 14.42316700  3459
OBJECT K
1 66421U 25258K   25338.33656123 -.00000022  00000-0  43543-4 0  9999
2 66421  49.9969 294.4095 0064589 219.2024 140.4208 14.42317083  3502
OBJECT K
1 66421U 25258K   25338.61369903 -.00000032  00000-0  40820-4 0  9993
2 66421  49.9966 293.2072 0064600 220.1931 139.4203 14.42317153  3548
OBJECT K
1 66421U 25258K   25338.96012116 -.00000031  00000-0  41001-4 0  9993
2 66421  49.9964 291.7040 0064599 221.4616 138.1393 14.42317368  3594
OBJECT K
1 66421U 25258K   25339.30654324 -.00000034  00000-0  40173-4 0  9997
2 66421  49.9965 290.2012 0064623 222.6836 136.9054 14.42317618  3647
OBJECT K
1 66421U 25258K   25339.93010276  .00000199  00000-0  10836-3 0  9991
2 66421  49.9962 287.4969 0064543 224.9278 134.6409 14.42319090  3734
OBJECT K
1 66421U 25258K   25340.27652479  .00000246  00000-0  12206-3 0  9993
2 66421  49.9961 285.9938 0064529 226.1748 133.3827 14.42319570  3780
OBJECT K
1 66421U 25258K   25340.62294679  .00000236  00000-0  11927-3 0  9994
2 66421  49.9961 284.4905 0064526 227.4206 132.1259 14.42319758  3838
OBJECT K
1 66421U 25258K   25340.90008440  .00000225  00000-0  11617-3 0  9998
2 66421  49.9961 283.2878 0064525 228.4128 131.1251 14.42319892  3871
OBJECT K
1 66421U 25258K   25341.31579072  .00000265  00000-0  12787-3 0  9991
2 66421  49.9961 281.4840 0064515 229.9079 129.6175 14.42320426  3939
OBJECT K
1 66421U 25258K   25341.93935017  .00000230  00000-0  11741-3 0  9995
2 66421  49.9961 278.7781 0064521 232.1450 127.3622 14.42320720  4028
OBJECT K
1 66421U 25258K   25342.28577204  .00000342  00000-0  15019-3 0  9990
2 66421  49.9960 277.2749 0064517 233.3884 126.1092 14.42321586  4078
OBJECT K
1 66421U 25258K   25342.56290941  .00000362  00000-0  15618-3 0  9998
2 66421  49.9961 276.0723 0064512 234.3839 125.1061 14.42321980  4112
OBJECT K
1 66421U 25258K   25342.97861558  .00000266  00000-0  12808-3 0  9992
2 66421  49.9954 274.2686 0064533 235.8807 123.5981 14.42321761  4183
OBJECT K
1 66421U 25258K   25343.32503728  .00000350  00000-0  15260-3 0  9993
2 66421  49.9957 272.7650 0064534 237.1319 122.3380 14.42322551  4238
OBJECT K
1 66421U 25258K   25343.53289025  .00000343  00000-0  15068-3 0  9995
2 66421  49.9958 271.8629 0064536 237.8784 121.5862 14.42322755  4265
CZ-12 R/B
1 66421U 25258K   25343.81002758  .00000324  00000-0  14504-3 0  9995
2 66421  49.9957 270.6602 0064544 238.8620 120.5960 14.42322931  4300
CZ-12 R/B
1 66421U 25258K   25348.93707027  .00000104  00000-0  80604-4 0  9995
2 66421  49.9949 248.4129 0064510 257.2513 102.1192 14.42325672  5047
CZ-12 R/B
1 66421U 25258K   25349.00635465  .00000103  00000-0  80121-4 0  9993
2 66421  49.9948 248.1123 0064514 257.5031 101.8666 14.42325685  5056
CZ-12 R/B
1 66421U 25258K   25349.76848311  .00000087  00000-0  75544-4 0  9996
2 66421  49.9958 244.8056 0064489 260.2681  99.0952 14.42326152  5166
CZ-12 R/B
1 66421U 25258K   26007.90951655  .00000076  00000-0  72505-4 0  9992
2 66421  49.9957 144.3873 0064512 343.3586  16.5218 14.42338982  8504
CZ-12 R/B
1 66421U 25258K   26009.15663659  .00000061  00000-0  68341-4 0  9992
2 66421  49.9960 138.9751 0064482 347.8335  12.1026 14.42339712  8689
CZ-12 R/B
1 66421U 25258K   26017.33219469  .00000016  00000-0  55222-4 0  9991
2 66421  49.9961 103.4971 0064409  17.1889 343.1194 14.42342531  9868
CZ-12 R/B
1 66421U 25258K   26029.31832365  .00000230  00000-0  11807-3 0  9996
2 66421  49.9958  51.4819 0064409  60.2492 300.4816 14.42351657 11595
CZ-12 R/B
1 66421U 25258K   26090.35596655  .00000108  00000-0  81586-4 0  9993
2 66421  49.9946 146.5957 0064615 279.7459  79.6168 14.42384052 20398
CZ-12 R/B
1 66421U 25258K   26090.35596656  .00000108  00000-0  81586-4 0  9994
2 66421  49.9946 146.5957 0064615 279.7459  79.6169 14.42384052 20399
CZ-12 R/B
1 66421U 25258K   26092.15729419  .00000151  00000-0  94398-4 0  9992
2 66421  49.9946 138.7772 0064491 286.1776  73.2054 14.42385105 20666
CZ-12 R/B
1 66421U 25258K   26092.29585786  .00000146  00000-0  92775-4 0  9995
2 66421  49.9950 138.1761 0064483 286.6759  72.7091 14.42385264 20683
CZ-12 R/B
1 66421U 25258K   26092.43442166  .00000223  00000-0  11545-3 0  9996
2 66421  49.9949 137.5745 0064468 287.1762  72.2108 14.42385460 20704
CZ-12 R/B
1 66421U 25258K   26093.12723969  .00000241  00000-0  12057-3 0  9995
2 66421  49.9962 134.5679 0064467 289.6573  69.7399 14.42386268 20809
CZ-12 R/B
1 66421U 25258K   26093.33508517  .00000272  00000-0  12963-3 0  9998
2 66421  49.9949 133.6662 0064465 290.4076  68.9929 14.42386597 20830
CZ-12 R/B
1 66421U 25258K   26093.33508517  .00000272  00000-0  12963-3 0  9998
2 66421  49.9949 133.6662 0064465 290.4076  68.9929 14.42386597 20830
CZ-12 R/B
1 66421U 25258K   26093.33508520  .00000272  00000-0  12963-3 0  9992
2 66421  49.9949 133.6662 0064465 290.4055  68.9950 14.42386582 20835
CZ-12 R/B
1 66421U 25258K   26094.30503037  .00000242  00000-0  12096-3 0  9992
2 66421  49.9948 129.4569 0064453 293.8966  65.5211 14.42387388 20971
CZ-12 R/B
1 66421U 25258K   26094.51287589  .00000240  00000-0  12040-3 0  9993
2 66421  49.9946 128.5544 0064482 294.6782  64.7434 14.42387484 21009
CZ-12 R/B
1 66421U 25258K   26095.27497594  .00000184  00000-0  10411-3 0  9993
2 66421  49.9947 125.2471 0064491 297.4018  62.0352 14.42387774 21110
CZ-12 R/B
1 66421U 25258K   26095.48282141  .00000176  00000-0  10149-3 0  9995
2 66421  49.9944 124.3448 0064514 298.1481  61.2931 14.42387830 21149
CZ-12 R/B
1 66421U 25258K   26095.48282141  .00000176  00000-0  10149-3 0  9995
2 66421  49.9944 124.3448 0064514 298.1481  61.2931 14.42387830 21149
CZ-12 R/B
1 66421U 25258K   26095.75994889  .00000186  00000-0  10453-3 0  9993
2 66421  49.9946 123.1424 0064653 299.2151  60.2314 14.42388088 21186
CZ-12 R/B
1 66421U 25258K   26095.75994889  .00000186  00000-0  10453-3 0  9993
2 66421  49.9946 123.1424 0064653 299.2151  60.2314 14.42388088 21186
CZ-12 R/B
1 66421U 25258K   26096.31420344  .00000162  00000-0  97421-4 0  9991
2 66421  49.9943 120.7364 0064663 301.2024  58.2569 14.42388360 21264
CZ-12 R/B
1 66421U 25258K   26097.00702178  .00000138  00000-0  90493-4 0  9991
2 66421  49.9942 117.7296 0064666 303.6788  55.7977 14.42388709 21362
CZ-12 R/B
1 66421U 25258K   26097.07630368  .00000158  00000-0  96518-4 0  9995
2 66421  49.9941 117.4288 0064665 303.9348  55.5436 14.42388857 21376
CZ-12 R/B
1 66421U 25258K   26097.21486731  .00000130  00000-0  88060-4 0  9997
2 66421  49.9940 116.8277 0064658 304.4143  55.0676 14.42388802 21390
CZ-12 R/B
1 66421U 25258K   26101.30249773  .00000047  00000-0  63837-4 0  9998
2 66421  49.9959  99.0884 0064624 319.1204  40.4880 14.42390577 21982
CZ-12 R/B
1 66421U 25258K   26101.30249774  .00000047  00000-0  63837-4 0  9999
2 66421  49.9959  99.0884 0064624 319.1204  40.4880 14.42390577 21982
CZ-12 R/B
1 66421U 25258K   26101.99531652  .00000040  00000-0  61809-4 0  9993
2 66421  49.9949  96.0819 0064639 321.6043  38.0287 14.42390806 22082
CZ-12 R/B
1 66421U 25258K   26101.99531652  .00000040  00000-0  61809-4 0  9993
2 66421  49.9949  96.0819 0064639 321.6043  38.0287 14.42390806 22082
CZ-12 R/B
1 66421U 25258K   26102.27244450  .00000026  00000-0  57791-4 0  9991
2 66421  49.9947  94.8789 0064627 322.6452  36.9984 14.42390745 22122
CZ-12 R/B
1 66421U 25258K   26102.41100825  .00000025  00000-0  57645-4 0  9991
2 66421  49.9952  94.2775 0064628 323.1305  36.5182 14.42390813 22145
CZ-12 R/B
1 66421U 25258K   26102.68813581  .00000015  00000-0  54626-4 0  9995
2 66421  49.9951  93.0745 0064651 324.1176  35.5411 14.42390870 22182
CZ-12 R/B
1 66421U 25258K   26102.96526337  .00000015  00000-0  54579-4 0  9993
2 66421  49.9952  91.8717 0064650 325.1104  34.5588 14.42390972 22221
CZ-12 R/B
1 66421U 25258K   26103.24239098  .00000012  00000-0  53777-4 0  9996
2 66421  49.9953  90.6689 0064642 326.1141  33.5658 14.42391071 22262
CZ-12 R/B
1 66421U 25258K   26103.24239116  .00000009  00000-0  52911-4 0  9992
2 66421  49.9956  90.6693 0064628 326.0999  33.5799 14.42391018 22261
CZ-12 R/B
1 66421U 25258K   26103.65808255  .00000014  00000-0  54329-4 0  9994
2 66421  49.9956  88.8653 0064628 327.5959  32.1000 14.42391209 22327
CZ-12 R/B
1 66421U 25258K   26104.21233788  .00000005  00000-0  51579-4 0  9994
2 66421  49.9958  86.4604 0064621 329.5687  30.1490 14.42391323 22409
CZ-12 R/B
1 66421U 25258K   26104.21233788  .00000005  00000-0  51579-4 0  9994
2 66421  49.9958  86.4604 0064621 329.5687  30.1490 14.42391323 22409
CZ-12 R/B
1 66421U 25258K   26104.35090171  .00000006  00000-0  52008-4 0  9995
2 66421  49.9957  85.8590 0064622 330.0697  29.6536 14.42391370 22422
CZ-12 R/B
1 66421U 25258K   26104.62802927 -.00000008  00000-0  47801-4 0  9993
2 66421  49.9956  84.6560 0064624 331.0674  28.6671 14.42391415 22466
CZ-12 R/B
1 66421U 25258K   26104.62802927 -.00000008  00000-0  47801-4 0  9993
2 66421  49.9956  84.6560 0064624 331.0674  28.6670 14.42391415 22465
CZ-12 R/B
1 66421U 25258K   26104.97443875 -.00000003  00000-0  49431-4 0  9990
2 66421  49.9955  83.1523 0064621 332.3129  27.4357 14.42391565 22514
CZ-12 R/B
1 66421U 25258K   26104.97443875 -.00000003  00000-0  49431-4 0  9990
2 66421  49.9955  83.1523 0064621 332.3129  27.4357 14.42391564 22513
CZ-12 R/B
1 66421U 25258K   26105.66725793 -.00000024  00000-0  43388-4 0  9997
2 66421  49.9957  80.1460 0064621 334.7981  24.9792 14.42391705 22617
CZ-12 R/B
1 66421U 25258K   26105.94438552 -.00000023  00000-0  43621-4 0  9991
2 66421  49.9954  78.9429 0064598 335.7834  24.0055 14.42391782 22657
CZ-12 R/B
1 66421U 25258K   26106.29079517 -.00000011  00000-0  47182-4 0  9995
2 66421  49.9953  77.4398 0064595 337.0374  22.7663 14.42391941 22709
CZ-12 R/B
1 66421U 25258K   26106.63720475 -.00000013  00000-0  46598-4 0  9991
2 66421  49.9949  75.9360 0064604 338.2735  21.5448 14.42392008 22759
CZ-12 R/B
1 66421U 25258K   26106.63720475 -.00000013  00000-0  46598-4 0  9991
2 66421  49.9949  75.9360 0064604 338.2736  21.5448 14.42392008 22750
CZ-12 R/B
1 66421U 25258K   26107.26074203 -.00000003  00000-0  49504-4 0  9991
2 66421  49.9951  73.2299 0064598 340.5141  19.3312 14.42392241 22847
CZ-12 R/B
1 66421U 25258K   26107.88427922 -.00000006  00000-0  48529-4 0  9998
2 66421  49.9955  70.5234 0064615 342.7409  17.1315 14.42392422 22931
CZ-12 R/B
1 66421U 25258K   26108.29997084  .00000003  00000-0  51139-4 0  9992
2 66421  49.9959  68.7192 0064584 344.2305  15.6604 14.42392562 22999
CZ-12 R/B
1 66421U 25258K   26108.92350801  .00000006  00000-0  51956-4 0  9992
2 66421  49.9958  66.0131 0064598 346.4673  13.4514 14.42392766 23082
CZ-12 R/B
1 66421U 25258K   26109.13135381  .00000008  00000-0  52719-4 0  9990
2 66421  49.9962  65.1114 0064600 347.2217  12.7064 14.42392861 23117
CZ-12 R/B
1 66421U 25258K   26109.13135387  .00000011  00000-0  53449-4 0  9991
2 66421  49.9962  65.1114 0064586 347.2171  12.7110 14.42392853 23112
CZ-12 R/B
1 66421U 25258K   26109.13135387  .00000011  00000-0  53449-4 0  9991
2 66421  49.9962  65.1114 0064586 347.2171  12.7110 14.42392853 23112
CZ-12 R/B
1 66421U 25258K   26110.86340192  .00000006  00000-0  52224-4 0  9999
2 66421  49.9988  57.5952 0064690 353.5044   6.5032 14.42393510 23362
CZ-12 R/B
1 66421U 25258K   26110.86340192  .00000006  00000-0  52224-4 0  9999
2 66421  49.9988  57.5952 0064690 353.5044   6.5032 14.42393510 23362
CZ-12 R/B
1 66421U 25258K   26112.11047591  .00000025  00000-0  57606-4 0  9996
2 66421  49.9979  52.1824 0064679 358.0044   2.0610 14.42393939 23546
CZ-12 R/B
1 66421U 25258K   26112.11047591  .00000025  00000-0  57606-4 0  9996
2 66421  49.9979  52.1824 0064679 358.0044   2.0610 14.42393939 23546
CZ-12 R/B
1 66421U 25258K   26113.49611321  .00000027  00000-0  58382-4 0  9990
2 66421  49.9972  46.1690 0064646   2.9791 357.1503 14.42394371 23749
CZ-12 R/B
1 66421U 25258K   26113.49611321  .00000027  00000-0  58382-4 0  9990
2 66421  49.9972  46.1690 0064646   2.9791 357.1503 14.42394371 23749
CZ-12 R/B
1 66421U 25258K   26113.49611321  .00000027  00000-0  58382-4 0  9990
2 66421  49.9972  46.1690 0064646   2.9791 357.1503 14.42394371 23749
CZ-12 R/B
1 66421U 25258K   26115.15887726  .00000075  00000-0  72463-4 0  9998
2 66421  49.9974  38.9509 0064661   8.9957 351.2107 14.42395269 23984
CZ-12 R/B
1 66421U 25258K   26115.15887726  .00000075  00000-0  72463-4 0  9998
2 66421  49.9974  38.9509 0064661   8.9957 351.2107 14.42395269 23984
CZ-12 R/B
1 66421U 25258K   26116.12882211  .00000105  00000-0  81169-4 0  9997
2 66421  49.9969  34.7420 0064568  12.4594 347.7906 14.42395832 24127
CZ-12 R/B
1 66421U 25258K   26116.47523094  .00000111  00000-0  82946-4 0  9997
2 66421  49.9958  33.2387 0064587  13.6791 346.5862 14.42395961 24170
CZ-12 R/B
1 66421U 25258K   26116.47523094  .00000111  00000-0  82946-4 0  9997
2 66421  49.9958  33.2387 0064587  13.6791 346.5862 14.42395961 24170
CZ-12 R/B
1 66421U 25258K   26116.75235797  .00000127  00000-0  87689-4 0  9994
2 66421  49.9957  32.0360 0064582  14.6756 345.6021 14.42396167 24215
CZ-12 R/B
1 66421U 25258K   26116.75235797  .00000127  00000-0  87689-4 0  9994
2 66421  49.9957  32.0360 0064582  14.6756 345.6021 14.42396167 24215
CZ-12 R/B
1 66421U 25258K   26117.16804873  .00000100  00000-0  79729-4 0  9994
2 66421  49.9965  30.2326 0064593  16.2014 344.0953 14.42396253 24272
CZ-12 R/B
1 66421U 25258K   26117.16804873  .00000100  00000-0  79729-4 0  9994
2 66421  49.9965  30.2326 0064593  16.2014 344.0953 14.42396253 24272
CZ-12 R/B
1 66421U 25258K   26117.99942941  .00000125  00000-0  87158-4 0  9996
2 66421  49.9973  26.6256 0064594  19.1817 341.1515 14.42396897 24395
CZ-12 R/B
1 66421U 25258K   26117.99942943  .00000126  00000-0  87231-4 0  9991
2 66421  49.9974  26.6257 0064578  19.1824 341.1507 14.42396887 24397
CZ-12 R/B
1 66421U 25258K   26117.99942943  .00000126  00000-0  87231-4 0  9991
2 66421  49.9974  26.6257 0064578  19.1824 341.1507 14.42396887 24397
CZ-12 R/B
1 66421U 25258K   26118.90009134  .00000122  00000-0  86212-4 0  9993
2 66421  49.9973  22.7171 0064570  22.4198 337.9523 14.42397362 24526
CZ-12 R/B
1 66421U 25258K   26118.96937304  .00000113  00000-0  83420-4 0  9996
2 66421  49.9973  22.4162 0064566  22.6692 337.7058 14.42397329 24534
CZ-12 R/B
1 66421U 25258K   26119.03865465  .00000113  00000-0  83468-4 0  9995
2 66421  49.9974  22.1154 0064555  22.9168 337.4612 14.42397376 24548
CZ-12 R/B
1 66421U 25258K   26119.03865465  .00000113  00000-0  83468-4 0  9995
2 66421  49.9974  22.1154 0064555  22.9168 337.4612 14.42397376 24548
CZ-12 R/B
1 66421U 25258K   26119.93931624  .00000117  00000-0  84650-4 0  9993
2 66421  49.9975  18.2063 0064604  26.1469 334.2691 14.42397868 24671
CZ-12 R/B
1 66421U 25258K   26119.93931624  .00000117  00000-0  84650-4 0  9993
2 66421  49.9975  18.2063 0064604  26.1469 334.2691 14.42397868 24671
CZ-12 R/B
1 66421U 25258K   26121.11710372  .00000136  00000-0  90211-4 0  9992
2 66421  49.9996  13.0956 0064580  30.3467 330.1169 14.42398577 24848
CZ-12 R/B
1 66421U 25258K   26121.11710372  .00000136  00000-0  90211-4 0  9992
2 66421  49.9996  13.0956 0064580  30.3467 330.1169 14.42398577 24848
CZ-12 R/B
1 66421U 25258K   26121.94848231  .00000110  00000-0  82570-4 0  9990
2 66421  49.9990   9.4872 0064613  33.3522 327.1444 14.42398984 24967
CZ-12 R/B
1 66421U 25258K   26121.94848231  .00000110  00000-0  82570-4 0  9990
2 66421  49.9990   9.4872 0064613  33.3522 327.1445 14.42398984 24968
CZ-12 R/B
1 66421U 25258K   26121.94848231  .00000110  00000-0  82570-4 0  9990
2 66421  49.9990   9.4872 0064613  33.3522 327.1444 14.42398984 24967
CZ-12 R/B
1 66421U 25258K   26122.91842372  .00000102  00000-0  80344-4 0  9996
2 66421  49.9991   5.2775 0064550  36.8520 323.6812 14.42399359 25104
CZ-12 R/B
1 66421U 25258K   26122.91842372  .00000102  00000-0  80344-4 0  9996
2 66421  49.9991   5.2775 0064550  36.8520 323.6812 14.42399359 25104
CZ-12 R/B
1 66421U 25258K   26123.95764587  .00000087  00000-0  75972-4 0  9995
2 66421  49.9977   0.7675 0064578  40.5928 319.9783 14.42399789 25259
CZ-12 R/B
1 66421U 25258K   26124.02692734  .00000086  00000-0  75758-4 0  9999
2 66421  49.9978   0.4668 0064587  40.8438 319.7298 14.42399823 25267
CZ-12 R/B
1 66421U 25258K   26124.02692734  .00000086  00000-0  75758-4 0  9999
2 66421  49.9978   0.4668 0064587  40.8438 319.7298 14.42399823 25267
CZ-12 R/B
1 66421U 25258K   26124.99686708  .00000108  00000-0  81995-4 0  9994
2 66421  49.9988 356.2576 0064602  44.3259 316.2809 14.42400571 25405
CZ-12 R/B
1 66421U 25258K   26124.99686709  .00000108  00000-0  81995-4 0  9995
2 66421  49.9988 356.2576 0064602  44.3259 316.2809 14.42400571 25405
CZ-12 R/B
1 66421U 25258K   26126.31321314  .00000080  00000-0  74059-4 0  9993
2 66421  49.9993 350.5464 0064562  49.0205 311.6277 14.42401096 25593
CZ-12 R/B
1 66421U 25258K   26126.31321314  .00000080  00000-0  74059-4 0  9993
2 66421  49.9993 350.5464 0064562  49.0205 311.6277 14.42401096 25593
CZ-12 R/B
1 66421U 25258K   26127.00602671  .00000055  00000-0  66585-4 0  9995
2 66421  49.9979 347.5370 0064560  51.5559 309.1132 14.42400953 25691
CZ-12 R/B
1 66421U 25258K   26127.00602671  .00000055  00000-0  66585-4 0  9995
2 66421  49.9979 347.5370 0064560  51.5559 309.1132 14.42400953 25691
CZ-12 R/B
1 66421U 25258K   26127.62955823  .00000045  00000-0  63838-4 0  9990
2 66421  49.9966 344.8314 0064551  53.7995 306.8872 14.42401168 25787
CZ-12 R/B
1 66421U 25258K   26127.76812080  .00000048  00000-0  64545-4 0  9991
2 66421  49.9965 344.2301 0064544  54.3027 306.3878 14.42401234 25809
CZ-12 R/B
1 66421U 25258K   26127.90668350  .00000045  00000-0  63745-4 0  9994
2 66421  49.9979 343.6291 0064594  54.7857 305.9089 14.42401377 25824
CZ-12 R/B
1 66421U 25258K   26127.97596475  .00000045  00000-0  63638-4 0  9990
2 66421  49.9976 343.3284 0064597  55.0335 305.6629 14.42401393 25834
CZ-12 R/B
1 66421U 25258K   26127.97596475  .00000045  00000-0  63638-4 0  9990
2 66421  49.9976 343.3284 0064597  55.0335 305.6629 14.42401393 25834
CZ-12 R/B
1 66421U 25258K   26128.32237089  .00000034  00000-0  60573-4 0  9996
2 66421  49.9964 341.8250 0064591  56.2741 304.4313 14.42401449 25889
CZ-12 R/B
1 66421U 25258K   26128.87662056  .00000028  00000-0  58891-4 0  9995
2 66421  49.9975 339.4195 0064581  58.2732 302.4462 14.42401753 25963
CZ-12 R/B
1 66421U 25258K   26128.87662056  .00000028  00000-0  58891-4 0  9995
2 66421  49.9975 339.4195 0064581  58.2732 302.4462 14.42401753 25963
CZ-12 R/B
1 66421U 25258K   26129.29230769  .00000018  00000-0  55969-4 0  9996
2 66421  49.9962 337.6154 0064588  59.7690 300.9604 14.42401817 26020
CZ-12 R/B
1 66421U 25258K   26129.29230769  .00000018  00000-0  55969-4 0  9996
2 66421  49.9962 337.6154 0064588  59.7690 300.9604 14.42401817 26020
CZ-12 R/B
1 66421U 25258K   26129.84655713  .00000009  00000-0  53138-4 0  9993
2 66421  49.9964 335.2100 0064566  61.7869 298.9552 14.42401962 26102
CZ-12 R/B
1 66421U 25258K   26129.98511943  .00000007  00000-0  52628-4 0  9995
2 66421  49.9964 334.6086 0064568  62.2852 298.4600 14.42402002 26125
CZ-12 R/B
1 66421U 25258K   26129.98511943  .00000007  00000-0  52628-4 0  9995
2 66421  49.9964 334.6086 0064568  62.2852 298.4600 14.42402002 26125
CZ-12 R/B
1 66421U 25258K   26130.26224403  .00000002  00000-0  51086-4 0  9992
2 66421  49.9965 333.4060 0064563  63.2701 297.4809 14.42402090 26165
CZ-12 R/B
1 66421U 25258K   26130.26224403  .00000002  00000-0  51086-4 0  9992
2 66421  49.9965 333.4060 0064563  63.2701 297.4809 14.42402090 26165
CZ-12 R/B
1 66421U 25258K   26130.81649304  .00000004  00000-0  51813-4 0  9994
2 66421  49.9965 331.0005 0064550  65.2833 295.4790 14.42402285 26244
CZ-12 R/B
1 66421U 25258K   26130.81649304  .00000004  00000-0  51813-4 0  9994
2 66421  49.9965 331.0005 0064550  65.2833 295.4790 14.42402285 26244
CZ-12 R/B
1 66421U 25258K   26131.23217959 -.00000002  00000-0  49942-4 0  9997
2 66421  49.9963 329.1962 0064554  66.7733 293.9968 14.42402413 26301
CZ-12 R/B
1 66421U 25258K   26131.23217959 -.00000002  00000-0  49942-4 0  9997
2 66421  49.9963 329.1962 0064554  66.7733 293.9968 14.42402413 26301
CZ-12 R/B
1 66421U 25258K   26131.78642819 -.00000005  00000-0  49085-4 0  9995
2 66421  49.9964 326.7903 0064553  68.7796 292.0005 14.42402582 26387
CZ-12 R/B
1 66421U 25258K   26131.78642819 -.00000005  00000-0  49085-4 0  9995
2 66421  49.9964 326.7903 0064553  68.7796 292.0005 14.42402582 26387
CZ-12 R/B
1 66421U 25258K   26132.27139563 -.00000002  00000-0  49874-4 0  9990
2 66421  49.9962 324.6862 0064551  70.5212 290.2668 14.42402760 26459
CZ-12 R/B
1 66421U 25258K   26132.82564377 -.00000006  00000-0  48670-4 0  9993
2 66421  49.9962 322.2807 0064556  72.5285 288.2679 14.42402931 26537
CZ-12 R/B
1 66421U 25258K   26132.82564377 -.00000006  00000-0  48670-4 0  9993
2 66421  49.9962 322.2807 0064556  72.5285 288.2679 14.42402931 26537
CZ-12 R/B
1 66421U 25258K   26133.72629666 -.00000010  00000-0  47755-4 0  9994
2 66421  49.9967 318.3712 0064539  75.7810 285.0269 14.42403202 26669
CZ-12 R/B
1 66421U 25258K   26133.72629666 -.00000010  00000-0  47755-4 0  9994
2 66421  49.9967 318.3712 0064539  75.7810 285.0269 14.42403202 26669
CZ-12 R/B
1 66421U 25258K   26133.72629666 -.00000010  00000-0  47755-4 0  9994
2 66421  49.9967 318.3712 0064539  75.7810 285.0269 14.42403202 26669
CZ-12 R/B
1 66421U 25258K   26135.73544356 -.00000005  00000-0  49117-4 0  9997
2 66421  49.9966 309.6520 0064562  82.9621 277.8637 14.42403740 26951
CZ-12 R/B
1 66421U 25258K   26135.73544356 -.00000005  00000-0  49117-4 0  9997
2 66421  49.9966 309.6520 0064562  82.9621 277.8637 14.42403740 26951
CZ-12 R/B
1 66421U 25258K   26136.84393705 -.00000011  00000-0  47416-4 0  9997
2 66421  49.9952 304.8419 0064574  86.9739 273.8568 14.42403955 27113
CZ-12 R/B
1 66421U 25258K   26136.91321785 -.00000011  00000-0  47253-4 0  9993
2 66421  49.9952 304.5411 0064574  87.2212 273.6098 14.42403978 27124
CZ-12 R/B
1 66421U 25258K   26136.91321785 -.00000011  00000-0  47253-4 0  9993
2 66421  49.9952 304.5411 0064574  87.2212 273.6098 14.42403978 27124
CZ-12 R/B
1 66421U 25258K   26138.78379884 -.00000012  00000-0  47126-4 0  9993
2 66421  49.9963 296.4232 0064572  93.9362 266.8944 14.42404490 27397
CZ-12 R/B
1 66421U 25258K   26138.78379884 -.00000012  00000-0  47126-4 0  9993
2 66421  49.9963 296.4232 0064572  93.9362 266.8944 14.42404490 27397
CZ-12 R/B
1 66421U 25258K   26140.10013234 -.00000004  00000-0  49347-4 0  9994
2 66421  49.9916 290.7050 0064526  98.9264 261.8968 14.42403378 27581
CZ-12 R/B
1 66421U 25258K   26140.10013234 -.00000004  00000-0  49347-4 0  9994
2 66421  49.9916 290.7050 0064526  98.9264 261.8968 14.42403378 27581
CZ-12 R/B
1 66421U 25258K   26140.10013234 -.00000004  00000-0  49347-4 0  9994
2 66421  49.9916 290.7050 0064526  98.9264 261.8968 14.42403378 27581
CZ-12 R/B
1 66421U 25258K   26143.07919580  .00000018  00000-0  55736-4 0  9995
2 66421  49.9966 277.7805 0064509 109.6872 251.1023 14.42405767 28012
CZ-12 R/B
1 66421U 25258K   26143.07919581  .00000018  00000-0  55736-4 0  9996
2 66421  49.9966 277.7805 0064509 109.6873 251.1023 14.42405767 28013
CZ-12 R/B
1 66421U 25258K   26145.36544935  .00000048  00000-0  64649-4 0  9993
2 66421  49.9965 267.8582 0064507 117.8957 242.8517 14.42406851 28342
CZ-12 R/B
1 66421U 25258K   26145.36544935  .00000048  00000-0  64649-4 0  9993
2 66421  49.9965 267.8582 0064507 117.8957 242.8517 14.42406851 28342
CZ-12 R/B
1 66421U 25258K   26146.33537456  .00000075  00000-0  72447-4 0  9996
2 66421  49.9961 263.6462 0064469 121.2318 239.4941 14.42407071 28489
CZ-12 R/B
1 66421U 25258K   26146.33537457  .00000075  00000-0  72447-4 0  9997
2 66421  49.9961 263.6462 0064469 121.2318 239.4941 14.42407071 28489
CZ-12 R/B
1 66421U 25258K   26147.02817756  .00000096  00000-0  78504-4 0  9990
2 66421  49.9967 260.6396 0064458 123.7261 236.9826 14.42407471 28589
CZ-12 R/B
1 66421U 25258K   26147.02817756  .00000096  00000-0  78504-4 0  9990
2 66421  49.9967 260.6396 0064458 123.7261 236.9826 14.42407471 28589
CZ-12 R/B
1 66421U 25258K   26147.72097992  .00000090  00000-0  76653-4 0  9996
2 66421  49.9965 257.6329 0064435 126.2093 234.4808 14.42407799 28682
CZ-12 R/B
1 66421U 25258K   26147.72097992  .00000090  00000-0  76653-4 0  9996
2 66421  49.9965 257.6329 0064435 126.2093 234.4808 14.42407799 28682
CZ-12 R/B
1 66421U 25258K   26147.72097992  .00000090  00000-0  76653-4 0  9996
2 66421  49.9965 257.6329 0064435 126.2093 234.4808 14.42407799 28682
CZ-12 R/B
1 66421U 25258K   26150.21506535  .00000142  00000-0  92074-4 0  9995
2 66421  49.9963 246.8092 0064433 135.1984 225.4165 14.42409385 29043
CZ-12 R/B
1 66421U 25258K   26150.21506535  .00000142  00000-0  92074-4 0  9995
2 66421  49.9963 246.8092 0064433 135.1984 225.4165 14.42409385 29043
CZ-12 R/B
1 66421U 25258K   26151.53138645  .00000132  00000-0  89099-4 0  9996
2 66421  49.9964 241.0964 0064423 139.8947 220.6755 14.42410073 29237
CZ-12 R/B
1 66421U 25258K   26151.53138645  .00000132  00000-0  89099-4 0  9996
2 66421  49.9964 241.0964 0064423 139.8947 220.6755 14.42410074 29238
CZ-12 R/B
1 66421U 25258K   26152.43202757  .00000113  00000-0  83386-4 0  9994
2 66421  49.9950 237.1897 0063729 143.0691 217.4642 14.42409928 29364
CZ-12 R/B
1 66421U 25258K   26152.43202758  .00000113  00000-0  83386-4 0  9995
2 66421  49.9950 237.1897 0063729 143.0691 217.4642 14.42409928 29364
CZ-12 R/B
1 66421U 25258K   26152.43202758  .00000113  00000-0  83386-4 0  9995
2 66421  49.9950 237.1897 0063729 143.0691 217.4642 14.42409928 29364
CZ-12 R/B
1 66421U 25258K   26154.44114468  .00000097  00000-0  78791-4 0  9993
2 66421  49.9948 228.4705 0064425 150.4394 210.0193 14.42411165 29656
CZ-12 R/B
1 66421U 25258K   26154.44114469  .00000097  00000-0  78791-4 0  9994
2 66421  49.9948 228.4705 0064425 150.4394 210.0193 14.42411165 29656
CZ-12 R/B
1 66421U 25258K   26156.45026013  .00000010  00000-0  53355-4 0  9998
2 66421  49.9948 219.7511 0064450 157.6706 202.7042 14.42411730 29938
CZ-12 R/B
1 66421U 25258K   26156.45026013  .00000010  00000-0  53355-4 0  9998
2 66421  49.9948 219.7511 0064450 157.6706 202.7042 14.42411730 29938
CZ-12 R/B
1 66421U 25258K   26157.42017704  .00000018  00000-0  55552-4 0  9992
2 66421  49.9945 215.5414 0064460 161.1603 199.1724 14.42412226 30072
CZ-12 R/B
1 66421U 25258K   26157.42017704  .00000018  00000-0  55552-4 0  9992
2 66421  49.9945 215.5414 0064460 161.1603 199.1724 14.42412226 30072
CZ-12 R/B
1 66421U 25258K   26157.83585571  .00000003  00000-0  51027-4 0  9996
2 66421  49.9944 213.7375 0064455 162.6598 197.6544 14.42412307 30130
CZ-12 R/B
1 66421U 25258K   26157.83585571  .00000003  00000-0  51027-4 0  9996
2 66421  49.9944 213.7375 0064455 162.6598 197.6544 14.42412307 30130
CZ-12 R/B
1 66421U 25258K   26158.45937352  .00000019  00000-0  55709-4 0  9991
2 66421  49.9943 211.0313 0064446 164.9078 195.3784 14.42412619 30227
CZ-12 R/B
1 66421U 25258K   26158.87505192  .00000013  00000-0  54094-4 0  9990
2 66421  49.9943 209.2274 0064456 166.3983 193.8693 14.42412793 30285
CZ-12 R/B
1 66421U 25258K   26158.87505193  .00000013  00000-0  54094-4 0  9991
2 66421  49.9943 209.2274 0064456 166.3983 193.8693 14.42412793 30285
CZ-12 R/B
1 66421U 25258K   26159.42928978 -.00000005  00000-0  48790-4 0  9991
2 66421  49.9942 206.8219 0064464 168.3923 191.8501 14.42412881 30364
CZ-12 R/B
1 66421U 25258K   26159.42928979 -.00000005  00000-0  48790-4 0  9992
2 66421  49.9942 206.8219 0064464 168.3923 191.8501 14.42412881 30364
CZ-12 R/B
1 66421U 25258K   26159.84496806 -.00000015  00000-0  45947-4 0  9999
2 66421  49.9942 205.0180 0064460 169.8911 190.3322 14.42413003 30420
CZ-12 R/B
1 66421U 25258K   26159.84496806 -.00000015  00000-0  45947-4 0  9999
2 66421  49.9942 205.0180 0064460 169.8911 190.3322 14.42413003 30420
CZ-12 R/B
1 66421U 25258K   26160.39920580 -.00000028  00000-0  42148-4 0  9996
2 66421  49.9941 202.6124 0064464 171.8819 188.3160 14.42413075 30509
CZ-12 R/B
1 66421U 25258K   26160.39920580 -.00000028  00000-0  42148-4 0  9996
2 66421  49.9941 202.6124 0064464 171.8819 188.3160 14.42413075 30509
CZ-12 R/B
1 66421U 25258K   26160.81488397 -.00000027  00000-0  42230-4 0  9999
2 66421  49.9939 200.8083 0064465 173.3781 186.8006 14.42413205 30569
CZ-12 R/B
1 66421U 25258K   26160.81488398 -.00000027  00000-0  42230-4 0  9990
2 66421  49.9939 200.8083 0064465 173.3781 186.8006 14.42413205 30569
CZ-12 R/B
1 66421U 25258K   26161.36912153 -.00000027  00000-0  42246-4 0  9999
2 66421  49.9939 198.4028 0064471 175.3719 184.7811 14.42413345 30645
CZ-12 R/B
1 66421U 25258K   26161.36912153 -.00000027  00000-0  42246-4 0  9999
2 66421  49.9939 198.4028 0064471 175.3719 184.7811 14.42413345 30645
CZ-12 R/B
1 66421U 25258K   26161.78479964 -.00000025  00000-0  42772-4 0  9995
2 66421  49.9936 196.5986 0064471 176.8628 183.2709 14.42413464 30708
CZ-12 R/B
1 66421U 25258K   26162.33903705 -.00000027  00000-0  42242-4 0  9996
2 66421  49.9935 194.1931 0064479 178.8575 181.2504 14.42413602 30785
CZ-12 R/B
1 66421U 25258K   26162.33903705 -.00000027  00000-0  42242-4 0  9996
2 66421  49.9935 194.1931 0064479 178.8575 181.2504 14.42413602 30785
CZ-12 R/B
1 66421U 25258K   26163.30895223 -.00000011  00000-0  46891-4 0  9996
2 66421  49.9936 189.9835 0064477 182.3459 177.7168 14.42414022 30929
CZ-12 R/B
1 66421U 25258K   26164.27886721 -.00000018  00000-0  44819-4 0  9991
2 66421  49.9937 185.7740 0064465 185.8422 174.1754 14.42414326 31069
CZ-12 R/B
1 66421U 25258K   26164.34814684 -.00000018  00000-0  44802-4 0  9990
2 66421  49.9937 185.4733 0064464 186.0905 173.9238 14.42414345 31072
CZ-12 R/B
1 66421U 25258K   26164.34814685 -.00000018  00000-0  44802-4 0  9991
2 66421  49.9937 185.4733 0064464 186.0905 173.9238 14.42414345 31072
CZ-12 R/B
1 66421U 25258K   26164.76382463 -.00000022  00000-0  43668-4 0  9995
2 66421  49.9937 183.6693 0064464 187.5843 172.4108 14.42414479 31139
CZ-12 R/B
1 66421U 25258K   26164.76382464 -.00000022  00000-0  43668-4 0  9996
2 66421  49.9937 183.6693 0064464 187.5844 172.4108 14.42414479 31130
CZ-12 R/B
1 66421U 25258K   26165.24878205 -.00000030  00000-0  41441-4 0  9999
2 66421  49.9938 181.5645 0064471 189.3289 170.6438 14.42414591 31205
CZ-12 R/B
1 66421U 25258K   26165.31806168 -.00000029  00000-0  41602-4 0  9993
2 66421  49.9938 181.2638 0064470 189.5768 170.3927 14.42414613 31213
CZ-12 R/B
1 66421U 25258K   26165.31806168 -.00000029  00000-0  41602-4 0  9993
2 66421  49.9938 181.2638 0064470 189.5768 170.3928 14.42414613 31214
CZ-12 R/B
1 66421U 25258K   26165.73373940 -.00000035  00000-0  39872-4 0  9999
2 66421  49.9938 179.4598 0064468 191.0710 168.8795 14.42414745 31276
CZ-12 R/B
1 66421U 25258K   26165.73373940 -.00000035  00000-0  39872-4 0  9999
2 66421  49.9938 179.4598 0064468 191.0710 168.8795 14.42414745 31276
CZ-12 R/B
1 66421U 25258K   26166.28797642 -.00000040  00000-0  38473-4 0  9991
2 66421  49.9938 177.0543 0064473 193.0646 166.8607 14.42414875 31359
CZ-12 R/B
1 66421U 25258K   26166.28797643 -.00000040  00000-0  38473-4 0  9992
2 66421  49.9938 177.0543 0064473 193.0646 166.8607 14.42414875 31359
CZ-12 R/B
1 66421U 25258K   26166.70365417 -.00000047  00000-0  36242-4 0  9998
2 66421  49.9938 175.2503 0064467 194.5600 165.3465 14.42414982 31416
CZ-12 R/B
1 66421U 25258K   26167.32717073 -.00000050  00000-0  35625-4 0  9994
2 66421  49.9938 172.5441 0064465 196.8064 163.0721 14.42415159 31501
CZ-12 R/B
1 66421U 25258K   26167.32717074 -.00000050  00000-0  35625-4 0  9995
2 66421  49.9938 172.5441 0064465 196.8064 163.0721 14.42415159 31501
CZ-12 R/B
1 66421U 25258K   26167.32717074 -.00000050  00000-0  35625-4 0  9995
2 66421  49.9938 172.5441 0064465 196.8064 163.0721 14.42415159 31501
CZ-12 R/B
1 66421U 25258K   26167.74284847 -.00000061  00000-0  32274-4 0  9997
2 66421  49.9940 170.7403 0064471 198.2977 161.5624 14.42415270 31563
CZ-12 R/B
1 66421U 25258K   26167.74284848 -.00000061  00000-0  32274-4 0  9998
2 66421  49.9940 170.7403 0064471 198.2977 161.5624 14.42415270 31563
CZ-12 R/B
1 66421U 25258K   26169.26700006 -.00000071  00000-0  29228-4 0  9992
2 66421  49.9937 164.1249 0064484 203.7751 156.0187 14.42415624 31780
CZ-12 R/B
1 66421U 25258K   26169.68267775 -.00000071  00000-0  29317-4 0  9998
2 66421  49.9937 162.3208 0064473 205.2719 154.5043 14.42415752 31847
CZ-12 R/B
1 66421U 25258K   26169.68267776 -.00000071  00000-0  29317-4 0  9999
2 66421  49.9937 162.3208 0064473 205.2719 154.5043 14.42415752 31847
CZ-12 R/B
1 66421U 25258K   26170.23691488 -.00000068  00000-0  30114-4 0  9996
2 66421  49.9938 159.9154 0064476 207.2636 152.4895 14.42415864 31928
CZ-12 R/B
1 66421U 25258K   26170.92971124 -.00000063  00000-0  31515-4 0  9991
2 66421  49.9938 156.9084 0064473 209.7566 149.9681 14.42416024 32028
CZ-12 R/B
1 66421U 25258K   26171.20682969 -.00000062  00000-0  31802-4 0  9997
2 66421  49.9937 155.7056 0064488 210.7478 148.9658 14.42416104 32069
CZ-12 R/B
1 66421U 25258K   26173.21593956 -.00000052  00000-0  34722-4 0  9990
2 66421  49.9940 146.9859 0064481 217.9678 141.6687 14.42416618 32354
CZ-12 R/B
1 66421U 25258K   26174.94793130 -.00000026  00000-0  42369-4 0  9994
2 66421  49.9945 139.4690 0064483 224.1920 135.3840 14.42417205 32603
CZ-12 R/B
1 66421U 25258K   26175.15577036 -.00000026  00000-0  42379-4 0  9994
2 66421  49.9945 138.5669 0064479 224.9340 134.6351 14.42417254 32634
CZ-12 R/B
1 66421U 25258K   26176.19496562 -.00000000  00000-0  49961-4 0  9999
2 66421  49.9947 134.0568 0064475 228.6652 130.8710 14.42417746 32787
CZ-12 R/B
1 66421U 25258K   26176.19496563  .00000000  00000-0  49961-4 0  9999
2 66421  49.9947 134.0568 0064475 228.6652 130.8710 14.42417746 32787
CZ-12 R/B
1 66421U 25258K   26176.61064374 -.00000003  00000-0  49256-4 0  9998
2 66421  49.9949 132.2528 0064468 230.1592 129.3645 14.42417918 32846
CZ-12 R/B
1 66421U 25258K   26177.16488139 -.00000008  00000-0  47792-4 0  9996
2 66421  49.9949 129.8474 0064472 232.1488 127.3588 14.42418070 32922
CZ-12 R/B
1 66421U 25258K   26177.16488139 -.00000008  00000-0  47792-4 0  9996
2 66421  49.9949 129.8474 0064472 232.1488 127.3588 14.42418070 32922
CZ-12 R/B
1 66421U 25258K   26177.58055963 -.00000020  00000-0  44066-4 0  9992
2 66421  49.9950 128.0435 0064470 233.6454 125.8506 14.42418166 32984
CZ-12 R/B
1 66421U 25258K   26177.58055963 -.00000020  00000-0  44066-4 0  9992
2 66421  49.9950 128.0435 0064470 233.6454 125.8506 14.42418166 32984
CZ-12 R/B
1 66421U 25258K   26178.13479735 -.00000014  00000-0  45929-4 0  9993
2 66421  49.9951 125.6381 0064465 235.6312 123.8501 14.42418387 33065
CZ-12 R/B
1 66421U 25258K   26178.13479736 -.00000014  00000-0  45929-4 0  9994
2 66421  49.9951 125.6381 0064465 235.6312 123.8501 14.42418387 33065
CZ-12 R/B
1 66421U 25258K   26178.82759471 -.00000016  00000-0  45261-4 0  9998
2 66421  49.9952 122.6314 0064474 238.1284 121.3352 14.42418575 33162
CZ-12 R/B
1 66421U 25258K   26178.82759472 -.00000016  00000-0  45261-4 0  9999
2 66421  49.9952 122.6314 0064474 238.1284 121.3352 14.42418575 33162
CZ-12 R/B
1 66421U 25258K   26179.10471372 -.00000020  00000-0  44040-4 0  9990
2 66421  49.9953 121.4287 0064468 239.1173 120.3397 14.42418634 33209
CZ-12 R/B
1 66421U 25258K   26179.10471372 -.00000020  00000-0  44040-4 0  9990
2 66421  49.9953 121.4287 0064468 239.1173 120.3397 14.42418634 33209
CZ-12 R/B
1 66421U 25258K   26179.52039227 -.00000027  00000-0  42148-4 0  9999
2 66421  49.9952 119.6247 0064475 240.6191 118.8281 14.42418706 33268
CZ-12 R/B
1 66421U 25258K   26179.86679111 -.00000026  00000-0  42433-4 0  9994
2 66421  49.9953 118.1214 0064474 241.8574 117.5822 14.42418806 33318
CZ-12 R/B
1 66421U 25258K   26181.11382698  .00000000  00000-0  50099-4 0  9994
2 66421  49.9953 112.7093 0064475 246.3363 113.0782 14.42419342 33491
CZ-12 R/B
1 66421U 25258K   26181.11382698  .00000000  00000-0  50099-4 0  9994
2 66421  49.9953 112.7093 0064475 246.3363 113.0782 14.42419342 33491
CZ-12 R/B
1 66421U 25258K   26182.08374416 -.00000002  00000-0  49398-4 0  9993
2 66421  49.9956 108.4999 0064474 249.8226 109.5752 14.42419625 33633
CZ-12 R/B
1 66421U 25258K   26182.08374416 -.00000002  00000-0  49398-4 0  9993
2 66421  49.9956 108.4999 0064474 249.8226 109.5752 14.42419625 33633
CZ-12 R/B
1 66421U 25258K   26183.05366174  .00000002  00000-0  50547-4 0  9990
2 66421  49.9959 104.2908 0064481 253.3135 106.0701 14.42419903 33777
CZ-12 R/B
1 66421U 25258K   26183.46934087  .00000020  00000-0  55944-4 0  9995
2 66421  49.9960 102.4868 0064484 254.8135 104.5649 14.42420083 33835
CZ-12 R/B
1 66421U 25258K   26183.46934087  .00000020  00000-0  55944-4 0  9995
2 66421  49.9960 102.4868 0064484 254.8135 104.5649 14.42420083 33835
CZ-12 R/B
1 66421U 25258K   26183.81574007  .00000026  00000-0  57589-4 0  9999
2 66421  49.9960 100.9834 0064486 256.0522 103.3221 14.42420210 33887
CZ-12 R/B
1 66421U 25258K   26183.81574008  .00000026  00000-0  57589-4 0  9990
2 66421  49.9960 100.9834 0064486 256.0522 103.3221 14.42420210 33887
CZ-12 R/B
1 66421U 25258K   26184.02357969  .00000017  00000-0  55102-4 0  9998
2 66421  49.9960 100.0814 0064487 256.7997 102.5724 14.42420203 33915
CZ-12 R/B
1 66421U 25258K   26185.06277763  .00000028  00000-0  58248-4 0  9992
2 66421  49.9962  95.5714 0064487 260.5358  98.8269 14.42420604 34061
CZ-12 R/B
1 66421U 25258K   26185.13205750  .00000029  00000-0  58598-4 0  9996
2 66421  49.9961  95.2707 0064487 260.7877  98.5746 14.42420626 34079
CZ-12 R/B
1 66421U 25258K   26185.47845652  .00000088  00000-0  75875-4 0  9996
2 66421  49.9959  93.7672 0064466 262.0190  97.3412 14.42421172 34120
CZ-12 R/B
1 66421U 25258K   26185.47845652  .00000088  00000-0  75875-4 0  9996
2 66421  49.9959  93.7672 0064466 262.0190  97.3412 14.42421172 34120
CZ-12 R/B
1 66421U 25258K   26186.10197545  .00000068  00000-0  69885-4 0  9990
2 66421  49.9959  91.0611 0064465 264.2578  95.0990 14.42421288 34211
CZ-12 R/B
1 66421U 25258K   26186.10197546  .00000068  00000-0  69885-4 0  9991
2 66421  49.9959  91.0611 0064465 264.2578  95.0990 14.42421288 34211
CZ-12 R/B
1 66421U 25258K   26187.00261421  .00000021  00000-0  56038-4 0  9990
2 66421  49.9960  87.1525 0064461 267.4950  91.8590 14.42421370 34344
CZ-12 R/B
1 66421U 25258K   26187.00261422  .00000021  00000-0  56038-4 0  9991
2 66421  49.9960  87.1525 0064461 267.4950  91.8590 14.42421370 34344
CZ-12 R/B
1 66421U 25258K   26188.11109302 -.00000025  00000-0  42623-4 0  9992
2 66421  49.9961  82.3418 0064454 271.4770  87.8768 14.42421518 34504
CZ-12 R/B
1 66421U 25258K   26188.11109303 -.00000025  00000-0  42623-4 0  9993
2 66421  49.9961  82.3418 0064454 271.4770  87.8768 14.42421518 34504
CZ-12 R/B
1 66421U 25258K   26188.94245251 -.00000056  00000-0  33665-4 0  9997
2 66421  49.9961  78.7337 0064452 274.4584  84.8975 14.42421617 34627
CZ-12 R/B
1 66421U 25258K   26189.42741230 -.00000062  00000-0  32017-4 0  9996
2 66421  49.9961  76.6290 0064458 276.2082  83.1498 14.42421746 34693
CZ-12 R/B
1 66421U 25258K   26189.42741231 -.00000062  00000-0  32017-4 0  9997
2 66421  49.9961  76.6290 0064458 276.2082  83.1498 14.42421746 34693
CZ-12 R/B
1 66421U 25258K   26189.91237215 -.00000073  00000-0  28827-4 0  9999
2 66421  49.9961  74.5242 0064456 277.9448  81.4161 14.42421845 34765
CZ-12 R/B
1 66421U 25258K   26191.02085219 -.00000085  00000-0  25241-4 0  9999
2 66421  49.9960  69.7134 0064448 281.9278  77.4422 14.42422088 34920
CZ-12 R/B
1 66421U 25258K   26192.06005274 -.00000095  00000-0  22331-4 0  9995
2 66421  49.9961  65.2031 0064445 285.6601  73.7216 14.42422246 35079
CZ-12 R/B
1 66421U 25258K   26192.06005275 -.00000095  00000-0  22331-4 0  9996
2 66421  49.9961  65.2031 0064445 285.6601  73.7216 14.42422246 35079
CZ-12 R/B
1 66421U 25258K   26192.82213344 -.00000091  00000-0  23535-4 0  9991
2 66421  49.9961  61.8956 0064449 288.3946  70.9974 14.42422401 35188
CZ-12 R/B
1 66421U 25258K   26192.82213344 -.00000091  00000-0  23535-4 0  9991
2 66421  49.9961  61.8956 0064449 288.3946  70.9974 14.42422401 35188
CZ-12 R/B
1 66421U 25258K   26193.02997373 -.00000088  00000-0  24218-4 0  9990
2 66421  49.9961  60.9936 0064438 289.1432  70.2521 14.42422434 35214
CZ-12 R/B
1 66421U 25258K   26193.02997373 -.00000088  00000-0  24218-4 0  9990
2 66421  49.9961  60.9936 0064438 289.1432  70.2521 14.42422434 35214
CZ-12 R/B
1 66421U 25258K   26193.79205472 -.00000092  00000-0  23254-4 0  9990
2 66421  49.9961  57.6860 0064433 291.8741  67.5337 14.42422557 35323
CZ-12 R/B
1 66421U 25258K   26193.99989507 -.00000090  00000-0  23613-4 0  9997
2 66421  49.9962  56.7840 0064439 292.6258  66.7855 14.42422583 35358
CZ-12 R/B
1 66421U 25258K   26193.99989508 -.00000090  00000-0  23613-4 0  9998
2 66421  49.9962  56.7840 0064439 292.6259  66.7855 14.42422583 35359
CZ-12 R/B
1 66421U 25258K   26194.83125650 -.00000095  00000-0  22249-4 0  9991
2 66421  49.9962  53.1757 0064440 295.6085  63.8186 14.42422702 35470
CZ-12 R/B
1 66421U 25258K   26195.31621750 -.00000099  00000-0  21222-4 0  9991
2 66421  49.9963  51.0711 0064432 297.3488  62.0884 14.42422765 35548
CZ-12 R/B
1 66421U 25258K   26195.31621750 -.00000099  00000-0  21222-4 0  9991
2 66421  49.9963  51.0711 0064432 297.3488  62.0884 14.42422765 35548
CZ-12 R/B
1 66421U 25258K   26195.80117854 -.00000097  00000-0  21808-4 0  9998
2 66421  49.9964  48.9663 0064434 299.0882  60.3597 14.42422855 35619
CZ-12 R/B
1 66421U 25258K   26195.87045872 -.00000096  00000-0  22146-4 0  9990
2 66421  49.9964  48.6657 0064435 299.3392  60.1103 14.42422867 35624
CZ-12 R/B
1 66421U 25258K   26196.00901904 -.00000094  00000-0  22742-4 0  9993
2 66421  49.9964  48.0643 0064434 299.8404  59.6122 14.42422894 35647
CZ-12 R/B
1 66421U 25258K   26196.00901904 -.00000094  00000-0  22742-4 0  9993
2 66421  49.9964  48.0643 0064434 299.8405  59.6122 14.42422894 35648
CZ-12 R/B
1 66421U 25258K   26196.84038117 -.00000096  00000-0  21993-4 0  9991
2 66421  49.9965  44.4561 0064428 302.8189  56.6538 14.42422998 35761
CZ-12 R/B
1 66421U 25258K   26196.84038117 -.00000096  00000-0  21993-4 0  9991
2 66421  49.9965  44.4561 0064428 302.8189  56.6538 14.42422998 35761
CZ-12 R/B
1 66421U 25258K   26197.25606231 -.00000098  00000-0  21375-4 0  9991
2 66421  49.9966  42.6519 0064429 304.3092  55.1742 14.42423063 35828
CZ-12 R/B
1 66421U 25258K   26197.53318311 -.00000095  00000-0  22239-4 0  9998
2 66421  49.9966  41.4492 0064428 305.3024  54.1882 14.42423109 35869
CZ-12 R/B
1 66421U 25258K   26197.53318312 -.00000095  00000-0  22239-4 0  9999
2 66421  49.9966  41.4492 0064428 305.3024  54.1882 14.42423109 35869
CZ-12 R/B
1 66421U 25258K   26197.81030396 -.00000098  00000-0  21418-4 0  9994
2 66421  49.9966  40.2465 0064418 306.2923  53.2060 14.42423146 35907
CZ-12 R/B
1 66421U 25258K   26197.81030396 -.00000098  00000-0  21418-4 0  9994
2 66421  49.9966  40.2465 0064418 306.2923  53.2060 14.42423146 35907
CZ-12 R/B
1 66421U 25258K   26198.50310610 -.00000102  00000-0  20246-4 0  9995
2 66421  49.9967  37.2397 0064423 308.7837  50.7340 14.42423252 36008
CZ-12 R/B
1 66421U 25258K   26198.50310611 -.00000102  00000-0  20246-4 0  9996
2 66421  49.9967  37.2397 0064423 308.7837  50.7340 14.42423252 36008
CZ-12 R/B
1 66421U 25258K   26198.91878747 -.00000102  00000-0  20224-4 0  9996
2 66421  49.9967  35.4356 0064421 310.2802  49.2498 14.42423331 36062
CZ-12 R/B
1 66421U 25258K   26199.26518862 -.00000108  00000-0  18582-4 0  9994
2 66421  49.9967  33.9323 0064417 311.5172  48.0233 14.42423384 36116
CZ-12 R/B
1 66421U 25258K   26199.75015032 -.00000113  00000-0  17115-4 0  9996
2 66421  49.9967  31.8275 0064413 313.2551  46.3005 14.42423431 36183
CZ-12 R/B
1 66421U 25258K   26199.75015033 -.00000113  00000-0  17115-4 0  9997
2 66421  49.9967  31.8275 0064413 313.2551  46.3005 14.42423431 36183
CZ-12 R/B
1 66421U 25258K   26200.78935428 -.00000109  00000-0  18185-4 0  9995
2 66421  49.9968  27.3172 0064412 316.9895  42.6001 14.42423593 36331
CZ-12 R/B
1 66421U 25258K   26200.92791484 -.00000102  00000-0  20207-4 0  9994
2 66421  49.9968  26.7159 0064417 317.4953  42.0990 14.42423644 36355
CZ-12 R/B
1 66421U 25258K   26201.75927817 -.00000091  00000-0  23477-4 0  9996
2 66421  49.9968  23.1077 0064425 320.4845  39.1389 14.42423834 36471
CZ-12 R/B
1 66421U 25258K   26201.89783879 -.00000078  00000-0  27443-4 0  9991
2 66421  49.9968  22.5063 0064426 320.9855  38.6428 14.42423914 36495
CZ-12 R/B
1 66421U 25258K   26202.24424024 -.00000072  00000-0  29275-4 0  9994
2 66421  49.9968  21.0029 0064431 322.2277  37.4130 14.42424012 36543
CZ-12 R/B
1 66421U 25258K   26202.52136136 -.00000065  00000-0  31254-4 0  9991
2 66421  49.9968  19.8001 0064428 323.2212  36.4297 14.42424112 36582
CZ-12 R/B
1 66421U 25258K   26203.90696741 -.00000047  00000-0  36560-4 0  9992
2 66421  49.9969  13.7865 0064428 328.2047  31.4992 14.42424491 36784
CZ-12 R/B
1 66421U 25258K   26204.46121003 -.00000051  00000-0  35235-4 0  9991
2 66421  49.9969  11.3810 0064419 330.1863  29.5394 14.42424528 36860
CZ-12 R/B
1 66421U 25258K   26204.46121004 -.00000051  00000-0  35235-4 0  9992
2 66421  49.9969  11.3810 0064419 330.1863  29.5394 14.42424528 36860
CZ-12 R/B
1 66421U 25258K   26206.40105924 -.00000031  00000-0  41220-4 0  9990
2 66421  49.9971   2.9622 0064423 337.1632  22.6427 14.42425020 37147
CZ-12 R/B
1 66421U 25258K   26207.44026406 -.00000019  00000-0  44701-4 0  9995
2 66421  49.9972 358.4521 0064419 340.8968  18.9539 14.42425398 37299
CZ-12 R/B
1 66421U 25258K   26207.78666570 -.00000026  00000-0  42779-4 0  9995
2 66421  49.9972 356.9488 0064415 342.1443  17.7215 14.42425461 37348
CZ-12 R/B
1 66421U 25258K   26208.41018856 -.00000029  00000-0  41718-4 0  9999
2 66421  49.9972 354.2427 0064417 344.3819  15.5114 14.42425632 37439
CZ-12 R/B
1 66421U 25258K   26208.41018857 -.00000029  00000-0  41718-4 0  9990
2 66421  49.9972 354.2427 0064417 344.3819  15.5114 14.42425632 37439
CZ-12 R/B
1 66421U 25258K   26209.38011301 -.00000032  00000-0  41095-4 0  9996
2 66421  49.9972 350.0333 0064418 347.8651  12.0715 14.42425896 37578
CZ-12 R/B
1 66421U 25258K   26210.76571916 -.00000009  00000-0  47557-4 0  9996
2 66421  49.9973 344.0200 0064400 352.8320   7.1674 14.42426425 37775
CZ-12 R/B
1 66421U 25258K   26211.31996153 -.00000026  00000-0  42654-4 0  9994
2 66421  49.9973 341.6145 0064398 354.8190   5.2058 14.42426513 37851
CZ-12 R/B
1 66421U 25258K   26212.56700674 -.00000028  00000-0  42114-4 0  9996
2 66421  49.9971 336.2022 0064367 359.2824   0.7995 14.42426855 38032
CZ-12 R/B
1 66421U 25258K   26212.56700674 -.00000028  00000-0  42114-4 0  9996
2 66421  49.9971 336.2022 0064367 359.2824   0.7995 14.42426855 38032
CZ-12 R/B
1 66421U 25258K   26213.32908983 -.00000035  00000-0  40187-4 0  9990
2 66421  49.9971 332.8948 0064366   2.0170 358.0999 14.42427016 38142
CZ-12 R/B
1 66421U 25258K   26213.60621092 -.00000023  00000-0  43564-4 0  9993
2 66421  49.9970 331.6920 0064355   3.0060 357.1236 14.42427135 38185
CZ-12 R/B
1 66421U 25258K   26214.02189249 -.00000040  00000-0  38795-4 0  9992
2 66421  49.9971 329.8880 0064351   4.5023 355.6464 14.42427180 38244
CZ-12 R/B
1 66421U 25258K   26214.02189249 -.00000040  00000-0  38795-4 0  9992
2 66421  49.9971 329.8880 0064351   4.5023 355.6464 14.42427180 38244
CZ-12 R/B
1 66421U 25258K   26214.57613477 -.00000041  00000-0  38317-4 0  9998
2 66421  49.9971 327.4826 0064357   6.5078 353.6664 14.42427265 38329
CZ-12 R/B
1 66421U 25258K   26215.47677801 -.00000042  00000-0  37996-4 0  9992
2 66421  49.9971 323.5740 0064358   9.7373 350.4779 14.42427516 38450
CZ-12 R/B
1 66421U 25258K   26215.54605828 -.00000043  00000-0  37865-4 0  9996
2 66421  49.9972 323.2734 0064358   9.9889 350.2295 14.42427524 38466
CZ-12 R/B
1 66421U 25258K   26216.72382210 -.00000053  00000-0  34856-4 0  9992
2 66421  49.9968 318.1617 0064362  14.2327 346.0389 14.42427797 38633
CZ-12 R/B
1 66421U 25258K   26217.48590441 -.00000071  00000-0  29611-4 0  9996
2 66421  49.9967 314.8542 0064358  16.9677 343.3377 14.42427887 38743
CZ-12 R/B
1 66421U 25258K   26217.62446484 -.00000071  00000-0  29546-4 0  9996
2 66421  49.9967 314.2529 0064360  17.4601 342.8513 14.42427900 38762
CZ-12 R/B
1 66421U 25258K   26218.52510735 -.00000079  00000-0  27470-4 0  9999
2 66421  49.9965 310.3442 0064349  20.6886 339.6619 14.42428040 38890
CZ-12 R/B
1 66421U 25258K   26219.21790914 -.00000081  00000-0  26668-4 0  9996
2 66421  49.9964 307.3374 0064349  23.1730 337.2070 14.42428151 38994
CZ-12 R/B
1 66421U 25258K   26219.49502982 -.00000082  00000-0  26380-4 0  9994
2 66421  49.9964 306.1348 0064342  24.1725 336.2193 14.42428194 39038
CZ-12 R/B
1 66421U 25258K   26220.18783135 -.00000085  00000-0  25718-4 0  9990
2 66421  49.9962 303.1279 0064344  26.6659 333.7547 14.42428315 39132
CZ-12 R/B
1 66421U 25258K   26220.18783136 -.00000085  00000-0  25718-4 0  9991
2 66421  49.9962 303.1279 0064344  26.6659 333.7547 14.42428315 39132
CZ-12 R/B
1 66421U 25258K   26220.46495192 -.00000088  00000-0  24865-4 0  9999
2 66421  49.9961 301.9252 0064339  27.6660 332.7661 14.42428356 39170
CZ-12 R/B
1 66421U 25258K   26220.46495193 -.00000088  00000-0  24865-4 0  9990
2 66421  49.9961 301.9252 0064339  27.6660 332.7661 14.42428356 39170
CZ-12 R/B
1 66421U 25258K   26220.67279238 -.00000088  00000-0  24834-4 0  9999
2 66421  49.9962 301.0234 0064346  28.4082 332.0323 14.42428389 39205
CZ-12 R/B
1 66421U 25258K   26220.67279239 -.00000088  00000-0  24834-4 0  9990
2 66421  49.9962 301.0234 0064346  28.4082 332.0323 14.42428389 39205
CZ-12 R/B
1 66421U 25258K   26221.43487363 -.00000086  00000-0  25438-4 0  9993
2 66421  49.9960 297.7158 0064338  31.1467 329.3243 14.42428557 39317
CZ-12 R/B
1 66421U 25258K   26221.64271397 -.00000087  00000-0  24961-4 0  9995
2 66421  49.9959 296.8138 0064341  31.8953 328.5839 14.42428570 39344
CZ-12 R/B
1 66421U 25258K   26222.19695472 -.00000085  00000-0  25496-4 0  9992
2 66421  49.9958 294.4082 0064334  33.8833 326.6173 14.42428660 39425
CZ-12 R/B
1 66421U 25258K   26222.47407506 -.00000083  00000-0  26082-4 0  9992
2 66421  49.9958 293.2055 0064331  34.8794 325.6318 14.42428711 39467
CZ-12 R/B
1 66421U 25258K   26222.47407506 -.00000083  00000-0  26082-4 0  9992
2 66421  49.9958 293.2055 0064331  34.8794 325.6318 14.42428711 39467
CZ-12 R/B
1 66421U 25258K   26223.16687579 -.00000082  00000-0  26507-4 0  9990
2 66421  49.9956 290.1986 0064327  37.3645 323.1725 14.42428797 39562
CZ-12 R/B
1 66421U 25258K   26223.16687579 -.00000082  00000-0  26507-4 0  9990
2 66421  49.9956 290.1986 0064327  37.3645 323.1725 14.42428797 39562
CZ-12 R/B
1 66421U 25258K   26223.44399605 -.00000083  00000-0  26287-4 0  9997
2 66421  49.9956 288.9958 0064317  38.3662 322.1809 14.42428818 39606
CZ-12 R/B
1 66421U 25258K   26223.85967630 -.00000082  00000-0  26447-4 0  9998
2 66421  49.9956 287.1917 0064319  39.8575 320.7044 14.42428905 39661
CZ-12 R/B
1 66421U 25258K   26223.85967630 -.00000082  00000-0  26447-4 0  9998
2 66421  49.9956 287.1917 0064319  39.8575 320.7044 14.42428905 39661
CZ-12 R/B
1 66421U 25258K   26224.20607647 -.00000085  00000-0  25557-4 0  9991
2 66421  49.9955 285.6881 0064313  41.1054 319.4687 14.42428930 39717
CZ-12 R/B
1 66421U 25258K   26224.41391654 -.00000085  00000-0  25651-4 0  9997
2 66421  49.9954 284.7861 0064309  41.8632 318.7182 14.42428963 39749
CZ-12 R/B
1 66421U 25258K   26224.41391655 -.00000085  00000-0  25651-4 0  9998
2 66421  49.9954 284.7861 0064309  41.8632 318.7182 14.42428963 39749
CZ-12 R/B
1 66421U 25258K   26224.89887662 -.00000091  00000-0  23915-4 0  9996
2 66421  49.9953 282.6812 0064316  43.5994 316.9984 14.42429023 39815
CZ-12 R/B
1 66421U 25258K   26225.66095650 -.00000092  00000-0  23692-4 0  9993
2 66421  49.9952 279.3736 0064313  46.3406 314.2821 14.42429148 39929
CZ-12 R/B
1 66421U 25258K   26225.66095651 -.00000092  00000-0  23692-4 0  9994
2 66421  49.9952 279.3737 0064313  46.3406 314.2821 14.42429148 39920
CZ-12 R/B
1 66421U 25258K   26226.14591627 -.00000094  00000-0  23064-4 0  9997
2 66421  49.9951 277.2688 0064311  48.0829 312.5551 14.42429213 39998
CZ-12 R/B
1 66421U 25258K   26226.14591628 -.00000094  00000-0  23064-4 0  9998
2 66421  49.9951 277.2688 0064311  48.0829 312.5551 14.42429214 39999
CZ-12 R/B
1 66421U 25258K   26226.42303610 -.00000091  00000-0  23802-4 0  9998
2 66421  49.9951 276.0661 0064316  49.0860 311.5607 14.42429281 40030
CZ-12 R/B
1 66421U 25258K   26226.42303610 -.00000091  00000-0  23802-4 0  9998
2 66421  49.9951 276.0661 0064316  49.0860 311.5607 14.42429281 40030
CZ-12 R/B
1 66421U 25258K   26227.11583546 -.00000090  00000-0  24241-4 0  9990
2 66421  49.9950 273.0592 0064315  51.5734 309.0937 14.42429397 40133
CZ-12 R/B
1 66421U 25258K   26227.11583547 -.00000090  00000-0  24241-4 0  9991
2 66421  49.9950 273.0592 0064315  51.5734 309.0937 14.42429397 40133
CZ-12 R/B
1 66421U 25258K   26227.39295516 -.00000093  00000-0  23431-4 0  9990
2 66421  49.9950 271.8565 0064315  52.5714 308.1036 14.42429418 40176
CZ-12 R/B
1 66421U 25258K   26227.39295517 -.00000093  00000-0  23431-4 0  9991
2 66421  49.9950 271.8565 0064315  52.5714 308.1036 14.42429418 40176
CZ-12 R/B
1 66421U 25258K   26227.80863459 -.00000092  00000-0  23631-4 0  9994
2 66421  49.9949 270.0524 0064310  54.0570 306.6294 14.42429487 40234
CZ-12 R/B
1 66421U 25258K   26227.80863460 -.00000092  00000-0  23631-4 0  9996
2 66421  49.9949 270.0524 0064310  54.0570 306.6294 14.42429487 40234
CZ-12 R/B
1 66421U 25258K   26228.08575414 -.00000090  00000-0  24259-4 0  9991
2 66421  49.9948 268.8495 0064303  55.0574 305.6365 14.42429526 40278
CZ-12 R/B
1 66421U 25258K   26228.08575415 -.00000090  00000-0  24259-4 0  9992
2 66421  49.9948 268.8495 0064303  55.0574 305.6365 14.42429527 40279
CZ-12 R/B
1 66421U 25258K   26228.36287369 -.00000092  00000-0  23627-4 0  9991
2 66421  49.9947 267.6468 0064302  56.0566 304.6445 14.42429559 40314
CZ-12 R/B
1 66421U 25258K   26228.84783273 -.00000087  00000-0  25147-4 0  9992
2 66421  49.9946 265.5420 0064303  57.8001 302.9133 14.42429682 40381
CZ-12 R/B
1 66421U 25258K   26229.05567228 -.00000085  00000-0  25804-4 0  9994
2 66421  49.9946 264.6398 0064300  58.5481 302.1704 14.42429719 40413
CZ-12 R/B
1 66421U 25258K   26229.47135131 -.00000089  00000-0  24410-4 0  9990
2 66421  49.9945 262.8357 0064304  60.0436 300.6848 14.42429772 40476
CZ-12 R/B
1 66421U 25258K   26229.81775037 -.00000082  00000-0  26472-4 0  9996
2 66421  49.9945 261.3323 0064302  61.2845 299.4518 14.42429893 40527
CZ-12 R/B
1 66421U 25258K   26230.44126854 -.00000059  00000-0  33227-4 0  9994
2 66421  49.9944 258.6261 0064306  63.5146 297.2352 14.42430124 40610
CZ-12 R/B
1 66421U 25258K   26231.06478642 -.00000056  00000-0  34147-4 0  9997
2 66421  49.9943 255.9197 0064299  65.7525 295.0097 14.42430250 40705
CZ-12 R/B
1 66421U 25258K   26231.06478643 -.00000056  00000-0  34147-4 0  9998
2 66421  49.9943 255.9198 0064299  65.7525 295.0097 14.42430250 40706
CZ-12 R/B
1 66421U 25258K   26231.54974462 -.00000045  00000-0  37409-4 0  9993
2 66421  49.9942 253.8148 0064304  67.4990 293.2722 14.42430390 40776
CZ-12 R/B
1 66421U 25258K   26232.03470268 -.00000040  00000-0  38828-4 0  9994
2 66421  49.9942 251.7099 0064297  69.2393 291.5402 14.42430494 40845
CZ-12 R/B
1 66421U 25258K   26232.72749967 -.00000043  00000-0  37968-4 0  9992
2 66421  49.9941 248.7029 0064298  71.7313 289.0591 14.42430605 40940
CZ-12 R/B
1 66421U 25258K   26233.00461834 -.00000032  00000-0  41258-4 0  9993
2 66421  49.9940 247.5000 0064294  72.7276 288.0667 14.42430714 40988
CZ-12 R/B
1 66421U 25258K   26233.35101660 -.00000026  00000-0  42857-4 0  9998
2 66421  49.9941 245.9966 0064293  73.9718 286.8271 14.42430831 41039
CZ-12 R/B
1 66421U 25258K   26233.35101660 -.00000026  00000-0  42857-4 0  9998
2 66421  49.9941 245.9966 0064293  73.9718 286.8271 14.42430831 41039
CZ-12 R/B
1 66421U 25258K   26234.32093127 -.00000033  00000-0  40887-4 0  9993
2 66421  49.9940 241.7868 0064294  77.4553 283.3550 14.42431037 41176
CZ-12 R/B
1 66421U 25258K   26234.32093128 -.00000033  00000-0  40887-4 0  9994
2 66421  49.9940 241.7868 0064294  77.4553 283.3550 14.42431038 41177
CZ-12 R/B
1 66421U 25258K   26235.01372705 -.00000033  00000-0  40766-4 0  9998
2 66421  49.9939 238.7797 0064296  79.9309 280.8858 14.42431200 41275
CZ-12 R/B
1 66421U 25258K   26235.70652242 -.00000037  00000-0  39607-4 0  9997
2 66421  49.9939 235.7727 0064298  82.4260 278.3958 14.42431384 41379
CZ-12 R/B
1 66421U 25258K   26236.26075831 -.00000031  00000-0  41533-4 0  9997
2 66421  49.9939 233.3670 0064290  84.4552 276.3697 14.42431597 41451
CZ-12 R/B
1 66421U 25258K   26236.46859678 -.00000030  00000-0  41796-4 0  9998
2 66421  49.9938 232.4649 0064294  85.1951 275.6308 14.42431653 41488
CZ-12 R/B
1 66421U 25258K   26236.46859679 -.00000030  00000-0  41796-4 0  9999
2 66421  49.9938 232.4649 0064294  85.1951 275.6308 14.42431653 41488
CZ-12 R/B
1 66421U 25258K   26236.95355302 -.00000031  00000-0  41493-4 0  9992
2 66421  49.9939 230.3600 0064289  86.9381 273.8894 14.42431799 41552
CZ-12 R/B
1 66421U 25258K   26237.23067075 -.00000024  00000-0  43474-4 0  9994
2 66421  49.9939 229.1572 0064290  87.9387 272.8894 14.42431942 41598
CZ-12 R/B
1 66421U 25258K   26237.23067076 -.00000024  00000-0  43474-4 0  9995
2 66421  49.9939 229.1572 0064290  87.9387 272.8894 14.42431942 41598
CZ-12 R/B
1 66421U 25258K   26237.71562670 -.00000032  00000-0  41166-4 0  9993
2 66421  49.9941 227.0526 0064294  89.6775 271.1513 14.42432098 41662
CZ-12 R/B
1 66421U 25258K   26237.71562671 -.00000032  00000-0  41166-4 0  9994
2 66421  49.9941 227.0526 0064294  89.6775 271.1513 14.42432098 41662
CZ-12 R/B
1 66421U 25258K   26237.99274428 -.00000025  00000-0  43154-4 0  9995
2 66421  49.9941 225.8497 0064293  90.6725 270.1564 14.42432223 41701
CZ-12 R/B
1 66421U 25258K   26238.20058250 -.00000017  00000-0  45652-4 0  9999
2 66421  49.9941 224.9476 0064295  91.4228 269.4059 14.42432322 41730
CZ-12 R/B
1 66421U 25258K   26238.20058250 -.00000017  00000-0  45652-4 0  9999
2 66421  49.9941 224.9476 0064295  91.4228 269.4059 14.42432322 41730
CZ-12 R/B
1 66421U 25258K   26239.17049345 -.00000013  00000-0  46647-4 0  9992
2 66421  49.9940 220.7379 0064297  94.9073 265.9192 14.42432680 41874
CZ-12 R/B
1 66421U 25258K   26239.17049345 -.00000013  00000-0  46647-4 0  9992
2 66421  49.9940 220.7380 0064297  94.9073 265.9192 14.42432681 41877
CZ-12 R/B
1 66421U 25258K   26240.14040376 -.00000034  00000-0  40602-4 0  9994
2 66421  49.9940 216.5282 0064294  98.3976 262.4240 14.42432854 42013
CZ-12 R/B
1 66421U 25258K   26240.20968301 -.00000029  00000-0  42001-4 0  9997
2 66421  49.9940 216.2276 0064295  98.6466 262.1745 14.42432906 42027
CZ-12 R/B
1 66421U 25258K   26240.62535872 -.00000026  00000-0  42778-4 0  9994
2 66421  49.9941 214.4234 0064285 100.1509 260.6671 14.42433007 42088
CZ-12 R/B
1 66421U 25258K   26240.62535872 -.00000026  00000-0  42778-4 0  9994
2 66421  49.9941 214.4234 0064285 100.1509 260.6671 14.42433007 42088
CZ-12 R/B
1 66421U 25258K   26241.17959260 -.00000022  00000-0  44209-4 0  9993
2 66421  49.9941 212.0177 0064286 102.1489 258.6643 14.42433191 42167
CZ-12 R/B
1 66421U 25258K   26241.17959261 -.00000022  00000-0  44209-4 0  9994
2 66421  49.9941 212.0178 0064286 102.1489 258.6643 14.42433191 42168
CZ-12 R/B
1 66421U 25258K   26241.87238473 -.00000024  00000-0  43491-4 0  9990
2 66421  49.9940 209.0107 0064284 104.6428 256.1631 14.42433364 42266
CZ-12 R/B
1 66421U 25258K   26241.94166398 -.00000027  00000-0  42587-4 0  9992
2 66421  49.9941 208.7100 0064288 104.8894 255.9157 14.42433362 42278
CZ-12 R/B
1 66421U 25258K   26242.14950153 -.00000027  00000-0  42717-4 0  9990
2 66421  49.9941 207.8080 0064288 105.6394 255.1633 14.42433427 42306
CZ-12 R/B
1 66421U 25258K   26242.14950153 -.00000027  00000-0  42717-4 0  9990
2 66421  49.9941 207.8080 0064288 105.6394 255.1633 14.42433427 42306
CZ-12 R/B
1 66421U 25258K   26242.84229309 -.00000032  00000-0  40980-4 0  9995
2 66421  49.9940 204.8008 0064289 108.1330 252.6605 14.42433589 42402
CZ-12 R/B
1 66421U 25258K   26242.91157227 -.00000034  00000-0  40531-4 0  9996
2 66421  49.9941 204.5002 0064288 108.3812 252.4114 14.42433611 42410
CZ-12 R/B
1 66421U 25258K   26243.11940961 -.00000034  00000-0  40535-4 0  9998
2 66421  49.9940 203.5980 0064290 109.1372 251.6523 14.42433675 42444
CZ-12 R/B
1 66421U 25258K   26243.11940961 -.00000034  00000-0  40535-4 0  9998
2 66421  49.9940 203.5980 0064290 109.1372 251.6523 14.42433675 42444
CZ-12 R/B
1 66421U 25258K   26243.88147979 -.00000038  00000-0  39398-4 0  9999
2 66421  49.9941 200.2904 0064287 111.8778 248.8995 14.42433872 42553
CZ-12 R/B
1 66421U 25258K   26243.88147980 -.00000038  00000-0  39398-4 0  9991
2 66421  49.9941 200.2904 0064287 111.8778 248.8995 14.42433872 42553
CZ-12 R/B
1 66421U 25258K   26244.08931703 -.00000038  00000-0  39425-4 0  9999
2 66421  49.9941 199.3883 0064295 112.6327 248.1410 14.42433943 42582
CZ-12 R/B
1 66421U 25258K   26244.15859611 -.00000036  00000-0  39915-4 0  9996
2 66421  49.9942 199.0877 0064295 112.8807 247.8918 14.42433973 42591
CZ-12 R/B
1 66421U 25258K   26244.15859612 -.00000036  00000-0  39915-4 0  9997
2 66421  49.9942 199.0877 0064295 112.8807 247.8918 14.42433973 42591
CZ-12 R/B
1 66421U 25258K   26244.57427057 -.00000036  00000-0  39817-4 0  9998
2 66421  49.9943 197.2835 0064292 114.3729 246.3920 14.42434075 42651
