CZ-6A DEB
1 66789U 22151AJF 26190.46549808  .00001867  00000-0  88555-3 0  9995
2 66789  98.8293 197.3223 0047658 260.3436  99.2355 14.20198540168493
CZ-6A DEB
1 66789U 22151AJF 26193.98809898  .00001534  00000-0  73093-3 0  9995
2 66789  98.8286 200.8385 0047715 249.5258 110.0792 14.20210678168998
CZ-6A DEB
1 66789U 22151AJF 26193.98809899  .00001534  00000-0  73093-3 0  9996
2 66789  98.8286 200.8385 0047715 249.5258 110.0792 14.20210678168998
CZ-6A DEB
1 66789U 22151AJF 26194.48126135  .00001455  00000-0  69454-3 0  9995
2 66789  98.8286 201.3308 0047737 248.0060 111.6040 14.20212014169066
CZ-6A DEB
1 66789U 22151AJF 26194.48126136  .00001455  00000-0  69454-3 0  9996
2 66789  98.8286 201.3308 0047737 248.0060 111.6040 14.20212014169066
CZ-6A DEB
1 66789U 22151AJF 26194.97442329  .00001459  00000-0  69606-3 0  9998
2 66789  98.8286 201.8230 0047759 246.5011 113.1142 14.20213478169131
CZ-6A DEB
1 66789U 22151AJF 26195.46758492  .00001424  00000-0  68001-3 0  9994
2 66789  98.8286 202.3154 0047769 245.0519 114.5690 14.20214828169201
CZ-6A DEB
1 66789U 22151AJF 26195.46758492  .00001424  00000-0  68001-3 0  9994
2 66789  98.8286 202.3154 0047769 245.0519 114.5690 14.20214828169201
CZ-6A DEB
1 66789U 22151AJF 26195.96074573  .00001461  00000-0  69719-3 0  9998
2 66789  98.8293 202.8085 0047826 243.4823 116.1445 14.20216448169274
CZ-6A DEB
1 66789U 22151AJF 26195.96074574  .00001461  00000-0  69719-3 0  9999
2 66789  98.8293 202.8086 0047826 243.4823 116.1445 14.20216448169275
CZ-6A DEB
1 66789U 22151AJF 26196.45390605  .00001419  00000-0  67751-3 0  9997
2 66789  98.8301 203.3008 0047882 242.0467 117.5858 14.20217663169347
CZ-6A DEB
1 66789U 22151AJF 26196.45390606  .00001419  00000-0  67751-3 0  9998
2 66789  98.8301 203.3008 0047882 242.0467 117.5858 14.20217663169347
CZ-6A DEB
1 66789U 22151AJF 26196.80616301  .00001431  00000-0  68334-3 0  9992
2 66789  98.8301 203.6524 0047914 240.9276 118.7097 14.20218887169396
CZ-6A DEB
1 66789U 22151AJF 26196.80616301  .00001431  00000-0  68334-3 0  9992
2 66789  98.8301 203.6524 0047914 240.9276 118.7097 14.20218887169396
CZ-6A DEB
1 66789U 22151AJF 26197.22887220  .00001322  00000-0  63267-3 0  9998
2 66789  98.8301 204.0743 0047922 239.6072 120.0362 14.20219358169454
CZ-6A DEB
1 66789U 22151AJF 26197.22887221  .00001322  00000-0  63267-3 0  9999
2 66789  98.8301 204.0743 0047922 239.6072 120.0362 14.20219358169454
CZ-6A DEB
1 66789U 22151AJF 26198.49699522  .00001373  00000-0  65628-3 0  9993
2 66789  98.8301 205.3403 0047947 235.7870 123.8758 14.20223552169632
CZ-6A DEB
1 66789U 22151AJF 26198.49699522  .00001373  00000-0  65628-3 0  9993
2 66789  98.8301 205.3403 0047947 235.7870 123.8758 14.20223552169632
CZ-6A DEB
1 66789U 22151AJF 26198.99015356  .00001390  00000-0  66386-3 0  9996
2 66789  98.8301 205.8323 0048004 234.2445 125.4262 14.20225085169704
CZ-6A DEB
1 66789U 22151AJF 26199.48331148  .00001345  00000-0  64312-3 0  9998
2 66789  98.8301 206.3247 0048050 232.7374 126.9415 14.20226285169776
CZ-6A DEB
1 66789U 22151AJF 26199.97646926  .00001341  00000-0  64133-3 0  9992
2 66789  98.8301 206.8170 0048074 231.2697 128.4177 14.20227599169843
CZ-6A DEB
1 66789U 22151AJF 26200.46962615  .00001332  00000-0  63693-3 0  9995
2 66789  98.8302 207.3093 0048114 229.7918 129.9043 14.20229039169914
CZ-6A DEB
1 66789U 22151AJF 26200.75142984  .00001339  00000-0  64035-3 0  9994
2 66789  98.8301 207.5906 0048147 228.9267 130.7745 14.20229910169953
CZ-6A DEB
1 66789U 22151AJF 26201.24458652  .00001460  00000-0  69630-3 0  9992
2 66789  98.8300 208.0829 0048153 227.4636 132.2470 14.20231877170020
CZ-6A DEB
1 66789U 22151AJF 26201.45593898  .00001482  00000-0  70630-3 0  9993
2 66789  98.8299 208.2940 0048165 226.8373 132.8773 14.20232659170051
CZ-6A DEB
1 66789U 22151AJF 26202.79450053  .00001933  00000-0  91481-3 0  9994
2 66789  98.8299 209.6302 0048323 222.7576 136.9837 14.20239808170244
CZ-6A DEB
1 66789U 22151AJF 26203.49900539  .00001949  00000-0  92190-3 0  9996
2 66789  98.8300 210.3336 0048419 220.6137 139.1424 14.20242355170348
CZ-6A DEB
1 66789U 22151AJF 26203.99215770  .00002104  00000-0  99393-3 0  9993
2 66789  98.8300 210.8258 0048467 219.1369 140.6298 14.20245041170418
CZ-6A DEB
1 66789U 22151AJF 26204.48530955  .00002149  00000-0  10144-2 0  9998
2 66789  98.8301 211.3182 0048532 217.6533 142.1242 14.20247124170487
CZ-6A DEB
1 66789U 22151AJF 26204.48530955  .00002149  00000-0  10144-2 0  9998
2 66789  98.8301 211.3182 0048532 217.6533 142.1242 14.20247124170487
CZ-6A DEB
1 66789U 22151AJF 26204.97846039  .00002290  00000-0  10795-2 0  9994
2 66789  98.8301 211.8105 0048585 216.1888 143.5998 14.20249877170550
CZ-6A DEB
1 66789U 22151AJF 26205.47160936  .00002476  00000-0  11655-2 0  9997
2 66789  98.8301 212.3029 0048660 214.6980 145.1019 14.20253293170628
CZ-6A DEB
1 66789U 22151AJF 26206.45790718  .00002521  00000-0  11860-2 0  9992
2 66789  98.8301 213.2878 0048744 211.7973 148.0258 14.20257903170767
CZ-6A DEB
1 66789U 22151AJF 26206.95105417  .00002567  00000-0  12070-2 0  9997
2 66789  98.8301 213.7800 0048790 210.3409 149.4942 14.20260631170832
CZ-6A DEB
1 66789U 22151AJF 26208.99408344  .00002730  00000-0  12821-2 0  9994
2 66789  98.8297 215.8200 0049077 204.2155 155.6714 14.20271607171126
CZ-6A DEB
1 66789U 22151AJF 26209.48722613  .00002560  00000-0  12035-2 0  9995
2 66789  98.8297 216.3124 0049157 202.7472 157.1526 14.20273679171197
CZ-6A DEB
1 66789U 22151AJF 26209.98036784  .00002533  00000-0  11906-2 0  9993
2 66789  98.8297 216.8047 0049227 201.2942 158.6186 14.20276189171265
CZ-6A DEB
1 66789U 22151AJF 26209.98036784  .00002533  00000-0  11906-2 0  9993
2 66789  98.8297 216.8047 0049227 201.2942 158.6186 14.20276189171265
CZ-6A DEB
1 66789U 22151AJF 26210.96664899  .00002560  00000-0  12031-2 0  9997
2 66789  98.8296 217.7894 0049361 198.3748 161.5647 14.20281336171404
CZ-6A DEB
1 66789U 22151AJF 26211.24844293  .00002543  00000-0  11951-2 0  9998
2 66789  98.8297 218.0708 0049431 197.5089 162.4385 14.20282708171447
CZ-6A DEB
1 66789U 22151AJF 26211.45978822  .00002562  00000-0  12041-2 0  9999
2 66789  98.8298 218.2820 0049443 196.8941 163.0591 14.20283913171475
CZ-6A DEB
1 66789U 22151AJF 26213.78457590  .00002618  00000-0  12291-2 0  9990
2 66789  98.8304 220.6036 0049872 189.9937 170.0252 14.20295944171809
CZ-6A DEB
1 66789U 22151AJF 26213.99591922  .00002393  00000-0  11253-2 0  9998
2 66789  98.8304 220.8146 0049901 189.3912 170.6336 14.20296431171837
CZ-6A DEB
1 66789U 22151AJF 26213.99591923  .00002393  00000-0  11253-2 0  9999
2 66789  98.8304 220.8146 0049901 189.3912 170.6336 14.20296431171837
CZ-6A DEB
1 66789U 22151AJF 26214.48905360  .00002272  00000-0  10693-2 0  9991
2 66789  98.8305 221.3069 0049967 187.9547 172.0842 14.20298418171901
CZ-6A DEB
1 66789U 22151AJF 26215.47531952  .00002394  00000-0  11254-2 0  9992
2 66789  98.8307 222.2917 0050121 185.0985 174.9687 14.20303550172042
CZ-6A DEB
1 66789U 22151AJF 26215.96845155  .00002214  00000-0  10422-2 0  9996
2 66789  98.8308 222.7841 0050183 183.6640 176.4175 14.20305196172119
CZ-6A DEB
1 66789U 22151AJF 26216.74337139  .00002268  00000-0  10669-2 0  9993
2 66789  98.8306 223.5577 0050316 181.4119 178.6924 14.20308946172221
CZ-6A DEB
1 66789U 22151AJF 26217.44784292  .00001922  00000-0  90719-3 0  9998
2 66789  98.8309 224.2613 0050423 179.3789 180.7458 14.20310953172329
CZ-6A DEB
1 66789U 22151AJF 26218.99767531  .00001561  00000-0  74074-3 0  9991
2 66789  98.8310 225.8089 0050662 174.9516 185.2182 14.20316159172541
CZ-6A DEB
1 66789U 22151AJF 26219.98392977  .00001465  00000-0  69615-3 0  9997
2 66789  98.8308 226.7936 0050792 172.1304 188.0681 14.20319185172680
CZ-6A DEB
1 66789U 22151AJF 26219.98392977  .00001465  00000-0  69615-3 0  9997
2 66789  98.8308 226.7936 0050792 172.1303 188.0681 14.20319185172689
CZ-6A DEB
1 66789U 22151AJF 26219.98392977  .00001465  00000-0  69615-3 0  9997
2 66789  98.8308 226.7936 0050792 172.1304 188.0681 14.20319185172680
CZ-6A DEB
1 66789U 22151AJF 26220.97018205  .00001576  00000-0  74729-3 0  9992
2 66789  98.8308 227.7786 0050946 169.3158 190.9113 14.20322561172820
CZ-6A DEB
1 66789U 22151AJF 26220.97018206  .00001576  00000-0  74729-3 0  9993
2 66789  98.8308 227.7786 0050946 169.3158 190.9113 14.20322561172820
CZ-6A DEB
1 66789U 22151AJF 26221.95643201  .00001609  00000-0  76240-3 0  9998
2 66789  98.8307 228.7635 0051091 166.5054 193.7502 14.20325730172968
CZ-6A DEB
1 66789U 22151AJF 26222.44955566  .00001630  00000-0  77188-3 0  9999
2 66789  98.8305 229.2560 0051282 165.0936 195.1765 14.20327567173030
CZ-6A DEB
1 66789U 22151AJF 26222.44955567  .00001630  00000-0  77188-3 0  9990
2 66789  98.8305 229.2560 0051282 165.0936 195.1765 14.20327567173030
CZ-6A DEB
1 66789U 22151AJF 26224.49249306  .00001384  00000-0  65830-3 0  9991
2 66789  98.8311 231.2962 0051524 159.3556 200.9717 14.20332789173325
CZ-6A DEB
1 66789U 22151AJF 26224.49249306  .00001384  00000-0  65830-3 0  9991
2 66789  98.8311 231.2962 0051524 159.3556 200.9717 14.20332790173327
CZ-6A DEB
1 66789U 22151AJF 26224.98561461  .00001380  00000-0  65651-3 0  9991
2 66789  98.8312 231.7887 0051574 157.9681 202.3728 14.20334227173399
CZ-6A DEB
1 66789U 22151AJF 26225.97185600  .00001472  00000-0  69873-3 0  9990
2 66789  98.8314 232.7737 0051714 155.1797 205.1883 14.20337679173533
CZ-6A DEB
1 66789U 22151AJF 26225.97185600  .00001472  00000-0  69873-3 0  9990
2 66789  98.8314 232.7737 0051714 155.1797 205.1883 14.20337679173533
CZ-6A DEB
1 66789U 22151AJF 26226.46497551  .00001516  00000-0  71902-3 0  9991
2 66789  98.8314 233.2662 0051798 153.7989 206.5825 14.20339521173602
CZ-6A DEB
1 66789U 22151AJF 26226.46497552  .00001516  00000-0  71902-3 0  9992
2 66789  98.8314 233.2662 0051798 153.7989 206.5825 14.20339521173602
CZ-6A DEB
1 66789U 22151AJF 26229.21234716  .00001784  00000-0  84206-3 0  9997
2 66789  98.8316 236.0100 0052159 146.1185 214.3341 14.20349263173994
CZ-6A DEB
1 66789U 22151AJF 26229.49412768  .00001723  00000-0  81396-3 0  9992
2 66789  98.8316 236.2914 0052196 145.3368 215.1229 14.20349870174038
CZ-6A DEB
1 66789U 22151AJF 26229.98724294  .00001909  00000-0  89967-3 0  9994
2 66789  98.8316 236.7839 0052239 143.9560 216.5157 14.20352533174108
CZ-6A DEB
1 66789U 22151AJF 26230.48035724  .00002112  00000-0  99314-3 0  9998
2 66789  98.8317 237.2764 0052309 142.5889 217.8947 14.20355411174175
CZ-6A DEB
1 66789U 22151AJF 26230.97347116  .00002172  00000-0  10204-2 0  9999
2 66789  98.8317 237.7689 0052397 141.2161 219.2794 14.20357485174249
CZ-6A DEB
1 66789U 22151AJF 26230.97347116  .00002172  00000-0  10204-2 0  9999
2 66789  98.8317 237.7689 0052397 141.2161 219.2794 14.20357485174249
CZ-6A DEB
1 66789U 22151AJF 26232.45280745  .00002298  00000-0  10785-2 0  9991
2 66789  98.8318 239.2463 0052552 137.1232 223.4060 14.20364050174455
CZ-6A DEB
1 66789U 22151AJF 26233.50947211  .00002309  00000-0  10834-2 0  9994
2 66789  98.8321 240.3019 0052640 134.1807 226.3713 14.20368493174601
CZ-6A DEB
1 66789U 22151AJF 26234.49568818  .00002341  00000-0  10978-2 0  9990
2 66789  98.8321 241.2868 0052715 131.4549 229.1172 14.20373133174741
CZ-6A DEB
1 66789U 22151AJF 26234.49568819  .00002341  00000-0  10978-2 0  9991
2 66789  98.8321 241.2868 0052715 131.4549 229.1172 14.20373133174741
CZ-6A DEB
1 66789U 22151AJF 26234.98879500  .00002343  00000-0  10989-2 0  9991
2 66789  98.8321 241.7793 0052759 130.0933 230.4886 14.20375408174815
CZ-6A DEB
1 66789U 22151AJF 26235.97500593  .00002312  00000-0  10845-2 0  9991
2 66789  98.8322 242.7643 0052848 127.3908 233.2097 14.20379883174952
CZ-6A DEB
1 66789U 22151AJF 26236.46811005  .00002330  00000-0  10924-2 0  9997
2 66789  98.8318 243.2567 0052969 126.0866 234.5232 14.20382455175024
CZ-6A DEB
1 66789U 22151AJF 26236.46811005  .00002330  00000-0  10924-2 0  9997
2 66789  98.8318 243.2567 0052969 126.0866 234.5232 14.20382455175024
CZ-6A DEB
1 66789U 22151AJF 26236.96121335  .00002369  00000-0  11104-2 0  9995
2 66789  98.8318 243.7493 0053020 124.7345 235.8840 14.20384808175093
CZ-6A DEB
1 66789U 22151AJF 26239.49715902  .00002795  00000-0  13060-2 0  9991
2 66789  98.8314 246.2823 0053185 117.8120 242.8461 14.20398267175451
CZ-6A DEB
1 66789U 22151AJF 26239.49715902  .00002795  00000-0  13060-2 0  9991
2 66789  98.8314 246.2823 0053185 117.8120 242.8461 14.20398267175451
CZ-6A DEB
1 66789U 22151AJF 26239.99025668  .00002818  00000-0  13164-2 0  9990
2 66789  98.8314 246.7748 0053219 116.4698 244.1951 14.20400812175522
CZ-6A DEB
1 66789U 22151AJF 26239.99025668  .00002818  00000-0  13164-2 0  9990
2 66789  98.8314 246.7748 0053219 116.4698 244.1951 14.20400812175522
CZ-6A DEB
1 66789U 22151AJF 26240.48335411  .00002479  00000-0  11604-2 0  9996
2 66789  98.8313 247.2673 0053232 115.1222 245.5490 14.20401920175599
CZ-6A DEB
1 66789U 22151AJF 26240.48335412  .00002479  00000-0  11604-2 0  9997
2 66789  98.8313 247.2673 0053232 115.1222 245.5490 14.20401920175599
CZ-6A DEB
1 66789U 22151AJF 26240.97644998  .00002604  00000-0  12176-2 0  9998
2 66789  98.8313 247.7598 0053263 113.7831 246.8943 14.20404755175668
CZ-6A DEB
1 66789U 22151AJF 26240.97644998  .00002604  00000-0  12176-2 0  9998
2 66789  98.8313 247.7598 0053263 113.7831 246.8943 14.20404755175668
CZ-6A DEB
1 66789U 22151AJF 26241.46954515  .00002649  00000-0  12384-2 0  9992
2 66789  98.8314 248.2523 0053300 112.4367 248.2467 14.20407261175735
CZ-6A DEB
1 66789U 22151AJF 26241.46954516  .00002649  00000-0  12384-2 0  9993
2 66789  98.8314 248.2523 0053300 112.4367 248.2467 14.20407261175735
CZ-6A DEB
1 66789U 22151AJF 26241.96263916  .00002566  00000-0  12002-2 0  9990
2 66789  98.8314 248.7447 0053323 111.1216 249.5672 14.20409480175804
CZ-6A DEB
1 66789U 22151AJF 26241.96263916  .00002566  00000-0  12002-2 0  9990
2 66789  98.8314 248.7447 0053323 111.1215 249.5672 14.20409480175803
CZ-6A DEB
1 66789U 22151AJF 26242.94882475  .00002361  00000-0  11060-2 0  9992
2 66789  98.8315 249.7296 0053376 108.4259 252.2730 14.20413788175949
CZ-6A DEB
1 66789U 22151AJF 26242.94882475  .00002361  00000-0  11060-2 0  9992
2 66789  98.8315 249.7296 0053376 108.4259 252.2730 14.20413788175949
CZ-6A DEB
1 66789U 22151AJF 26243.44191617  .00002324  00000-0  10889-2 0  9996
2 66789  98.8318 250.2223 0053386 107.0608 253.6426 14.20416242176017
CZ-6A DEB
1 66789U 22151AJF 26243.44191617  .00002324  00000-0  10889-2 0  9996
2 66789  98.8318 250.2223 0053386 107.0608 253.6426 14.20416242176017
CZ-6A DEB
1 66789U 22151AJF 26244.49853753  .00002020  00000-0  94915-3 0  9994
2 66789  98.8319 251.2776 0053401 104.1758 256.5359 14.20420761176168
CZ-6A DEB
1 66789U 22151AJF 26244.49853754  .00002020  00000-0  94915-3 0  9995
2 66789  98.8319 251.2776 0053401 104.1758 256.5359 14.20420762176169
