TBA - TO BE ASSIGNED
1 66790U 22151AJG 26190.49155554  .00000976  00000-0  49929-3 0  9993
2 66790  98.8180 196.4381 0039274 224.6691 135.1318 14.17478427170196
CZ-6A DEB
1 66790U 22151AJG 26191.47978080  .00000884  00000-0  45421-3 0  9990
2 66790  98.8180 197.4189 0039362 221.6878 138.1295 14.17480244170338
CZ-6A DEB
1 66790U 22151AJG 26191.47978080  .00000884  00000-0  45421-3 0  9990
2 66790  98.8180 197.4189 0039362 221.6878 138.1295 14.17480244170338
CZ-6A DEB
1 66790U 22151AJG 26193.45622850  .00000783  00000-0  40507-3 0  9999
2 66790  98.8180 199.3804 0039518 215.8045 144.0479 14.17483631170611
CZ-6A DEB
1 66790U 22151AJG 26193.45622850  .00000783  00000-0  40507-3 0  9999
2 66790  98.8180 199.3804 0039518 215.8045 144.0479 14.17483631170611
CZ-6A DEB
1 66790U 22151AJG 26193.95033981  .00000789  00000-0  40787-3 0  9991
2 66790  98.8182 199.8710 0039556 214.3424 145.5193 14.17484534170680
CZ-6A DEB
1 66790U 22151AJG 26193.95033982  .00000789  00000-0  40787-3 0  9992
2 66790  98.8182 199.8710 0039556 214.3424 145.5193 14.17484534170680
CZ-6A DEB
1 66790U 22151AJG 26194.44445095  .00000780  00000-0  40328-3 0  9991
2 66790  98.8182 200.3615 0039603 212.8318 147.0396 14.17485349170755
CZ-6A DEB
1 66790U 22151AJG 26194.44445096  .00000780  00000-0  40328-3 0  9992
2 66790  98.8182 200.3615 0039603 212.8318 147.0396 14.17485349170755
CZ-6A DEB
1 66790U 22151AJG 26195.50325949  .00000758  00000-0  39243-3 0  9993
2 66790  98.8181 201.4122 0039721 209.6198 150.2727 14.17487060170903
CZ-6A DEB
1 66790U 22151AJG 26195.99737017  .00000747  00000-0  38706-3 0  9990
2 66790  98.8181 201.9026 0039742 208.1500 151.7526 14.17487718170975
CZ-6A DEB
1 66790U 22151AJG 26195.99737018  .00000747  00000-0  38706-3 0  9991
2 66790  98.8181 201.9026 0039742 208.1500 151.7526 14.17487718170975
CZ-6A DEB
1 66790U 22151AJG 26196.98559034  .00000731  00000-0  37937-3 0  9999
2 66790  98.8182 202.8835 0039833 205.2365 154.6864 14.17489182171113
CZ-6A DEB
1 66790U 22151AJG 26196.98559034  .00000731  00000-0  37937-3 0  9999
2 66790  98.8182 202.8835 0039833 205.2365 154.6864 14.17489182171113
CZ-6A DEB
1 66790U 22151AJG 26197.47970000  .00000725  00000-0  37647-3 0  9995
2 66790  98.8181 203.3738 0039848 203.7750 156.1585 14.17489982171189
CZ-6A DEB
1 66790U 22151AJG 26197.47970001  .00000725  00000-0  37647-3 0  9996
2 66790  98.8181 203.3739 0039848 203.7750 156.1585 14.17489982171180
CZ-6A DEB
1 66790U 22151AJG 26197.97380921  .00000736  00000-0  38182-3 0  9994
2 66790  98.8181 203.8643 0039901 202.3330 157.6109 14.17490875171257
CZ-6A DEB
1 66790U 22151AJG 26197.97380922  .00000736  00000-0  38182-3 0  9995
2 66790  98.8181 203.8643 0039901 202.3330 157.6109 14.17490875171257
CZ-6A DEB
1 66790U 22151AJG 26198.46791831  .00000708  00000-0  36799-3 0  9996
2 66790  98.8182 204.3547 0039948 200.8743 159.0803 14.17491555171320
CZ-6A DEB
1 66790U 22151AJG 26198.46791832  .00000708  00000-0  36799-3 0  9997
2 66790  98.8182 204.3547 0039948 200.8743 159.0803 14.17491555171320
CZ-6A DEB
1 66790U 22151AJG 26198.96202711  .00000722  00000-0  37498-3 0  9998
2 66790  98.8182 204.8452 0039998 199.4310 160.5342 14.17492440171394
CZ-6A DEB
1 66790U 22151AJG 26199.45613557  .00000715  00000-0  37127-3 0  9998
2 66790  98.8182 205.3357 0040065 197.9711 162.0049 14.17493256171464
CZ-6A DEB
1 66790U 22151AJG 26201.99726130  .00000873  00000-0  44850-3 0  9999
2 66790  98.8184 207.8579 0040319 190.6013 169.4316 14.17498100171827
CZ-6A DEB
1 66790U 22151AJG 26202.49136768  .00000987  00000-0  50434-3 0  9998
2 66790  98.8186 208.3484 0040437 189.0711 170.9738 14.17499684171898
CZ-6A DEB
1 66790U 22151AJG 26202.98547391  .00001139  00000-0  57849-3 0  9997
2 66790  98.8186 208.8389 0040459 187.6810 172.3750 14.17501414171968
CZ-6A DEB
1 66790U 22151AJG 26203.47957976  .00001052  00000-0  53588-3 0  9996
2 66790  98.8187 209.3293 0040504 186.2557 173.8118 14.17501944172034
CZ-6A DEB
1 66790U 22151AJG 26203.97368510  .00001148  00000-0  58310-3 0  9995
2 66790  98.8187 209.8198 0040547 184.8423 175.2365 14.17503500172104
CZ-6A DEB
1 66790U 22151AJG 26204.46778995  .00001180  00000-0  59864-3 0  9993
2 66790  98.8188 210.3103 0040627 183.3923 176.6982 14.17504796172171
CZ-6A DEB
1 66790U 22151AJG 26204.46778996  .00001180  00000-0  59864-3 0  9994
2 66790  98.8188 210.3103 0040627 183.3923 176.6982 14.17504796172171
CZ-6A DEB
1 66790U 22151AJG 26204.96189442  .00001256  00000-0  63581-3 0  9996
2 66790  98.8188 210.8008 0040680 181.9804 178.1216 14.17506333172245
CZ-6A DEB
1 66790U 22151AJG 26205.45599759  .00001355  00000-0  68389-3 0  9998
2 66790  98.8189 211.2913 0040736 180.5664 179.5472 14.17508311172312
CZ-6A DEB
1 66790U 22151AJG 26206.44420420  .00001391  00000-0  70152-3 0  9997
2 66790  98.8190 212.2723 0040844 177.7289 182.4079 14.17510953172451
CZ-6A DEB
1 66790U 22151AJG 26207.99709541  .00001481  00000-0  74556-3 0  9994
2 66790  98.8190 213.8137 0040991 173.2899 186.8833 14.17515770172670
CZ-6A DEB
1 66790U 22151AJG 26209.97349479  .00001409  00000-0  71011-3 0  9997
2 66790  98.8191 215.7757 0041213 167.6456 192.5739 14.17521278172954
CZ-6A DEB
1 66790U 22151AJG 26209.97349480  .00001409  00000-0  71011-3 0  9999
2 66790  98.8191 215.7757 0041213 167.6456 192.5739 14.17521278172954
CZ-6A DEB
1 66790U 22151AJG 26209.97349480  .00001409  00000-0  71011-3 0  9999
2 66790  98.8191 215.7757 0041213 167.6456 192.5739 14.17521278172954
CZ-6A DEB
1 66790U 22151AJG 26210.96169117  .00001408  00000-0  70940-3 0  9996
2 66790  98.8191 216.7567 0041326 164.8571 195.3852 14.17524294173090
CZ-6A DEB
1 66790U 22151AJG 26211.45578860  .00001409  00000-0  71000-3 0  9999
2 66790  98.8192 217.2472 0041397 163.4546 196.7990 14.17525815173163
CZ-6A DEB
1 66790U 22151AJG 26213.99685337  .00001334  00000-0  67308-3 0  9991
2 66790  98.8194 219.7698 0041676 156.3102 204.0004 14.17532786173525
CZ-6A DEB
1 66790U 22151AJG 26213.99685337  .00001334  00000-0  67308-3 0  9991
2 66790  98.8194 219.7698 0041676 156.3101 204.0004 14.17532786173524
CZ-6A DEB
1 66790U 22151AJG 26214.49094816  .00001316  00000-0  66406-3 0  9991
2 66790  98.8193 220.2601 0041718 154.9000 205.4214 14.17533995173591
CZ-6A DEB
1 66790U 22151AJG 26215.47913527  .00001328  00000-0  67006-3 0  9999
2 66790  98.8193 221.2411 0041839 152.1357 208.2071 14.17536939173739
CZ-6A DEB
1 66790U 22151AJG 26217.94959619  .00001015  00000-0  51721-3 0  9995
2 66790  98.8195 223.6937 0042081 145.2748 215.1187 14.17541785174086
CZ-6A DEB
1 66790U 22151AJG 26220.98472088  .00000901  00000-0  46155-3 0  9991
2 66790  98.8198 226.7069 0042396 136.8844 223.5664 14.17547886174510
CZ-6A DEB
1 66790U 22151AJG 26220.98472089  .00000901  00000-0  46155-3 0  9992
2 66790  98.8198 226.7069 0042396 136.8844 223.5664 14.17547886174510
CZ-6A DEB
1 66790U 22151AJG 26220.98472089  .00000901  00000-0  46155-3 0  9992
2 66790  98.8198 226.7069 0042396 136.8844 223.5664 14.17547886174510
CZ-6A DEB
1 66790U 22151AJG 26221.97289813  .00000856  00000-0  43917-3 0  9995
2 66790  98.8198 227.6880 0042496 134.1733 226.2947 14.17549621174658
CZ-6A DEB
1 66790U 22151AJG 26222.46698625  .00000860  00000-0  44112-3 0  9998
2 66790  98.8199 228.1786 0042532 132.8127 227.6636 14.17550611174722
CZ-6A DEB
1 66790U 22151AJG 26222.46698625  .00000860  00000-0  44112-3 0  9998
2 66790  98.8199 228.1785 0042532 132.8127 227.6636 14.17550611174721
CZ-6A DEB
1 66790U 22151AJG 26223.45516150  .00000823  00000-0  42298-3 0  9992
2 66790  98.8200 229.1597 0042628 130.1094 230.3829 14.17552239174864
CZ-6A DEB
1 66790U 22151AJG 26223.94924855  .00000822  00000-0  42241-3 0  9998
2 66790  98.8201 229.6503 0042666 128.7521 231.7479 14.17553139174931
CZ-6A DEB
1 66790U 22151AJG 26223.94924856  .00000822  00000-0  42241-3 0  9999
2 66790  98.8201 229.6503 0042666 128.7521 231.7479 14.17553139174931
CZ-6A DEB
1 66790U 22151AJG 26224.44333559  .00000763  00000-0  39372-3 0  9994
2 66790  98.8201 230.1408 0042705 127.3991 233.1084 14.17553638175003
CZ-6A DEB
1 66790U 22151AJG 26224.44333560  .00000763  00000-0  39372-3 0  9996
2 66790  98.8201 230.1408 0042705 127.3991 233.1084 14.17553638175003
CZ-6A DEB
1 66790U 22151AJG 26225.50209205  .00000795  00000-0  40924-3 0  9992
2 66790  98.8203 231.1921 0042761 124.4854 236.0371 14.17555607175159
CZ-6A DEB
1 66790U 22151AJG 26225.50209205  .00000795  00000-0  40924-3 0  9992
2 66790  98.8203 231.1921 0042761 124.4854 236.0371 14.17555607175159
CZ-6A DEB
1 66790U 22151AJG 26226.98434847  .00000870  00000-0  44588-3 0  9991
2 66790  98.8203 232.6638 0042863 120.4177 240.1244 14.17558501175361
CZ-6A DEB
1 66790U 22151AJG 26226.98434848  .00000870  00000-0  44588-3 0  9992
2 66790  98.8203 232.6638 0042863 120.4177 240.1244 14.17558501175361
CZ-6A DEB
1 66790U 22151AJG 26228.46660154  .00000913  00000-0  46709-3 0  9993
2 66790  98.8203 234.1355 0042942 116.3516 244.2077 14.17561376175579
CZ-6A DEB
1 66790U 22151AJG 26229.45476831  .00001001  00000-0  50991-3 0  9997
2 66790  98.8204 235.1166 0042985 113.6568 246.9127 14.17563646175718
CZ-6A DEB
1 66790U 22151AJG 26230.44293290  .00001225  00000-0  61897-3 0  9999
2 66790  98.8205 236.0977 0043027 110.9608 249.6179 14.17566856175850
CZ-6A DEB
1 66790U 22151AJG 26231.50167920  .00001247  00000-0  62969-3 0  9992
2 66790  98.8207 237.1491 0043083 108.0856 252.5019 14.17569088176004
CZ-6A DEB
1 66790U 22151AJG 26232.56042268  .00001276  00000-0  64375-3 0  9991
2 66790  98.8204 238.1998 0043065 105.0939 255.5007 14.17571714176158
CZ-6A DEB
1 66790U 22151AJG 26232.98391918  .00001360  00000-0  68486-3 0  9997
2 66790  98.8204 238.6203 0043073 103.9274 256.6697 14.17573265176217
CZ-6A DEB
1 66790U 22151AJG 26233.97207681  .00001360  00000-0  68478-3 0  9991
2 66790  98.8205 239.6014 0043096 101.2538 259.3485 14.17575748176356
CZ-6A DEB
1 66790U 22151AJG 26235.45430902  .00001314  00000-0  66211-3 0  9992
2 66790  98.8206 241.0731 0043123  97.2107 263.3973 14.17579545176566
CZ-6A DEB
1 66790U 22151AJG 26236.44246088  .00001329  00000-0  66944-3 0  9991
2 66790  98.8207 242.0543 0043137  94.5170 266.0934 14.17582419176701
CZ-6A DEB
1 66790U 22151AJG 26236.44246089  .00001329  00000-0  66944-3 0  9992
2 66790  98.8207 242.0543 0043137  94.5170 266.0935 14.17582419176702
CZ-6A DEB
1 66790U 22151AJG 26239.97155734  .00001548  00000-0  77620-3 0  9995
2 66790  98.8206 245.5583 0043137  84.9007 275.7089 14.17593475177202
CZ-6A DEB
1 66790U 22151AJG 26239.97155734  .00001548  00000-0  77620-3 0  9995
2 66790  98.8206 245.5583 0043137  84.9007 275.7089 14.17593475177202
CZ-6A DEB
1 66790U 22151AJG 26240.46562926  .00001440  00000-0  72354-3 0  9996
2 66790  98.8207 246.0488 0043134  83.5713 277.0371 14.17594128177271
CZ-6A DEB
1 66790U 22151AJG 26240.46562927  .00001440  00000-0  72354-3 0  9997
2 66790  98.8207 246.0488 0043134  83.5713 277.0371 14.17594128177271
CZ-6A DEB
1 66790U 22151AJG 26242.30074648  .00001340  00000-0  67479-3 0  9991
2 66790  98.8208 247.8709 0043096  78.4784 282.1225 14.17598842177536
CZ-6A DEB
1 66790U 22151AJG 26242.30074649  .00001340  00000-0  67479-3 0  9992
2 66790  98.8208 247.8709 0043096  78.4784 282.1225 14.17598842177536
CZ-6A DEB
1 66790U 22151AJG 26242.30074649  .00001340  00000-0  67479-3 0  9992
2 66790  98.8208 247.8709 0043096  78.4784 282.1225 14.17598842177536
CZ-6A DEB
1 66790U 22151AJG 26243.99469411  .00001225  00000-0  61859-3 0  9991
2 66790  98.8211 249.5530 0043045  73.6094 286.9806 14.17603076177775
CZ-6A DEB
1 66790U 22151AJG 26243.99469411  .00001225  00000-0  61859-3 0  9991
2 66790  98.8211 249.5530 0043045  73.6094 286.9806 14.17603076177775
CZ-6A DEB
1 66790U 22151AJG 26244.48876110  .00001223  00000-0  61759-3 0  9991
2 66790  98.8213 250.0442 0043028  72.3238 288.2628 14.17604404177844
CZ-6A DEB
1 66790U 22151AJG 26244.48876111  .00001223  00000-0  61759-3 0  9992
2 66790  98.8213 250.0442 0043028  72.3238 288.2628 14.17604404177844
