CZ-8A R/B
1 67245U 25311K   26006.97741997 -.00000035  00000-0  62363-4 0  9996
2 67245  50.0047 346.2786 0088963 123.8139 237.1278 14.12608480  1701
CZ-8A R/B
1 67245U 25311K   26007.18964876 -.00000040  00000-0  59894-4 0  9994
2 67245  50.0057 345.4021 0088970 124.5633 236.3711 14.12608596  1734
CZ-8A R/B
1 67245U 25311K   26007.96782064 -.00000076  00000-0  41327-4 0  9998
2 67245  50.0058 342.1854 0088966 127.1956 233.7114 14.12608878  1848
CZ-8A R/B
1 67245U 25311K   26008.32153484 -.00000085  00000-0  36367-4 0  9995
2 67245  50.0057 340.7229 0089008 128.4367 232.4572 14.12608996  1895
CZ-8A R/B
1 67245U 25311K   26008.60450623 -.00000102  00000-0  27777-4 0  9996
2 67245  50.0056 339.5532 0089011 129.4094 231.4737 14.12609026  1931
CZ-8A R/B
1 67245U 25311K   26009.17044908 -.00000082  00000-0  38176-4 0  9996
2 67245  50.0039 337.2141 0088957 131.2640 229.5973 14.12609259  2017
CZ-8A R/B
1 67245U 25311K   26009.59490587 -.00000099  00000-0  29209-4 0  9995
2 67245  50.0040 335.4597 0088956 132.7133 228.1308 14.12609385  2079
CZ-8A R/B
1 67245U 25311K   26010.93901866 -.00000172  00000-0 -83799-5 0  9990
2 67245  50.0040 329.9040 0088951 137.3067 223.4797 14.12609405  2266
CZ-8A R/B
1 67245U 25311K   26011.29273241 -.00000178  00000-0 -11405-4 0  9999
2 67245  50.0040 328.4420 0088946 138.5116 222.2589 14.12609441  2316
CZ-8A R/B
1 67245U 25311K   26011.57570334 -.00000191  00000-0 -18567-4 0  9994
2 67245  50.0041 327.2724 0088945 139.4828 221.2746 14.12609423  2358
CZ-8A R/B
1 67245U 25311K   26011.92941701 -.00000198  00000-0 -21833-4 0  9990
2 67245  50.0040 325.8104 0088949 140.6944 220.0465 14.12609424  2402
CZ-8A R/B
1 67245U 25311K   26012.28313066 -.00000207  00000-0 -26445-4 0  9992
2 67245  50.0040 324.3484 0088952 141.9014 218.8228 14.12609390  2452
CZ-8A R/B
1 67245U 25311K   26012.56610149 -.00000214  00000-0 -30384-4 0  9990
2 67245  50.0040 323.1788 0088950 142.8693 217.8412 14.12609376  2499
CZ-8A R/B
1 67245U 25311K   26013.27352887 -.00000238  00000-0 -42679-4 0  9997
2 67245  50.0040 320.2549 0088951 145.2891 215.3865 14.12609138  2592
CZ-8A R/B
1 67245U 25311K   26013.62724241 -.00000242  00000-0 -44775-4 0  9997
2 67245  50.0040 318.7929 0088947 146.5014 214.1563 14.12609074  2649
CZ-8A R/B
1 67245U 25311K   26013.98095628 -.00000262  00000-0 -55210-4 0  9994
2 67245  50.0040 317.3308 0088957 147.6920 212.9479 14.12608828  2697
CZ-8A R/B
1 67245U 25311K   26014.19318463 -.00000266  00000-0 -57107-4 0  9994
2 67245  50.0040 316.4536 0088960 148.4146 212.2143 14.12608688  2722
CZ-8A R/B
1 67245U 25311K   26014.61764199 -.00000180  00000-0 -12954-4 0  9998
2 67245  50.0054 314.6992 0088950 149.8799 210.7266 14.12609007  2782
CZ-8A R/B
1 67245U 25311K   26014.97135572 -.00000206  00000-0 -26110-4 0  9992
2 67245  50.0054 313.2372 0088956 151.0807 209.5072 14.12608819  2837
CZ-8A R/B
1 67245U 25311K   26015.60804008 -.00000219  00000-0 -33074-4 0  9991
2 67245  50.0054 310.6056 0088955 153.2495 207.3041 14.12608664  2923
CZ-8A R/B
1 67245U 25311K   26015.96175358 -.00000245  00000-0 -46575-4 0  9998
2 67245  50.0053 309.1439 0088959 154.4663 206.0679 14.12608484  2972
CZ-8A R/B
1 67245U 25311K   26016.31546705 -.00000261  00000-0 -54828-4 0  9994
2 67245  50.0053 307.6817 0088962 155.6629 204.8518 14.12608336  3025
CZ-8A R/B
1 67245U 25311K   26016.59843779 -.00000243  00000-0 -45596-4 0  9997
2 67245  50.0053 306.5121 0088964 156.6408 203.8580 14.12608409  3062
CZ-8A R/B
1 67245U 25311K   26016.95215100 -.00000216  00000-0 -31224-4 0  9991
2 67245  50.0053 305.0500 0088966 157.8565 202.6222 14.12608451  3119
CZ-8A R/B
1 67245U 25311K   26017.30586422 -.00000145  00000-0  52034-5 0  9992
2 67245  50.0052 303.5881 0088961 159.0543 201.4045 14.12608718  3169
CZ-8A R/B
1 67245U 25311K   26017.65957780 -.00000093  00000-0  32047-4 0  9992
2 67245  50.0036 302.1261 0088977 160.2698 200.1687 14.12608200  3210
CZ-8A R/B
1 67245U 25311K   26017.94254836 -.00000015  00000-0  72523-4 0  9993
2 67245  50.0036 300.9565 0088979 161.2274 199.1950 14.12608536  3252
CZ-8A R/B
1 67245U 25311K   26018.50848952  .00000014  00000-0  87644-4 0  9992
2 67245  50.0035 298.6173 0088969 163.1694 197.2199 14.12608693  3332
CZ-8A R/B
1 67245U 25311K   26018.93294541  .00000008  00000-0  84465-4 0  9999
2 67245  50.0034 296.8629 0088980 164.6228 195.7415 14.12608661  3394
CZ-8A R/B
1 67245U 25311K   26019.21591620  .00000002  00000-0  81109-4 0  9995
2 67245  50.0034 295.6931 0088989 165.5584 194.7898 14.12608588  3438
CZ-8A R/B
1 67245U 25311K   26019.49888668  .00000005  00000-0  82508-4 0  9993
2 67245  50.0034 294.5235 0088986 166.5271 193.8042 14.12608636  3473
CZ-8A R/B
1 67245U 25311K   26020.98448282 -.00000135  00000-0  10140-4 0  9991
2 67245  50.0047 288.3824 0089026 171.6385 188.6030 14.12606801  3685
CZ-8A R/B
1 67245U 25311K   26022.25785025 -.00000138  00000-0  84917-5 0  9999
2 67245  50.0047 283.1193 0088903 175.9540 184.2106 14.12607501  3864
CZ-8A R/B
1 67245U 25311K   26022.96527633  .00000160  00000-0  16295-3 0  9992
2 67245  50.0030 280.1958 0088973 178.3968 181.7242 14.12608667  3968
CZ-8A R/B
1 67245U 25311K   26023.67270170  .00000118  00000-0  14114-3 0  9993
2 67245  50.0029 277.2718 0088967 180.8244 179.2531 14.12609057  4064
CZ-8A R/B
1 67245U 25311K   26023.95567185  .00000118  00000-0  14118-3 0  9993
2 67245  50.0028 276.1022 0088982 181.7794 178.2809 14.12609291  4108
CZ-8A R/B
1 67245U 25311K   26024.16789942  .00000103  00000-0  13300-3 0  9990
2 67245  50.0027 275.2250 0088980 182.5023 177.5451 14.12609377  4135
CZ-8A R/B
1 67245U 25311K   26024.80458220  .00000008  00000-0  84257-4 0  9997
2 67245  50.0026 272.5933 0088992 184.6754 175.3331 14.12609327  4227
CZ-8A R/B
1 67245U 25311K   26025.08755227  .00000007  00000-0  83660-4 0  9991
2 67245  50.0026 271.4237 0088993 185.6355 174.3559 14.12609497  4264
CZ-8A R/B
1 67245U 25311K   26025.37052230 -.00000018  00000-0  70556-4 0  9990
2 67245  50.0025 270.2541 0088985 186.6079 173.3662 14.12609555  4307
CZ-8A R/B
1 67245U 25311K   26025.79497907 -.00000041  00000-0  58919-4 0  9995
2 67245  50.0023 268.5001 0088869 188.0680 171.8803 14.12607798  4364
CZ-8A R/B
1 67245U 25311K   26026.14869213 -.00000361  00000-0 -10704-3 0  9993
2 67245  50.0022 267.0379 0088892 189.2656 170.6615 14.12607412  4414
CZ-8A R/B
1 67245U 25311K   26026.64389128 -.00000302  00000-0 -76257-4 0  9991
2 67245  50.0040 264.9905 0088943 190.9726 168.9243 14.12607049  4489
CZ-8A R/B
1 67245U 25311K   26027.13908888 -.00000191  00000-0 -18975-4 0  9995
2 67245  50.0021 262.9443 0088936 192.6580 167.2094 14.12607500  4558
CZ-8A R/B
1 67245U 25311K   26027.63428725 -.00000145  00000-0  47249-5 0  9992
2 67245  50.0020 260.8973 0088944 194.3547 165.4831 14.12607665  4622
CZ-8A R/B
1 67245U 25311K   26027.91725775 -.00000118  00000-0  18976-4 0  9992
2 67245  50.0019 259.7276 0088936 195.3210 164.5001 14.12607766  4667
CZ-8A R/B
1 67245U 25311K   26028.97839711 -.00000039  00000-0  59402-4 0  9996
2 67245  50.0016 255.3414 0088918 198.9578 160.8012 14.12608325  4816
CZ-8A R/B
1 67245U 25311K   26030.11027943 -.00000043  00000-0  57431-4 0  9996
2 67245  50.0015 250.6626 0088932 202.8224 156.8720 14.12608527  4979
CZ-8A R/B
1 67245U 25311K   26030.95919161 -.00000066  00000-0  45820-4 0  9994
2 67245  50.0014 247.1536 0088935 205.7110 153.9363 14.12608462  5091
CZ-8A R/B
1 67245U 25311K   26031.10067698 -.00000064  00000-0  46887-4 0  9993
2 67245  50.0014 246.5688 0088934 206.1967 153.4427 14.12608481  5116
CZ-8A R/B
1 67245U 25311K   26031.94958975 -.00000102  00000-0  27130-4 0  9995
2 67245  50.0014 243.0598 0088935 209.1042 150.4892 14.12608209  5230
CZ-8A R/B
1 67245U 25311K   26032.09107517 -.00000105  00000-0  25633-4 0  9999
2 67245  50.0014 242.4750 0088945 209.5927 149.9931 14.12608210  5251
CZ-8A R/B
1 67245U 25311K   26032.93998816 -.00000117  00000-0  19036-4 0  9995
2 67245  50.0014 238.9661 0088949 212.4912 147.0502 14.12608106  5373
CZ-8A R/B
1 67245U 25311K   26033.15221636 -.00000115  00000-0  20117-4 0  9999
2 67245  50.0014 238.0888 0088947 213.2151 146.3155 14.12608141  5406
CZ-8A R/B
1 67245U 25311K   26033.64741563 -.00000097  00000-0  29775-4 0  9997
2 67245  50.0014 236.0418 0088958 214.9093 144.5960 14.12608200  5475
CZ-8A R/B
1 67245U 25311K   26034.07187207 -.00000036  00000-0  61025-4 0  9991
2 67245  50.0015 234.2876 0088968 216.3670 143.1172 14.12608489  5538
CZ-8A R/B
1 67245U 25311K   26034.63781394  .00000024  00000-0  92180-4 0  9992
2 67245  50.0014 231.9482 0088983 218.3006 141.1561 14.12608882  5612
CZ-8A R/B
1 67245U 25311K   26035.13301289  .00000094  00000-0  12803-3 0  9999
2 67245  50.0014 229.9013 0089012 219.9784 139.4548 14.12609415  5688
CZ-8A R/B
1 67245U 25311K   26036.26489676  .00000193  00000-0  17956-3 0  9995
2 67245  50.0013 225.2225 0088962 223.8672 135.5147 14.12610327  5848
CZ-8A R/B
1 67245U 25311K   26036.68935309  .00000216  00000-0  19155-3 0  9999
2 67245  50.0013 223.4679 0088965 225.3177 134.0458 14.12610721  5905
CZ-8A R/B
1 67245U 25311K   26036.97232406  .00000189  00000-0  17741-3 0  9997
2 67245  50.0013 222.2982 0088970 226.2828 133.0687 14.12610722  5946
CZ-8A R/B
1 67245U 25311K   26037.25529503  .00000172  00000-0  16848-3 0  9995
2 67245  50.0012 221.1285 0088976 227.2492 132.0904 14.12610807  5982
CZ-8A R/B
1 67245U 25311K   26037.60900874  .00000167  00000-0  16607-3 0  9995
2 67245  50.0012 219.6664 0088979 228.4596 130.8655 14.12611001  6039
CZ-8A R/B
1 67245U 25311K   26037.96272252  .00000154  00000-0  15934-3 0  9994
2 67245  50.0013 218.2043 0088967 229.6694 129.6417 14.12611145  6081
CZ-8A R/B
1 67245U 25311K   26038.31643619  .00000139  00000-0  15168-3 0  9995
2 67245  50.0013 216.7422 0088971 230.8815 128.4158 14.12611309  6136
CZ-8A R/B
1 67245U 25311K   26038.59940720  .00000118  00000-0  14071-3 0  9997
2 67245  50.0013 215.5725 0088974 231.8502 127.4364 14.12611395  6173
CZ-8A R/B
1 67245U 25311K   26038.95312101  .00000094  00000-0  12828-3 0  9994
2 67245  50.0014 214.1105 0088971 233.0612 126.2122 14.12611479  6222
CZ-8A R/B
1 67245U 25311K   26039.23609200  .00000081  00000-0  12164-3 0  9994
2 67245  50.0014 212.9408 0088973 234.0314 125.2318 14.12611615  6268
CZ-8A R/B
1 67245U 25311K   26039.58980577  .00000061  00000-0  11116-3 0  9995
2 67245  50.0014 211.4786 0088985 235.2402 124.0105 14.12611749  6310
CZ-8A R/B
1 67245U 25311K   26039.94351953  .00000045  00000-0  10291-3 0  9990
2 67245  50.0015 210.0165 0088996 236.4463 122.7923 14.12611911  6368
CZ-8A R/B
1 67245U 25311K   26040.29723333  .00000049  00000-0  10489-3 0  9998
2 67245  50.0016 208.5545 0088993 237.6621 121.5647 14.12612168  6410
CZ-8A R/B
1 67245U 25311K   26040.58020443  .00000035  00000-0  97561-4 0  9994
2 67245  50.0016 207.3848 0088995 238.6281 120.5897 14.12612270  6452
CZ-8A R/B
1 67245U 25311K   26040.93391833  .00000023  00000-0  91349-4 0  9992
2 67245  50.0016 205.9228 0088989 239.8424 119.3645 14.12612421  6504
CZ-8A R/B
1 67245U 25311K   26041.21688947  .00000008  00000-0  83463-4 0  9990
2 67245  50.0017 204.7531 0088992 240.8135 118.3848 14.12612521  6543
CZ-8A R/B
1 67245U 25311K   26041.57060346 -.00000006  00000-0  76244-4 0  9994
2 67245  50.0017 203.2910 0088988 242.0245 117.1636 14.12612654  6593
CZ-8A R/B
1 67245U 25311K   26041.92431747 -.00000015  00000-0  71878-4 0  9998
2 67245  50.0018 201.8290 0088991 243.2349 115.9433 14.12612816  6648
CZ-8A R/B
1 67245U 25311K   26042.20728869 -.00000026  00000-0  66155-4 0  9998
2 67245  50.0019 200.6594 0089000 244.2109 114.9596 14.12612937  6687
CZ-8A R/B
1 67245U 25311K   26042.63174575 -.00000054  00000-0  51596-4 0  9998
2 67245  50.0019 198.9050 0088987 245.6638 113.4959 14.12612980  6740
CZ-8A R/B
1 67245U 25311K   26042.91471717 -.00000065  00000-0  46109-4 0  9993
2 67245  50.0019 197.7354 0089002 246.6326 112.5201 14.12613040  6780
CZ-8A R/B
1 67245U 25311K   26043.26843147 -.00000081  00000-0  37714-4 0  9992
2 67245  50.0020 196.2734 0089004 247.8475 111.2968 14.12613106  6833
CZ-8A R/B
1 67245U 25311K   26043.62214595 -.00000109  00000-0  23314-4 0  9993
2 67245  50.0021 194.8113 0088990 249.0554 110.0813 14.12613067  6881
CZ-8A R/B
1 67245U 25311K   26043.90511758 -.00000124  00000-0  15232-4 0  9992
2 67245  50.0020 193.6418 0089000 250.0265 109.1041 14.12613054  6922
CZ-8A R/B
1 67245U 25311K   26044.89551875 -.00000158  00000-0 -22498-5 0  9996
2 67245  50.0022 189.5481 0089005 253.4167 105.6951 14.12613037  7069
CZ-8A R/B
1 67245U 25311K   26045.03700470 -.00000162  00000-0 -43143-5 0  9995
2 67245  50.0022 188.9634 0088991 253.8963 105.2133 14.12613040  7087
CZ-8A R/B
1 67245U 25311K   26045.95666379 -.00000165  00000-0 -59146-5 0  9998
2 67245  50.0023 185.1622 0088987 257.0472 102.0487 14.12613028  7218
CZ-8A R/B
1 67245U 25311K   26046.87632344 -.00000118  00000-0  18794-4 0  9995
2 67245  50.0023 181.3609 0088989 260.1926  98.8925 14.12613220  7349
CZ-8A R/B
1 67245U 25311K   26047.01780959 -.00000113  00000-0  21114-4 0  9993
2 67245  50.0024 180.7761 0088984 260.6783  98.4054 14.12613245  7361
CZ-8A R/B
1 67245U 25311K   26047.58375429 -.00000094  00000-0  30918-4 0  9997
2 67245  50.0024 178.4369 0089012 262.6113  96.4673 14.12613304  7441
CZ-8A R/B
1 67245U 25311K   26048.29118555 -.00000043  00000-0  57450-4 0  9995
2 67245  50.0024 175.5127 0088998 265.0289  94.0455 14.12613516  7542
CZ-8A R/B
1 67245U 25311K   26048.57415809 -.00000041  00000-0  58530-4 0  9996
2 67245  50.0025 174.3431 0089006 265.9830  93.0900 14.12613517  7589
CZ-8A R/B
1 67245U 25311K   26048.92787389 -.00000013  00000-0  73037-4 0  9998
2 67245  50.0025 172.8810 0088999 267.1967  91.8752 14.12613658  7631
CZ-8A R/B
1 67245U 25311K   26049.28158974  .00000012  00000-0  85603-4 0  9990
2 67245  50.0025 171.4190 0089002 268.4006  90.6706 14.12613779  7686
CZ-8A R/B
1 67245U 25311K   26049.63530565  .00000032  00000-0  95904-4 0  9996
2 67245  50.0025 169.9570 0088997 269.6032  89.4678 14.12613893  7731
CZ-8A R/B
1 67245U 25311K   26050.27199448  .00000056  00000-0  10851-3 0  9992
2 67245  50.0025 167.3252 0089016 271.7892  87.2822 14.12614074  7820
CZ-8A R/B
1 67245U 25311K   26050.55496732  .00000068  00000-0  11452-3 0  9990
2 67245  50.0026 166.1556 0089015 272.7559  86.3163 14.12614185  7860
CZ-8A R/B
1 67245U 25311K   26050.83794022  .00000080  00000-0  12080-3 0  9996
2 67245  50.0026 164.9860 0089023 273.7344  85.3388 14.12614290  7906
CZ-8A R/B
1 67245U 25311K   26051.26239959  .00000088  00000-0  12512-3 0  9995
2 67245  50.0026 163.2315 0089019 275.1767  83.8987 14.12614425  7967
CZ-8A R/B
1 67245U 25311K   26051.89908870  .00000105  00000-0  13378-3 0  9990
2 67245  50.0027 160.5999 0089026 277.3598  81.7200 14.12614729  8053
CZ-8A R/B
1 67245U 25311K   26052.25280492  .00000112  00000-0  13769-3 0  9996
2 67245  50.0027 159.1378 0089031 278.5690  80.5138 14.12614895  8107
CZ-8A R/B
1 67245U 25311K   26052.60652117  .00000108  00000-0  13550-3 0  9995
2 67245  50.0028 157.6758 0089036 279.7778  79.3085 14.12615025  8156
CZ-8A R/B
1 67245U 25311K   26052.96023741  .00000111  00000-0  13683-3 0  9990
2 67245  50.0028 156.2138 0089047 280.9904  78.0998 14.12615213  8204
CZ-8A R/B
1 67245U 25311K   26053.87989987  .00000096  00000-0  12912-3 0  9990
2 67245  50.0029 152.4126 0089042 284.1376  74.9650 14.12615652  8335
CZ-8A R/B
1 67245U 25311K   26054.30435952  .00000082  00000-0  12221-3 0  9995
2 67245  50.0029 150.6582 0089040 285.5871  73.5223 14.12615833  8392
CZ-8A R/B
1 67245U 25311K   26054.58733265  .00000069  00000-0  11551-3 0  9993
2 67245  50.0029 149.4886 0089040 286.5548  72.5595 14.12615934  8435
CZ-8A R/B
1 67245U 25311K   26054.94104909  .00000044  00000-0  10220-3 0  9995
2 67245  50.0029 148.0267 0089040 287.7679  71.3528 14.12616053  8482
CZ-8A R/B
1 67245U 25311K   26055.22402231  .00000035  00000-0  97740-4 0  9999
2 67245  50.0029 146.8571 0089041 288.7358  70.3904 14.12616161  8524
CZ-8A R/B
1 67245U 25311K   26055.57773884  .00000013  00000-0  86152-4 0  9993
2 67245  50.0029 145.3951 0089040 289.9472  69.1862 14.12616263  8576
CZ-8A R/B
1 67245U 25311K   26055.86071207 -.00000013  00000-0  72959-4 0  9996
2 67245  50.0029 144.2255 0089045 290.9202  68.2193 14.12616325  8610
CZ-8A R/B
1 67245U 25311K   26056.14368537 -.00000030  00000-0  64241-4 0  9997
2 67245  50.0029 143.0559 0089050 291.8891  67.2567 14.12616393  8657
CZ-8A R/B
1 67245U 25311K   26056.28517202 -.00000034  00000-0  62135-4 0  9991
2 67245  50.0029 142.4711 0089046 292.3718  66.7773 14.12616461  8670
CZ-8A R/B
1 67245U 25311K   26056.49740203 -.00000047  00000-0  55420-4 0  9996
2 67245  50.0029 141.5939 0089046 293.0987  66.0555 14.12616509  8706
CZ-8A R/B
1 67245U 25311K   26056.49740203 -.00000047  00000-0  55420-4 0  9996
2 67245  50.0029 141.5939 0089046 293.0987  66.0555 14.12616509  8706
CZ-8A R/B
1 67245U 25311K   26057.20483552 -.00000092  00000-0  31955-4 0  9994
2 67245  50.0028 138.6699 0089053 295.5224  63.6496 14.12616643  8801
CZ-8A R/B
1 67245U 25311K   26057.20483552 -.00000092  00000-0  31955-4 0  9994
2 67245  50.0028 138.6699 0089053 295.5224  63.6496 14.12616643  8801
CZ-8A R/B
1 67245U 25311K   26057.48780896 -.00000102  00000-0  26852-4 0  9997
2 67245  50.0028 137.5003 0089056 296.4890  62.6905 14.12616730  8845
CZ-8A R/B
1 67245U 25311K   26057.48780897 -.00000102  00000-0  26852-4 0  9998
2 67245  50.0028 137.5003 0089056 296.4890  62.6905 14.12616730  8845
CZ-8A R/B
1 67245U 25311K   26058.19524281 -.00000132  00000-0  11374-4 0  9996
2 67245  50.0027 134.5762 0089063 298.9130  60.2866 14.12616861  8941
CZ-8A R/B
1 67245U 25311K   26058.19524282 -.00000132  00000-0  11374-4 0  9997
2 67245  50.0027 134.5762 0089063 298.9130  60.2866 14.12616861  8941
CZ-8A R/B
1 67245U 25311K   26058.61970332 -.00000148  00000-0  32086-5 0  9996
2 67245  50.0027 132.8218 0089068 300.3670  58.8455 14.12616909  9008
CZ-8A R/B
1 67245U 25311K   26058.90267703 -.00000164  00000-0 -49785-5 0  9992
2 67245  50.0026 131.6521 0089077 301.3317  57.8896 14.12616901  9044
CZ-8A R/B
1 67245U 25311K   26058.90267703 -.00000164  00000-0 -49785-5 0  9992
2 67245  50.0026 131.6521 0089077 301.3317  57.8896 14.12616901  9044
CZ-8A R/B
1 67245U 25311K   26059.25639432 -.00000174  00000-0 -99961-5 0  9995
2 67245  50.0026 130.1899 0089069 302.5384  56.6943 14.12616895  9091
CZ-8A R/B
1 67245U 25311K   26059.46862479 -.00000184  00000-0 -15230-4 0  9994
2 67245  50.0026 129.3128 0089083 303.2678  55.9719 14.12616842  9125
CZ-8A R/B
1 67245U 25311K   26059.46862480 -.00000184  00000-0 -15230-4 0  9996
2 67245  50.0026 129.3128 0089083 303.2678  55.9719 14.12616842  9125
CZ-8A R/B
1 67245U 25311K   26060.17605971 -.00000192  00000-0 -19606-4 0  9996
2 67245  50.0025 126.3886 0089092 305.6893  53.5747 14.12616831  9221
CZ-8A R/B
1 67245U 25311K   26060.17605972 -.00000192  00000-0 -19606-4 0  9997
2 67245  50.0025 126.3886 0089092 305.6893  53.5747 14.12616831  9221
CZ-8A R/B
1 67245U 25311K   26060.38829027 -.00000190  00000-0 -18290-4 0  9995
2 67245  50.0025 125.5114 0089091 306.4130  52.8587 14.12616838  9252
CZ-8A R/B
1 67245U 25311K   26060.52977736 -.00000191  00000-0 -19034-4 0  9990
2 67245  50.0025 124.9266 0089094 306.8987  52.3781 14.12616810  9273
CZ-8A R/B
1 67245U 25311K   26060.88349510 -.00000197  00000-0 -22213-4 0  9991
2 67245  50.0025 123.4645 0089090 308.1084  51.1816 14.12616753  9325
CZ-8A R/B
1 67245U 25311K   26061.16646934 -.00000193  00000-0 -20136-4 0  9991
2 67245  50.0024 122.2948 0089090 309.0737  50.2270 14.12616727  9361
CZ-8A R/B
1 67245U 25311K   26061.44944370 -.00000185  00000-0 -15547-4 0  9998
2 67245  50.0024 121.1252 0089087 310.0450  49.2668 14.12616719  9402
CZ-8A R/B
1 67245U 25311K   26061.52018727 -.00000180  00000-0 -13272-4 0  9993
2 67245  50.0024 120.8328 0089087 310.2893  49.0253 14.12616734  9411
CZ-8A R/B
1 67245U 25311K   26061.52018728 -.00000180  00000-0 -13272-4 0  9994
2 67245  50.0024 120.8328 0089087 310.2893  49.0253 14.12616734  9411
CZ-8A R/B
1 67245U 25311K   26062.15687961 -.00000166  00000-0 -59881-5 0  9996
2 67245  50.0024 118.2010 0089102 312.4636  46.8765 14.12616700  9503
CZ-8A R/B
1 67245U 25311K   26062.36911049 -.00000155  00000-0 -35202-7 0  9997
2 67245  50.0024 117.3237 0089107 313.1884  46.1604 14.12616709  9539
CZ-8A R/B
1 67245U 25311K   26062.36911049 -.00000155  00000-0 -35202-7 0  9997
2 67245  50.0024 117.3237 0089107 313.1884  46.1604 14.12616709  9539
CZ-8A R/B
1 67245U 25311K   26063.14729049 -.00000114  00000-0  20792-4 0  9990
2 67245  50.0024 114.1071 0089112 315.8513  43.5307 14.12616777  9642
CZ-8A R/B
1 67245U 25311K   26063.50100852 -.00000074  00000-0  41441-4 0  9994
2 67245  50.0024 112.6451 0089091 317.0652  42.3326 14.12617005  9699
CZ-8A R/B
1 67245U 25311K   26063.57175218 -.00000077  00000-0  40346-4 0  9995
2 67245  50.0024 112.3527 0089091 317.3077  42.0933 14.12616982  9700
CZ-8A R/B
1 67245U 25311K   26063.57175219 -.00000077  00000-0  40346-4 0  9996
2 67245  50.0024 112.3527 0089091 317.3077  42.0933 14.12616982  9700
CZ-8A R/B
1 67245U 25311K   26064.13770148 -.00000055  00000-0  51454-4 0  9999
2 67245  50.0024 110.0133 0089085 319.2394  40.1873 14.12617045  9785
CZ-8A R/B
1 67245U 25311K   26064.13770149 -.00000055  00000-0  51454-4 0  9990
2 67245  50.0024 110.0133 0089085 319.2394  40.1873 14.12617045  9785
CZ-8A R/B
1 67245U 25311K   26064.56216369 -.00000024  00000-0  67325-4 0  9996
2 67245  50.0024 108.2589 0089116 320.6927  38.7534 14.12617124  9844
CZ-8A R/B
1 67245U 25311K   26064.56216370 -.00000024  00000-0  67325-4 0  9998
2 67245  50.0024 108.2589 0089116 320.6928  38.7534 14.12617124  9845
CZ-8A R/B
1 67245U 25311K   26065.05736948 -.00000016  00000-0  71932-4 0  9991
2 67245  50.0025 106.2121 0089098 322.3854  37.0845 14.12617177  9915
CZ-8A R/B
1 67245U 25311K   26065.48183185  .00000010  00000-0  85365-4 0  9995
2 67245  50.0024 104.4574 0089122 323.8395  35.6509 14.12617238  9975
CZ-8A R/B
1 67245U 25311K   26066.11852517  .00000025  00000-0  92805-4 0  9991
2 67245  50.0023 101.8256 0089126 326.0166  33.5054 14.12617366 10063
CZ-8A R/B
1 67245U 25311K   26066.26001259  .00000044  00000-0  10300-3 0  9996
2 67245  50.0023 101.2408 0089125 326.5001  33.0290 14.12617490 10085
CZ-8A R/B
1 67245U 25311K   26066.47224375  .00000054  00000-0  10793-3 0  9992
2 67245  50.0023 100.3635 0089135 327.2287  32.3112 14.12617545 10112
CZ-8A R/B
1 67245U 25311K   26066.54298749  .00000053  00000-0  10752-3 0  9990
2 67245  50.0023 100.0711 0089138 327.4711  32.0724 14.12617547 10120
CZ-8A R/B
1 67245U 25311K   26066.82596226  .00000063  00000-0  11265-3 0  9993
2 67245  50.0024  98.9015 0089129 328.4384  31.1197 14.12617686 10162
CZ-8A R/B
1 67245U 25311K   26067.03819333  .00000072  00000-0  11737-3 0  9998
2 67245  50.0023  98.0242 0089133 329.1623  30.4067 14.12617785 10194
CZ-8A R/B
1 67245U 25311K   26067.10893701  .00000075  00000-0  11881-3 0  9990
2 67245  50.0023  97.7317 0089133 329.4039  30.1688 14.12617830 10206
CZ-8A R/B
1 67245U 25311K   26067.46265554  .00000086  00000-0  12435-3 0  9996
2 67245  50.0023  96.2696 0089136 330.6176  28.9738 14.12617975 10255
CZ-8A R/B
1 67245U 25311K   26067.46265555  .00000086  00000-0  12435-3 0  9997
2 67245  50.0023  96.2696 0089136 330.6176  28.9738 14.12617975 10255
CZ-8A R/B
1 67245U 25311K   26067.74563028  .00000093  00000-0  12787-3 0  9992
2 67245  50.0024  95.1000 0089148 331.5879  28.0185 14.12618147 10299
CZ-8A R/B
1 67245U 25311K   26068.31157989  .00000086  00000-0  12460-3 0  9991
2 67245  50.0024  92.7606 0089165 333.5272  26.1096 14.12618313 10376
CZ-8A R/B
1 67245U 25311K   26068.31157989  .00000086  00000-0  12460-3 0  9991
2 67245  50.0024  92.7606 0089165 333.5272  26.1096 14.12618313 10376
CZ-8A R/B
1 67245U 25311K   26069.01901676  .00000085  00000-0  12415-3 0  9998
2 67245  50.0024  89.8363 0089175 335.9474  23.7282 14.12618624 10470
CZ-8A R/B
1 67245U 25311K   26069.23124779  .00000082  00000-0  12228-3 0  9992
2 67245  50.0024  88.9590 0089180 336.6759  23.0116 14.12618726 10508
CZ-8A R/B
1 67245U 25311K   26069.23124780  .00000082  00000-0  12228-3 0  9994
2 67245  50.0024  88.9590 0089180 336.6759  23.0116 14.12618726 10508
CZ-8A R/B
1 67245U 25311K   26069.72645343  .00000082  00000-0  12235-3 0  9999
2 67245  50.0024  86.9121 0089191 338.3741  21.3411 14.12619034 10577
CZ-8A R/B
1 67245U 25311K   26069.72645343  .00000082  00000-0  12235-3 0  9999
2 67245  50.0024  86.9121 0089191 338.3742  21.3411 14.12619034 10578
CZ-8A R/B
1 67245U 25311K   26070.08017176  .00000068  00000-0  11552-3 0  9992
2 67245  50.0024  85.4499 0089182 339.5807  20.1545 14.12619164 10620
CZ-8A R/B
1 67245U 25311K   26070.22165912  .00000062  00000-0  11232-3 0  9999
2 67245  50.0024  84.8651 0089184 340.0660  19.6773 14.12619212 10641
CZ-8A R/B
1 67245U 25311K   26070.43389019  .00000055  00000-0  10860-3 0  9996
2 67245  50.0025  83.9879 0089195 340.7972  18.9583 14.12619284 10672
CZ-8A R/B
1 67245U 25311K   26070.43389019  .00000055  00000-0  10860-3 0  9996
2 67245  50.0025  83.9879 0089195 340.7972  18.9583 14.12619284 10672
CZ-8A R/B
1 67245U 25311K   26071.28281417  .00000027  00000-0  94122-4 0  9996
2 67245  50.0026  80.4787 0089194 343.7053  16.0992 14.12619645 10792
CZ-8A R/B
1 67245U 25311K   26071.28281417  .00000027  00000-0  94122-4 0  9996
2 67245  50.0026  80.4787 0089194 343.7053  16.0992 14.12619645 10792
CZ-8A R/B
1 67245U 25311K   26071.99025072 -.00000003  00000-0  78521-4 0  9997
2 67245  50.0027  77.5545 0089231 346.1340  13.7120 14.12619909 10891
CZ-8A R/B
1 67245U 25311K   26071.99025073 -.00000003  00000-0  78521-4 0  9998
2 67245  50.0027  77.5545 0089231 346.1340  13.7120 14.12619909 10891
CZ-8A R/B
1 67245U 25311K   26072.41471269 -.00000031  00000-0  63972-4 0  9993
2 67245  50.0029  75.8000 0089182 347.5832  12.2880 14.12620000 10954
CZ-8A R/B
1 67245U 25311K   26073.26363637 -.00000079  00000-0  39422-4 0  9991
2 67245  50.0031  72.2909 0089165 350.4853   9.4364 14.12620236 11073
CZ-8A R/B
1 67245U 25311K   26073.68809824 -.00000101  00000-0  27857-4 0  9995
2 67245  50.0032  70.5364 0089167 351.9355   8.0116 14.12620328 11134
CZ-8A R/B
1 67245U 25311K   26074.25404735 -.00000137  00000-0  95605-5 0  9997
2 67245  50.0032  68.1968 0089151 353.8740   6.1071 14.12620370 11214
CZ-8A R/B
1 67245U 25311K   26074.39553465 -.00000143  00000-0  63250-5 0  9995
2 67245  50.0032  67.6119 0089152 354.3616   5.6281 14.12620387 11232
CZ-8A R/B
1 67245U 25311K   26074.67850926 -.00000168  00000-0 -63964-5 0  9998
2 67245  50.0032  66.4422 0089154 355.3293   4.6775 14.12620354 11275
CZ-8A R/B
1 67245U 25311K   26075.24445854 -.00000174  00000-0 -98199-5 0  9997
2 67245  50.0032  64.1028 0089151 357.2675   2.7736 14.12620442 11357
CZ-8A R/B
1 67245U 25311K   26075.66892042 -.00000186  00000-0 -15826-4 0  9996
2 67245  50.0031  62.3481 0089168 358.7088   1.3578 14.12620488 11417
CZ-8A R/B
1 67245U 25311K   26075.95189509 -.00000190  00000-0 -18070-4 0  9994
2 67245  50.0031  61.1784 0089169 359.6760   0.4077 14.12620482 11450
CZ-8A R/B
1 67245U 25311K   26076.23486995 -.00000200  00000-0 -23166-4 0  9999
2 67245  50.0034  60.0089 0089161   0.6562 359.4449 14.12620419 11498
CZ-8A R/B
1 67245U 25311K   26076.65933190 -.00000196  00000-0 -20756-4 0  9995
2 67245  50.0033  58.2543 0089173   2.1029 358.0238 14.12620486 11551
CZ-8A R/B
1 67245U 25311K   26077.15453762 -.00000184  00000-0 -14498-4 0  9996
2 67245  50.0033  56.2073 0089171   3.7914 356.3652 14.12620544 11629
CZ-8A R/B
1 67245U 25311K   26077.15453762 -.00000184  00000-0 -14498-4 0  9996
2 67245  50.0033  56.2073 0089171   3.7914 356.3652 14.12620544 11629
CZ-8A R/B
1 67245U 25311K   26077.64974339 -.00000178  00000-0 -11706-4 0  9990
2 67245  50.0035  54.1604 0089172   5.4862 354.7003 14.12620543 11698
CZ-8A R/B
1 67245U 25311K   26077.93271823 -.00000173  00000-0 -91432-5 0  9990
2 67245  50.0034  52.9908 0089160   6.4661 353.7377 14.12620512 11739
CZ-8A R/B
1 67245U 25311K   26078.14494924 -.00000164  00000-0 -44678-5 0  9993
2 67245  50.0035  52.1136 0089157   7.1880 353.0285 14.12620550 11768
CZ-8A R/B
1 67245U 25311K   26078.64015509 -.00000151  00000-0  25771-5 0  9994
2 67245  50.0036  50.0666 0089163   8.8821 351.3641 14.12620535 11832
CZ-8A R/B
1 67245U 25311K   26078.92312984 -.00000132  00000-0  12200-4 0  9993
2 67245  50.0036  48.8969 0089157   9.8507 350.4124 14.12620584 11872
CZ-8A R/B
1 67245U 25311K   26079.20610468 -.00000122  00000-0  17460-4 0  9995
2 67245  50.0036  47.7273 0089155  10.8207 349.4593 14.12620565 11917
CZ-8A R/B
1 67245U 25311K   26079.27684839 -.00000115  00000-0  21163-4 0  9992
2 67245  50.0036  47.4349 0089161  11.0656 349.2187 14.12620581 11922
CZ-8A R/B
1 67245U 25311K   26079.34759212 -.00000118  00000-0  19604-4 0  9998
2 67245  50.0037  47.1424 0089175  11.3105 348.9781 14.12620543 11936
CZ-8A R/B
1 67245U 25311K   26079.34759213 -.00000118  00000-0  19604-4 0  9999
2 67245  50.0037  47.1424 0089175  11.3105 348.9781 14.12620543 11936
CZ-8A R/B
1 67245U 25311K   26079.84279787 -.00000091  00000-0  33395-4 0  9990
2 67245  50.0037  45.0954 0089176  13.0077 347.3103 14.12620618 12002
CZ-8A R/B
1 67245U 25311K   26079.84279788 -.00000091  00000-0  33395-4 0  9991
2 67245  50.0037  45.0954 0089176  13.0077 347.3103 14.12620618 12002
CZ-8A R/B
1 67245U 25311K   26080.19651626 -.00000069  00000-0  44569-4 0  9996
2 67245  50.0038  43.6334 0089182  14.2203 346.1187 14.12620691 12055
CZ-8A R/B
1 67245U 25311K   26081.18692742  .00000007  00000-0  83958-4 0  9996
2 67245  50.0041  39.5396 0089185  17.6111 342.7856 14.12621053 12192
CZ-8A R/B
1 67245U 25311K   26081.89436364  .00000049  00000-0  10562-3 0  9996
2 67245  50.0042  36.6153 0089178  20.0259 340.4114 14.12621318 12292
CZ-8A R/B
1 67245U 25311K   26082.10659443  .00000071  00000-0  11703-3 0  9999
2 67245  50.0043  35.7381 0089175  20.7514 339.6979 14.12621464 12329
CZ-8A R/B
1 67245U 25311K   26082.88477388  .00000098  00000-0  13138-3 0  9993
2 67245  50.0043  32.5215 0089177  23.4159 337.0773 14.12621760 12432
CZ-8A R/B
1 67245U 25311K   26083.16774812  .00000108  00000-0  13613-3 0  9997
2 67245  50.0044  31.3518 0089177  24.3854 336.1235 14.12621888 12476
CZ-8A R/B
1 67245U 25311K   26083.52146583  .00000114  00000-0  13952-3 0  9998
2 67245  50.0045  29.8898 0089189  25.5972 334.9313 14.12622059 12527
CZ-8A R/B
1 67245U 25311K   26083.87518342  .00000122  00000-0  14380-3 0  9997
2 67245  50.0045  28.4277 0089183  26.8072 333.7406 14.12622235 12573
CZ-8A R/B
1 67245U 25311K   26084.51187480  .00000127  00000-0  14617-3 0  9992
2 67245  50.0046  25.7960 0089189  28.9871 331.5950 14.12622584 12666
CZ-8A R/B
1 67245U 25311K   26084.93633557  .00000124  00000-0  14459-3 0  9990
2 67245  50.0046  24.0415 0089186  30.4412 330.1633 14.12622790 12728
CZ-8A R/B
1 67245U 25311K   26085.07782245  .00000123  00000-0  14417-3 0  9998
2 67245  50.0047  23.4567 0089186  30.9251 329.6868 14.12622861 12740
CZ-8A R/B
1 67245U 25311K   26085.07782246  .00000123  00000-0  14417-3 0  9999
2 67245  50.0047  23.4567 0089186  30.9251 329.6868 14.12622861 12740
CZ-8A R/B
1 67245U 25311K   26085.50228296  .00000115  00000-0  14011-3 0  9998
2 67245  50.0048  21.7023 0089197  32.3806 328.2533 14.12623106 12807
CZ-8A R/B
1 67245U 25311K   26085.78525655  .00000109  00000-0  13684-3 0  9995
2 67245  50.0048  20.5326 0089196  33.3489 327.2996 14.12623242 12844
CZ-8A R/B
1 67245U 25311K   26085.92674331  .00000111  00000-0  13780-3 0  9997
2 67245  50.0048  19.9478 0089194  33.8361 326.8195 14.12623363 12868
CZ-8A R/B
1 67245U 25311K   26086.06823007  .00000107  00000-0  13581-3 0  9993
2 67245  50.0048  19.3630 0089195  34.3198 326.3430 14.12623431 12882
CZ-8A R/B
1 67245U 25311K   26086.20971685  .00000098  00000-0  13152-3 0  9998
2 67245  50.0048  18.7782 0089198  34.8032 325.8667 14.12623475 12905
CZ-8A R/B
1 67245U 25311K   26086.49269026  .00000076  00000-0  12008-3 0  9993
2 67245  50.0049  17.6086 0089198  35.7684 324.9155 14.12623570 12946
CZ-8A R/B
1 67245U 25311K   26086.49269026  .00000076  00000-0  12008-3 0  9993
2 67245  50.0049  17.6086 0089198  35.7684 324.9155 14.12623570 12946
CZ-8A R/B
1 67245U 25311K   26087.05863697  .00000056  00000-0  10968-3 0  9991
2 67245  50.0049  15.2693 0089202  37.7089 323.0027 14.12623828 13025
CZ-8A R/B
1 67245U 25311K   26087.05863697  .00000056  00000-0  10968-3 0  9991
2 67245  50.0049  15.2693 0089202  37.7089 323.0027 14.12623828 13025
CZ-8A R/B
1 67245U 25311K   26087.48309677  .00000035  00000-0  98908-4 0  9999
2 67245  50.0050  13.5149 0089204  39.1572 321.5747 14.12624028 13080
CZ-8A R/B
1 67245U 25311K   26087.48309678  .00000035  00000-0  98908-4 0  9990
2 67245  50.0050  13.5149 0089204  39.1572 321.5747 14.12624028 13080
CZ-8A R/B
1 67245U 25311K   26088.04904298  .00000015  00000-0  88176-4 0  9996
2 67245  50.0049  11.1755 0089203  41.0982 319.6602 14.12624277 13164
CZ-8A R/B
1 67245U 25311K   26089.03944822 -.00000026  00000-0  67330-4 0  9995
2 67245  50.0049   7.0818 0089206  44.4855 316.3173 14.12624686 13304
CZ-8A R/B
1 67245U 25311K   26089.03944822 -.00000026  00000-0  67330-4 0  9995
2 67245  50.0049   7.0818 0089206  44.4855 316.3173 14.12624686 13304
CZ-8A R/B
1 67245U 25311K   26089.46390742 -.00000048  00000-0  56002-4 0  9996
2 67245  50.0049   5.3274 0089210  45.9366 314.8844 14.12624812 13364
CZ-8A R/B
1 67245U 25311K   26089.46390743 -.00000048  00000-0  56002-4 0  9997
2 67245  50.0049   5.3274 0089210  45.9366 314.8845 14.12624812 13365
CZ-8A R/B
1 67245U 25311K   26089.74688016 -.00000056  00000-0  51973-4 0  9992
2 67245  50.0048   4.1577 0089209  46.9058 313.9272 14.12624897 13406
CZ-8A R/B
1 67245U 25311K   26090.17133928 -.00000076  00000-0  41462-4 0  9992
2 67245  50.0049   2.4032 0089214  48.3662 312.4844 14.12624955 13467
CZ-8A R/B
1 67245U 25311K   26090.17133929 -.00000076  00000-0  41462-4 0  9993
2 67245  50.0049   2.4032 0089214  48.3662 312.4844 14.12624955 13467
CZ-8A R/B
1 67245U 25311K   26090.73728445 -.00000089  00000-0  34474-4 0  9997
2 67245  50.0048   0.0638 0089212  50.3021 310.5711 14.12625101 13547
CZ-8A R/B
1 67245U 25311K   26090.94951384 -.00000100  00000-0  28952-4 0  9998
2 67245  50.0048 359.1866 0089209  51.0277 309.8537 14.12625120 13576
CZ-8A R/B
1 67245U 25311K   26091.02025697 -.00000101  00000-0  28685-4 0  9991
2 67245  50.0048 358.8942 0089210  51.2738 309.6103 14.12625135 13587
CZ-8A R/B
1 67245U 25311K   26091.16174326 -.00000128  00000-0  14358-4 0  9991
2 67245  50.0048 358.3094 0089212  51.7560 309.1335 14.12625018 13605
CZ-8A R/B
1 67245U 25311K   26091.44471573 -.00000134  00000-0  11193-4 0  9997
2 67245  50.0050 357.1397 0089219  52.7362 308.1641 14.12625087 13648
CZ-8A R/B
1 67245U 25311K   26091.93991746 -.00000128  00000-0  14769-4 0  9995
2 67245  50.0050 355.0928 0089216  54.4355 306.4829 14.12625217 13715
CZ-8A R/B
1 67245U 25311K   26092.08140368 -.00000128  00000-0  14690-4 0  9991
2 67245  50.0050 354.5080 0089220  54.9220 306.0015 14.12625226 13734
CZ-8A R/B
1 67245U 25311K   26092.08140368 -.00000128  00000-0  14690-4 0  9991
2 67245  50.0050 354.5080 0089220  54.9220 306.0015 14.12625226 13734
CZ-8A R/B
1 67245U 25311K   26092.43511903 -.00000096  00000-0  30890-4 0  9991
2 67245  50.0050 353.0460 0089221  56.1281 304.8077 14.12625468 13789
CZ-8A R/B
1 67245U 25311K   26092.93032038 -.00000083  00000-0  37727-4 0  9995
2 67245  50.0050 350.9991 0089219  57.8287 303.1237 14.12625611 13853
CZ-8A R/B
1 67245U 25311K   26093.07180650 -.00000079  00000-0  39976-4 0  9998
2 67245  50.0050 350.4143 0089222  58.3143 302.6428 14.12625639 13876
CZ-8A R/B
1 67245U 25311K   26093.42552169 -.00000058  00000-0  50627-4 0  9998
2 67245  50.0050 348.9522 0089222  59.5256 301.4427 14.12625776 13921
CZ-8A R/B
1 67245U 25311K   26093.42552169 -.00000058  00000-0  50627-4 0  9998
2 67245  50.0050 348.9522 0089222  59.5256 301.4427 14.12625776 13921
CZ-8A R/B
1 67245U 25311K   26093.70849379 -.00000044  00000-0  57839-4 0  9998
2 67245  50.0049 347.7825 0089219  60.4989 300.4781 14.12625854 13965
CZ-8A R/B
1 67245U 25311K   26093.92072275 -.00000040  00000-0  59877-4 0  9995
2 67245  50.0049 346.9053 0089219  61.2278 299.7556 14.12625911 13996
CZ-8A R/B
1 67245U 25311K   26094.06220877 -.00000033  00000-0  63659-4 0  9999
2 67245  50.0049 346.3205 0089224  61.7127 299.2750 14.12625951 14012
CZ-8A R/B
1 67245U 25311K   26094.91112459 -.00000038  00000-0  61012-4 0  9995
2 67245  50.0049 342.8116 0089220  64.6227 296.3886 14.12625931 14132
CZ-8A R/B
1 67245U 25311K   26095.40632517 -.00000006  00000-0  77511-4 0  9998
2 67245  50.0047 340.7647 0089223  66.3156 294.7084 14.12626120 14200
CZ-8A R/B
1 67245U 25311K   26095.40632518 -.00000006  00000-0  77511-4 0  9999
2 67245  50.0047 340.7647 0089223  66.3156 294.7084 14.12626120 14200
CZ-8A R/B
1 67245U 25311K   26095.97226853  .00000009  00000-0  85583-4 0  9992
2 67245  50.0047 338.4254 0089223  68.2600 292.7777 14.12626224 14283
CZ-8A R/B
1 67245U 25311K   26096.04301143  .00000015  00000-0  88518-4 0  9995
2 67245  50.0046 338.1330 0089226  68.5011 292.5382 14.12626250 14296
CZ-8A R/B
1 67245U 25311K   26096.82118291  .00000043  00000-0  10306-3 0  9991
2 67245  50.0045 334.9165 0089222  71.1702 289.8858 14.12626510 14407
CZ-8A R/B
1 67245U 25311K   26097.03341137  .00000057  00000-0  11008-3 0  9997
2 67245  50.0045 334.0392 0089224  71.8959 289.1643 14.12626613 14435
CZ-8A R/B
1 67245U 25311K   26097.03341137  .00000057  00000-0  11008-3 0  9997
2 67245  50.0045 334.0392 0089224  71.8959 289.1643 14.12626613 14435
CZ-8A R/B
1 67245U 25311K   26097.95306760  .00000082  00000-0  12302-3 0  9997
2 67245  50.0044 330.2379 0089226  75.0507 286.0259 14.12626968 14560
CZ-8A R/B
1 67245U 25311K   26097.95306761  .00000082  00000-0  12302-3 0  9998
2 67245  50.0044 330.2379 0089226  75.0507 286.0259 14.12626968 14560
CZ-8A R/B
1 67245U 25311K   26098.37752401  .00000090  00000-0  12718-3 0  9991
2 67245  50.0043 328.4834 0089224  76.5007 284.5825 14.12627143 14628
CZ-8A R/B
1 67245U 25311K   26098.94346557  .00000097  00000-0  13092-3 0  9998
2 67245  50.0041 326.1440 0089222  78.4422 282.6486 14.12627373 14700
CZ-8A R/B
1 67245U 25311K   26098.94346557  .00000097  00000-0  13092-3 0  9998
2 67245  50.0041 326.1440 0089222  78.4422 282.6486 14.12627373 14700
CZ-8A R/B
1 67245U 25311K   26099.36792152  .00000117  00000-0  14104-3 0  9999
2 67245  50.0043 324.3896 0089217  79.8891 281.2068 14.12627659 14760
CZ-8A R/B
1 67245U 25311K   26099.86311985  .00000117  00000-0  14118-3 0  9990
2 67245  50.0042 322.3427 0089217  81.5867 279.5143 14.12627881 14839
CZ-8A R/B
1 67245U 25311K   26100.00460505  .00000118  00000-0  14176-3 0  9997
2 67245  50.0041 321.7579 0089220  82.0709 279.0314 14.12627948 14855
CZ-8A R/B
1 67245U 25311K   26100.28757532  .00000116  00000-0  14077-3 0  9994
2 67245  50.0041 320.5881 0089216  83.0395 278.0651 14.12628082 14892
CZ-8A R/B
1 67245U 25311K   26100.28757533  .00000116  00000-0  14077-3 0  9995
2 67245  50.0041 320.5882 0089216  83.0395 278.0651 14.12628082 14893
CZ-8A R/B
1 67245U 25311K   26100.85351571  .00000098  00000-0  13152-3 0  9992
2 67245  50.0040 318.2488 0089219  84.9799 276.1287 14.12628262 14972
CZ-8A R/B
1 67245U 25311K   26100.99500073  .00000096  00000-0  13007-3 0  9997
2 67245  50.0038 317.6639 0089226  85.4689 275.6405 14.12628317 14991
CZ-8A R/B
1 67245U 25311K   26101.27797071  .00000075  00000-0  11923-3 0  9997
2 67245  50.0038 316.4942 0089224  86.4367 274.6741 14.12628366 15039
CZ-8A R/B
1 67245U 25311K   26101.27797071  .00000075  00000-0  11923-3 0  9997
2 67245  50.0038 316.4942 0089224  86.4367 274.6741 14.12628366 15039
CZ-8A R/B
1 67245U 25311K   26101.84391042  .00000054  00000-0  10866-3 0  9990
2 67245  50.0037 314.1547 0089223  88.3773 272.7352 14.12628566 15113
CZ-8A R/B
1 67245U 25311K   26101.84391042  .00000054  00000-0  10866-3 0  9990
2 67245  50.0037 314.1547 0089223  88.3773 272.7352 14.12628566 15113
CZ-8A R/B
1 67245U 25311K   26102.26836497  .00000030  00000-0  96354-4 0  9996
2 67245  50.0036 312.4002 0089224  89.8280 271.2853 14.12628696 15179
CZ-8A R/B
1 67245U 25311K   26102.55133457  .00000018  00000-0  90201-4 0  9995
2 67245  50.0036 311.2304 0089221  90.7950 270.3182 14.12628775 15211
CZ-8A R/B
1 67245U 25311K   26102.62207694  .00000013  00000-0  87292-4 0  9999
2 67245  50.0035 310.9380 0089224  91.0410 270.0722 14.12628792 15225
CZ-8A R/B
1 67245U 25311K   26102.83430410  .00000000  00000-0  80898-4 0  9997
2 67245  50.0035 310.0607 0089226  91.7683 269.3447 14.12628840 15251
CZ-8A R/B
1 67245U 25311K   26102.83430410  .00000000  00000-0  80898-4 0  9997
2 67245  50.0035 310.0607 0089226  91.7683 269.3447 14.12628840 15251
CZ-8A R/B
1 67245U 25311K   26103.25875822 -.00000024  00000-0  68244-4 0  9992
2 67245  50.0035 308.3062 0089227  93.2197 267.8924 14.12628965 15312
CZ-8A R/B
1 67245U 25311K   26103.82469678 -.00000054  00000-0  52602-4 0  9997
2 67245  50.0034 305.9667 0089231  95.1667 265.9432 14.12629087 15390
CZ-8A R/B
1 67245U 25311K   26103.82469679 -.00000054  00000-0  52602-4 0  9998
2 67245  50.0034 305.9667 0089231  95.1667 265.9432 14.12629087 15390
CZ-8A R/B
1 67245U 25311K   26104.24915052 -.00000084  00000-0  37301-4 0  9998
2 67245  50.0033 304.2122 0089232  96.6181 264.4894 14.12629158 15457
CZ-8A R/B
1 67245U 25311K   26104.53211962 -.00000098  00000-0  29831-4 0  9993
2 67245  50.0032 303.0424 0089231  97.5870 263.5184 14.12629185 15498
CZ-8A R/B
1 67245U 25311K   26104.53211962 -.00000098  00000-0  29831-4 0  9993
2 67245  50.0032 303.0424 0089231  97.5870 263.5184 14.12629185 15498
CZ-8A R/B
1 67245U 25311K   26104.81508866 -.00000116  00000-0  20788-4 0  9999
2 67245  50.0034 301.8727 0089231  98.5574 262.5458 14.12629214 15535
CZ-8A R/B
1 67245U 25311K   26104.95657314 -.00000121  00000-0  17910-4 0  9996
2 67245  50.0032 301.2879 0089234  99.0389 262.0630 14.12629239 15554
CZ-8A R/B
1 67245U 25311K   26104.95657314 -.00000121  00000-0  17910-4 0  9996
2 67245  50.0032 301.2878 0089234  99.0389 262.0630 14.12629239 15553
CZ-8A R/B
1 67245U 25311K   26105.23954206 -.00000145  00000-0  59515-5 0  9992
2 67245  50.0032 300.1181 0089234 100.0104 261.0888 14.12629228 15592
CZ-8A R/B
1 67245U 25311K   26105.23954207 -.00000145  00000-0  59515-5 0  9993
2 67245  50.0032 300.1181 0089234 100.0104 261.0888 14.12629228 15592
CZ-8A R/B
1 67245U 25311K   26105.73473757 -.00000165  00000-0 -44166-5 0  9993
2 67245  50.0031 298.0711 0089239 101.7120 259.3818 14.12629263 15666
CZ-8A R/B
1 67245U 25311K   26105.73473758 -.00000165  00000-0 -44166-5 0  9994
2 67245  50.0031 298.0711 0089239 101.7120 259.3818 14.12629263 15666
CZ-8A R/B
1 67245U 25311K   26106.51290169 -.00000186  00000-0 -15304-4 0  9998
2 67245  50.0030 294.8544 0089239 104.3752 256.7082 14.12629295 15774
CZ-8A R/B
1 67245U 25311K   26106.79587036 -.00000193  00000-0 -19309-4 0  9997
2 67245  50.0030 293.6847 0089240 105.3415 255.7375 14.12629286 15815
CZ-8A R/B
1 67245U 25311K   26106.79587037 -.00000193  00000-0 -19309-4 0  9998
2 67245  50.0030 293.6847 0089240 105.3416 255.7375 14.12629286 15816
CZ-8A R/B
1 67245U 25311K   26107.92774466 -.00000198  00000-0 -21927-4 0  9992
2 67245  50.0027 289.0058 0089248 109.2201 251.8390 14.12629268 15979
CZ-8A R/B
1 67245U 25311K   26108.21071313 -.00000201  00000-0 -23171-4 0  9994
2 67245  50.0026 287.8361 0089253 110.1978 250.8556 14.12629237 16014
CZ-8A R/B
1 67245U 25311K   26108.77664990 -.00000189  00000-0 -17310-4 0  9997
2 67245  50.0025 285.4966 0089259 112.1426 248.8985 14.12629230 16098
CZ-8A R/B
1 67245U 25311K   26108.84739200 -.00000185  00000-0 -14933-4 0  9996
2 67245  50.0025 285.2042 0089259 112.3821 248.6575 14.12629238 16105
CZ-8A R/B
1 67245U 25311K   26109.20110237 -.00000176  00000-0 -10622-4 0  9991
2 67245  50.0025 283.7421 0089260 113.5969 247.4343 14.12629241 16156
CZ-8A R/B
1 67245U 25311K   26109.20110238 -.00000176  00000-0 -10622-4 0  9992
2 67245  50.0025 283.7421 0089260 113.5969 247.4343 14.12629241 16156
CZ-8A R/B
1 67245U 25311K   26109.83778095 -.00000152  00000-0  18683-5 0  9991
2 67245  50.0024 281.1102 0089266 115.7766 245.2386 14.12629241 16241
CZ-8A R/B
1 67245U 25311K   26109.83778095 -.00000152  00000-0  18683-5 0  9991
2 67245  50.0024 281.1102 0089266 115.7766 245.2386 14.12629242 16242
CZ-8A R/B
1 67245U 25311K   26110.19149116 -.00000142  00000-0  70812-5 0  9999
2 67245  50.0024 279.6480 0089265 116.9901 244.0156 14.12629234 16294
CZ-8A R/B
1 67245U 25311K   26110.19149116 -.00000142  00000-0  70812-5 0  9999
2 67245  50.0024 279.6480 0089265 116.9901 244.0156 14.12629234 16294
CZ-8A R/B
1 67245U 25311K   26110.47445927 -.00000129  00000-0  13753-4 0  9994
2 67245  50.0024 278.4782 0089268 117.9647 243.0330 14.12629241 16333
CZ-8A R/B
1 67245U 25311K   26110.47445928 -.00000129  00000-0  13753-4 0  9995
2 67245  50.0024 278.4783 0089268 117.9647 243.0331 14.12629241 16335
CZ-8A R/B
1 67245U 25311K   26110.89891131 -.00000099  00000-0  29348-4 0  9995
2 67245  50.0022 276.7236 0089273 119.4188 241.5668 14.12629320 16390
CZ-8A R/B
1 67245U 25311K   26111.81855693 -.00000047  00000-0  56347-4 0  9993
2 67245  50.0021 272.9219 0089272 122.5763 238.3804 14.12629485 16524
CZ-8A R/B
1 67245U 25311K   26111.81855694 -.00000047  00000-0  56347-4 0  9994
2 67245  50.0021 272.9219 0089272 122.5763 238.3804 14.12629485 16524
CZ-8A R/B
1 67245U 25311K   26112.80894374  .00000006  00000-0  83711-4 0  9991
2 67245  50.0020 268.8277 0089271 125.9743 234.9485 14.12629746 16667
CZ-8A R/B
1 67245U 25311K   26112.80894374  .00000006  00000-0  83711-4 0  9991
2 67245  50.0020 268.8278 0089271 125.9743 234.9485 14.12629746 16668
CZ-8A R/B
1 67245U 25311K   26113.65784600  .00000039  00000-0  10068-3 0  9995
2 67245  50.0020 265.3185 0089269 128.8918 231.9994 14.12630027 16789
CZ-8A R/B
1 67245U 25311K   26114.43600586  .00000068  00000-0  11545-3 0  9995
2 67245  50.0020 262.1017 0089264 131.5677 229.2927 14.12630345 16897
CZ-8A R/B
1 67245U 25311K   26114.64823116  .00000067  00000-0  11490-3 0  9992
2 67245  50.0020 261.2245 0089264 132.3017 228.5500 14.12630398 16928
CZ-8A R/B
1 67245U 25311K   26114.71897294  .00000075  00000-0  11925-3 0  9990
2 67245  50.0020 260.9320 0089264 132.5434 228.3054 14.12630462 16938
CZ-8A R/B
1 67245U 25311K   26115.14342337  .00000092  00000-0  12770-3 0  9999
2 67245  50.0021 259.1775 0089262 133.9928 226.8382 14.12630729 16993
CZ-8A R/B
1 67245U 25311K   26115.14342337  .00000092  00000-0  12770-3 0  9999
2 67245  50.0021 259.1776 0089262 133.9928 226.8382 14.12630729 16994
CZ-8A R/B
1 67245U 25311K   26115.42639027  .00000090  00000-0  12696-3 0  9990
2 67245  50.0022 258.0078 0089264 134.9645 225.8544 14.12630831 17036
CZ-8A R/B
1 67245U 25311K   26115.63861550  .00000081  00000-0  12217-3 0  9990
2 67245  50.0023 257.1306 0089265 135.6711 225.1389 14.12630868 17067
CZ-8A R/B
1 67245U 25311K   26115.63861550  .00000081  00000-0  12217-3 0  9990
2 67245  50.0023 257.1306 0089265 135.6711 225.1389 14.12630868 17067
CZ-8A R/B
1 67245U 25311K   26116.34603220  .00000091  00000-0  12741-3 0  9990
2 67245  50.0023 254.2064 0089258 138.0975 222.6809 14.12631263 17167
CZ-8A R/B
1 67245U 25311K   26116.62899878  .00000086  00000-0  12466-3 0  9995
2 67245  50.0024 253.0368 0089261 139.0684 221.6970 14.12631388 17205
CZ-8A R/B
1 67245U 25311K   26116.77048197  .00000085  00000-0  12435-3 0  9996
2 67245  50.0020 252.4517 0089266 139.5459 221.2130 14.12631454 17220
CZ-8A R/B
1 67245U 25311K   26116.77048197  .00000085  00000-0  12435-3 0  9996
2 67245  50.0020 252.4517 0089266 139.5459 221.2130 14.12631454 17220
CZ-8A R/B
1 67245U 25311K   26117.05344840  .00000064  00000-0  11363-3 0  9998
2 67245  50.0021 251.2820 0089261 140.5140 220.2317 14.12631521 17264
CZ-8A R/B
1 67245U 25311K   26117.05344841  .00000064  00000-0  11363-3 0  9999
2 67245  50.0021 251.2820 0089261 140.5140 220.2317 14.12631521 17264
CZ-8A R/B
1 67245U 25311K   26117.33641476  .00000068  00000-0  11532-3 0  9996
2 67245  50.0020 250.1123 0089259 141.4843 219.2479 14.12631691 17304
CZ-8A R/B
1 67245U 25311K   26117.61938106  .00000051  00000-0  10654-3 0  9992
2 67245  50.0020 248.9426 0089263 142.4572 218.2613 14.12631768 17348
CZ-8A R/B
1 67245U 25311K   26117.61938107  .00000051  00000-0  10654-3 0  9993
2 67245  50.0020 248.9426 0089263 142.4572 218.2613 14.12631768 17348
CZ-8A R/B
1 67245U 25311K   26118.04383036  .00000036  00000-0  99077-4 0  9996
2 67245  50.0019 247.1881 0089258 143.9070 216.7908 14.12631967 17403
CZ-8A R/B
1 67245U 25311K   26118.32679656  .00000028  00000-0  94583-4 0  9991
2 67245  50.0018 246.0184 0089256 144.8769 215.8067 14.12632056 17449
CZ-8A R/B
1 67245U 25311K   26118.32679657  .00000028  00000-0  94583-4 0  9992
2 67245  50.0018 246.0184 0089256 144.8769 215.8067 14.12632056 17449
CZ-8A R/B
1 67245U 25311K   26118.60976265  .00000014  00000-0  87565-4 0  9995
2 67245  50.0018 244.8487 0089260 145.8476 214.8217 14.12632156 17483
CZ-8A R/B
1 67245U 25311K   26118.60976266  .00000014  00000-0  87565-4 0  9996
2 67245  50.0018 244.8487 0089260 145.8476 214.8217 14.12632156 17483
CZ-8A R/B
1 67245U 25311K   26119.03421168 -.00000013  00000-0  73349-4 0  9995
2 67245  50.0019 243.0943 0089253 147.3005 213.3471 14.12632279 17548
CZ-8A R/B
1 67245U 25311K   26119.03421168 -.00000013  00000-0  73349-4 0  9995
2 67245  50.0019 243.0943 0089253 147.3005 213.3471 14.12632279 17548
CZ-8A R/B
1 67245U 25311K   26119.52940213 -.00000032  00000-0  63960-4 0  9995
2 67245  50.0019 241.0474 0089257 148.9985 211.6234 14.12632428 17615
CZ-8A R/B
1 67245U 25311K   26119.60014361 -.00000034  00000-0  62513-4 0  9995
2 67245  50.0019 240.7549 0089254 149.2405 211.3776 14.12632441 17626
CZ-8A R/B
1 67245U 25311K   26119.60014362 -.00000034  00000-0  62513-4 0  9996
2 67245  50.0020 240.7549 0089254 149.2405 211.3776 14.12632441 17628
CZ-8A R/B
1 67245U 25311K   26120.02459250 -.00000058  00000-0  50208-4 0  9997
2 67245  50.0026 239.0011 0089236 150.7001 209.8952 14.12632584 17680
CZ-8A R/B
1 67245U 25311K   26120.02459251 -.00000058  00000-0  50208-4 0  9998
2 67245  50.0026 239.0011 0089236 150.7002 209.8952 14.12632584 17681
CZ-8A R/B
1 67245U 25311K   26120.59052406 -.00000089  00000-0  34386-4 0  9994
2 67245  50.0021 236.6612 0089241 152.6404 207.9245 14.12632608 17769
CZ-8A R/B
1 67245U 25311K   26120.73200703 -.00000092  00000-0  32808-4 0  9996
2 67245  50.0027 236.0769 0089230 153.1289 207.4281 14.12632682 17786
CZ-8A R/B
1 67245U 25311K   26121.51016270 -.00000113  00000-0  21624-4 0  9995
2 67245  50.0027 232.8603 0089228 155.8003 204.7135 14.12632846 17899
CZ-8A R/B
1 67245U 25311K   26121.65164560 -.00000118  00000-0  19171-4 0  9995
2 67245  50.0026 232.2755 0089225 156.2788 204.2271 14.12632842 17917
CZ-8A R/B
1 67245U 25311K   26121.65164561 -.00000118  00000-0  19171-4 0  9996
2 67245  50.0026 232.2755 0089225 156.2788 204.2271 14.12632842 17917
CZ-8A R/B
1 67245U 25311K   26122.00535265 -.00000138  00000-0  86814-5 0  9990
2 67245  50.0026 230.8134 0089224 157.4908 202.9952 14.12632833 17964
CZ-8A R/B
1 67245U 25311K   26122.57128394 -.00000139  00000-0  81114-5 0  9992
2 67245  50.0026 228.4740 0089233 159.4285 201.0252 14.12632913 18042
CZ-8A R/B
1 67245U 25311K   26122.71276676 -.00000140  00000-0  79237-5 0  9990
2 67245  50.0026 227.8892 0089236 159.9088 200.5368 14.12632933 18068
CZ-8A R/B
1 67245U 25311K   26122.71276676 -.00000140  00000-0  79237-5 0  9990
2 67245  50.0026 227.8892 0089236 159.9088 200.5368 14.12632933 18068
CZ-8A R/B
1 67245U 25311K   26122.99573231 -.00000148  00000-0  38671-5 0  9992
2 67245  50.0026 226.7196 0089234 160.8807 199.5485 14.12632939 18109
CZ-8A R/B
1 67245U 25311K   26123.27869792 -.00000144  00000-0  59429-5 0  9994
2 67245  50.0026 225.5499 0089235 161.8519 198.5607 14.12632969 18146
CZ-8A R/B
1 67245U 25311K   26123.56166351 -.00000144  00000-0  58146-5 0  9992
2 67245  50.0025 224.3802 0089240 162.8193 197.5768 14.12632978 18186
CZ-8A R/B
1 67245U 25311K   26123.56166352 -.00000144  00000-0  59449-5 0  9990
2 67245  50.0025 224.3802 0089236 162.8219 197.5742 14.12632977 18181
CZ-8A R/B
1 67245U 25311K   26123.63240491 -.00000142  00000-0  67255-5 0  9997
2 67245  50.0025 224.0878 0089236 163.0630 197.3289 14.12632990 18191
CZ-8A R/B
1 67245U 25311K   26123.63240491 -.00000142  00000-0  67255-5 0  9997
2 67245  50.0025 224.0879 0089236 163.0630 197.3290 14.12632990 18194
CZ-8A R/B
1 67245U 25311K   26123.98611184 -.00000146  00000-0  44894-5 0  9994
2 67245  50.0026 222.6257 0089242 164.2714 196.0998 14.12632987 18245
CZ-8A R/B
1 67245U 25311K   26124.48130156 -.00000138  00000-0  89727-5 0  9990
2 67245  50.0025 220.5788 0089241 165.9725 194.3691 14.12633012 18318
CZ-8A R/B
1 67245U 25311K   26124.62278431 -.00000131  00000-0  12168-4 0  9992
2 67245  50.0025 219.9940 0089238 166.4585 193.8747 14.12633044 18339
CZ-8A R/B
1 67245U 25311K   26124.62278431 -.00000131  00000-0  12168-4 0  9992
2 67245  50.0025 219.9940 0089238 166.4585 193.8747 14.12633043 18338
CZ-8A R/B
1 67245U 25311K   26125.25945662 -.00000108  00000-0  24221-4 0  9996
2 67245  50.0024 217.3622 0089240 168.6423 191.6526 14.12633169 18424
CZ-8A R/B
1 67245U 25311K   26125.54242214 -.00000105  00000-0  25825-4 0  9999
2 67245  50.0025 216.1926 0089244 169.6116 190.6662 14.12633164 18462
CZ-8A R/B
1 67245U 25311K   26125.61316352 -.00000100  00000-0  28252-4 0  9994
2 67245  50.0024 215.9002 0089242 169.8520 190.4215 14.12633183 18476
CZ-8A R/B
1 67245U 25311K   26125.61316353 -.00000100  00000-0  28252-4 0  9995
2 67245  50.0024 215.9002 0089242 169.8520 190.4215 14.12633183 18476
CZ-8A R/B
1 67245U 25311K   26126.53280124 -.00000070  00000-0  43641-4 0  9998
2 67245  50.0024 212.0988 0089248 173.0034 187.2142 14.12633327 18608
CZ-8A R/B
1 67245U 25311K   26126.60354260 -.00000065  00000-0  46312-4 0  9991
2 67245  50.0024 211.8065 0089246 173.2431 186.9702 14.12633348 18614
CZ-8A R/B
1 67245U 25311K   26126.60354261 -.00000065  00000-0  46312-4 0  9992
2 67245  50.0024 211.8065 0089246 173.2431 186.9702 14.12633348 18614
CZ-8A R/B
1 67245U 25311K   26126.95724934 -.00000059  00000-0  49350-4 0  9996
2 67245  50.0025 210.3445 0089249 174.4528 185.7389 14.12633405 18661
CZ-8A R/B
1 67245U 25311K   26126.95724935 -.00000059  00000-0  49350-4 0  9997
2 67245  50.0025 210.3445 0089249 174.4528 185.7389 14.12633405 18661
CZ-8A R/B
1 67245U 25311K   26126.95724935 -.00000059  00000-0  49350-4 0  9997
2 67245  50.0025 210.3445 0089249 174.4528 185.7389 14.12633405 18661
CZ-8A R/B
1 67245U 25311K   26127.66466291 -.00000032  00000-0  63250-4 0  9990
2 67245  50.0024 207.4205 0089254 176.8761 183.2722 14.12633530 18766
CZ-8A R/B
1 67245U 25311K   26127.66466291 -.00000032  00000-0  63250-4 0  9990
2 67245  50.0024 207.4205 0089254 176.8761 183.2722 14.12633530 18766
CZ-8A R/B
1 67245U 25311K   26128.23059356 -.00000017  00000-0  71344-4 0  9990
2 67245  50.0024 205.0811 0089257 178.8200 181.2934 14.12633661 18843
CZ-8A R/B
1 67245U 25311K   26128.23059357 -.00000017  00000-0  71344-4 0  9991
2 67245  50.0025 205.0811 0089257 178.8200 181.2934 14.12633661 18844
CZ-8A R/B
1 67245U 25311K   26128.51355895 -.00000007  00000-0  76091-4 0  9991
2 67245  50.0024 203.9115 0089261 179.7850 180.3111 14.12633715 18884
CZ-8A R/B
1 67245U 25311K   26128.93800691  .00000006  00000-0  83175-4 0  9995
2 67245  50.0023 202.1571 0089255 181.2387 178.8312 14.12633839 18945
CZ-8A R/B
1 67245U 25311K   26129.22097218  .00000013  00000-0  86581-4 0  9993
2 67245  50.0022 200.9873 0089259 182.2085 177.8440 14.12633909 18988
CZ-8A R/B
1 67245U 25311K   26129.22097218  .00000013  00000-0  86581-4 0  9993
2 67245  50.0022 200.9873 0089259 182.2085 177.8440 14.12633909 18988
CZ-8A R/B
1 67245U 25311K   26129.50393744  .00000019  00000-0  89587-4 0  9992
2 67245  50.0022 199.8177 0089263 183.1776 176.8575 14.12633977 19022
CZ-8A R/B
1 67245U 25311K   26129.92838531  .00000026  00000-0  93446-4 0  9993
2 67245  50.0021 198.0633 0089257 184.6348 175.3742 14.12634101 19089
CZ-8A R/B
1 67245U 25311K   26130.21135051  .00000030  00000-0  95589-4 0  9999
2 67245  50.0021 196.8936 0089263 185.6067 174.3849 14.12634183 19129
CZ-8A R/B
1 67245U 25311K   26130.21135051  .00000030  00000-0  95589-4 0  9999
2 67245  50.0021 196.8936 0089263 185.6067 174.3849 14.12634183 19129
CZ-8A R/B
1 67245U 25311K   26130.49431571  .00000035  00000-0  97939-4 0  9991
2 67245  50.0021 195.7240 0089265 186.5773 173.3969 14.12634274 19168
CZ-8A R/B
1 67245U 25311K   26130.91876345  .00000038  00000-0  99626-4 0  9998
2 67245  50.0021 193.9696 0089260 188.0344 171.9139 14.12634416 19227
CZ-8A R/B
1 67245U 25311K   26131.13098729  .00000041  00000-0  10119-3 0  9998
2 67245  50.0020 193.0923 0089263 188.7631 171.1722 14.12634489 19252
CZ-8A R/B
1 67245U 25311K   26131.48469374  .00000039  00000-0  99990-4 0  9996
2 67245  50.0020 191.6302 0089265 189.9725 169.9414 14.12634586 19303
CZ-8A R/B
1 67245U 25311K   26131.48469374  .00000039  00000-0  99990-4 0  9996
2 67245  50.0020 191.6302 0089265 189.9725 169.9414 14.12634586 19303
CZ-8A R/B
1 67245U 25311K   26131.83840014  .00000031  00000-0  95968-4 0  9992
2 67245  50.0021 190.1683 0089264 191.1949 168.6974 14.12634671 19359
CZ-8A R/B
1 67245U 25311K   26131.83840014  .00000031  00000-0  95968-4 0  9992
2 67245  50.0021 190.1683 0089264 191.1949 168.6974 14.12634671 19359
CZ-8A R/B
1 67245U 25311K   26132.40433036  .00000025  00000-0  92899-4 0  9991
2 67245  50.0021 187.8289 0089268 193.1347 166.7235 14.12634835 19432
CZ-8A R/B
1 67245U 25311K   26132.82877796  .00000014  00000-0  87221-4 0  9993
2 67245  50.0019 186.0745 0089264 194.5893 165.2435 14.12634946 19499
CZ-8A R/B
1 67245U 25311K   26132.82877797  .00000014  00000-0  87221-4 0  9994
2 67245  50.0019 186.0745 0089264 194.5893 165.2435 14.12634946 19499
CZ-8A R/B
1 67245U 25311K   26133.18248428  .00000006  00000-0  82750-4 0  9990
2 67245  50.0018 184.6123 0089269 195.8014 164.0104 14.12635032 19549
CZ-8A R/B
1 67245U 25311K   26133.18248429  .00000006  00000-0  82750-4 0  9991
2 67245  50.0018 184.6123 0089269 195.8014 164.0104 14.12635032 19549
CZ-8A R/B
1 67245U 25311K   26133.39470811 -.00000002  00000-0  78659-4 0  9996
2 67245  50.0018 183.7351 0089268 196.5270 163.2723 14.12635072 19578
CZ-8A R/B
1 67245U 25311K   26133.39470812 -.00000002  00000-0  78659-4 0  9997
2 67245  50.0018 183.7351 0089268 196.5270 163.2723 14.12635072 19578
CZ-8A R/B
1 67245U 25311K   26134.31434451 -.00000036  00000-0  61024-4 0  9994
2 67245  50.0018 179.9337 0089266 199.6788 160.0666 14.12635293 19706
CZ-8A R/B
1 67245U 25311K   26134.38508575 -.00000037  00000-0  60729-4 0  9992
2 67245  50.0018 179.6413 0089263 199.9249 159.8164 14.12635323 19714
CZ-8A R/B
1 67245U 25311K   26135.30472218 -.00000086  00000-0  35091-4 0  9997
2 67245  50.0017 175.8398 0089261 203.0779 156.6108 14.12635441 19844
CZ-8A R/B
1 67245U 25311K   26135.37546344 -.00000088  00000-0  34288-4 0  9995
2 67245  50.0017 175.5474 0089264 203.3147 156.3701 14.12635459 19857
CZ-8A R/B
1 67245U 25311K   26136.50732385 -.00000144  00000-0  53994-5 0  9992
2 67245  50.0016 170.8686 0089267 207.1826 152.4394 14.12635563 20019
CZ-8A R/B
1 67245U 25311K   26136.57806515 -.00000148  00000-0  34607-5 0  9990
2 67245  50.0015 170.5762 0089266 207.4244 152.1937 14.12635560 20024
CZ-8A R/B
1 67245U 25311K   26136.79028898 -.00000161  00000-0 -34932-5 0  9991
2 67245  50.0016 169.6990 0089263 208.1555 151.4510 14.12635570 20050
CZ-8A R/B
1 67245U 25311K   26136.79028899 -.00000161  00000-0 -34932-5 0  9992
2 67245  50.0016 169.6990 0089263 208.1556 151.4510 14.12635571 20052
CZ-8A R/B
1 67245U 25311K   26137.35621949 -.00000187  00000-0 -16968-4 0  9996
2 67245  50.0016 167.3596 0089262 210.0936 149.4826 14.12635529 20131
CZ-8A R/B
1 67245U 25311K   26137.35621950 -.00000187  00000-0 -16968-4 0  9998
2 67245  50.0016 167.3596 0089262 210.0936 149.4826 14.12635529 20131
CZ-8A R/B
1 67245U 25311K   26137.78066742 -.00000207  00000-0 -27213-4 0  9995
2 67245  50.0015 165.6051 0089257 211.5486 148.0051 14.12635513 20191
CZ-8A R/B
1 67245U 25311K   26137.78066742 -.00000207  00000-0 -27213-4 0  9995
2 67245  50.0015 165.6051 0089257 211.5486 148.0051 14.12635513 20191
CZ-8A R/B
1 67245U 25311K   26138.06363274 -.00000212  00000-0 -29755-4 0  9996
2 67245  50.0015 164.4353 0089257 212.5206 147.0184 14.12635503 20234
CZ-8A R/B
1 67245U 25311K   26138.34659813 -.00000221  00000-0 -34304-4 0  9990
2 67245  50.0015 163.2657 0089260 213.4862 146.0382 14.12635481 20278
CZ-8A R/B
1 67245U 25311K   26138.77104625 -.00000231  00000-0 -39629-4 0  9999
2 67245  50.0014 161.5112 0089254 214.9402 144.5627 14.12635465 20337
CZ-8A R/B
1 67245U 25311K   26138.77104626 -.00000231  00000-0 -39629-4 0  9990
2 67245  50.0014 161.5112 0089254 214.9402 144.5627 14.12635465 20337
CZ-8A R/B
1 67245U 25311K   26139.26623592 -.00000236  00000-0 -42296-4 0  9992
2 67245  50.0014 159.4642 0089259 216.6333 142.8451 14.12635421 20404
CZ-8A R/B
1 67245U 25311K   26139.40771870 -.00000233  00000-0 -40846-4 0  9997
2 67245  50.0014 158.8794 0089255 217.1150 142.3565 14.12635432 20429
CZ-8A R/B
1 67245U 25311K   26139.76142569 -.00000235  00000-0 -41928-4 0  9997
2 67245  50.0014 157.4173 0089252 218.3307 141.1236 14.12635411 20473
CZ-8A R/B
1 67245U 25311K   26139.76142570 -.00000235  00000-0 -41928-4 0  9999
2 67245  50.0014 157.4173 0089252 218.3307 141.1236 14.12635411 20473
CZ-8A R/B
1 67245U 25311K   26140.25661566 -.00000227  00000-0 -37845-4 0  9990
2 67245  50.0014 155.3703 0089257 220.0242 139.4066 14.12635386 20542
CZ-8A R/B
1 67245U 25311K   26140.46883999 -.00000222  00000-0 -35325-4 0  9995
2 67245  50.0013 154.4931 0089252 220.7503 138.6705 14.12635370 20573
CZ-8A R/B
1 67245U 25311K   26140.46883999 -.00000222  00000-0 -35325-4 0  9995
2 67245  50.0013 154.4931 0089252 220.7503 138.6705 14.12635370 20573
CZ-8A R/B
1 67245U 25311K   26140.75180577 -.00000219  00000-0 -33452-4 0  9994
2 67245  50.0013 153.3234 0089253 221.7180 137.6898 14.12635361 20617
CZ-8A R/B
1 67245U 25311K   26141.24699602 -.00000200  00000-0 -23662-4 0  9995
2 67245  50.0013 151.2764 0089257 223.4099 135.9756 14.12635361 20685
CZ-8A R/B
1 67245U 25311K   26141.24699603 -.00000200  00000-0 -23662-4 0  9996
2 67245  50.0013 151.2764 0089257 223.4099 135.9756 14.12635361 20685
CZ-8A R/B
1 67245U 25311K   26141.95441091 -.00000166  00000-0 -62017-5 0  9999
2 67245  50.0012 148.3520 0089257 225.8349 133.5198 14.12635398 20780
CZ-8A R/B
1 67245U 25311K   26142.30811831 -.00000141  00000-0  64998-5 0  9994
2 67245  50.0013 146.8902 0089248 227.0566 132.2831 14.12635522 20838
CZ-8A R/B
1 67245U 25311K   26142.37885980 -.00000133  00000-0  10961-4 0  9998
2 67245  50.0013 146.5978 0089245 227.2990 132.0378 14.12635554 20848
CZ-8A R/B
1 67245U 25311K   26142.37885981 -.00000133  00000-0  10961-4 0  9999
2 67245  50.0013 146.5978 0089245 227.2990 132.0378 14.12635554 20848
CZ-8A R/B
1 67245U 25311K   26143.29849971 -.00000080  00000-0  38250-4 0  9992
2 67245  50.0013 142.7963 0089248 230.4471 128.8527 14.12635702 20971
CZ-8A R/B
1 67245U 25311K   26143.36924131 -.00000070  00000-0  43438-4 0  9995
2 67245  50.0014 142.5039 0089231 230.6929 128.6043 14.12635735 20984
CZ-8A R/B
1 67245U 25311K   26143.72294902 -.00000052  00000-0  52783-4 0  9994
2 67245  50.0016 141.0418 0089236 231.9005 127.3831 14.12635832 21031
CZ-8A R/B
1 67245U 25311K   26144.14739836 -.00000018  00000-0  70100-4 0  9996
2 67245  50.0016 139.2871 0089237 233.3511 125.9169 14.12635999 21090
CZ-8A R/B
1 67245U 25311K   26144.92555569  .00000034  00000-0  96930-4 0  9997
2 67245  50.0016 136.0704 0089227 236.0197 123.2209 14.12636304 21209
CZ-8A R/B
1 67245U 25311K   26145.13778042  .00000048  00000-0  10454-3 0  9995
2 67245  50.0017 135.1932 0089232 236.7436 122.4898 14.12636415 21233
CZ-8A R/B
1 67245U 25311K   26145.35000523  .00000058  00000-0  10973-3 0  9998
2 67245  50.0017 134.3159 0089231 237.4700 121.7564 14.12636473 21265
CZ-8A R/B
1 67245U 25311K   26145.35000524  .00000058  00000-0  10973-3 0  9999
2 67245  50.0017 134.3159 0089231 237.4700 121.7564 14.12636473 21265
CZ-8A R/B
1 67245U 25311K   26146.26964606  .00000093  00000-0  12766-3 0  9991
2 67245  50.0020 130.5146 0089221 240.6210 118.5766 14.12636881 21399
CZ-8A R/B
1 67245U 25311K   26146.41112930  .00000096  00000-0  12903-3 0  9999
2 67245  50.0021 129.9298 0089219 241.1070 118.0865 14.12636932 21412
CZ-8A R/B
1 67245U 25311K   26146.90632058  .00000101  00000-0  13155-3 0  9998
2 67245  50.0022 127.8829 0089224 242.8047 116.3746 14.12637138 21483
CZ-8A R/B
1 67245U 25311K   26147.18928691  .00000112  00000-0  13740-3 0  9992
2 67245  50.0022 126.7132 0089248 243.7680 115.4034 14.12637330 21526
CZ-8A R/B
1 67245U 25311K   26147.18928692  .00000112  00000-0  13740-3 0  9993
2 67245  50.0022 126.7132 0089248 243.7680 115.4034 14.12637330 21526
CZ-8A R/B
1 67245U 25311K   26147.61373663  .00000101  00000-0  13156-3 0  9992
2 67245  50.0022 124.9587 0089248 245.2233 113.9369 14.12637472 21588
CZ-8A R/B
1 67245U 25311K   26147.61373664  .00000101  00000-0  13156-3 0  9993
2 67245  50.0022 124.9587 0089248 245.2233 113.9369 14.12637473 21589
CZ-8A R/B
1 67245U 25311K   26147.89670314  .00000099  00000-0  13086-3 0  9993
2 67245  50.0022 123.7890 0089250 246.1928 112.9604 14.12637597 21620
CZ-8A R/B
1 67245U 25311K   26148.17966964  .00000090  00000-0  12612-3 0  9999
2 67245  50.0023 122.6194 0089245 247.1600 111.9865 14.12637709 21665
CZ-8A R/B
1 67245U 25311K   26148.17966965  .00000090  00000-0  12612-3 0  9990
2 67245  50.0023 122.6194 0089245 247.1600 111.9865 14.12637709 21665
CZ-8A R/B
1 67245U 25311K   26148.32115293  .00000093  00000-0  12749-3 0  9991
2 67245  50.0022 122.0346 0089237 247.6446 111.4986 14.12637794 21686
CZ-8A R/B
1 67245U 25311K   26148.95782759  .00000073  00000-0  11727-3 0  9990
2 67245  50.0023 119.4028 0089236 249.8267 109.3025 14.12638092 21770
CZ-8A R/B
1 67245U 25311K   26149.31153586  .00000060  00000-0  11063-3 0  9990
2 67245  50.0023 117.9408 0089229 251.0364 108.0858 14.12638232 21822
CZ-8A R/B
1 67245U 25311K   26149.31153586  .00000060  00000-0  11063-3 0  9990
2 67245  50.0023 117.9408 0089229 251.0364 108.0858 14.12638232 21822
CZ-8A R/B
1 67245U 25311K   26149.87746905  .00000040  00000-0  10028-3 0  9992
2 67245  50.0024 115.6014 0089228 252.9767 106.1349 14.12638496 21902
CZ-8A R/B
1 67245U 25311K   26150.16043568  .00000029  00000-0  94478-4 0  9990
2 67245  50.0025 114.4318 0089227 253.9426 105.1642 14.12638625 21942
CZ-8A R/B
1 67245U 25311K   26150.16043569  .00000029  00000-0  94478-4 0  9991
2 67245  50.0025 114.4318 0089227 253.9426 105.1642 14.12638625 21942
CZ-8A R/B
1 67245U 25311K   26151.15081920 -.00000022  00000-0  68374-4 0  9994
2 67245  50.0026 110.3380 0089234 257.3339 101.7581 14.12638970 22089
CZ-8A R/B
1 67245U 25311K   26151.85823640 -.00000076  00000-0  40051-4 0  9995
2 67245  50.0027 107.4139 0089226 259.7573  99.3264 14.12639041 22187
CZ-8A R/B
1 67245U 25311K   26152.28268693 -.00000104  00000-0  26044-4 0  9992
2 67245  50.0028 105.6595 0089228 261.2088  97.8708 14.12639079 22249
CZ-8A R/B
1 67245U 25311K   26153.13158821 -.00000145  00000-0  46090-5 0  9997
2 67245  50.0029 102.1505 0089231 264.1136  94.9595 14.12639162 22361
CZ-8A R/B
1 67245U 25311K   26155.04161829 -.00000185  00000-0 -16003-4 0  9996
2 67245  50.0031  94.2553 0089218 270.6540  88.4146 14.12639231 22631
CZ-8A R/B
1 67245U 25311K   26155.11236024 -.00000173  00000-0 -98353-5 0  9990
2 67245  50.0031  93.9629 0089224 270.8958  88.1728 14.12639276 22646
CZ-8A R/B
1 67245U 25311K   26155.11236025 -.00000173  00000-0 -98353-5 0  9991
2 67245  50.0031  93.9629 0089224 270.8958  88.1728 14.12639276 22646
CZ-8A R/B
1 67245U 25311K   26155.11236025 -.00000173  00000-0 -98353-5 0  9991
2 67245  50.0031  93.9629 0089224 270.8958  88.1728 14.12639276 22646
CZ-8A R/B
1 67245U 25311K   26156.10274763 -.00000172  00000-0 -92984-5 0  9995
2 67245  50.0031  89.8690 0089226 274.2969  84.7748 14.12639199 22783
CZ-8A R/B
1 67245U 25311K   26156.10274763 -.00000172  00000-0 -92984-5 0  9995
2 67245  50.0031  89.8690 0089226 274.2969  84.7748 14.12639199 22783
CZ-8A R/B
1 67245U 25311K   26156.52719964 -.00000171  00000-0 -86180-5 0  9998
2 67245  50.0032  88.1146 0089233 275.7541  83.3199 14.12639143 22843
CZ-8A R/B
1 67245U 25311K   26156.52719965 -.00000171  00000-0 -86180-5 0  9999
2 67245  50.0032  88.1146 0089233 275.7541  83.3199 14.12639143 22843
CZ-8A R/B
1 67245U 25311K   26157.09313589 -.00000153  00000-0  52392-6 0  9992
2 67245  50.0033  85.7754 0089207 277.6877  81.3908 14.12639147 22925
CZ-8A R/B
1 67245U 25311K   26157.09313590 -.00000153  00000-0  52392-6 0  9994
2 67245  50.0033  85.7754 0089207 277.6877  81.3908 14.12639147 22925
CZ-8A R/B
1 67245U 25311K   26157.51758825 -.00000138  00000-0  82012-5 0  9999
2 67245  50.0036  84.0212 0089191 279.1356  79.9470 14.12639179 22988
CZ-8A R/B
1 67245U 25311K   26157.51758826 -.00000138  00000-0  82012-5 0  9990
2 67245  50.0036  84.0212 0089191 279.1356  79.9470 14.12639180 22980
CZ-8A R/B
1 67245U 25311K   26158.01278273 -.00000123  00000-0  16078-4 0  9991
2 67245  50.0037  81.9744 0089195 280.8240  78.2640 14.12639183 23055
CZ-8A R/B
1 67245U 25311K   26158.01278274 -.00000123  00000-0  16078-4 0  9992
2 67245  50.0037  81.9744 0089195 280.8240  78.2640 14.12639183 23055
CZ-8A R/B
1 67245U 25311K   26158.50797750 -.00000088  00000-0  33925-4 0  9991
2 67245  50.0040  79.9277 0089195 282.5169  76.5773 14.12639288 23128
CZ-8A R/B
1 67245U 25311K   26158.50797750 -.00000088  00000-0  33925-4 0  9991
2 67245  50.0040  79.9277 0089195 282.5169  76.5773 14.12639288 23128
CZ-8A R/B
1 67245U 25311K   26159.49836722 -.00000045  00000-0  56553-4 0  9998
2 67245  50.0041  75.8339 0089200 285.9067  73.2025 14.12639456 23260
CZ-8A R/B
1 67245U 25311K   26159.49836723 -.00000045  00000-0  56553-4 0  9999
2 67245  50.0041  75.8339 0089200 285.9067  73.2025 14.12639456 23260
CZ-8A R/B
1 67245U 25311K   26160.06430458 -.00000033  00000-0  62481-4 0  9993
2 67245  50.0041  73.4946 0089184 287.8363  71.2832 14.12639486 23345
CZ-8A R/B
1 67245U 25311K   26160.06430459 -.00000033  00000-0  62481-4 0  9994
2 67245  50.0041  73.4946 0089184 287.8363  71.2832 14.12639486 23345
CZ-8A R/B
1 67245U 25311K   26160.48875767 -.00000008  00000-0  75257-4 0  9992
2 67245  50.0042  71.7402 0089185 289.2933  69.8346 14.12639633 23408
CZ-8A R/B
1 67245U 25311K   26161.05469523  .00000011  00000-0  85191-4 0  9996
2 67245  50.0041  69.4008 0089166 291.2229  67.9173 14.12639758 23486
CZ-8A R/B
1 67245U 25311K   26161.05469524  .00000011  00000-0  85191-4 0  9997
2 67245  50.0041  69.4008 0089166 291.2229  67.9173 14.12639758 23486
CZ-8A R/B
1 67245U 25311K   26161.47914850  .00000026  00000-0  92976-4 0  9995
2 67245  50.0041  67.6464 0089169 292.6787  66.4713 14.12639890 23547
CZ-8A R/B
1 67245U 25311K   26161.47914850  .00000026  00000-0  92976-4 0  9995
2 67245  50.0041  67.6464 0089169 292.6787  66.4713 14.12639890 23547
CZ-8A R/B
1 67245U 25311K   26162.04508623  .00000040  00000-0  10024-3 0  9995
2 67245  50.0042  65.3071 0089166 294.6128  64.5511 14.12640076 23627
CZ-8A R/B
1 67245U 25311K   26162.46953961  .00000051  00000-0  10626-3 0  9990
2 67245  50.0043  63.5527 0089169 296.0691  63.1059 14.12640248 23687
CZ-8A R/B
1 67245U 25311K   26162.46953961  .00000051  00000-0  10626-3 0  9990
2 67245  50.0043  63.5527 0089169 296.0691  63.1059 14.12640248 23687
CZ-8A R/B
1 67245U 25311K   26162.96473526  .00000055  00000-0  10787-3 0  9991
2 67245  50.0044  61.5058 0089165 297.7608  61.4281 14.12640412 23756
CZ-8A R/B
1 67245U 25311K   26162.96473526  .00000055  00000-0  10787-3 0  9991
2 67245  50.0044  61.5058 0089165 297.7608  61.4281 14.12640412 23756
CZ-8A R/B
1 67245U 25311K   26163.95512671  .00000061  00000-0  11133-3 0  9999
2 67245  50.0044  57.4121 0089172 301.1487  58.0699 14.12640827 23894
CZ-8A R/B
1 67245U 25311K   26164.37958023  .00000051  00000-0  10589-3 0  9994
2 67245  50.0044  55.6576 0089170 302.6028  56.6296 14.12640967 23952
CZ-8A R/B
1 67245U 25311K   26164.37958024  .00000051  00000-0  10589-3 0  9995
2 67245  50.0044  55.6576 0089170 302.6028  56.6296 14.12640967 23952
CZ-8A R/B
1 67245U 25311K   26164.87477606  .00000039  00000-0  10012-3 0  9999
2 67245  50.0044  53.6106 0089174 304.2951  54.9540 14.12641144 24026
CZ-8A R/B
1 67245U 25311K   26164.94551838  .00000037  00000-0  98797-4 0  9992
2 67245  50.0045  53.3183 0089174 304.5400  54.7115 14.12641158 24033
CZ-8A R/B
1 67245U 25311K   26164.94551839  .00000037  00000-0  98797-4 0  9993
2 67245  50.0045  53.3183 0089174 304.5400  54.7115 14.12641158 24033
CZ-8A R/B
1 67245U 25311K   26165.36997201  .00000017  00000-0  88747-4 0  9999
2 67245  50.0046  51.5639 0089178 305.9972  53.2693 14.12641293 24094
CZ-8A R/B
1 67245U 25311K   26165.36997202  .00000017  00000-0  88747-4 0  9990
2 67245  50.0046  51.5639 0089178 305.9972  53.2693 14.12641293 24094
CZ-8A R/B
1 67245U 25311K   26165.86516797 -.00000003  00000-0  78479-4 0  9998
2 67245  50.0047  49.5170 0089178 307.6900  51.5946 14.12641436 24161
CZ-8A R/B
1 67245U 25311K   26165.93591027 -.00000004  00000-0  77551-4 0  9996
2 67245  50.0046  49.2245 0089177 307.9318  51.3555 14.12641457 24173
CZ-8A R/B
1 67245U 25311K   26165.93591027 -.00000004  00000-0  77551-4 0  9996
2 67245  50.0046  49.2245 0089177 307.9318  51.3555 14.12641457 24173
CZ-8A R/B
1 67245U 25311K   26166.36036402 -.00000030  00000-0  64226-4 0  9999
2 67245  50.0047  47.4701 0089186 309.3890  49.9144 14.12641558 24238
CZ-8A R/B
1 67245U 25311K   26166.36036402 -.00000030  00000-0  64226-4 0  9999
2 67245  50.0047  47.4701 0089186 309.3890  49.9144 14.12641558 24238
CZ-8A R/B
1 67245U 25311K   26166.92630245 -.00000057  00000-0  50299-4 0  9990
2 67245  50.0048  45.1308 0089186 311.3250  48.0008 14.12641678 24311
CZ-8A R/B
1 67245U 25311K   26166.92630246 -.00000057  00000-0  50299-4 0  9991
2 67245  50.0048  45.1308 0089186 311.3250  48.0008 14.12641678 24311
CZ-8A R/B
1 67245U 25311K   26167.35075633 -.00000085  00000-0  35848-4 0  9996
2 67245  50.0047  43.3763 0089185 312.7790  46.5642 14.12641741 24372
CZ-8A R/B
1 67245U 25311K   26167.35075634 -.00000085  00000-0  35848-4 0  9997
2 67245  50.0047  43.3763 0089185 312.7790  46.5642 14.12641741 24372
CZ-8A R/B
1 67245U 25311K   26167.84595263 -.00000111  00000-0  22694-4 0  9991
2 67245  50.0049  41.3294 0089178 314.4721  44.8919 14.12641826 24446
CZ-8A R/B
1 67245U 25311K   26167.91669497 -.00000114  00000-0  20886-4 0  9994
2 67245  50.0049  41.0370 0089178 314.7140  44.6530 14.12641832 24451
CZ-8A R/B
1 67245U 25311K   26167.91669497 -.00000114  00000-0  20886-4 0  9994
2 67245  50.0049  41.0370 0089178 314.7140  44.6530 14.12641832 24451
CZ-8A R/B
1 67245U 25311K   26168.83634559 -.00000166  00000-0 -58704-5 0  9996
2 67245  50.0049  37.2356 0089178 317.8619  41.5457 14.12641876 24583
CZ-8A R/B
1 67245U 25311K   26169.04857265 -.00000174  00000-0 -10160-4 0  9993
2 67245  50.0045  36.3581 0089169 318.5913  40.8260 14.12641876 24612
CZ-8A R/B
1 67245U 25311K   26169.33154220 -.00000191  00000-0 -18924-4 0  9991
2 67245  50.0045  35.1884 0089159 319.5569  39.8735 14.12641850 24653
CZ-8A R/B
1 67245U 25311K   26169.33154220 -.00000191  00000-0 -18924-4 0  9991
2 67245  50.0045  35.1884 0089159 319.5569  39.8735 14.12641850 24653
CZ-8A R/B
1 67245U 25311K   26169.89748147 -.00000213  00000-0 -30002-4 0  9995
2 67245  50.0045  32.8491 0089154 321.4927  37.9643 14.12641809 24736
CZ-8A R/B
1 67245U 25311K   26169.89748147 -.00000213  00000-0 -30002-4 0  9995
2 67245  50.0045  32.8491 0089154 321.4927  37.9643 14.12641809 24736
CZ-8A R/B
1 67245U 25311K   26171.02936051 -.00000236  00000-0 -41963-4 0  9999
2 67245  50.0044  28.1704 0089158 325.3693  34.1430 14.12641726 24895
CZ-8A R/B
1 67245U 25311K   26171.31233036 -.00000240  00000-0 -44049-4 0  9997
2 67245  50.0044  27.0007 0089158 326.3372  33.1893 14.12641701 24934
CZ-8A R/B
1 67245U 25311K   26173.29312093 -.00000200  00000-0 -23056-4 0  9998
2 67245  50.0047  18.8130 0089125 333.1092  26.5212 14.12641549 25214
CZ-8A R/B
1 67245U 25311K   26174.92020023 -.00000103  00000-0  26676-4 0  9990
2 67245  50.0046  12.0873 0089101 338.6749  21.0457 14.12641643 25447
CZ-8A R/B
1 67245U 25311K   26175.27391321 -.00000083  00000-0  37324-4 0  9990
2 67245  50.0046  10.6252 0089103 339.8838  19.8568 14.12641690 25491
CZ-8A R/B
1 67245U 25311K   26175.91059662 -.00000038  00000-0  60575-4 0  9994
2 67245  50.0045   7.9934 0089092 342.0616  17.7155 14.12641816 25582
CZ-8A R/B
1 67245U 25311K   26175.91059663 -.00000038  00000-0  60575-4 0  9995
2 67245  50.0045   7.9934 0089092 342.0616  17.7155 14.12641816 25582
CZ-8A R/B
1 67245U 25311K   26176.54728000 -.00000003  00000-0  78830-4 0  9998
2 67245  50.0045   5.3616 0089089 344.2363  15.5776 14.12641976 25672
CZ-8A R/B
1 67245U 25311K   26176.54728001 -.00000003  00000-0  78830-4 0  9999
2 67245  50.0045   5.3616 0089089 344.2363  15.5776 14.12641976 25672
CZ-8A R/B
1 67245U 25311K   26176.68876524  .00000002  00000-0  81331-4 0  9996
2 67245  50.0045   4.7768 0089084 344.7204  15.1018 14.12641989 25698
CZ-8A R/B
1 67245U 25311K   26176.97173568  .00000018  00000-0  89301-4 0  9998
2 67245  50.0044   3.6071 0089090 345.6934  14.1454 14.12642047 25733
CZ-8A R/B
1 67245U 25311K   26177.25470610  .00000028  00000-0  94839-4 0  9991
2 67245  50.0044   2.4374 0089100 346.6600  13.1955 14.12642114 25773
CZ-8A R/B
1 67245U 25311K   26177.53767647  .00000035  00000-0  98094-4 0  9996
2 67245  50.0042   1.2677 0089084 347.6226  12.2495 14.12642164 25819
CZ-8A R/B
1 67245U 25311K   26177.53767647  .00000035  00000-0  98094-4 0  9996
2 67245  50.0042   1.2677 0089084 347.6226  12.2495 14.12642163 25818
CZ-8A R/B
1 67245U 25311K   26177.82064684  .00000047  00000-0  10472-3 0  9995
2 67245  50.0044   0.0981 0089086 348.5912  11.2977 14.12642274 25850
CZ-8A R/B
1 67245U 25311K   26178.24510233  .00000061  00000-0  11166-3 0  9995
2 67245  50.0045 358.3436 0089087 350.0425   9.8717 14.12642440 25910
CZ-8A R/B
1 67245U 25311K   26178.52807263  .00000062  00000-0  11222-3 0  9992
2 67245  50.0044 357.1739 0089077 351.0065   8.9244 14.12642511 25950
CZ-8A R/B
1 67245U 25311K   26178.74030035  .00000064  00000-0  11310-3 0  9991
2 67245  50.0044 356.2966 0089067 351.7305   8.2131 14.12642573 25984
CZ-8A R/B
1 67245U 25311K   26178.95252803  .00000071  00000-0  11694-3 0  9996
2 67245  50.0042 355.4193 0089071 352.4648   7.4917 14.12642676 26010
CZ-8A R/B
1 67245U 25311K   26179.16475569  .00000069  00000-0  11603-3 0  9993
2 67245  50.0042 354.5421 0089078 353.1911   6.7782 14.12642759 26049
CZ-8A R/B
1 67245U 25311K   26179.23549825  .00000070  00000-0  11632-3 0  9992
2 67245  50.0042 354.2497 0089076 353.4324   6.5411 14.12642786 26056
CZ-8A R/B
1 67245U 25311K   26179.51846845  .00000068  00000-0  11532-3 0  9991
2 67245  50.0041 353.0799 0089068 354.3990   5.5915 14.12642883 26097
CZ-8A R/B
1 67245U 25311K   26179.73069615  .00000063  00000-0  11288-3 0  9990
2 67245  50.0042 352.2027 0089077 355.1291   4.8743 14.12642938 26122
CZ-8A R/B
1 67245U 25311K   26180.50886404  .00000048  00000-0  10534-3 0  9996
2 67245  50.0043 348.9862 0089075 357.7889   2.2614 14.12643228 26235
CZ-8A R/B
1 67245U 25311K   26181.49925920  .00000010  00000-0  85443-4 0  9993
2 67245  50.0042 344.8923 0089074   1.1779 358.9324 14.12643541 26376
CZ-8A R/B
1 67245U 25311K   26181.49925920  .00000010  00000-0  85443-4 0  9993
2 67245  50.0042 344.8923 0089074   1.1779 358.9324 14.12643541 26376
CZ-8A R/B
1 67245U 25311K   26182.13594161 -.00000018  00000-0  71266-4 0  9991
2 67245  50.0041 342.2605 0089077   3.3602 356.7886 14.12643756 26463
CZ-8A R/B
1 67245U 25311K   26182.13594161 -.00000018  00000-0  71266-4 0  9991
2 67245  50.0041 342.2605 0089077   3.3602 356.7886 14.12643756 26463
CZ-8A R/B
1 67245U 25311K   26183.12633631 -.00000078  00000-0  39899-4 0  9999
2 67245  50.0041 338.1667 0089078   6.7489 353.4597 14.12643937 26606
CZ-8A R/B
1 67245U 25311K   26183.69227602 -.00000097  00000-0  30121-4 0  9998
2 67245  50.0040 335.8272 0089064   8.6849 351.5577 14.12644069 26689
CZ-8A R/B
1 67245U 25311K   26183.69227602 -.00000097  00000-0  30121-4 0  9998
2 67245  50.0040 335.8272 0089064   8.6849 351.5577 14.12644069 26689
CZ-8A R/B
1 67245U 25311K   26184.39970060 -.00000135  00000-0  10809-4 0  9993
2 67245  50.0040 332.9029 0089066  11.1044 349.1804 14.12644133 26784
CZ-8A R/B
1 67245U 25311K   26185.10712510 -.00000170  00000-0 -74007-5 0  9998
2 67245  50.0041 329.9788 0089055  13.5219 346.8046 14.12644172 26887
CZ-8A R/B
1 67245U 25311K   26185.10712511 -.00000170  00000-0 -74007-5 0  9999
2 67245  50.0041 329.9788 0089055  13.5219 346.8047 14.12644172 26888
CZ-8A R/B
1 67245U 25311K   26185.81454949 -.00000168  00000-0 -65909-5 0  9993
2 67245  50.0040 327.0546 0089050  15.9451 344.4230 14.12644327 26988
CZ-8A R/B
1 67245U 25311K   26186.38048909 -.00000194  00000-0 -19978-4 0  9994
2 67245  50.0040 324.7151 0089043  17.8781 342.5227 14.12644222 27062
CZ-8A R/B
1 67245U 25311K   26186.38048909 -.00000194  00000-0 -19978-4 0  9994
2 67245  50.0040 324.7151 0089043  17.8781 342.5227 14.12644222 27062
CZ-8A R/B
1 67245U 25311K   26186.59271647 -.00000204  00000-0 -25096-4 0  9994
2 67245  50.0040 323.8379 0089038  18.6053 341.8077 14.12644167 27095
CZ-8A R/B
1 67245U 25311K   26186.80494382 -.00000215  00000-0 -30510-4 0  9990
2 67245  50.0040 322.9606 0089042  19.3333 341.0919 14.12644106 27126
CZ-8A R/B
1 67245U 25311K   26186.80494382 -.00000215  00000-0 -30510-4 0  9990
2 67245  50.0040 322.9606 0089042  19.3333 341.0919 14.12644106 27126
CZ-8A R/B
1 67245U 25311K   26187.37088339 -.00000223  00000-0 -34525-4 0  9993
2 67245  50.0039 320.6212 0089039  21.2681 339.1892 14.12644025 27203
CZ-8A R/B
1 67245U 25311K   26187.58311071 -.00000226  00000-0 -36325-4 0  9991
2 67245  50.0040 319.7439 0089030  21.9941 338.4752 14.12643992 27234
CZ-8A R/B
1 67245U 25311K   26187.58311071 -.00000226  00000-0 -36325-4 0  9991
2 67245  50.0040 319.7439 0089030  21.9941 338.4752 14.12643992 27234
CZ-8A R/B
1 67245U 25311K   26188.36127757 -.00000220  00000-0 -33222-4 0  9991
2 67245  50.0039 316.5273 0089027  24.6568 335.8558 14.12643901 27341
CZ-8A R/B
1 67245U 25311K   26188.36127758 -.00000220  00000-0 -33222-4 0  9992
2 67245  50.0039 316.5273 0089027  24.6568 335.8558 14.12643901 27341
CZ-8A R/B
1 67245U 25311K   26189.35167176 -.00000192  00000-0 -18911-4 0  9996
2 67245  50.0041 312.4336 0089026  28.0483 332.5182 14.12643832 27487
CZ-8A R/B
1 67245U 25311K   26189.35167177 -.00000192  00000-0 -18911-4 0  9997
2 67245  50.0041 312.4336 0089026  28.0483 332.5182 14.12643832 27487
CZ-8A R/B
1 67245U 25311K   26189.63464144 -.00000177  00000-0 -10809-4 0  9993
2 67245  50.0041 311.2640 0089031  29.0146 331.5670 14.12643870 27523
CZ-8A R/B
1 67245U 25311K   26190.62503532 -.00000129  00000-0  13952-4 0  9997
2 67245  50.0040 307.1703 0089039  32.4033 328.2300 14.12643888 27664
CZ-8A R/B
1 67245U 25311K   26190.62503533 -.00000129  00000-0  13952-4 0  9998
2 67245  50.0040 307.1703 0089039  32.4033 328.2300 14.12643888 27664
CZ-8A R/B
1 67245U 25311K   26191.68617122 -.00000071  00000-0  44089-4 0  9996
2 67245  50.0037 302.7840 0089039  36.0141 324.6724 14.12643962 27813
CZ-8A R/B
1 67245U 25311K   26192.53507950 -.00000028  00000-0  66134-4 0  9995
2 67245  50.0036 299.2751 0089028  38.9110 321.8162 14.12644100 27931
CZ-8A R/B
1 67245U 25311K   26192.67656419 -.00000018  00000-0  71132-4 0  9998
2 67245  50.0036 298.6903 0089037  39.3960 321.3380 14.12644137 27950
CZ-8A R/B
1 67245U 25311K   26192.67656420 -.00000018  00000-0  71132-4 0  9990
2 67245  50.0036 298.6903 0089037  39.3960 321.3380 14.12644137 27950
CZ-8A R/B
1 67245U 25311K   26192.67656420 -.00000018  00000-0  71132-4 0  9990
2 67245  50.0036 298.6903 0089037  39.3960 321.3380 14.12644137 27950
CZ-8A R/B
1 67245U 25311K   26193.24250269  .00000007  00000-0  84019-4 0  9990
2 67245  50.0035 296.3509 0089030  41.3336 319.4266 14.12644278 28036
CZ-8A R/B
1 67245U 25311K   26193.52547185  .00000015  00000-0  88285-4 0  9995
2 67245  50.0035 295.1813 0089025  42.3047 318.4683 14.12644333 28073
CZ-8A R/B
1 67245U 25311K   26193.52547186  .00000015  00000-0  88285-4 0  9996
2 67245  50.0035 295.1813 0089025  42.3047 318.4683 14.12644333 28073
CZ-8A R/B
1 67245U 25311K   26194.23289448  .00000039  00000-0  10075-3 0  9996
2 67245  50.0033 292.2570 0089024  44.7144 316.0898 14.12644557 28173
CZ-8A R/B
1 67245U 25311K   26194.44512117  .00000041  00000-0  10181-3 0  9992
2 67245  50.0034 291.3797 0089023  45.4466 315.3668 14.12644621 28202
CZ-8A R/B
1 67245U 25311K   26194.51586339  .00000042  00000-0  10227-3 0  9999
2 67245  50.0034 291.0873 0089020  45.6861 315.1303 14.12644634 28211
CZ-8A R/B
1 67245U 25311K   26194.51586340  .00000042  00000-0  10227-3 0  9991
2 67245  50.0034 291.0873 0089020  45.6861 315.1303 14.12644634 28211
CZ-8A R/B
1 67245U 25311K   26195.22328541  .00000048  00000-0  10551-3 0  9993
2 67245  50.0032 288.1630 0089022  48.1041 312.7418 14.12644858 28316
CZ-8A R/B
1 67245U 25311K   26195.50625404  .00000045  00000-0  10369-3 0  9996
2 67245  50.0032 286.9934 0089007  49.0794 311.7779 14.12644944 28356
CZ-8A R/B
1 67245U 25311K   26196.21367537  .00000032  00000-0  97427-4 0  9992
2 67245  50.0031 284.0691 0089006  51.4963 309.3885 14.12645158 28458
CZ-8A R/B
1 67245U 25311K   26196.49664378  .00000023  00000-0  92791-4 0  9994
2 67245  50.0031 282.8995 0089004  52.4659 308.4296 14.12645239 28492
CZ-8A R/B
1 67245U 25311K   26196.56738588  .00000025  00000-0  93707-4 0  9997
2 67245  50.0031 282.6071 0089013  52.7110 308.1872 14.12645287 28502
CZ-8A R/B
1 67245U 25311K   26196.56738588  .00000025  00000-0  93707-4 0  9997
2 67245  50.0031 282.6071 0089013  52.7110 308.1872 14.12645287 28502
CZ-8A R/B
1 67245U 25311K   26197.20406448 -.00000002  00000-0  79875-4 0  9992
2 67245  50.0029 279.9752 0089008  54.8855 306.0356 14.12645444 28595
CZ-8A R/B
1 67245U 25311K   26197.20406448 -.00000002  00000-0  79875-4 0  9992
2 67245  50.0029 279.9752 0089008  54.8855 306.0356 14.12645444 28595
CZ-8A R/B
1 67245U 25311K   26197.48703265 -.00000017  00000-0  71906-4 0  9992
2 67245  50.0029 278.8055 0089008  55.8550 305.0760 14.12645500 28638
CZ-8A R/B
1 67245U 25311K   26197.48703266 -.00000017  00000-0  71906-4 0  9993
2 67245  50.0029 278.8055 0089008  55.8550 305.0760 14.12645500 28638
CZ-8A R/B
1 67245U 25311K   26198.19445277 -.00000054  00000-0  52885-4 0  9993
2 67245  50.0029 275.8813 0089010  58.2671 302.6874 14.12645658 28735
CZ-8A R/B
1 67245U 25311K   26198.26519475 -.00000061  00000-0  49396-4 0  9994
2 67245  50.0028 275.5889 0089000  58.5134 302.4434 14.12645651 28744
CZ-8A R/B
1 67245U 25311K   26198.61890466 -.00000083  00000-0  37813-4 0  9990
2 67245  50.0028 274.1268 0089001  59.7241 301.2439 14.12645693 28796
CZ-8A R/B
1 67245U 25311K   26198.61890467 -.00000083  00000-0  37813-4 0  9991
2 67245  50.0028 274.1268 0089001  59.7241 301.2439 14.12645693 28796
CZ-8A R/B
1 67245U 25311K   26199.46780803 -.00000135  00000-0  10794-4 0  9994
2 67245  50.0026 270.6176 0088992  62.6268 298.3662 14.12645762 28918
CZ-8A R/B
1 67245U 25311K   26200.17522716 -.00000176  00000-0 -10177-4 0  9993
2 67245  50.0024 267.6934 0088989  65.0442 295.9680 14.12645780 29016
CZ-8A R/B
1 67245U 25311K   26200.59967853 -.00000201  00000-0 -23171-4 0  9991
2 67245  50.0023 265.9389 0088981  66.4963 294.5265 14.12645746 29077
CZ-8A R/B
1 67245U 25311K   26200.59967854 -.00000201  00000-0 -23171-4 0  9992
2 67245  50.0023 265.9389 0088981  66.4963 294.5265 14.12645746 29077
CZ-8A R/B
1 67245U 25311K   26201.23635541 -.00000227  00000-0 -36799-4 0  9997
2 67245  50.0021 263.3070 0088973  68.6753 292.3624 14.12645694 29163
CZ-8A R/B
1 67245U 25311K   26201.44858100 -.00000234  00000-0 -39951-4 0  9999
2 67245  50.0021 262.4297 0088973  69.4016 291.6409 14.12645672 29197
CZ-8A R/B
1 67245U 25311K   26202.50970857 -.00000245  00000-0 -45823-4 0  9998
2 67245  50.0019 258.0434 0088985  73.0417 288.0221 14.12645613 29341
CZ-8A R/B
1 67245U 25311K   26203.50009384 -.00000236  00000-0 -41487-4 0  9999
2 67245  50.0017 253.9493 0088984  76.4332 284.6469 14.12645500 29486
CZ-8A R/B
1 67245U 25311K   26204.49047861 -.00000200  00000-0 -22683-4 0  9998
2 67245  50.0016 249.8553 0088979  79.8234 281.2696 14.12645453 29626
CZ-8A R/B
1 67245U 25311K   26205.48086279 -.00000143  00000-0  69116-5 0  9992
2 67245  50.0014 245.7611 0088977  83.2143 277.8880 14.12645502 29766
CZ-8A R/B
1 67245U 25311K   26206.54198796 -.00000079  00000-0  39939-4 0  9995
2 67245  50.0013 241.3747 0088971  86.8465 274.2618 14.12645617 29911
CZ-8A R/B
1 67245U 25311K   26207.46162899 -.00000020  00000-0  70376-4 0  9998
2 67245  50.0013 237.5730 0088963  89.9935 271.1168 14.12645825 30040
CZ-8A R/B
1 67245U 25311K   26208.09830309  .00000001  00000-0  81309-4 0  9992
2 67245  50.0012 234.9409 0088955  92.1724 268.9373 14.12645934 30139
CZ-8A R/B
1 67245U 25311K   26208.52275230  .00000022  00000-0  92123-4 0  9995
2 67245  50.0011 233.1863 0088957  93.6235 267.4851 14.12646059 30198
CZ-8A R/B
1 67245U 25311K   26208.80571827  .00000028  00000-0  95339-4 0  9995
2 67245  50.0012 232.0166 0088952  94.5913 266.5162 14.12646147 30239
CZ-8A R/B
1 67245U 25311K   26209.44239153  .00000043  00000-0  10292-3 0  9990
2 67245  50.0011 229.3847 0088956  96.7737 264.3303 14.12646327 30328
CZ-8A R/B
1 67245U 25311K   26210.00832292  .00000049  00000-0  10585-3 0  9998
2 67245  50.0011 227.0452 0088950  98.7109 262.3887 14.12646509 30400
CZ-8A R/B
1 67245U 25311K   26210.29128846  .00000050  00000-0  10624-3 0  9998
2 67245  50.0011 225.8755 0088949  99.6791 261.4178 14.12646612 30449
CZ-8A R/B
1 67245U 25311K   26211.28166721  .00000039  00000-0  10066-3 0  9999
2 67245  50.0011 221.7814 0088944 103.0646 258.0209 14.12646951 30582
CZ-8A R/B
1 67245U 25311K   26212.27204484  .00000009  00000-0  85366-4 0  9991
2 67245  50.0010 217.6873 0088943 106.4553 254.6152 14.12647286 30720
CZ-8A R/B
1 67245U 25311K   26213.26242152 -.00000027  00000-0  66794-4 0  9990
2 67245  50.0009 213.5932 0088944 109.8484 251.2037 14.12647597 30865
CZ-8A R/B
1 67245U 25311K   26213.68686841 -.00000044  00000-0  58040-4 0  9997
2 67245  50.0009 211.8387 0088940 111.2987 249.7445 14.12647725 30926
CZ-8A R/B
1 67245U 25311K   26214.25279734 -.00000080  00000-0  39308-4 0  9996
2 67245  50.0009 209.4991 0088934 113.2382 247.7920 14.12647781 31002
CZ-8A R/B
1 67245U 25311K   26214.96020813 -.00000106  00000-0  25898-4 0  9994
2 67245  50.0009 206.5747 0088928 115.6543 245.3584 14.12647942 31107
CZ-8A R/B
1 67245U 25311K   26215.24317236 -.00000124  00000-0  16610-4 0  9996
2 67245  50.0009 205.4049 0088933 116.6272 244.3779 14.12647951 31145
CZ-8A R/B
1 67245U 25311K   26215.66761858 -.00000138  00000-0  92751-5 0  9991
2 67245  50.0009 203.6503 0088932 118.0751 242.9183 14.12648034 31200
CZ-8A R/B
1 67245U 25311K   26216.65799273 -.00000177  00000-0 -10771-4 0  9998
2 67245  50.0010 199.5562 0088936 121.4610 239.5029 14.12648059 31349
CZ-8A R/B
1 67245U 25311K   26217.22392051 -.00000189  00000-0 -17346-4 0  9993
2 67245  50.0011 197.2166 0088935 123.4033 237.5422 14.12648075 31427
CZ-8A R/B
1 67245U 25311K   26218.21429386 -.00000206  00000-0 -25800-4 0  9999
2 67245  50.0014 193.1226 0088935 126.7929 234.1181 14.12648045 31569
CZ-8A R/B
1 67245U 25311K   26219.27540773 -.00000207  00000-0 -26758-4 0  9994
2 67245  50.0016 188.7362 0088934 130.4299 230.4409 14.12647958 31714
CZ-8A R/B
1 67245U 25311K   26219.62911224 -.00000204  00000-0 -24837-4 0  9999
2 67245  50.0018 187.2741 0088933 131.6412 229.2155 14.12647962 31764
CZ-8A R/B
1 67245U 25311K   26220.12429848 -.00000196  00000-0 -20902-4 0  9991
2 67245  50.0019 185.2271 0088939 133.3409 227.4955 14.12647927 31839
CZ-8A R/B
1 67245U 25311K   26221.11467066 -.00000166  00000-0 -53302-5 0  9993
2 67245  50.0021 181.1332 0088941 136.7321 224.0617 14.12647939 31974
CZ-8A R/B
1 67245U 25311K   26222.60022821 -.00000106  00000-0  25339-4 0  9995
2 67245  50.0023 174.9924 0088932 141.8144 218.9109 14.12648020 32187
CZ-8A R/B
1 67245U 25311K   26223.23689541 -.00000076  00000-0  41089-4 0  9999
2 67245  50.0024 172.3607 0088934 143.9945 216.6998 14.12648102 32274
CZ-8A R/B
1 67245U 25311K   26223.59059928 -.00000064  00000-0  47134-4 0  9992
2 67245  50.0024 170.8986 0088931 145.2063 215.4704 14.12648147 32327
CZ-8A R/B
1 67245U 25311K   26224.22726612 -.00000039  00000-0  60233-4 0  9991
2 67245  50.0024 168.2668 0088937 147.3882 213.2561 14.12648246 32410
CZ-8A R/B
1 67245U 25311K   26225.85430259  .00000005  00000-0  82762-4 0  9993
2 67245  50.0025 161.5411 0088952 152.9382 207.6203 14.12648610 32647
CZ-8A R/B
1 67245U 25311K   26225.85430260  .00000005  00000-0  82762-4 0  9995
2 67245  50.0025 161.5411 0088952 152.9383 207.6203 14.12648610 32648
CZ-8A R/B
1 67245U 25311K   26226.20800591  .00000015  00000-0  87963-4 0  9992
2 67245  50.0024 160.0789 0088962 154.1385 206.4010 14.12648730 32697
CZ-8A R/B
1 67245U 25311K   26226.84467165  .00000019  00000-0  89934-4 0  9992
2 67245  50.0023 157.4470 0088969 156.3162 204.1879 14.12648918 32783
CZ-8A R/B
1 67245U 25311K   26227.05689349  .00000021  00000-0  90980-4 0  9992
2 67245  50.0023 156.5698 0088970 157.0442 203.4480 14.12649001 32814
CZ-8A R/B
1 67245U 25311K   26227.48133717  .00000012  00000-0  86144-4 0  9999
2 67245  50.0023 154.8154 0088963 158.4926 201.9756 14.12649095 32874
CZ-8A R/B
1 67245U 25311K   26227.76429951  .00000011  00000-0  85606-4 0  9999
2 67245  50.0024 153.6456 0088969 159.4634 200.9886 14.12649187 32910
CZ-8A R/B
1 67245U 25311K   26228.04726182  .00000009  00000-0  84789-4 0  9995
2 67245  50.0024 152.4759 0088974 160.4305 200.0053 14.12649296 32958
CZ-8A R/B
1 67245U 25311K   26228.47170522 -.00000008  00000-0  76106-4 0  9997
2 67245  50.0025 150.7214 0088972 161.8810 198.5303 14.12649392 33014
CZ-8A R/B
1 67245U 25311K   26229.03762963 -.00000022  00000-0  68678-4 0  9997
2 67245  50.0027 148.3820 0088984 163.8151 196.5631 14.12649550 33091
CZ-8A R/B
1 67245U 25311K   26229.74503489 -.00000054  00000-0  52106-4 0  9995
2 67245  50.0028 145.4578 0088985 166.2328 194.1037 14.12649702 33198
CZ-8A R/B
1 67245U 25311K   26230.16947799 -.00000058  00000-0  50012-4 0  9997
2 67245  50.0030 143.7034 0088986 167.6808 192.6304 14.12649876 33257
CZ-8A R/B
1 67245U 25311K   26230.73540199 -.00000089  00000-0  34077-4 0  9990
2 67245  50.0030 141.3641 0088987 169.6165 190.6607 14.12649951 33331
CZ-8A R/B
1 67245U 25311K   26230.94762348 -.00000101  00000-0  27929-4 0  9998
2 67245  50.0030 140.4869 0088989 170.3430 189.9214 14.12649975 33363
CZ-8A R/B
1 67245U 25311K   26231.01836399 -.00000100  00000-0  28486-4 0  9993
2 67245  50.0030 140.1945 0088988 170.5853 189.6748 14.12649997 33379
CZ-8A R/B
1 67245U 25311K   26232.15021189 -.00000157  00000-0 -13772-5 0  9998
2 67245  50.0031 135.5159 0088993 174.4507 185.7408 14.12650038 33536
CZ-8A R/B
1 67245U 25311K   26232.92835731 -.00000190  00000-0 -18122-4 0  9999
2 67245  50.0032 132.2993 0089006 177.1045 183.0396 14.12650009 33647
CZ-8A R/B
1 67245U 25311K   26233.06983835 -.00000197  00000-0 -21717-4 0  9995
2 67245  50.0030 131.7144 0088988 177.6050 182.5301 14.12649942 33662
CZ-8A R/B
1 67245U 25311K   26234.06020545 -.00000218  00000-0 -32574-4 0  9993
2 67245  50.0029 127.6206 0088984 180.9952 179.0792 14.12649833 33807
CZ-8A R/B
1 67245U 25311K   26234.97983217 -.00000215  00000-0 -31245-4 0  9998
2 67245  50.0028 123.8192 0088965 184.1538 175.8640 14.12649748 33938
CZ-8A R/B
1 67245U 25311K   26234.97983217 -.00000215  00000-0 -31245-4 0  9998
2 67245  50.0028 123.8192 0088965 184.1538 175.8640 14.12649748 33938
CZ-8A R/B
1 67245U 25311K   26236.04094015 -.00000179  00000-0 -12678-4 0  9995
2 67245  50.0027 119.4330 0088968 187.7630 172.1906 14.12649778 34082
CZ-8A R/B
1 67245U 25311K   26237.10204834 -.00000128  00000-0  13863-4 0  9995
2 67245  50.0026 115.0466 0088967 191.3934 168.4961 14.12649833 34238
CZ-8A R/B
1 67245U 25311K   26237.38501054 -.00000112  00000-0  22103-4 0  9999
2 67245  50.0027 113.8769 0088970 192.3594 167.5131 14.12649881 34274
CZ-8A R/B
1 67245U 25311K   26237.95093500 -.00000080  00000-0  38342-4 0  9990
2 67245  50.0026 111.5375 0088977 194.2965 165.5423 14.12649932 34359
CZ-8A R/B
1 67245U 25311K   26238.37537837 -.00000051  00000-0  53286-4 0  9995
2 67245  50.0027 109.7830 0088974 195.7494 164.0642 14.12650038 34418
CZ-8A R/B
1 67245U 25311K   26238.65834060 -.00000030  00000-0  64448-4 0  9993
2 67245  50.0027 108.6132 0088977 196.7148 163.0822 14.12650136 34453
CZ-8A R/B
1 67245U 25311K   26239.64870845  .00000022  00000-0  91176-4 0  9992
2 67245  50.0027 104.5193 0088983 200.1007 159.6388 14.12650387 34597
CZ-8A R/B
1 67245U 25311K   26240.63907628  .00000052  00000-0  10668-3 0  9992
2 67245  50.0028 100.4253 0088988 203.4872 156.1960 14.12650650 34738
CZ-8A R/B
1 67245U 25311K   26240.99277907  .00000061  00000-0  11109-3 0  9992
2 67245  50.0028  98.9633 0088987 204.6964 154.9670 14.12650756 34781
CZ-8A R/B
1 67245U 25311K   26241.62944415  .00000062  00000-0  11163-3 0  9999
2 67245  50.0028  96.3314 0088996 206.8779 152.7504 14.12650899 34877
CZ-8A R/B
1 67245U 25311K   26241.84166581  .00000057  00000-0  10922-3 0  9999
2 67245  50.0028  95.4542 0089000 207.6038 152.0129 14.12650945 34906
CZ-8A R/B
1 67245U 25311K   26242.26610911  .00000054  00000-0  10770-3 0  9995
2 67245  50.0027  93.6997 0088995 209.0554 150.5385 14.12651089 34963
CZ-8A R/B
1 67245U 25311K   26242.61981187  .00000051  00000-0  10615-3 0  9995
2 67245  50.0028  92.2375 0088999 210.2659 149.3091 14.12651208 35013
CZ-8A R/B
1 67245U 25311K   26242.90277407  .00000043  00000-0  10192-3 0  9991
2 67245  50.0028  91.0678 0088998 211.2326 148.3276 14.12651281 35056
CZ-8A R/B
1 67245U 25311K   26243.25647679  .00000032  00000-0  96355-4 0  9996
2 67245  50.0028  89.6057 0088997 212.4437 147.0981 14.12651412 35106
CZ-8A R/B
1 67245U 25311K   26243.89314175  .00000010  00000-0  84982-4 0  9997
2 67245  50.0027  86.9739 0088998 214.6229 144.8864 14.12651591 35198
CZ-8A R/B
1 67245U 25311K   26244.24684450 -.00000007  00000-0  75797-4 0  9994
2 67245  50.0028  85.5118 0088995 215.8352 143.6564 14.12651698 35240
CZ-8A R/B
1 67245U 25311K   26244.60054732 -.00000021  00000-0  68806-4 0  9997
2 67245  50.0028  84.0496 0088995 217.0474 142.4268 14.12651791 35299
