CZ-12 R/B
1 67531U 26013K   26020.92374552  .00000588  00000-0  37714-3 0  9997
2 67531  49.9894 178.5776 0069041 133.5031 227.1644 14.14453787   228
CZ-12 R/B
1 67531U 26013K   26021.48895440  .00000053  00000-0  10625-3 0  9992
2 67531  49.9895 176.2340 0069040 135.4395 225.2093 14.14450197   302
CZ-12 R/B
1 67531U 26013K   26021.91285891  .00000032  00000-0  95556-4 0  9997
2 67531  49.9896 174.4765 0069027 136.8695 223.7650 14.14450202   362
CZ-12 R/B
1 67531U 26013K   26022.47806450  .00000052  00000-0  10556-3 0  9997
2 67531  49.9896 172.1326 0069029 138.8130 221.8016 14.14450533   449
CZ-12 R/B
1 67531U 26013K   26022.83131793  .00000050  00000-0  10437-3 0  9994
2 67531  49.9897 170.6677 0069033 140.0221 220.5799 14.14450656   498
CZ-12 R/B
1 67531U 26013K   26023.67912562  .00000080  00000-0  11966-3 0  9999
2 67531  49.9898 167.1520 0069038 142.9302 217.6404 14.14451189   619
CZ-12 R/B
1 67531U 26013K   26023.74977632  .00000073  00000-0  11629-3 0  9994
2 67531  49.9898 166.8590 0069037 143.1704 217.3976 14.14451168   629
CZ-12 R/B
1 67531U 26013K   26024.10302938  .00000136  00000-0  14822-3 0  9994
2 67531  49.9898 165.3942 0069031 144.3843 216.1701 14.14451658   677
CZ-12 R/B
1 67531U 26013K   26024.10302938  .00000136  00000-0  14822-3 0  9994
2 67531  49.9898 165.3942 0069031 144.3843 216.1701 14.14451658   677
CZ-12 R/B
1 67531U 26013K   26024.80953531  .00000092  00000-0  12563-3 0  9993
2 67531  49.9898 162.4643 0069048 146.8121 213.7147 14.14451720   775
CZ-12 R/B
1 67531U 26013K   26024.80953531  .00000092  00000-0  12563-3 0  9993
2 67531  49.9898 162.4643 0069048 146.8121 213.7147 14.14451720   775
CZ-12 R/B
1 67531U 26013K   26025.65734218  .00000131  00000-0  14562-3 0  9991
2 67531  49.9903 158.9486 0069044 149.7029 210.7898 14.14452302   892
CZ-12 R/B
1 67531U 26013K   26025.72799294  .00000134  00000-0  14691-3 0  9990
2 67531  49.9902 158.6557 0069042 149.9306 210.5594 14.14452288   901
CZ-12 R/B
1 67531U 26013K   26025.72799294  .00000134  00000-0  14691-3 0  9990
2 67531  49.9902 158.6557 0069042 149.9306 210.5594 14.14452288   901
CZ-12 R/B
1 67531U 26013K   26026.08124568  .00000160  00000-0  16039-3 0  9993
2 67531  49.9903 157.1909 0069052 151.1417 209.3338 14.14452584   952
CZ-12 R/B
1 67531U 26013K   26026.64644985  .00000159  00000-0  15965-3 0  9990
2 67531  49.9902 154.8473 0069065 153.0799 207.3719 14.14452810  1032
CZ-12 R/B
1 67531U 26013K   26026.71710039  .00000170  00000-0  16514-3 0  9996
2 67531  49.9902 154.5543 0069062 153.3200 207.1288 14.14452883  1044
CZ-12 R/B
1 67531U 26013K   26026.71710039  .00000170  00000-0  16514-3 0  9996
2 67531  49.9902 154.5543 0069062 153.3200 207.1288 14.14452883  1044
CZ-12 R/B
1 67531U 26013K   26027.70620719  .00000222  00000-0  19144-3 0  9991
2 67531  49.9906 150.4522 0069086 156.7136 203.6927 14.14453600  1185
CZ-12 R/B
1 67531U 26013K   26027.70620719  .00000222  00000-0  19144-3 0  9991
2 67531  49.9906 150.4522 0069086 156.7136 203.6927 14.14453600  1185
CZ-12 R/B
1 67531U 26013K   26028.69531347  .00000226  00000-0  19360-3 0  9992
2 67531  49.9903 146.3505 0069054 160.0960 200.2666 14.14454070  1326
CZ-12 R/B
1 67531U 26013K   26029.54311800  .00000271  00000-0  21651-3 0  9993
2 67531  49.9902 142.8353 0069060 163.0056 197.3188 14.14454871  1440
CZ-12 R/B
1 67531U 26013K   26029.54311800  .00000271  00000-0  21651-3 0  9993
2 67531  49.9902 142.8353 0069060 163.0056 197.3188 14.14454871  1440
CZ-12 R/B
1 67531U 26013K   26035.76035615  .00000334  00000-0  24809-3 0  9999
2 67531  49.9916 117.0541 0068818 184.4999 175.5299 14.14456658  2325
CZ-12 R/B
1 67531U 26013K   26035.90165666  .00000341  00000-0  25149-3 0  9991
2 67531  49.9920 116.4691 0068778 185.0084 175.0143 14.14456886  2344
CZ-12 R/B
1 67531U 26013K   26036.25490764  .00000330  00000-0  24614-3 0  9994
2 67531  49.9921 115.0042 0068773 186.2195 173.7866 14.14457202  2396
CZ-12 R/B
1 67531U 26013K   26036.46685856  .00000320  00000-0  24097-3 0  9999
2 67531  49.9927 114.1265 0068783 186.9061 173.0906 14.14457366  2422
CZ-12 R/B
1 67531U 26013K   26036.67880913  .00000351  00000-0  25683-3 0  9999
2 67531  49.9919 113.2469 0068714 187.6860 172.3001 14.14457677  2454
CZ-12 R/B
1 67531U 26013K   26036.67880913  .00000351  00000-0  25683-3 0  9999
2 67531  49.9919 113.2469 0068714 187.6860 172.3000 14.14457677  2453
CZ-12 R/B
1 67531U 26013K   26037.24401097  .00000283  00000-0  22241-3 0  9996
2 67531  49.9920 110.9039 0068730 189.5936 170.3664 14.14457780  2533
CZ-12 R/B
1 67531U 26013K   26037.24401097  .00000283  00000-0  22241-3 0  9996
2 67531  49.9920 110.9039 0068730 189.5936 170.3664 14.14457780  2533
CZ-12 R/B
1 67531U 26013K   26038.23311426  .00000199  00000-0  17983-3 0  9995
2 67531  49.9916 106.8017 0068591 192.9956 166.9187 14.14458028  2675
CZ-12 R/B
1 67531U 26013K   26038.23311426  .00000199  00000-0  17983-3 0  9995
2 67531  49.9916 106.8017 0068591 192.9956 166.9187 14.14458028  2675
CZ-12 R/B
1 67531U 26013K   26038.51571581  .00000166  00000-0  16270-3 0  9998
2 67531  49.9922 105.6299 0068692 194.0204 165.8798 14.14457818  2719
CZ-12 R/B
1 67531U 26013K   26038.51571581  .00000166  00000-0  16270-3 0  9998
2 67531  49.9922 105.6299 0068692 194.0204 165.8798 14.14457818  2719
CZ-12 R/B
1 67531U 26013K   26039.15156725  .00000098  00000-0  12818-3 0  9996
2 67531  49.9920 102.9928 0068779 196.1621 163.7093 14.14457951  2801
CZ-12 R/B
1 67531U 26013K   26039.15156725  .00000098  00000-0  12818-3 0  9996
2 67531  49.9920 102.9928 0068779 196.1621 163.7093 14.14457951  2801
CZ-12 R/B
1 67531U 26013K   26039.36351880  .00000085  00000-0  12194-3 0  9991
2 67531  49.9934 102.1142 0068797 196.8604 163.0017 14.14457886  2833
CZ-12 R/B
1 67531U 26013K   26039.36351880  .00000085  00000-0  12194-3 0  9991
2 67531  49.9934 102.1142 0068797 196.8604 163.0017 14.14457886  2833
CZ-12 R/B
1 67531U 26013K   26041.41237602 -.00000041  00000-0  57846-4 0  9992
2 67531  49.9948  93.6188 0068950 203.7924 155.9792 14.14458084  3120
CZ-12 R/B
1 67531U 26013K   26041.41237602 -.00000041  00000-0  57846-4 0  9992
2 67531  49.9948  93.6188 0068950 203.7924 155.9792 14.14458084  3120
CZ-12 R/B
1 67531U 26013K   26041.62432691 -.00000052  00000-0  52226-4 0  9999
2 67531  49.9940  92.7401 0068907 204.5348 155.2276 14.14458023  3157
CZ-12 R/B
1 67531U 26013K   26043.53188265 -.00000097  00000-0  29279-4 0  9997
2 67531  49.9950  84.8308 0069046 211.1395 148.5414 14.14458304  3428
CZ-12 R/B
1 67531U 26013K   26043.53188265 -.00000097  00000-0  29279-4 0  9997
2 67531  49.9950  84.8308 0069046 211.1395 148.5414 14.14458304  3428
CZ-12 R/B
1 67531U 26013K   26044.09708606 -.00000116  00000-0  20034-4 0  9998
2 67531  49.9931  82.4880 0068954 213.0770 146.5816 14.14457917  3503
CZ-12 R/B
1 67531U 26013K   26044.30903653 -.00000106  00000-0  24917-4 0  9994
2 67531  49.9940  81.6091 0069052 213.8608 145.7882 14.14458025  3534
CZ-12 R/B
1 67531U 26013K   26044.30903653 -.00000106  00000-0  24917-4 0  9994
2 67531  49.9940  81.6091 0069052 213.8608 145.7882 14.14458025  3534
CZ-12 R/B
1 67531U 26013K   26051.23278434  .00000058  00000-0  10792-3 0  9996
2 67531  49.9939  52.8950 0068750 237.7259 121.6977 14.14457420  4512
CZ-12 R/B
1 67531U 26013K   26051.23278434  .00000058  00000-0  10792-3 0  9996
2 67531  49.9939  52.8950 0068750 237.7259 121.6977 14.14457420  4512
CZ-12 R/B
1 67531U 26013K   26052.15124160  .00000107  00000-0  13300-3 0  9997
2 67531  49.9938  49.0870 0068822 240.8925 118.5081 14.14457701  4642
CZ-12 R/B
1 67531U 26013K   26052.22189237  .00000111  00000-0  13503-3 0  9991
2 67531  49.9941  48.7941 0068814 241.1235 118.2756 14.14457712  4659
CZ-12 R/B
1 67531U 26013K   26052.43384353  .00000125  00000-0  14190-3 0  9998
2 67531  49.9948  47.9145 0068946 241.7618 117.6319 14.14457841  4684
CZ-12 R/B
1 67531U 26013K   26052.43384353  .00000125  00000-0  14190-3 0  9998
2 67531  49.9948  47.9145 0068946 241.7618 117.6319 14.14457841  4684
CZ-12 R/B
1 67531U 26013K   26052.99904931  .00000031  00000-0  94221-4 0  9999
2 67531  49.9943  45.5701 0068960 243.7062 115.6751 14.14456911  4766
CZ-12 R/B
1 67531U 26013K   26053.14035045  .00000036  00000-0  96611-4 0  9998
2 67531  49.9947  44.9838 0068955 244.1970 115.1814 14.14456991  4786
CZ-12 R/B
1 67531U 26013K   26053.49360348  .00000061  00000-0  10946-3 0  9997
2 67531  49.9947  43.5190 0068954 245.4291 113.9420 14.14457187  4834
CZ-12 R/B
1 67531U 26013K   26053.98815791  .00000077  00000-0  11761-3 0  9991
2 67531  49.9947  41.4687 0068927 247.1462 112.2159 14.14457403  4901
CZ-12 R/B
1 67531U 26013K   26053.98815809  .00000077  00000-0  11761-3 0  9991
2 67531  49.9946  41.4692 0068898 247.1668 112.1954 14.14457402  4902
CZ-12 R/B
1 67531U 26013K   26054.12945929  .00000081  00000-0  11933-3 0  9991
2 67531  49.9946  40.8833 0068905 247.6459 111.7137 14.14457462  4920
CZ-12 R/B
1 67531U 26013K   26054.48271262  .00000092  00000-0  12514-3 0  9990
2 67531  49.9950  39.4188 0068902 248.8578 110.4957 14.14457598  4975
CZ-12 R/B
1 67531U 26013K   26054.48271262  .00000092  00000-0  12514-3 0  9990
2 67531  49.9950  39.4188 0068902 248.8578 110.4957 14.14457598  4975
CZ-12 R/B
1 67531U 26013K   26054.97726707  .00000097  00000-0  12790-3 0  9994
2 67531  49.9949  37.3680 0068875 250.5714 108.7743 14.14457799  5043
CZ-12 R/B
1 67531U 26013K   26055.18921911  .00000101  00000-0  12951-3 0  9997
2 67531  49.9952  36.4891 0068875 251.2920 108.0505 14.14457863  5072
CZ-12 R/B
1 67531U 26013K   26055.47182163  .00000108  00000-0  13309-3 0  9992
2 67531  49.9952  35.3172 0068875 252.2709 107.0673 14.14458010  5113
CZ-12 R/B
1 67531U 26013K   26055.47182163  .00000108  00000-0  13309-3 0  9992
2 67531  49.9952  35.3172 0068875 252.2709 107.0673 14.14458010  5113
CZ-12 R/B
1 67531U 26013K   26055.89572543  .00000109  00000-0  13375-3 0  9997
2 67531  49.9953  33.5594 0068871 253.7352 105.5973 14.14458209  5170
CZ-12 R/B
1 67531U 26013K   26055.96637606  .00000108  00000-0  13307-3 0  9991
2 67531  49.9952  33.2665 0068875 253.9721 105.3595 14.14458228  5181
CZ-12 R/B
1 67531U 26013K   26056.17832800  .00000101  00000-0  12971-3 0  9997
2 67531  49.9953  32.3875 0068878 254.6620 104.6670 14.14458266  5216
CZ-12 R/B
1 67531U 26013K   26056.17832800  .00000101  00000-0  12971-3 0  9997
2 67531  49.9953  32.3875 0068878 254.6620 104.6670 14.14458266  5216
CZ-12 R/B
1 67531U 26013K   26056.46093057  .00000106  00000-0  13203-3 0  9996
2 67531  49.9951  31.2154 0068875 255.6471 103.6784 14.14458405  5258
CZ-12 R/B
1 67531U 26013K   26056.46093057  .00000106  00000-0  13203-3 0  9996
2 67531  49.9951  31.2154 0068875 255.6471 103.6784 14.14458405  5258
CZ-12 R/B
1 67531U 26013K   26056.88483443  .00000100  00000-0  12927-3 0  9990
2 67531  49.9953  29.4577 0068874 257.1073 102.2136 14.14458597  5317
CZ-12 R/B
1 67531U 26013K   26057.16743704  .00000091  00000-0  12482-3 0  9996
2 67531  49.9955  28.2856 0068879 258.0616 101.2565 14.14458698  5355
CZ-12 R/B
1 67531U 26013K   26057.16743704  .00000091  00000-0  12482-3 0  9996
2 67531  49.9955  28.2856 0068879 258.0616 101.2565 14.14458698  5355
CZ-12 R/B
1 67531U 26013K   26057.45003976  .00000090  00000-0  12429-3 0  9998
2 67531  49.9955  27.1137 0068888 259.0752 100.2401 14.14458806  5390
CZ-12 R/B
1 67531U 26013K   26057.45003976  .00000090  00000-0  12429-3 0  9998
2 67531  49.9955  27.1137 0068888 259.0751 100.2401 14.14458806  5399
CZ-12 R/B
1 67531U 26013K   26057.87394367  .00000082  00000-0  12000-3 0  9997
2 67531  49.9956  25.3560 0068888 260.5355  98.7763 14.14459010  5454
CZ-12 R/B
1 67531U 26013K   26057.87394367  .00000082  00000-0  12000-3 0  9997
2 67531  49.9956  25.3560 0068888 260.5355  98.7763 14.14459010  5454
CZ-12 R/B
1 67531U 26013K   26058.15654663  .00000072  00000-0  11487-3 0  9994
2 67531  49.9959  24.1843 0068922 261.5615  97.7477 14.14459017  5499
CZ-12 R/B
1 67531U 26013K   26058.15654663  .00000072  00000-0  11487-3 0  9994
2 67531  49.9959  24.1843 0068922 261.5615  97.7477 14.14459017  5499
CZ-12 R/B
1 67531U 26013K   26058.58045066  .00000059  00000-0  10834-3 0  9992
2 67531  49.9962  22.4274 0068935 263.0109  96.2956 14.14459233  5554
CZ-12 R/B
1 67531U 26013K   26058.58045066  .00000059  00000-0  10834-3 0  9992
2 67531  49.9962  22.4274 0068935 263.0109  96.2956 14.14459233  5554
CZ-12 R/B
1 67531U 26013K   26059.14565610  .00000037  00000-0  97526-4 0  9997
2 67531  49.9953  20.0839 0068919 264.9591  94.3449 14.14459399  5630
CZ-12 R/B
1 67531U 26013K   26059.28695744  .00000035  00000-0  96461-4 0  9999
2 67531  49.9951  19.4980 0068917 265.4152  93.8883 14.14459440  5659
CZ-12 R/B
1 67531U 26013K   26059.28695744  .00000035  00000-0  96461-4 0  9999
2 67531  49.9951  19.4980 0068917 265.4152  93.8883 14.14459440  5659
CZ-12 R/B
1 67531U 26013K   26059.56956007  .00000019  00000-0  87972-4 0  9991
2 67531  49.9951  18.3258 0068909 266.3821  92.9205 14.14459540  5692
CZ-12 R/B
1 67531U 26013K   26059.56956012  .00000018  00000-0  87645-4 0  9993
2 67531  49.9952  18.3258 0068897 266.3833  92.9195 14.14459537  5696
CZ-12 R/B
1 67531U 26013K   26060.20541648 -.00000010  00000-0  73352-4 0  9994
2 67531  49.9951  15.6893 0068904 268.5667  90.7347 14.14459676  5787
CZ-12 R/B
1 67531U 26013K   26060.20541648 -.00000010  00000-0  73352-4 0  9994
2 67531  49.9951  15.6893 0068904 268.5668  90.7347 14.14459676  5788
CZ-12 R/B
1 67531U 26013K   26060.91192358 -.00000042  00000-0  57096-4 0  9994
2 67531  49.9954  12.7593 0068888 271.0124  88.2893 14.14459906  5888
CZ-12 R/B
1 67531U 26013K   26060.91192358 -.00000042  00000-0  57096-4 0  9994
2 67531  49.9954  12.7593 0068888 271.0124  88.2893 14.14459906  5888
CZ-12 R/B
1 67531U 26013K   26061.12387603 -.00000056  00000-0  50023-4 0  9995
2 67531  49.9951  11.8806 0068853 271.7381  87.5643 14.14459888  5914
CZ-12 R/B
1 67531U 26013K   26061.54778038 -.00000071  00000-0  42468-4 0  9998
2 67531  49.9952  10.1228 0068847 273.1829  86.1204 14.14460009  5972
CZ-12 R/B
1 67531U 26013K   26061.54778038 -.00000071  00000-0  42468-4 0  9998
2 67531  49.9952  10.1228 0068847 273.1829  86.1204 14.14460009  5972
CZ-12 R/B
1 67531U 26013K   26061.83038341 -.00000084  00000-0  36019-4 0  9995
2 67531  49.9951   8.9510 0068841 274.1621  85.1422 14.14460037  6013
CZ-12 R/B
1 67531U 26013K   26061.83038341 -.00000084  00000-0  36019-4 0  9995
2 67531  49.9951   8.9510 0068841 274.1621  85.1422 14.14460037  6013
CZ-12 R/B
1 67531U 26013K   26062.11298647 -.00000103  00000-0  26455-4 0  9999
2 67531  49.9951   7.7792 0068842 275.1210  84.1844 14.14460037  6059
CZ-12 R/B
1 67531U 26013K   26062.11298647 -.00000103  00000-0  26455-4 0  9999
2 67531  49.9951   7.7792 0068842 275.1210  84.1844 14.14460037  6059
CZ-12 R/B
1 67531U 26013K   26062.96079566 -.00000131  00000-0  12279-4 0  9999
2 67531  49.9953   4.2639 0068850 278.0196  81.2905 14.14460196  6172
CZ-12 R/B
1 67531U 26013K   26063.10209743 -.00000132  00000-0  11833-4 0  9994
2 67531  49.9951   3.6781 0068860 278.5096  80.8013 14.14460154  6197
CZ-12 R/B
1 67531U 26013K   26063.10209743 -.00000132  00000-0  11833-4 0  9994
2 67531  49.9951   3.6781 0068860 278.5096  80.8013 14.14460154  6197
CZ-12 R/B
1 67531U 26013K   26064.09120899 -.00000171  00000-0 -80895-5 0  9996
2 67531  49.9950 359.5769 0068844 281.8995  77.4200 14.14460125  6336
CZ-12 R/B
1 67531U 26013K   26064.09120899 -.00000171  00000-0 -80895-5 0  9996
2 67531  49.9950 359.5769 0068844 281.8995  77.4200 14.14460125  6336
CZ-12 R/B
1 67531U 26013K   26064.51511409 -.00000183  00000-0 -14213-4 0  9997
2 67531  49.9950 357.8189 0068847 283.3641  75.9599 14.14460106  6390
CZ-12 R/B
1 67531U 26013K   26064.51511409 -.00000183  00000-0 -14213-4 0  9997
2 67531  49.9950 357.8189 0068847 283.3641  75.9599 14.14460106  6390
CZ-12 R/B
1 67531U 26013K   26064.93901943 -.00000209  00000-0 -27551-4 0  9997
2 67531  49.9951 356.0613 0068836 284.8302  74.4989 14.14459996  6451
CZ-12 R/B
1 67531U 26013K   26065.22162304 -.00000213  00000-0 -29208-4 0  9996
2 67531  49.9951 354.8895 0068834 285.7974  73.5353 14.14459966  6498
CZ-12 R/B
1 67531U 26013K   26066.14008523 -.00000225  00000-0 -35599-4 0  9993
2 67531  49.9947 351.0814 0068808 288.9563  70.3898 14.14459814  6629
CZ-12 R/B
1 67531U 26013K   26066.14008523 -.00000225  00000-0 -35599-4 0  9993
2 67531  49.9947 351.0814 0068808 288.9563  70.3898 14.14459814  6629
CZ-12 R/B
1 67531U 26013K   26066.49333999 -.00000212  00000-0 -28746-4 0  9991
2 67531  49.9947 349.6167 0068790 290.1771  69.1748 14.14459884  6671
CZ-12 R/B
1 67531U 26013K   26066.49333999 -.00000212  00000-0 -28746-4 0  9991
2 67531  49.9947 349.6167 0068790 290.1771  69.1748 14.14459885  6672
CZ-12 R/B
1 67531U 26013K   26067.05854791 -.00000212  00000-0 -28872-4 0  9992
2 67531  49.9946 347.2732 0068770 292.1255  67.2364 14.14459792  6759
CZ-12 R/B
1 67531U 26013K   26067.19984995 -.00000210  00000-0 -27997-4 0  9992
2 67531  49.9946 346.6875 0068761 292.6071  66.7575 14.14459775  6772
CZ-12 R/B
1 67531U 26013K   26067.19984995 -.00000210  00000-0 -27997-4 0  9992
2 67531  49.9946 346.6875 0068761 292.6071  66.7575 14.14459775  6772
CZ-12 R/B
1 67531U 26013K   26067.97701147 -.00000216  00000-0 -30716-4 0  9993
2 67531  49.9946 343.4650 0068716 295.3295  64.0507 14.14459596  6885
CZ-12 R/B
1 67531U 26013K   26068.11831355 -.00000208  00000-0 -26787-4 0  9999
2 67531  49.9947 342.8791 0068710 295.8158  63.5674 14.14459608  6908
CZ-12 R/B
1 67531U 26013K   26069.10742815 -.00000195  00000-0 -20391-4 0  9991
2 67531  49.9943 338.7772 0068701 299.1708  60.2339 14.14459476  7046
CZ-12 R/B
1 67531U 26013K   26069.10742815 -.00000195  00000-0 -20391-4 0  9991
2 67531  49.9943 338.7772 0068701 299.1708  60.2339 14.14459477  7047
CZ-12 R/B
1 67531U 26013K   26069.74328801 -.00000179  00000-0 -11959-4 0  9998
2 67531  49.9942 336.1408 0068694 301.3552  58.0647 14.14459448  7133
CZ-12 R/B
1 67531U 26013K   26069.95524166 -.00000175  00000-0 -10058-4 0  9998
2 67531  49.9941 335.2616 0068651 302.1306  57.2954 14.14459410  7166
CZ-12 R/B
1 67531U 26013K   26070.09654388 -.00000168  00000-0 -65747-5 0  9993
2 67531  49.9940 334.6756 0068651 302.6124  56.8171 14.14459403  7186
CZ-12 R/B
1 67531U 26013K   26070.09654388 -.00000168  00000-0 -65747-5 0  9993
2 67531  49.9940 334.6756 0068651 302.6124  56.8171 14.14459403  7186
CZ-12 R/B
1 67531U 26013K   26070.94435752 -.00000140  00000-0  76452-5 0  9993
2 67531  49.9938 331.1599 0068646 305.5259  53.9261 14.14459383  7304
CZ-12 R/B
1 67531U 26013K   26070.94435752 -.00000140  00000-0  76452-5 0  9993
2 67531  49.9938 331.1599 0068646 305.5259  53.9261 14.14459383  7304
CZ-12 R/B
1 67531U 26013K   26071.65086920 -.00000097  00000-0  29762-4 0  9993
2 67531  49.9938 328.2306 0068646 307.9625  51.5095 14.14459506  7407
CZ-12 R/B
1 67531U 26013K   26071.65086920 -.00000097  00000-0  29762-4 0  9993
2 67531  49.9938 328.2306 0068646 307.9625  51.5095 14.14459506  7407
CZ-12 R/B
1 67531U 26013K   26072.14542716 -.00000073  00000-0  41885-4 0  9992
2 67531  49.9936 326.1785 0068700 309.6140  49.8717 14.14459520  7479
CZ-12 R/B
1 67531U 26013K   26072.99324156 -.00000032  00000-0  62295-4 0  9994
2 67531  49.9936 322.6625 0068692 312.5233  46.9888 14.14459652  7595
CZ-12 R/B
1 67531U 26013K   26073.62910238  .00000009  00000-0  83333-4 0  9996
2 67531  49.9933 320.0260 0068716 314.6883  44.8440 14.14459848  7688
CZ-12 R/B
1 67531U 26013K   26073.98235861  .00000023  00000-0  90350-4 0  9990
2 67531  49.9936 318.5611 0068690 315.9432  43.6016 14.14459958  7732
CZ-12 R/B
1 67531U 26013K   26074.61821956  .00000046  00000-0  10216-3 0  9994
2 67531  49.9934 315.9244 0068699 318.1208  41.4457 14.14460123  7829
CZ-12 R/B
1 67531U 26013K   26074.90082447  .00000058  00000-0  10838-3 0  9993
2 67531  49.9935 314.7524 0068708 319.0835  40.4929 14.14460217  7866
CZ-12 R/B
1 67531U 26013K   26074.97147568  .00000063  00000-0  11082-3 0  9994
2 67531  49.9934 314.4595 0068709 319.3267  40.2523 14.14460249  7877
CZ-12 R/B
1 67531U 26013K   26075.88994145  .00000101  00000-0  13015-3 0  9997
2 67531  49.9931 310.6506 0068651 322.4791  37.1337 14.14460658  8005
CZ-12 R/B
1 67531U 26013K   26076.03124392  .00000106  00000-0  13280-3 0  9993
2 67531  49.9932 310.0647 0068663 322.9739  36.6442 14.14460727  8026
CZ-12 R/B
1 67531U 26013K   26076.03124392  .00000106  00000-0  13280-3 0  9993
2 67531  49.9932 310.0647 0068663 322.9739  36.6442 14.14460727  8026
CZ-12 R/B
1 67531U 26013K   26076.66710494  .00000124  00000-0  14162-3 0  9996
2 67531  49.9933 307.4288 0068659 325.1501  34.4922 14.14461043  8116
CZ-12 R/B
1 67531U 26013K   26076.87905859  .00000129  00000-0  14406-3 0  9996
2 67531  49.9934 306.5500 0068654 325.8729  33.7777 14.14461147  8146
CZ-12 R/B
1 67531U 26013K   26076.94970994  .00000129  00000-0  14431-3 0  9994
2 67531  49.9933 306.2570 0068675 326.1481  33.5054 14.14461168  8151
CZ-12 R/B
1 67531U 26013K   26077.30296590  .00000134  00000-0  14660-3 0  9998
2 67531  49.9930 304.7915 0068696 327.3760  32.2915 14.14461350  8201
CZ-12 R/B
1 67531U 26013K   26077.58557074  .00000138  00000-0  14889-3 0  9992
2 67531  49.9927 303.6197 0068707 328.3377  31.3408 14.14461466  8244
CZ-12 R/B
1 67531U 26013K   26077.58557074  .00000138  00000-0  14889-3 0  9992
2 67531  49.9927 303.6197 0068707 328.3377  31.3408 14.14461466  8244
CZ-12 R/B
1 67531U 26013K   26077.86817553  .00000140  00000-0  14978-3 0  9996
2 67531  49.9930 302.4477 0068699 329.3081  30.3818 14.14461631  8281
CZ-12 R/B
1 67531U 26013K   26077.93882672  .00000138  00000-0  14907-3 0  9997
2 67531  49.9929 302.1547 0068695 329.5492  30.1436 14.14461652  8296
CZ-12 R/B
1 67531U 26013K   26078.29208273  .00000136  00000-0  14784-3 0  9997
2 67531  49.9928 300.6898 0068702 330.7703  28.9369 14.14461814  8341
CZ-12 R/B
1 67531U 26013K   26078.85729220  .00000128  00000-0  14365-3 0  9995
2 67531  49.9929 298.3462 0068691 332.7005  27.0301 14.14462097  8425
CZ-12 R/B
1 67531U 26013K   26078.92794339  .00000130  00000-0  14479-3 0  9995
2 67531  49.9929 298.0533 0068697 332.9418  26.7917 14.14462138  8433
CZ-12 R/B
1 67531U 26013K   26078.92794339  .00000130  00000-0  14479-3 0  9995
2 67531  49.9929 298.0533 0068697 332.9418  26.7917 14.14462138  8433
CZ-12 R/B
1 67531U 26013K   26079.28119925  .00000118  00000-0  13877-3 0  9994
2 67531  49.9927 296.5883 0068694 334.1565  25.5919 14.14462289  8487
CZ-12 R/B
1 67531U 26013K   26079.28119925  .00000118  00000-0  13877-3 0  9994
2 67531  49.9926 296.5883 0068694 334.1565  25.5919 14.14462289  8486
CZ-12 R/B
1 67531U 26013K   26079.91705987  .00000103  00000-0  13120-3 0  9998
2 67531  49.9924 293.9516 0068706 336.3485  23.4271 14.14462561  8578
CZ-12 R/B
1 67531U 26013K   26080.27031569  .00000091  00000-0  12484-3 0  9995
2 67531  49.9925 292.4869 0068720 337.5621  22.2287 14.14462745  8629
CZ-12 R/B
1 67531U 26013K   26080.55292025  .00000088  00000-0  12354-3 0  9994
2 67531  49.9924 291.3151 0068712 338.5213  21.2817 14.14462905  8669
CZ-12 R/B
1 67531U 26013K   26080.90617604  .00000071  00000-0  11495-3 0  9994
2 67531  49.9926 289.8505 0068700 339.7362  20.0823 14.14463069  8713
CZ-12 R/B
1 67531U 26013K   26081.25943177  .00000052  00000-0  10555-3 0  9995
2 67531  49.9926 288.3858 0068705 340.9467  18.8874 14.14463216  8763
CZ-12 R/B
1 67531U 26013K   26081.82464081  .00000025  00000-0  91876-4 0  9996
2 67531  49.9928 286.0415 0068705 342.8699  16.9892 14.14463425  8847
CZ-12 R/B
1 67531U 26013K   26082.24854763  .00000004  00000-0  80968-4 0  9990
2 67531  49.9926 284.2837 0068714 344.3321  15.5462 14.14463575  8903
CZ-12 R/B
1 67531U 26013K   26082.24854763  .00000004  00000-0  80968-4 0  9990
2 67531  49.9926 284.2837 0068714 344.3320  15.5462 14.14463575  8902
CZ-12 R/B
1 67531U 26013K   26082.95505914 -.00000036  00000-0  60667-4 0  9999
2 67531  49.9924 281.3540 0068711 346.7971  13.1138 14.14463731  9004
CZ-12 R/B
1 67531U 26013K   26083.23766362 -.00000056  00000-0  50541-4 0  9999
2 67531  49.9923 280.1823 0068717 347.7539  12.1698 14.14463785  9044
CZ-12 R/B
1 67531U 26013K   26083.52026810 -.00000068  00000-0  44491-4 0  9998
2 67531  49.9924 279.0104 0068700 348.7006  11.2358 14.14463834  9088
CZ-12 R/B
1 67531U 26013K   26083.94417492 -.00000093  00000-0  31798-4 0  9998
2 67531  49.9924 277.2524 0068701 350.1697   9.7864 14.14463902  9145
CZ-12 R/B
1 67531U 26013K   26084.22677948 -.00000111  00000-0  22614-4 0  9992
2 67531  49.9924 276.0805 0068720 351.1307   8.8383 14.14463921  9185
CZ-12 R/B
1 67531U 26013K   26084.79198863 -.00000140  00000-0  79797-5 0  9995
2 67531  49.9921 273.7369 0068739 353.0909   6.9047 14.14463955  9262
CZ-12 R/B
1 67531U 26013K   26084.93329090 -.00000146  00000-0  49305-5 0  9997
2 67531  49.9922 273.1510 0068732 353.5697   6.4324 14.14463969  9287
CZ-12 R/B
1 67531U 26013K   26084.93329090 -.00000146  00000-0  49305-5 0  9997
2 67531  49.9922 273.1510 0068732 353.5696   6.4324 14.14463969  9286
CZ-12 R/B
1 67531U 26013K   26085.49849994 -.00000170  00000-0 -71223-5 0  9991
2 67531  49.9929 270.8073 0068717 355.4924   4.5359 14.14464030  9365
CZ-12 R/B
1 67531U 26013K   26085.49849998 -.00000173  00000-0 -86714-5 0  9999
2 67531  49.9920 270.8074 0068714 355.4931   4.5352 14.14463952  9367
CZ-12 R/B
1 67531U 26013K   26085.92240682 -.00000190  00000-0 -17144-4 0  9991
2 67531  49.9929 269.0495 0068698 356.9444   3.1036 14.14464005  9420
CZ-12 R/B
1 67531U 26013K   26086.20501138 -.00000205  00000-0 -24973-4 0  9994
2 67531  49.9920 267.8775 0068697 357.9121   2.1492 14.14463925  9469
CZ-12 R/B
1 67531U 26013K   26086.20501138 -.00000205  00000-0 -24973-4 0  9994
2 67531  49.9920 267.8775 0068697 357.9121   2.1492 14.14463926  9460
CZ-12 R/B
1 67531U 26013K   26086.55826705 -.00000219  00000-0 -32147-4 0  9999
2 67531  49.9923 266.4120 0068691 359.1080   0.9697 14.14463876  9517
CZ-12 R/B
1 67531U 26013K   26086.77022058 -.00000229  00000-0 -37013-4 0  9990
2 67531  49.9923 265.5333 0068702 359.8547   0.2332 14.14463852  9547
CZ-12 R/B
1 67531U 26013K   26086.77022060 -.00000229  00000-0 -37015-4 0  9995
2 67531  49.9923 265.5335 0068707 359.8545   0.2333 14.14463854  9545
CZ-12 R/B
1 67531U 26013K   26086.77022060 -.00000225  00000-0 -35160-4 0  9990
2 67531  49.9924 265.5335 0068699 359.8550   0.2329 14.14463877  9542
CZ-12 R/B
1 67531U 26013K   26086.77022060 -.00000225  00000-0 -35160-4 0  9990
2 67531  49.9924 265.5335 0068699 359.8550   0.2329 14.14463877  9542
CZ-12 R/B
1 67531U 26013K   26087.75933679 -.00000251  00000-0 -47944-4 0  9998
2 67531  49.9924 261.4319 0068691   3.2466 356.8876 14.14463750  9689
CZ-12 R/B
1 67531U 26013K   26087.90063916 -.00000249  00000-0 -47352-4 0  9993
2 67531  49.9924 260.8460 0068693   3.7364 356.4044 14.14463751  9700
CZ-12 R/B
1 67531U 26013K   26088.18324378 -.00000258  00000-0 -51540-4 0  9990
2 67531  49.9924 259.6743 0068688   4.7066 355.4474 14.14463706  9744
CZ-12 R/B
1 67531U 26013K   26088.88975557 -.00000253  00000-0 -49126-4 0  9990
2 67531  49.9924 256.7444 0068701   7.1517 353.0357 14.14463639  9844
CZ-12 R/B
1 67531U 26013K   26088.88975557 -.00000253  00000-0 -49126-4 0  9990
2 67531  49.9924 256.7444 0068701   7.1517 353.0357 14.14463639  9844
CZ-12 R/B
1 67531U 26013K   26089.45496501 -.00000256  00000-0 -50759-4 0  9998
2 67531  49.9924 254.4008 0068705   9.0901 351.1235 14.14463537  9927
CZ-12 R/B
1 67531U 26013K   26089.45496501 -.00000256  00000-0 -50759-4 0  9998
2 67531  49.9924 254.4008 0068705   9.0901 351.1235 14.14463537  9927
CZ-12 R/B
1 67531U 26013K   26089.80822097 -.00000254  00000-0 -49343-4 0  9995
2 67531  49.9921 252.9358 0068711  10.3123 349.9178 14.14463462  9976
CZ-12 R/B
1 67531U 26013K   26090.16147685 -.00000252  00000-0 -48752-4 0  9990
2 67531  49.9922 251.4709 0068705  11.5276 348.7188 14.14463416 10021
CZ-12 R/B
1 67531U 26013K   26090.16147685 -.00000252  00000-0 -48752-4 0  9990
2 67531  49.9922 251.4709 0068705  11.5276 348.7188 14.14463416 10021
CZ-12 R/B
1 67531U 26013K   26090.51473280 -.00000244  00000-0 -44540-4 0  9994
2 67531  49.9919 250.0060 0068699  12.7417 347.5209 14.14463356 10073
CZ-12 R/B
1 67531U 26013K   26090.51473280 -.00000244  00000-0 -44540-4 0  9994
2 67531  49.9919 250.0060 0068699  12.7417 347.5209 14.14463356 10073
CZ-12 R/B
1 67531U 26013K   26090.79733750 -.00000235  00000-0 -39753-4 0  9995
2 67531  49.9918 248.8339 0068694  13.7096 346.5659 14.14463326 10115
CZ-12 R/B
1 67531U 26013K   26090.79733750 -.00000235  00000-0 -39753-4 0  9995
2 67531  49.9918 248.8339 0068694  13.7096 346.5659 14.14463327 10116
CZ-12 R/B
1 67531U 26013K   26091.15059341 -.00000231  00000-0 -38004-4 0  9997
2 67531  49.9916 247.3689 0068695  14.9169 345.3746 14.14463257 10162
CZ-12 R/B
1 67531U 26013K   26091.15059341 -.00000231  00000-0 -38004-4 0  9997
2 67531  49.9917 247.3689 0068695  14.9169 345.3746 14.14463257 10163
CZ-12 R/B
1 67531U 26013K   26091.43319822 -.00000237  00000-0 -40770-4 0  9990
2 67531  49.9914 246.1969 0068702  15.8879 344.4165 14.14463124 10208
CZ-12 R/B
1 67531U 26013K   26091.71580307 -.00000220  00000-0 -32337-4 0  9991
2 67531  49.9911 245.0249 0068714  16.8649 343.4523 14.14463095 10241
CZ-12 R/B
1 67531U 26013K   26091.92775667 -.00000208  00000-0 -26325-4 0  9995
2 67531  49.9910 244.1461 0068723  17.5912 342.7355 14.14463099 10279
CZ-12 R/B
1 67531U 26013K   26092.13971012 -.00000206  00000-0 -24966-4 0  9998
2 67531  49.9911 243.2669 0068727  18.3327 342.0037 14.14463105 10305
CZ-12 R/B
1 67531U 26013K   26092.13971012 -.00000206  00000-0 -24966-4 0  9998
2 67531  49.9911 243.2669 0068727  18.3327 342.0037 14.14463105 10305
CZ-12 R/B
1 67531U 26013K   26092.77557088 -.00000172  00000-0 -81765-5 0  9994
2 67531  49.9908 240.6302 0068730  20.5240 339.8407 14.14463086 10391
CZ-12 R/B
1 67531U 26013K   26092.91687317 -.00000147  00000-0  45598-5 0  9994
2 67531  49.9907 240.0442 0068728  21.0095 339.3614 14.14463204 10410
CZ-12 R/B
1 67531U 26013K   26093.12882669 -.00000139  00000-0  90073-5 0  9994
2 67531  49.9907 239.1653 0068725  21.7334 338.6468 14.14463211 10443
CZ-12 R/B
1 67531U 26013K   26093.62338502 -.00000104  00000-0  26494-4 0  9998
2 67531  49.9908 237.1144 0068684  23.4287 336.9727 14.14463242 10518
CZ-12 R/B
1 67531U 26013K   26093.76468740 -.00000090  00000-0  33676-4 0  9995
2 67531  49.9908 236.5284 0068690  23.9140 336.4935 14.14463276 10531
CZ-12 R/B
1 67531U 26013K   26093.76468742 -.00000090  00000-0  33649-4 0  9997
2 67531  49.9909 236.5286 0068689  23.9143 336.4932 14.14463283 10530
CZ-12 R/B
1 67531U 26013K   26094.32989660 -.00000067  00000-0  45450-4 0  9994
2 67531  49.9908 234.1842 0068656  25.8616 334.5699 14.14463315 10615
CZ-12 R/B
1 67531U 26013K   26094.61250126 -.00000051  00000-0  53537-4 0  9992
2 67531  49.9909 233.0121 0068649  26.8308 333.6126 14.14463347 10659
CZ-12 R/B
1 67531U 26013K   26094.61250126 -.00000051  00000-0  53537-4 0  9992
2 67531  49.9909 233.0121 0068649  26.8308 333.6126 14.14463347 10659
CZ-12 R/B
1 67531U 26013K   26095.31901264 -.00000019  00000-0  69694-4 0  9991
2 67531  49.9908 230.0823 0068647  29.2526 331.2201 14.14463463 10759
CZ-12 R/B
1 67531U 26013K   26095.53096602 -.00000005  00000-0  76846-4 0  9998
2 67531  49.9910 229.2034 0068656  29.9804 330.5010 14.14463552 10784
CZ-12 R/B
1 67531U 26013K   26095.60161712  .00000001  00000-0  79620-4 0  9999
2 67531  49.9911 228.9105 0068653  30.2331 330.2513 14.14463584 10798
CZ-12 R/B
1 67531U 26013K   26095.67226822  .00000004  00000-0  81536-4 0  9992
2 67531  49.9910 228.6175 0068668  30.4741 330.0132 14.14463614 10805
CZ-12 R/B
1 67531U 26013K   26095.67226822  .00000004  00000-0  81536-4 0  9992
2 67531  49.9910 228.6175 0068668  30.4741 330.0132 14.14463614 10805
CZ-12 R/B
1 67531U 26013K   26096.30812813  .00000034  00000-0  96574-4 0  9995
2 67531  49.9912 225.9807 0068653  32.6595 327.8532 14.14463805 10893
CZ-12 R/B
1 67531U 26013K   26096.73203454  .00000061  00000-0  11022-3 0  9991
2 67531  49.9910 224.2227 0068634  34.1171 326.4122 14.14463984 10950
CZ-12 R/B
1 67531U 26013K   26097.08528983  .00000068  00000-0  11393-3 0  9995
2 67531  49.9910 222.7578 0068638  35.3268 325.2161 14.14464092 11004
CZ-12 R/B
1 67531U 26013K   26097.29724297  .00000078  00000-0  11870-3 0  9995
2 67531  49.9909 221.8788 0068633  36.0545 324.4965 14.14464179 11038
CZ-12 R/B
1 67531U 26013K   26097.50919603  .00000082  00000-0  12100-3 0  9998
2 67531  49.9909 220.9999 0068619  36.7849 323.7740 14.14464265 11062
CZ-12 R/B
1 67531U 26013K   26097.50919603  .00000082  00000-0  12100-3 0  9998
2 67531  49.9909 220.9999 0068619  36.7849 323.7740 14.14464265 11062
CZ-12 R/B
1 67531U 26013K   26097.50919604  .00000082  00000-0  12100-3 0  9999
2 67531  49.9909 221.0000 0068620  36.7849 323.7741 14.14464262 11067
CZ-12 R/B
1 67531U 26013K   26098.07440405  .00000097  00000-0  12874-3 0  9994
2 67531  49.9906 218.6558 0068612  38.7357 321.8443 14.14464502 11145
CZ-12 R/B
1 67531U 26013K   26098.28635703  .00000103  00000-0  13140-3 0  9999
2 67531  49.9907 217.7777 0068590  39.4664 321.1212 14.14464614 11177
CZ-12 R/B
1 67531U 26013K   26098.63961172  .00000108  00000-0  13413-3 0  9998
2 67531  49.9907 216.3134 0068596  40.6669 319.9334 14.14464826 11225
CZ-12 R/B
1 67531U 26013K   26098.78091368  .00000111  00000-0  13569-3 0  9991
2 67531  49.9908 215.7279 0068595  41.1603 319.4451 14.14464914 11247
CZ-12 R/B
1 67531U 26013K   26099.06351733  .00000110  00000-0  13513-3 0  9996
2 67531  49.9904 214.5554 0068589  42.1339 318.4815 14.14465025 11287
CZ-12 R/B
1 67531U 26013K   26099.34612104  .00000122  00000-0  14132-3 0  9990
2 67531  49.9904 213.3836 0068579  43.1063 317.5189 14.14465221 11328
CZ-12 R/B
1 67531U 26013K   26099.48742286  .00000123  00000-0  14157-3 0  9998
2 67531  49.9906 212.7977 0068579  43.5994 317.0306 14.14465317 11340
CZ-12 R/B
1 67531U 26013K   26099.48742286  .00000123  00000-0  14157-3 0  9998
2 67531  49.9906 212.7977 0068579  43.5994 317.0306 14.14465316 11349
CZ-12 R/B
1 67531U 26013K   26099.98197898  .00000119  00000-0  13950-3 0  9991
2 67531  49.9909 210.7474 0068530  45.3114 315.3350 14.14465600 11417
CZ-12 R/B
1 67531U 26013K   26100.33523329  .00000119  00000-0  13982-3 0  9990
2 67531  49.9907 209.2822 0068530  46.5133 314.1446 14.14465782 11468
CZ-12 R/B
1 67531U 26013K   26100.54718583  .00000116  00000-0  13837-3 0  9997
2 67531  49.9910 208.4032 0068530  47.2408 313.4239 14.14465909 11495
CZ-12 R/B
1 67531U 26013K   26100.97109078  .00000104  00000-0  13192-3 0  9998
2 67531  49.9915 206.6461 0068556  48.7104 311.9681 14.14466193 11550
CZ-12 R/B
1 67531U 26013K   26100.97109078  .00000104  00000-0  13192-3 0  9998
2 67531  49.9915 206.6461 0068556  48.7104 311.9681 14.14466193 11550
CZ-12 R/B
1 67531U 26013K   26101.25369407  .00000098  00000-0  12901-3 0  9993
2 67531  49.9916 205.4746 0068551  49.6849 311.0023 14.14466326 11598
CZ-12 R/B
1 67531U 26013K   26101.53629716  .00000082  00000-0  12119-3 0  9990
2 67531  49.9913 204.3024 0068540  50.6558 310.0398 14.14466396 11635
CZ-12 R/B
1 67531U 26013K   26101.60694800  .00000082  00000-0  12094-3 0  9996
2 67531  49.9913 204.0095 0068550  50.9097 309.7882 14.14466445 11641
CZ-12 R/B
1 67531U 26013K   26101.96020190  .00000065  00000-0  11250-3 0  9994
2 67531  49.9916 202.5446 0068556  52.1039 308.6043 14.14466601 11699
CZ-12 R/B
1 67531U 26013K   26101.96020190  .00000065  00000-0  11250-3 0  9994
2 67531  49.9916 202.5446 0068556  52.1039 308.6043 14.14466601 11699
CZ-12 R/B
1 67531U 26013K   26102.31345560  .00000051  00000-0  10543-3 0  9994
2 67531  49.9919 201.0790 0068593  53.2257 307.4922 14.14466776 11745
CZ-12 R/B
1 67531U 26013K   26102.52540777  .00000043  00000-0  10098-3 0  9990
2 67531  49.9912 200.1992 0068599  53.9604 306.7636 14.14466809 11775
CZ-12 R/B
1 67531U 26013K   26102.94931214  .00000020  00000-0  89723-4 0  9993
2 67531  49.9913 198.4413 0068613  55.3844 305.3511 14.14466961 11835
CZ-12 R/B
1 67531U 26013K   26102.94931214  .00000020  00000-0  89723-4 0  9993
2 67531  49.9913 198.4413 0068613  55.3844 305.3511 14.14466961 11835
CZ-12 R/B
1 67531U 26013K   26103.30256567  .00000005  00000-0  82028-4 0  9999
2 67531  49.9911 196.9763 0068620  56.5848 304.1600 14.14467068 11889
CZ-12 R/B
1 67531U 26013K   26103.65581922 -.00000011  00000-0  73745-4 0  9997
2 67531  49.9911 195.5112 0068627  57.8040 302.9499 14.14467143 11939
CZ-12 R/B
1 67531U 26013K   26103.65581922 -.00000011  00000-0  73745-4 0  9997
2 67531  49.9911 195.5112 0068627  57.8040 302.9499 14.14467143 11939
CZ-12 R/B
1 67531U 26013K   26104.50362731 -.00000054  00000-0  52245-4 0  9996
2 67531  49.9913 191.9957 0068640  60.6905 300.0840 14.14467320 12055
CZ-12 R/B
1 67531U 26013K   26104.50362731 -.00000054  00000-0  52245-4 0  9996
2 67531  49.9913 191.9958 0068640  60.6905 300.0840 14.14467320 12056
CZ-12 R/B
1 67531U 26013K   26104.92753101 -.00000079  00000-0  39281-4 0  9999
2 67531  49.9907 190.2373 0068664  62.1651 298.6194 14.14467383 12113
CZ-12 R/B
1 67531U 26013K   26105.21013348 -.00000090  00000-0  33996-4 0  9994
2 67531  49.9906 189.0653 0068665  63.1358 297.6549 14.14467419 12152
CZ-12 R/B
1 67531U 26013K   26105.21013351 -.00000092  00000-0  32787-4 0  9997
2 67531  49.9905 189.0652 0068669  63.1345 297.6562 14.14467389 12151
CZ-12 R/B
1 67531U 26013K   26105.49273604 -.00000107  00000-0  24914-4 0  9996
2 67531  49.9909 187.8937 0068659  64.1059 296.6907 14.14467411 12191
CZ-12 R/B
1 67531U 26013K   26105.49273604 -.00000107  00000-0  24914-4 0  9996
2 67531  49.9909 187.8937 0068659  64.1059 296.6907 14.14467412 12192
CZ-12 R/B
1 67531U 26013K   26106.19924193 -.00000139  00000-0  88987-5 0  9996
2 67531  49.9908 184.9640 0068667  66.5291 294.2817 14.14467472 12294
CZ-12 R/B
1 67531U 26013K   26106.48184420 -.00000151  00000-0  29583-5 0  9990
2 67531  49.9912 183.7923 0068654  67.5205 293.2955 14.14467508 12339
CZ-12 R/B
1 67531U 26013K   26106.90574755 -.00000171  00000-0 -72090-5 0  9995
2 67531  49.9911 182.0343 0068662  68.9662 291.8573 14.14467510 12396
CZ-12 R/B
1 67531U 26013K   26107.18834979 -.00000179  00000-0 -11232-4 0  9991
2 67531  49.9910 180.8622 0068673  69.9353 290.8931 14.14467490 12430
CZ-12 R/B
1 67531U 26013K   26107.89485505 -.00000209  00000-0 -26422-4 0  9997
2 67531  49.9911 177.9322 0068673  72.3607 288.4786 14.14467455 12538
CZ-12 R/B
1 67531U 26013K   26108.46005917 -.00000225  00000-0 -34505-4 0  9995
2 67531  49.9916 175.5884 0068657  74.3042 286.5427 14.14467403 12610
CZ-12 R/B
1 67531U 26013K   26110.36762236 -.00000269  00000-0 -56924-4 0  9998
2 67531  49.9927 167.6781 0068650  80.8449 280.0218 14.14467097 12881
CZ-12 R/B
1 67531U 26013K   26110.86217554 -.00000272  00000-0 -58580-4 0  9995
2 67531  49.9924 165.6266 0068655  82.5246 278.3456 14.14466981 12956
CZ-12 R/B
1 67531U 26013K   26110.86217554 -.00000272  00000-0 -58580-4 0  9995
2 67531  49.9924 165.6266 0068655  82.5246 278.3456 14.14466981 12956
CZ-12 R/B
1 67531U 26013K   26110.86217557 -.00000272  00000-0 -58582-4 0  9990
2 67531  49.9925 165.6266 0068656  82.5155 278.3547 14.14466988 12955
CZ-12 R/B
1 67531U 26013K   26111.42737912 -.00000273  00000-0 -58822-4 0  9993
2 67531  49.9915 163.2825 0068668  84.4684 276.4052 14.14466805 13038
CZ-12 R/B
1 67531U 26013K   26111.42737912 -.00000273  00000-0 -58822-4 0  9993
2 67531  49.9915 163.2825 0068668  84.4684 276.4052 14.14466805 13038
CZ-12 R/B
1 67531U 26013K   26111.85128171 -.00000274  00000-0 -59338-4 0  9995
2 67531  49.9913 161.5247 0068667  85.9194 274.9560 14.14466705 13098
CZ-12 R/B
1 67531U 26013K   26111.85128172 -.00000274  00000-0 -59338-4 0  9996
2 67531  49.9913 161.5247 0068667  85.9194 274.9560 14.14466705 13098
CZ-12 R/B
1 67531U 26013K   26112.34583466 -.00000266  00000-0 -55666-4 0  9993
2 67531  49.9912 159.4739 0068666  87.6444 273.2324 14.14466605 13162
CZ-12 R/B
1 67531U 26013K   26112.84038757 -.00000260  00000-0 -52340-4 0  9996
2 67531  49.9911 157.4231 0068668  89.3371 271.5405 14.14466505 13234
CZ-12 R/B
1 67531U 26013K   26112.84038757 -.00000260  00000-0 -52340-4 0  9996
2 67531  49.9911 157.4231 0068668  89.3371 271.5406 14.14466505 13235
CZ-12 R/B
1 67531U 26013K   26113.12298919 -.00000252  00000-0 -48282-4 0  9997
2 67531  49.9909 156.2514 0068670  90.3138 270.5640 14.14466457 13278
CZ-12 R/B
1 67531U 26013K   26113.12298920 -.00000252  00000-0 -48282-4 0  9999
2 67531  49.9909 156.2514 0068670  90.3138 270.5640 14.14466457 13278
CZ-12 R/B
1 67531U 26013K   26113.12298920 -.00000252  00000-0 -48282-4 0  9999
2 67531  49.9909 156.2514 0068670  90.3138 270.5640 14.14466457 13278
CZ-12 R/B
1 67531U 26013K   26114.11209457 -.00000217  00000-0 -30787-4 0  9998
2 67531  49.9908 152.1499 0068669  93.7351 267.1413 14.14466343 13416
CZ-12 R/B
1 67531U 26013K   26114.11209457 -.00000217  00000-0 -30787-4 0  9998
2 67531  49.9908 152.1499 0068669  93.7351 267.1413 14.14466343 13416
CZ-12 R/B
1 67531U 26013K   26114.46534645 -.00000197  00000-0 -20397-4 0  9999
2 67531  49.9908 150.6852 0068675  94.9485 265.9269 14.14466339 13465
CZ-12 R/B
1 67531U 26013K   26114.46534648 -.00000199  00000-0 -21301-4 0  9990
2 67531  49.9918 150.6851 0068680  94.9428 265.9325 14.14466393 13461
CZ-12 R/B
1 67531U 26013K   26114.46534648 -.00000199  00000-0 -21301-4 0  9990
2 67531  49.9918 150.6851 0068680  94.9428 265.9326 14.14466393 13462
CZ-12 R/B
1 67531U 26013K   26115.24250021 -.00000156  00000-0  42759-6 0  9991
2 67531  49.9915 147.4619 0068672  97.6253 263.2462 14.14466394 13577
CZ-12 R/B
1 67531U 26013K   26115.45445112 -.00000141  00000-0  77947-5 0  9991
2 67531  49.9913 146.5826 0068673  98.3454 262.5248 14.14466402 13605
CZ-12 R/B
1 67531U 26013K   26115.45445112 -.00000141  00000-0  77947-5 0  9991
2 67531  49.9913 146.5826 0068673  98.3454 262.5248 14.14466402 13605
CZ-12 R/B
1 67531U 26013K   26116.44355539 -.00000080  00000-0  38927-4 0  9990
2 67531  49.9914 142.4808 0068651 101.7426 259.1195 14.14466509 13741
CZ-12 R/B
1 67531U 26013K   26116.44355539 -.00000080  00000-0  38927-4 0  9990
2 67531  49.9914 142.4808 0068651 101.7426 259.1196 14.14466509 13742
CZ-12 R/B
1 67531U 26013K   26117.07940778 -.00000048  00000-0  54797-4 0  9992
2 67531  49.9904 139.8439 0068645 103.9318 256.9238 14.14466535 13839
CZ-12 R/B
1 67531U 26013K   26117.29135853 -.00000033  00000-0  62763-4 0  9992
2 67531  49.9901 138.9649 0068639 104.6750 256.1781 14.14466569 13865
CZ-12 R/B
1 67531U 26013K   26117.36200868 -.00000029  00000-0  64633-4 0  9992
2 67531  49.9901 138.6716 0068636 104.9254 255.9267 14.14466587 13873
CZ-12 R/B
1 67531U 26013K   26117.78590995 -.00000008  00000-0  75203-4 0  9993
2 67531  49.9898 136.9134 0068632 106.3835 254.4633 14.14466667 13937
CZ-12 R/B
1 67531U 26013K   26117.78590995 -.00000008  00000-0  75203-4 0  9993
2 67531  49.9898 136.9134 0068632 106.3835 254.4633 14.14466667 13937
CZ-12 R/B
1 67531U 26013K   26118.06851078  .00000009  00000-0  83882-4 0  9999
2 67531  49.9897 135.7415 0068630 107.3609 253.4820 14.14466762 13970
CZ-12 R/B
1 67531U 26013K   26118.35111154  .00000023  00000-0  90795-4 0  9992
2 67531  49.9898 134.5698 0068633 108.3345 252.5045 14.14466857 14012
CZ-12 R/B
1 67531U 26013K   26118.35111154  .00000023  00000-0  90795-4 0  9992
2 67531  49.9898 134.5698 0068633 108.3345 252.5045 14.14466857 14012
CZ-12 R/B
1 67531U 26013K   26118.77501242  .00000042  00000-0  10074-3 0  9991
2 67531  49.9895 132.8117 0068632 109.8023 251.0302 14.14467005 14076
CZ-12 R/B
1 67531U 26013K   26118.77501242  .00000042  00000-0  10074-3 0  9991
2 67531  49.9895 132.8117 0068632 109.8023 251.0302 14.14467005 14076
CZ-12 R/B
1 67531U 26013K   26119.05761299  .00000051  00000-0  10535-3 0  9995
2 67531  49.9895 131.6398 0068632 110.7846 250.0433 14.14467093 14114
CZ-12 R/B
1 67531U 26013K   26119.34021373  .00000062  00000-0  11096-3 0  9994
2 67531  49.9902 130.4678 0068637 111.7042 249.1193 14.14467205 14156
CZ-12 R/B
1 67531U 26013K   26119.34021376  .00000062  00000-0  11096-3 0  9997
2 67531  49.9902 130.4679 0068636 111.7092 249.1142 14.14467199 14157
CZ-12 R/B
1 67531U 26013K   26119.55216412  .00000070  00000-0  11478-3 0  9990
2 67531  49.9903 129.5892 0068634 112.4305 248.3892 14.14467297 14182
CZ-12 R/B
1 67531U 26013K   26119.55216412  .00000070  00000-0  11478-3 0  9990
2 67531  49.9903 129.5892 0068634 112.4305 248.3892 14.14467297 14182
CZ-12 R/B
1 67531U 26013K   26120.18801487  .00000085  00000-0  12217-3 0  9991
2 67531  49.9907 126.9526 0068630 114.6180 246.1898 14.14467594 14274
CZ-12 R/B
1 67531U 26013K   26120.32931494  .00000085  00000-0  12260-3 0  9997
2 67531  49.9907 126.3663 0068628 115.1049 245.7001 14.14467643 14295
CZ-12 R/B
1 67531U 26013K   26120.32931494  .00000085  00000-0  12260-3 0  9997
2 67531  49.9907 126.3663 0068628 115.1049 245.7001 14.14467643 14295
CZ-12 R/B
1 67531U 26013K   26120.32931494  .00000085  00000-0  12260-3 0  9997
2 67531  49.9907 126.3663 0068628 115.1049 245.7001 14.14467643 14295
CZ-12 R/B
1 67531U 26013K   26121.03581524  .00000093  00000-0  12631-3 0  9992
2 67531  49.9909 123.4371 0068624 117.5484 243.2418 14.14467984 14390
CZ-12 R/B
1 67531U 26013K   26121.31841521  .00000093  00000-0  12620-3 0  9997
2 67531  49.9909 122.2651 0068622 118.5242 242.2598 14.14468106 14439
CZ-12 R/B
1 67531U 26013K   26121.38906517  .00000100  00000-0  12984-3 0  9993
2 67531  49.9909 121.9720 0068622 118.7643 242.0181 14.14468178 14445
CZ-12 R/B
1 67531U 26013K   26121.67166497  .00000093  00000-0  12622-3 0  9990
2 67531  49.9917 120.7998 0068622 119.7482 241.0277 14.14468349 14489
CZ-12 R/B
1 67531U 26013K   26122.02491473  .00000086  00000-0  12293-3 0  9991
2 67531  49.9916 119.3350 0068613 120.9606 239.8069 14.14468486 14538
CZ-12 R/B
1 67531U 26013K   26122.23686446  .00000084  00000-0  12198-3 0  9992
2 67531  49.9917 118.4564 0068633 121.7094 239.0529 14.14468621 14565
CZ-12 R/B
1 67531U 26013K   26122.23686446  .00000084  00000-0  12198-3 0  9992
2 67531  49.9917 118.4565 0068633 121.7094 239.0529 14.14468621 14566
CZ-12 R/B
1 67531U 26013K   26122.23686457  .00000083  00000-0  12119-3 0  9996
2 67531  49.9917 118.4561 0068615 121.6882 239.0741 14.14468581 14567
CZ-12 R/B
1 67531U 26013K   26122.66076389  .00000074  00000-0  11695-3 0  9998
2 67531  49.9915 116.6980 0068600 123.1410 237.6105 14.14468805 14622
CZ-12 R/B
1 67531U 26013K   26122.94336348  .00000070  00000-0  11474-3 0  9994
2 67531  49.9916 115.5262 0068597 124.1145 236.6297 14.14468924 14662
CZ-12 R/B
1 67531U 26013K   26123.22596285  .00000060  00000-0  10967-3 0  9999
2 67531  49.9911 114.3538 0068593 125.0965 235.6400 14.14469015 14708
CZ-12 R/B
1 67531U 26013K   26123.22596285  .00000062  00000-0  11078-3 0  9995
2 67531  49.9912 114.3539 0068592 125.0949 235.6416 14.14469037 14702
CZ-12 R/B
1 67531U 26013K   26123.22596285  .00000062  00000-0  11078-3 0  9995
2 67531  49.9912 114.3539 0068592 125.0949 235.6416 14.14469037 14702
CZ-12 R/B
1 67531U 26013K   26123.64986200  .00000046  00000-0  10264-3 0  9999
2 67531  49.9915 112.5961 0068573 126.5383 234.1865 14.14469219 14761
CZ-12 R/B
1 67531U 26013K   26123.93246134  .00000038  00000-0  98558-4 0  9990
2 67531  49.9912 111.4244 0068572 127.5187 233.1981 14.14469304 14800
CZ-12 R/B
1 67531U 26013K   26124.21506074  .00000024  00000-0  91270-4 0  9993
2 67531  49.9917 110.2531 0068586 128.4822 232.2265 14.14469424 14844
CZ-12 R/B
1 67531U 26013K   26124.21506075  .00000020  00000-0  89514-4 0  9998
2 67531  49.9919 110.2533 0068588 128.4822 232.2265 14.14469418 14843
CZ-12 R/B
1 67531U 26013K   26124.63895950  .00000004  00000-0  81427-4 0  9994
2 67531  49.9918 108.4952 0068597 129.9312 230.7652 14.14469593 14900
CZ-12 R/B
1 67531U 26013K   26124.63895950  .00000004  00000-0  81427-4 0  9994
2 67531  49.9918 108.4952 0068597 129.9312 230.7652 14.14469593 14900
CZ-12 R/B
1 67531U 26013K   26124.99220843 -.00000011  00000-0  73807-4 0  9998
2 67531  49.9918 107.0302 0068595 131.1428 229.5427 14.14469691 14955
CZ-12 R/B
1 67531U 26013K   26124.99220843 -.00000011  00000-0  73807-4 0  9998
2 67531  49.9918 107.0302 0068595 131.1428 229.5427 14.14469691 14955
CZ-12 R/B
1 67531U 26013K   26125.62805615 -.00000039  00000-0  59381-4 0  9996
2 67531  49.9904 104.3929 0068599 133.3191 227.3465 14.14469807 15048
CZ-12 R/B
1 67531U 26013K   26125.98130484 -.00000053  00000-0  52234-4 0  9996
2 67531  49.9904 102.9280 0068604 134.5311 226.1229 14.14469895 15093
CZ-12 R/B
1 67531U 26013K   26126.12260417 -.00000064  00000-0  46715-4 0  9992
2 67531  49.9906 102.3421 0068633 135.0123 225.6374 14.14469954 15119
CZ-12 R/B
1 67531U 26013K   26126.19325388 -.00000066  00000-0  45830-4 0  9997
2 67531  49.9908 102.0493 0068632 135.2508 225.3965 14.14469998 15127
CZ-12 R/B
1 67531U 26013K   26126.19325388 -.00000066  00000-0  45830-4 0  9997
2 67531  49.9908 102.0493 0068632 135.2508 225.3965 14.14469998 15127
CZ-12 R/B
1 67531U 26013K   26127.18234964 -.00000118  00000-0  19458-4 0  9991
2 67531  49.9908  97.9480 0068641 138.6269 221.9867 14.14470159 15265
CZ-12 R/B
1 67531U 26013K   26127.18234964 -.00000118  00000-0  19458-4 0  9991
2 67531  49.9908  97.9480 0068641 138.6269 221.9867 14.14470160 15267
CZ-12 R/B
1 67531U 26013K   26127.60624778 -.00000141  00000-0  76727-5 0  9993
2 67531  49.9911  96.1902 0068597 140.0715 220.5267 14.14470199 15322
CZ-12 R/B
1 67531U 26013K   26127.88884649 -.00000150  00000-0  32710-5 0  9992
2 67531  49.9921  95.0183 0068600 141.0427 219.5453 14.14470277 15364
CZ-12 R/B
1 67531U 26013K   26128.17144509 -.00000164  00000-0 -39215-5 0  9992
2 67531  49.9922  93.8467 0068577 142.0017 218.5758 14.14470311 15406
CZ-12 R/B
1 67531U 26013K   26128.17144509 -.00000164  00000-0 -39215-5 0  9992
2 67531  49.9922  93.8467 0068577 142.0017 218.5758 14.14470311 15406
CZ-12 R/B
1 67531U 26013K   26128.59534280 -.00000185  00000-0 -14503-4 0  9992
2 67531  49.9921  92.0886 0068563 143.4799 217.0813 14.14470333 15464
CZ-12 R/B
1 67531U 26013K   26128.59534280 -.00000185  00000-0 -14503-4 0  9992
2 67531  49.9921  92.0886 0068563 143.4799 217.0813 14.14470333 15464
CZ-12 R/B
1 67531U 26013K   26129.16053983 -.00000204  00000-0 -24518-4 0  9991
2 67531  49.9920  89.7447 0068560 145.4375 215.1018 14.14470316 15544
CZ-12 R/B
1 67531U 26013K   26129.16053983 -.00000204  00000-0 -24518-4 0  9991
2 67531  49.9920  89.7447 0068560 145.4375 215.1018 14.14470316 15544
CZ-12 R/B
1 67531U 26013K   26129.93768560 -.00000238  00000-0 -41399-4 0  9993
2 67531  49.9918  86.5213 0068548 148.1155 212.3930 14.14470229 15656
CZ-12 R/B
1 67531U 26013K   26130.14963465 -.00000243  00000-0 -44340-4 0  9994
2 67531  49.9916  85.6424 0068525 148.8078 211.6925 14.14470181 15680
CZ-12 R/B
1 67531U 26013K   26130.29093391 -.00000247  00000-0 -46217-4 0  9991
2 67531  49.9918  85.0564 0068525 149.2872 211.2074 14.14470174 15704
CZ-12 R/B
1 67531U 26013K   26130.29093391 -.00000247  00000-0 -46217-4 0  9991
2 67531  49.9918  85.0564 0068525 149.2872 211.2074 14.14470174 15704
CZ-12 R/B
1 67531U 26013K   26131.13872943 -.00000270  00000-0 -57977-4 0  9994
2 67531  49.9916  81.5408 0068515 152.1836 208.2763 14.14470011 15826
CZ-12 R/B
1 67531U 26013K   26131.13872944 -.00000270  00000-0 -57977-4 0  9995
2 67531  49.9916  81.5408 0068515 152.1836 208.2763 14.14470011 15826
CZ-12 R/B
1 67531U 26013K   26131.56262718 -.00000281  00000-0 -63576-4 0  9998
2 67531  49.9919  79.7832 0068517 153.6398 206.8022 14.14469935 15881
CZ-12 R/B
1 67531U 26013K   26131.56262718 -.00000281  00000-0 -63576-4 0  9998
2 67531  49.9919  79.7832 0068517 153.6398 206.8022 14.14469935 15881
CZ-12 R/B
1 67531U 26013K   26131.56262718 -.00000281  00000-0 -63576-4 0  9998
2 67531  49.9919  79.7832 0068517 153.6398 206.8022 14.14469935 15881
CZ-12 R/B
1 67531U 26013K   26132.19847376 -.00000288  00000-0 -66932-4 0  9993
2 67531  49.9919  77.1469 0068523 155.8344 204.5805 14.14469797 15971
CZ-12 R/B
1 67531U 26013K   26132.19847376 -.00000287  00000-0 -66647-4 0  9995
2 67531  49.9919  77.1469 0068523 155.8344 204.5804 14.14469799 15972
CZ-12 R/B
1 67531U 26013K   26132.55172182 -.00000292  00000-0 -68829-4 0  9991
2 67531  49.9922  75.6819 0068515 157.0474 203.3521 14.14469736 16028
CZ-12 R/B
1 67531U 26013K   26132.55172182 -.00000292  00000-0 -68829-4 0  9991
2 67531  49.9922  75.6819 0068515 157.0474 203.3521 14.14469736 16028
CZ-12 R/B
1 67531U 26013K   26133.11691882 -.00000291  00000-0 -68753-4 0  9992
2 67531  49.9922  73.3382 0068520 158.9826 201.3923 14.14469601 16109
CZ-12 R/B
1 67531U 26013K   26133.25821809 -.00000290  00000-0 -68183-4 0  9997
2 67531  49.9922  72.7523 0068526 159.4675 200.9011 14.14469568 16120
CZ-12 R/B
1 67531U 26013K   26133.25821809 -.00000290  00000-0 -68183-4 0  9997
2 67531  49.9922  72.7523 0068526 159.4675 200.9011 14.14469568 16120
CZ-12 R/B
1 67531U 26013K   26134.10601332 -.00000283  00000-0 -64740-4 0  9996
2 67531  49.9930  69.2354 0068511 162.3963 197.9342 14.14469423 16244
CZ-12 R/B
1 67531U 26013K   26134.24731265 -.00000278  00000-0 -61944-4 0  9997
2 67531  49.9929  68.6497 0068509 162.8792 197.4449 14.14469389 16261
CZ-12 R/B
1 67531U 26013K   26135.16575782 -.00000259  00000-0 -52179-4 0  9998
2 67531  49.9933  64.8412 0068494 166.0312 194.2511 14.14469241 16394
CZ-12 R/B
1 67531U 26013K   26136.15485275 -.00000225  00000-0 -35006-4 0  9998
2 67531  49.9936  60.7403 0068480 169.4307 190.8059 14.14469127 16536
CZ-12 R/B
1 67531U 26013K   26136.50810083 -.00000210  00000-0 -27543-4 0  9997
2 67531  49.9936  59.2751 0068478 170.6393 189.5809 14.14469116 16582
CZ-12 R/B
1 67531U 26013K   26136.50810083 -.00000210  00000-0 -27543-4 0  9997
2 67531  49.9936  59.2751 0068478 170.6393 189.5809 14.14469115 16581
CZ-12 R/B
1 67531U 26013K   26136.79069938 -.00000197  00000-0 -20985-4 0  9990
2 67531  49.9936  58.1032 0068483 171.6118 188.5952 14.14469096 16624
CZ-12 R/B
1 67531U 26013K   26136.79069938 -.00000197  00000-0 -20985-4 0  9990
2 67531  49.9936  58.1032 0068483 171.6118 188.5952 14.14469097 16625
CZ-12 R/B
1 67531U 26013K   26137.14394744 -.00000179  00000-0 -11993-4 0  9995
2 67531  49.9937  56.6385 0068505 172.8463 187.3438 14.14469089 16673
CZ-12 R/B
1 67531U 26013K   26137.49719549 -.00000164  00000-0 -43245-5 0  9997
2 67531  49.9937  55.1734 0068508 174.0634 186.1102 14.14469097 16722
CZ-12 R/B
1 67531U 26013K   26137.49719549 -.00000164  00000-0 -43245-5 0  9997
2 67531  49.9937  55.1734 0068508 174.0634 186.1102 14.14469097 16722
CZ-12 R/B
1 67531U 26013K   26137.70914434 -.00000152  00000-0  18689-5 0  9991
2 67531  49.9937  54.2942 0068532 174.7975 185.3660 14.14469096 16757
CZ-12 R/B
1 67531U 26013K   26137.70914434 -.00000152  00000-0  18689-5 0  9991
2 67531  49.9937  54.2942 0068532 174.7975 185.3660 14.14469096 16757
CZ-12 R/B
1 67531U 26013K   26138.06239244 -.00000134  00000-0  11128-4 0  9990
2 67531  49.9927  52.8291 0068540 176.0147 184.1321 14.14469044 16802
CZ-12 R/B
1 67531U 26013K   26138.48629012 -.00000111  00000-0  22317-4 0  9999
2 67531  49.9927  51.0712 0068543 177.4720 182.6548 14.14469095 16862
CZ-12 R/B
1 67531U 26013K   26138.69823898 -.00000100  00000-0  28368-4 0  9990
2 67531  49.9926  50.1924 0068550 178.2038 181.9129 14.14469116 16899
CZ-12 R/B
1 67531U 26013K   26138.69823898 -.00000100  00000-0  28368-4 0  9990
2 67531  49.9926  50.1924 0068550 178.2038 181.9129 14.14469116 16899
CZ-12 R/B
1 67531U 26013K   26139.05148722 -.00000080  00000-0  38049-4 0  9991
2 67531  49.9928  48.7278 0068531 179.4079 180.6922 14.14469174 16940
CZ-12 R/B
1 67531U 26013K   26139.05148722 -.00000080  00000-0  38049-4 0  9991
2 67531  49.9928  48.7278 0068531 179.4079 180.6922 14.14469174 16940
CZ-12 R/B
1 67531U 26013K   26139.47538492 -.00000059  00000-0  49074-4 0  9990
2 67531  49.9930  46.9700 0068524 180.8732 179.2067 14.14469253 17007
CZ-12 R/B
1 67531U 26013K   26139.47538493 -.00000059  00000-0  48666-4 0  9997
2 67531  49.9930  46.9700 0068524 180.8732 179.2067 14.14469246 17009
CZ-12 R/B
1 67531U 26013K   26139.96993222 -.00000033  00000-0  62325-4 0  9996
2 67531  49.9933  44.9200 0068513 182.5712 177.4854 14.14469408 17071
CZ-12 R/B
1 67531U 26013K   26140.04058179 -.00000029  00000-0  63960-4 0  9991
2 67531  49.9933  44.6267 0068510 182.8134 177.2398 14.14469423 17088
CZ-12 R/B
1 67531U 26013K   26140.04058179 -.00000029  00000-0  63960-4 0  9991
2 67531  49.9933  44.6267 0068510 182.8134 177.2398 14.14469423 17088
CZ-12 R/B
1 67531U 26013K   26140.46447946 -.00000010  00000-0  73829-4 0  9996
2 67531  49.9936  42.8692 0068509 184.2835 175.7495 14.14469545 17148
CZ-12 R/B
1 67531U 26013K   26140.67642826  .00000000  00000-0  78669-4 0  9998
2 67531  49.9936  41.9903 0068514 185.0140 175.0090 14.14469603 17179
CZ-12 R/B
1 67531U 26013K   26140.95902667  .00000010  00000-0  83914-4 0  9991
2 67531  49.9937  40.8184 0068519 185.9862 174.0235 14.14469679 17212
CZ-12 R/B
1 67531U 26013K   26141.02967626  .00000013  00000-0  85228-4 0  9999
2 67531  49.9938  40.5253 0068518 186.2275 173.7788 14.14469705 17228
CZ-12 R/B
1 67531U 26013K   26141.87747130  .00000041  00000-0  99448-4 0  9998
2 67531  49.9939  37.0099 0068532 189.1557 170.8107 14.14469993 17344
CZ-12 R/B
1 67531U 26013K   26141.94812091  .00000046  00000-0  10227-3 0  9997
2 67531  49.9939  36.7167 0068513 189.4030 170.5600 14.14470031 17355
CZ-12 R/B
1 67531U 26013K   26142.08942012  .00000052  00000-0  10497-3 0  9996
2 67531  49.9940  36.1309 0068509 189.8862 170.0702 14.14470093 17379
CZ-12 R/B
1 67531U 26013K   26142.44266788  .00000059  00000-0  10842-3 0  9996
2 67531  49.9941  34.6656 0068500 191.1005 168.8395 14.14470242 17429
CZ-12 R/B
1 67531U 26013K   26142.72526615  .00000063  00000-0  11076-3 0  9990
2 67531  49.9940  33.4938 0068506 192.0727 167.8542 14.14470350 17462
CZ-12 R/B
1 67531U 26013K   26142.93721487  .00000066  00000-0  11220-3 0  9991
2 67531  49.9941  32.6146 0068490 192.8024 167.1147 14.14470428 17498
CZ-12 R/B
1 67531U 26013K   26145.33929894  .00000056  00000-0  10721-3 0  9994
2 67531  49.9946  22.6549 0068617 201.0306 158.7778 14.14471516 17839
CZ-12 R/B
1 67531U 26013K   26145.33929895  .00000056  00000-0  10721-3 0  9995
2 67531  49.9946  22.6549 0068617 201.0306 158.7778 14.14471516 17839
CZ-12 R/B
1 67531U 26013K   26146.32839212  .00000033  00000-0  95180-4 0  9996
2 67531  49.9949  18.5540 0068642 204.4183 155.3469 14.14471938 17978
CZ-12 R/B
1 67531U 26013K   26146.32839213  .00000033  00000-0  95180-4 0  9997
2 67531  49.9949  18.5540 0068642 204.4183 155.3469 14.14471938 17978
CZ-12 R/B
1 67531U 26013K   26147.03488738  .00000014  00000-0  85861-4 0  9992
2 67531  49.9952  15.6258 0068677 206.7967 152.9387 14.14472213 18070
CZ-12 R/B
1 67531U 26013K   26147.03488740  .00000014  00000-0  85861-4 0  9995
2 67531  49.9952  15.6258 0068677 206.7967 152.9387 14.14472213 18070
CZ-12 R/B
1 67531U 26013K   26147.88268140 -.00000027  00000-0  64693-4 0  9993
2 67531  49.9951  12.1075 0068535 209.7787 149.9213 14.14472427 18198
CZ-12 R/B
1 67531U 26013K   26147.88268140 -.00000027  00000-0  64693-4 0  9993
2 67531  49.9951  12.1075 0068535 209.7787 149.9213 14.14472427 18198
CZ-12 R/B
1 67531U 26013K   26147.88268140 -.00000027  00000-0  64693-4 0  9993
2 67531  49.9951  12.1075 0068535 209.7787 149.9213 14.14472427 18198
CZ-12 R/B
1 67531U 26013K   26149.79021807 -.00000107  00000-0  24348-4 0  9994
2 67531  49.9957   4.1995 0068626 216.3202 143.3039 14.14472931 18467
CZ-12 R/B
1 67531U 26013K   26149.79021807 -.00000107  00000-0  24348-4 0  9994
2 67531  49.9957   4.1995 0068626 216.3202 143.3039 14.14472932 18468
CZ-12 R/B
1 67531U 26013K   26150.84996101 -.00000157  00000-0 -10597-5 0  9998
2 67531  49.9947 359.8051 0068638 219.9666 139.6179 14.14472944 18619
CZ-12 R/B
1 67531U 26013K   26150.84996101 -.00000157  00000-0 -10597-5 0  9998
2 67531  49.9947 359.8052 0068638 219.9666 139.6179 14.14472944 18610
CZ-12 R/B
1 67531U 26013K   26151.83905490 -.00000199  00000-0 -22374-4 0  9990
2 67531  49.9946 355.7036 0068600 223.3576 136.1924 14.14472945 18750
CZ-12 R/B
1 67531U 26013K   26151.83905490 -.00000199  00000-0 -22374-4 0  9990
2 67531  49.9946 355.7036 0068600 223.3576 136.1924 14.14472945 18750
CZ-12 R/B
1 67531U 26013K   26152.89879891 -.00000230  00000-0 -37989-4 0  9996
2 67531  49.9946 351.3092 0068587 226.9936 132.5213 14.14472863 18904
CZ-12 R/B
1 67531U 26013K   26153.74659457 -.00000249  00000-0 -47845-4 0  9997
2 67531  49.9944 347.7938 0068583 229.9030 129.5854 14.14472732 19020
CZ-12 R/B
1 67531U 26013K   26153.74659458 -.00000249  00000-0 -47845-4 0  9998
2 67531  49.9944 347.7938 0068583 229.9030 129.5854 14.14472732 19020
CZ-12 R/B
1 67531U 26013K   26153.81724435 -.00000249  00000-0 -47930-4 0  9999
2 67531  49.9945 347.5009 0068573 230.1440 129.3424 14.14472708 19031
CZ-12 R/B
1 67531U 26013K   26153.81724435 -.00000249  00000-0 -47930-4 0  9999
2 67531  49.9945 347.5009 0068573 230.1440 129.3424 14.14472708 19031
CZ-12 R/B
1 67531U 26013K   26155.72478620 -.00000244  00000-0 -45197-4 0  9991
2 67531  49.9954 339.5913 0068588 236.6903 122.7424 14.14472523 19309
CZ-12 R/B
1 67531U 26013K   26155.72478622 -.00000244  00000-0 -45197-4 0  9993
2 67531  49.9954 339.5913 0068588 236.6903 122.7424 14.14472523 19309
CZ-12 R/B
1 67531U 26013K   26156.21933456 -.00000240  00000-0 -43004-4 0  9990
2 67531  49.9955 337.5409 0068548 238.3359 121.0851 14.14472477 19379
CZ-12 R/B
1 67531U 26013K   26156.21933456 -.00000240  00000-0 -43004-4 0  9990
2 67531  49.9955 337.5409 0068548 238.3359 121.0851 14.14472477 19379
CZ-12 R/B
1 67531U 26013K   26156.21933457 -.00000245  00000-0 -45746-4 0  9991
2 67531  49.9955 337.5413 0068563 238.3332 121.0878 14.14472444 19375
CZ-12 R/B
1 67531U 26013K   26156.21933457 -.00000242  00000-0 -44337-4 0  9993
2 67531  49.9955 337.5409 0068548 238.3360 121.0851 14.14472460 19373
CZ-12 R/B
1 67531U 26013K   26157.77362980 -.00000200  00000-0 -22678-4 0  9990
2 67531  49.9954 331.0965 0068677 243.6638 115.7207 14.14472297 19595
CZ-12 R/B
1 67531U 26013K   26157.77362980 -.00000200  00000-0 -22678-4 0  9990
2 67531  49.9954 331.0965 0068677 243.6638 115.7207 14.14472297 19595
CZ-12 R/B
1 67531U 26013K   26158.19752885 -.00000189  00000-0 -17350-4 0  9991
2 67531  49.9955 329.3384 0068656 245.1193 114.2568 14.14472265 19657
CZ-12 R/B
1 67531U 26013K   26158.19752885 -.00000189  00000-0 -17350-4 0  9991
2 67531  49.9955 329.3384 0068656 245.1193 114.2568 14.14472265 19657
CZ-12 R/B
1 67531U 26013K   26158.76272781 -.00000157  00000-0 -94887-6 0  9993
2 67531  49.9956 326.9946 0068627 247.0829 112.2826 14.14472314 19739
CZ-12 R/B
1 67531U 26013K   26159.18662705 -.00000143  00000-0  58157-5 0  9992
2 67531  49.9954 325.2363 0068611 248.5439 110.8143 14.14472303 19798
CZ-12 R/B
1 67531U 26013K   26159.18662705 -.00000143  00000-0  58157-5 0  9992
2 67531  49.9954 325.2364 0068611 248.5439 110.8143 14.14472303 19799
CZ-12 R/B
1 67531U 26013K   26159.75182630 -.00000120  00000-0  17834-4 0  9990
2 67531  49.9953 322.8929 0068616 250.4740 108.8749 14.14472314 19870
CZ-12 R/B
1 67531U 26013K   26160.17572574 -.00000110  00000-0  22612-4 0  9997
2 67531  49.9954 321.1346 0068589 251.9204 107.4224 14.14472315 19937
CZ-12 R/B
1 67531U 26013K   26160.17572575 -.00000110  00000-0  22612-4 0  9998
2 67531  49.9954 321.1346 0068589 251.9204 107.4224 14.14472315 19937
CZ-12 R/B
1 67531U 26013K   26160.74092517 -.00000081  00000-0  37666-4 0  9996
2 67531  49.9957 318.7908 0068596 253.8636 105.4714 14.14472422 20016
CZ-12 R/B
1 67531U 26013K   26161.16482487 -.00000062  00000-0  47022-4 0  9998
2 67531  49.9959 317.0332 0068570 255.3070 104.0231 14.14472520 20076
CZ-12 R/B
1 67531U 26013K   26161.16482488 -.00000062  00000-0  47022-4 0  9999
2 67531  49.9959 317.0332 0068570 255.3070 104.0231 14.14472521 20077
CZ-12 R/B
1 67531U 26013K   26161.58872463 -.00000044  00000-0  56135-4 0  9996
2 67531  49.9956 315.2754 0068577 256.7568 102.5685 14.14472591 20136
CZ-12 R/B
1 67531U 26013K   26162.15392429 -.00000017  00000-0  69875-4 0  9994
2 67531  49.9955 312.9313 0068581 258.6996 100.6201 14.14472736 20214
CZ-12 R/B
1 67531U 26013K   26162.64847416  .00000007  00000-0  82298-4 0  9991
2 67531  49.9953 310.8805 0068584 260.3960  98.9196 14.14472893 20282
CZ-12 R/B
1 67531U 26013K   26162.64847416  .00000007  00000-0  82298-4 0  9991
2 67531  49.9953 310.8805 0068584 260.3960  98.9196 14.14472893 20282
CZ-12 R/B
1 67531U 26013K   26162.64847416  .00000007  00000-0  82298-4 0  9991
2 67531  49.9953 310.8805 0068584 260.3960  98.9196 14.14472893 20282
CZ-12 R/B
1 67531U 26013K   26163.14302411  .00000026  00000-0  91720-4 0  9999
2 67531  49.9952 308.8297 0068578 262.1115  97.2006 14.14473057 20351
CZ-12 R/B
1 67531U 26013K   26164.13212425  .00000067  00000-0  11263-3 0  9992
2 67531  49.9951 304.7287 0068583 265.5206  93.7865 14.14473467 20492
CZ-12 R/B
1 67531U 26013K   26164.55602429  .00000080  00000-0  11883-3 0  9998
2 67531  49.9949 302.9709 0068587 266.9688  92.3371 14.14473651 20550
CZ-12 R/B
1 67531U 26013K   26164.62667425  .00000082  00000-0  12026-3 0  9995
2 67531  49.9948 302.6780 0068592 267.2129  92.0928 14.14473698 20562
CZ-12 R/B
1 67531U 26013K   26164.69732425  .00000084  00000-0  12118-3 0  9999
2 67531  49.9948 302.3849 0068591 267.4564  91.8491 14.14473729 20577
CZ-12 R/B
1 67531U 26013K   26164.69732426  .00000084  00000-0  12118-3 0  9990
2 67531  49.9948 302.3849 0068591 267.4564  91.8491 14.14473729 20577
CZ-12 R/B
1 67531U 26013K   26165.12122432  .00000092  00000-0  12494-3 0  9995
2 67531  49.9944 300.6271 0068588 268.9110  90.3940 14.14473911 20635
CZ-12 R/B
1 67531U 26013K   26165.12122432  .00000092  00000-0  12494-3 0  9995
2 67531  49.9944 300.6272 0068588 268.9110  90.3940 14.14473911 20636
CZ-12 R/B
1 67531U 26013K   26165.61577431  .00000098  00000-0  12809-3 0  9998
2 67531  49.9940 298.5760 0068603 270.6061  88.6987 14.14474124 20708
CZ-12 R/B
1 67531U 26013K   26165.61577432  .00000098  00000-0  12809-3 0  9999
2 67531  49.9940 298.5760 0068603 270.6061  88.6987 14.14474124 20708
CZ-12 R/B
1 67531U 26013K   26165.61577438  .00000098  00000-0  12796-3 0  9990
2 67531  49.9941 298.5759 0068600 270.6061  88.6988 14.14474114 20704
CZ-12 R/B
1 67531U 26013K   26166.03967443  .00000099  00000-0  12892-3 0  9994
2 67531  49.9937 296.8182 0068604 272.0655  87.2399 14.14474310 20764
CZ-12 R/B
1 67531U 26013K   26166.03967443  .00000099  00000-0  12892-3 0  9994
2 67531  49.9937 296.8182 0068604 272.0655  87.2399 14.14474310 20764
CZ-12 R/B
1 67531U 26013K   26166.60487469  .00000100  00000-0  12901-3 0  9996
2 67531  49.9937 294.4744 0068608 273.9974  85.3094 14.14474563 20840
CZ-12 R/B
1 67531U 26013K   26167.02877488  .00000095  00000-0  12668-3 0  9990
2 67531  49.9924 292.7167 0068601 275.4585  83.8501 14.14474691 20909
CZ-12 R/B
1 67531U 26013K   26167.02877488  .00000095  00000-0  12668-3 0  9990
2 67531  49.9924 292.7167 0068601 275.4586  83.8501 14.14474691 20900
CZ-12 R/B
1 67531U 26013K   26167.52332508  .00000087  00000-0  12286-3 0  9991
2 67531  49.9924 290.6660 0068608 277.1408  82.1703 14.14474922 20974
CZ-12 R/B
1 67531U 26013K   26167.59397499  .00000086  00000-0  12194-3 0  9995
2 67531  49.9926 290.3733 0068619 277.3624  81.9490 14.14474984 20987
CZ-12 R/B
1 67531U 26013K   26167.59397499  .00000086  00000-0  12194-3 0  9995
2 67531  49.9926 290.3733 0068619 277.3624  81.9490 14.14474984 20987
CZ-12 R/B
1 67531U 26013K   26168.01787527  .00000074  00000-0  11594-3 0  9998
2 67531  49.9929 288.6157 0068621 278.8357  80.4786 14.14475195 21047
CZ-12 R/B
1 67531U 26013K   26168.01787527  .00000074  00000-0  11594-3 0  9998
2 67531  49.9929 288.6157 0068621 278.8357  80.4786 14.14475195 21047
CZ-12 R/B
1 67531U 26013K   26169.57217653  .00000014  00000-0  85678-4 0  9997
2 67531  49.9930 282.1706 0068614 284.1786  75.1507 14.14475746 21264
CZ-12 R/B
1 67531U 26013K   26169.71347659  .00000007  00000-0  82086-4 0  9995
2 67531  49.9930 281.5848 0068617 284.6506  74.6802 14.14475801 21288
CZ-12 R/B
1 67531U 26013K   26169.71347659  .00000007  00000-0  82086-4 0  9995
2 67531  49.9930 281.5848 0068617 284.6507  74.6802 14.14475801 21289
CZ-12 R/B
1 67531U 26013K   26169.99607693 -.00000012  00000-0  72419-4 0  9998
2 67531  49.9931 280.4131 0068624 285.6298  73.7045 14.14475870 21329
CZ-12 R/B
1 67531U 26013K   26169.99607693 -.00000012  00000-0  72419-4 0  9998
2 67531  49.9931 280.4131 0068624 285.6298  73.7045 14.14475870 21329
CZ-12 R/B
1 67531U 26013K   26170.56127767 -.00000041  00000-0  57856-4 0  9992
2 67531  49.9933 278.0697 0068613 287.5799  71.7623 14.14476019 21401
CZ-12 R/B
1 67531U 26013K   26171.26777866 -.00000081  00000-0  37373-4 0  9997
2 67531  49.9933 275.1402 0068610 290.0105  69.3425 14.14476141 21500
CZ-12 R/B
1 67531U 26013K   26171.55037921 -.00000099  00000-0  28265-4 0  9999
2 67531  49.9934 273.9685 0068597 290.9949  68.3631 14.14476178 21541
CZ-12 R/B
1 67531U 26013K   26171.97427999 -.00000128  00000-0  13795-4 0  9998
2 67531  49.9934 272.2107 0068612 292.4778  66.8876 14.14476216 21601
CZ-12 R/B
1 67531U 26013K   26172.53948120 -.00000159  00000-0 -18772-5 0  9991
2 67531  49.9932 269.8669 0068593 294.4279  64.9484 14.14476218 21684
CZ-12 R/B
1 67531U 26013K   26173.66988403 -.00000217  00000-0 -31564-4 0  9992
2 67531  49.9927 265.1795 0068618 298.3381  61.0619 14.14476135 21846
CZ-12 R/B
1 67531U 26013K   26174.94158816 -.00000263  00000-0 -54850-4 0  9995
2 67531  49.9918 259.9061 0068623 302.7119  56.7186 14.14475917 22026
CZ-12 R/B
1 67531U 26013K   26175.50679037 -.00000274  00000-0 -60198-4 0  9995
2 67531  49.9917 257.5622 0068605 304.6495  54.7959 14.14475800 22106
CZ-12 R/B
1 67531U 26013K   26176.63719531 -.00000276  00000-0 -61311-4 0  9994
2 67531  49.9912 252.8756 0068606 308.5079  50.9691 14.14475593 22266
CZ-12 R/B
1 67531U 26013K   26176.63719531 -.00000276  00000-0 -61311-4 0  9994
2 67531  49.9912 252.8756 0068606 308.5079  50.9691 14.14475592 22265
CZ-12 R/B
1 67531U 26013K   26176.63719531 -.00000276  00000-0 -61311-4 0  9994
2 67531  49.9912 252.8756 0068606 308.5079  50.9691 14.14475593 22266
CZ-12 R/B
1 67531U 26013K   26177.55564995 -.00000273  00000-0 -59704-4 0  9998
2 67531  49.9907 249.0667 0068615 311.6904  47.8146 14.14475374 22392
CZ-12 R/B
1 67531U 26013K   26177.55564995 -.00000273  00000-0 -59704-4 0  9998
2 67531  49.9907 249.0667 0068615 311.6904  47.8146 14.14475374 22392
CZ-12 R/B
1 67531U 26013K   26177.90890196 -.00000268  00000-0 -57289-4 0  9992
2 67531  49.9903 247.6022 0068639 312.9031  46.6129 14.14475270 22447
CZ-12 R/B
1 67531U 26013K   26177.90890196 -.00000268  00000-0 -57289-4 0  9992
2 67531  49.9903 247.6022 0068639 312.9031  46.6129 14.14475270 22447
CZ-12 R/B
1 67531U 26013K   26178.47410519 -.00000255  00000-0 -50312-4 0  9998
2 67531  49.9901 245.2588 0068631 314.8220  44.7124 14.14475162 22522
CZ-12 R/B
1 67531U 26013K   26178.89800772 -.00000247  00000-0 -46409-4 0  9991
2 67531  49.9897 243.5006 0068639 316.2826  43.2659 14.14475056 22583
CZ-12 R/B
1 67531U 26013K   26178.89800772 -.00000247  00000-0 -46409-4 0  9991
2 67531  49.9897 243.5006 0068639 316.2826  43.2659 14.14475056 22583
CZ-12 R/B
1 67531U 26013K   26179.53386171 -.00000225  00000-0 -35278-4 0  9993
2 67531  49.9892 240.8635 0068631 318.4619  41.1087 14.14474937 22671
CZ-12 R/B
1 67531U 26013K   26180.52296836 -.00000187  00000-0 -15958-4 0  9992
2 67531  49.9889 236.7617 0068633 321.8625  37.7439 14.14474848 22817
CZ-12 R/B
1 67531U 26013K   26181.58272579 -.00000144  00000-0  60266-5 0  9992
2 67531  49.9887 232.3661 0068636 325.4952  34.1512 14.14474814 22964
CZ-12 R/B
1 67531U 26013K   26181.58272580 -.00000144  00000-0  60266-5 0  9994
2 67531  49.9887 232.3661 0068636 325.4952  34.1512 14.14474814 22964
CZ-12 R/B
1 67531U 26013K   26181.58272580 -.00000144  00000-0  60266-5 0  9994
2 67531  49.9887 232.3661 0068636 325.4952  34.1512 14.14474814 22964
CZ-12 R/B
1 67531U 26013K   26182.43053200 -.00000102  00000-0  27133-4 0  9994
2 67531  49.9895 228.8498 0068644 328.3999  31.2797 14.14474952 23083
CZ-12 R/B
1 67531U 26013K   26182.50118257 -.00000100  00000-0  28283-4 0  9991
2 67531  49.9894 228.5569 0068647 328.6446  31.0379 14.14474937 23099
CZ-12 R/B
1 67531U 26013K   26182.85443524 -.00000086  00000-0  35174-4 0  9997
2 67531  49.9891 227.0921 0068653 329.8484  29.8482 14.14474956 23141
CZ-12 R/B
1 67531U 26013K   26183.27833846 -.00000059  00000-0  48938-4 0  9996
2 67531  49.9888 225.3341 0068640 331.2885  28.4253 14.14475042 23207
CZ-12 R/B
1 67531U 26013K   26183.56094078 -.00000042  00000-0  57724-4 0  9999
2 67531  49.9891 224.1623 0068645 332.2665  27.4590 14.14475104 23249
CZ-12 R/B
1 67531U 26013K   26183.56094078 -.00000042  00000-0  57724-4 0  9999
2 67531  49.9891 224.1623 0068645 332.2665  27.4590 14.14475104 23249
CZ-12 R/B
1 67531U 26013K   26183.56094079 -.00000047  00000-0  55026-4 0  9998
2 67531  49.9881 224.1623 0068645 332.2666  27.4589 14.14475006 23248
CZ-12 R/B
1 67531U 26013K   26184.47939793  .00000006  00000-0  81846-4 0  9993
2 67531  49.9882 220.3532 0068645 335.4175  24.3467 14.14475289 23374
CZ-12 R/B
1 67531U 26013K   26184.47939793  .00000006  00000-0  81846-4 0  9993
2 67531  49.9882 220.3531 0068645 335.4175  24.3467 14.14475289 23373
CZ-12 R/B
1 67531U 26013K   26184.83265076  .00000016  00000-0  87211-4 0  9992
2 67531  49.9883 218.8886 0068653 336.6245  23.1547 14.14475360 23421
CZ-12 R/B
1 67531U 26013K   26185.11525303  .00000026  00000-0  92328-4 0  9992
2 67531  49.9884 217.7166 0068655 337.6003  22.1912 14.14475438 23461
CZ-12 R/B
1 67531U 26013K   26185.32720470  .00000035  00000-0  96625-4 0  9991
2 67531  49.9888 216.8378 0068665 338.3318  21.4690 14.14475534 23493
CZ-12 R/B
1 67531U 26013K   26185.46850575  .00000060  00000-0  10930-3 0  9998
2 67531  49.9890 216.2515 0068680 338.8192  20.9877 14.14475695 23517
CZ-12 R/B
1 67531U 26013K   26185.46850575  .00000060  00000-0  10930-3 0  9998
2 67531  49.9890 216.2515 0068680 338.8192  20.9877 14.14475695 23517
CZ-12 R/B
1 67531U 26013K   26185.82175845  .00000068  00000-0  11321-3 0  9991
2 67531  49.9890 214.7864 0068687 340.0292  19.7932 14.14475807 23568
CZ-12 R/B
1 67531U 26013K   26186.24566174  .00000073  00000-0  11609-3 0  9992
2 67531  49.9890 213.0285 0068685 341.4853  18.3559 14.14475926 23622
CZ-12 R/B
1 67531U 26013K   26186.52826392  .00000080  00000-0  11966-3 0  9998
2 67531  49.9890 211.8568 0068696 342.4590  17.3948 14.14476022 23666
CZ-12 R/B
1 67531U 26013K   26186.52826392  .00000080  00000-0  11966-3 0  9998
2 67531  49.9890 211.8568 0068696 342.4589  17.3948 14.14476022 23664
CZ-12 R/B
1 67531U 26013K   26186.81086598  .00000086  00000-0  12280-3 0  9992
2 67531  49.9890 210.6847 0068697 343.4279  16.4385 14.14476147 23707
CZ-12 R/B
1 67531U 26013K   26187.09346810  .00000092  00000-0  12568-3 0  9995
2 67531  49.9889 209.5125 0068696 344.3962  15.4829 14.14476259 23749
CZ-12 R/B
1 67531U 26013K   26187.30541953  .00000094  00000-0  12657-3 0  9995
2 67531  49.9889 208.6337 0068685 345.0997  14.7887 14.14476350 23779
CZ-12 R/B
1 67531U 26013K   26188.08257514  .00000102  00000-0  13085-3 0  9994
2 67531  49.9890 205.4111 0068678 347.7595  12.1643 14.14476714 23889
CZ-12 R/B
1 67531U 26013K   26188.08257514  .00000102  00000-0  13085-3 0  9994
2 67531  49.9890 205.4111 0068678 347.7595  12.1643 14.14476714 23889
CZ-12 R/B
1 67531U 26013K   26188.43582766  .00000107  00000-0  13308-3 0  9996
2 67531  49.9890 203.9462 0068673 348.9752  10.9650 14.14476878 23935
CZ-12 R/B
1 67531U 26013K   26188.43582766  .00000107  00000-0  13308-3 0  9996
2 67531  49.9890 203.9462 0068673 348.9752  10.9650 14.14476878 23935
CZ-12 R/B
1 67531U 26013K   26188.71842958  .00000105  00000-0  13216-3 0  9995
2 67531  49.9888 202.7741 0068675 349.9475  10.0056 14.14477004 23971
CZ-12 R/B
1 67531U 26013K   26189.00103156  .00000106  00000-0  13282-3 0  9992
2 67531  49.9887 201.6020 0068682 350.9230   9.0433 14.14477133 24013
CZ-12 R/B
1 67531U 26013K   26189.28363350  .00000100  00000-0  12970-3 0  9993
2 67531  49.9889 200.4300 0068687 351.8990   8.0804 14.14477261 24058
CZ-12 R/B
1 67531U 26013K   26189.28363350  .00000100  00000-0  12970-3 0  9993
2 67531  49.9889 200.4300 0068687 351.8990   8.0804 14.14477261 24058
CZ-12 R/B
1 67531U 26013K   26189.70753630  .00000091  00000-0  12510-3 0  9993
2 67531  49.9891 198.6723 0068689 353.3568   6.6425 14.14477475 24115
CZ-12 R/B
1 67531U 26013K   26190.06078856  .00000083  00000-0  12128-3 0  9990
2 67531  49.9891 197.2074 0068683 354.5663   5.4494 14.14477627 24169
CZ-12 R/B
1 67531U 26013K   26190.69664248  .00000060  00000-0  10959-3 0  9990
2 67531  49.9895 194.5708 0068678 356.7479   3.2975 14.14477939 24256
CZ-12 R/B
1 67531U 26013K   26190.69664248  .00000060  00000-0  10959-3 0  9990
2 67531  49.9895 194.5708 0068678 356.7479   3.2975 14.14477939 24256
CZ-12 R/B
1 67531U 26013K   26192.03900030 -.00000010  00000-0  74272-4 0  9997
2 67531  49.9899 189.0042 0068705   1.3584 358.7500 14.14478435 24446
CZ-12 R/B
1 67531U 26013K   26192.03900030 -.00000010  00000-0  74272-4 0  9997
2 67531  49.9899 189.0042 0068705   1.3584 358.7500 14.14478435 24446
CZ-12 R/B
1 67531U 26013K   26192.03900030 -.00000007  00000-0  75776-4 0  9993
2 67531  49.9899 189.0042 0068706   1.3587 358.7497 14.14478450 24442
CZ-12 R/B
1 67531U 26013K   26192.03900030 -.00000007  00000-0  75776-4 0  9993
2 67531  49.9899 189.0042 0068706   1.3587 358.7497 14.14478449 24440
CZ-12 R/B
1 67531U 26013K   26193.94656079 -.00000132  00000-0  12125-4 0  9993
2 67531  49.9900 181.0940 0068727   7.9297 352.2682 14.14478785 24713
CZ-12 R/B
1 67531U 26013K   26193.94656080 -.00000132  00000-0  12125-4 0  9995
2 67531  49.9900 181.0940 0068727   7.9297 352.2682 14.14478785 24713
CZ-12 R/B
1 67531U 26013K   26198.89208653 -.00000303  00000-0 -74578-4 0  9994
2 67531  49.9894 160.5855 0068702  24.9284 335.4918 14.14478298 25412
CZ-12 R/B
1 67531U 26013K   26199.17468804 -.00000304  00000-0 -74600-4 0  9999
2 67531  49.9894 159.4136 0068701  25.8865 334.5456 14.14478217 25457
CZ-12 R/B
1 67531U 26013K   26199.59859031 -.00000301  00000-0 -73077-4 0  9995
2 67531  49.9895 157.6558 0068706  27.3512 333.0988 14.14478131 25513
CZ-12 R/B
1 67531U 26013K   26199.59859032 -.00000301  00000-0 -73077-4 0  9996
2 67531  49.9895 157.6558 0068706  27.3512 333.0988 14.14478131 25513
CZ-12 R/B
1 67531U 26013K   26200.23444382 -.00000286  00000-0 -65613-4 0  9997
2 67531  49.9895 155.0189 0068702  29.5353 330.9410 14.14477964 25607
CZ-12 R/B
1 67531U 26013K   26200.58769571 -.00000280  00000-0 -62850-4 0  9999
2 67531  49.9896 153.5540 0068702  30.7558 329.7350 14.14477894 25659
CZ-12 R/B
1 67531U 26013K   26200.58769571 -.00000280  00000-0 -62850-4 0  9999
2 67531  49.9896 153.5540 0068702  30.7558 329.7350 14.14477894 25659
CZ-12 R/B
1 67531U 26013K   26201.29419968 -.00000254  00000-0 -49510-4 0  9999
2 67531  49.9897 150.6242 0068704  33.1916 327.3275 14.14477735 25759
CZ-12 R/B
1 67531U 26013K   26201.29419968 -.00000254  00000-0 -49510-4 0  9999
2 67531  49.9897 150.6242 0068704  33.1916 327.3275 14.14477735 25759
CZ-12 R/B
1 67531U 26013K   26202.14200416 -.00000220  00000-0 -32030-4 0  9992
2 67531  49.9898 147.1084 0068695  36.1087 324.4433 14.14477635 25872
CZ-12 R/B
1 67531U 26013K   26203.27240993 -.00000156  00000-0  32873-6 0  9995
2 67531  49.9899 142.4208 0068692  39.9839 320.6100 14.14477630 26035
CZ-12 R/B
1 67531U 26013K   26203.83761269 -.00000144  00000-0  63891-5 0  9991
2 67531  49.9900 140.0769 0068686  41.9246 318.6894 14.14477557 26116
CZ-12 R/B
1 67531U 26013K   26204.26151466 -.00000106  00000-0  25744-4 0  9993
2 67531  49.9900 138.3191 0068692  43.3880 317.2408 14.14477684 26175
CZ-12 R/B
1 67531U 26013K   26204.54411593 -.00000095  00000-0  31229-4 0  9996
2 67531  49.9901 137.1473 0068691  44.3594 316.2791 14.14477714 26211
CZ-12 R/B
1 67531U 26013K   26204.75606684 -.00000086  00000-0  35827-4 0  9994
2 67531  49.9914 136.2683 0068689  45.0910 315.5546 14.14477811 26246
CZ-12 R/B
1 67531U 26013K   26204.75606684 -.00000086  00000-0  35827-4 0  9994
2 67531  49.9914 136.2684 0068689  45.0910 315.5546 14.14477811 26247
CZ-12 R/B
1 67531U 26013K   26205.17996872 -.00000060  00000-0  48930-4 0  9993
2 67531  49.9914 134.5105 0068694  46.5572 314.1024 14.14477881 26302
CZ-12 R/B
1 67531U 26013K   26205.53322007 -.00000039  00000-0  59664-4 0  9998
2 67531  49.9915 133.0457 0068691  47.7679 312.9031 14.14478003 26351
CZ-12 R/B
1 67531U 26013K   26206.52232377  .00000000  00000-0  79567-4 0  9999
2 67531  49.9916 128.9441 0068686  51.1656 309.5358 14.14478187 26498
CZ-12 R/B
1 67531U 26013K   26206.80492466  .00000014  00000-0  86625-4 0  9995
2 67531  49.9916 127.7721 0068680  52.1397 308.5699 14.14478281 26530
CZ-12 R/B
1 67531U 26013K   26207.22882605  .00000033  00000-0  96112-4 0  9993
2 67531  49.9916 126.0143 0068691  53.6068 307.1152 14.14478396 26595
CZ-12 R/B
1 67531U 26013K   26208.00597797  .00000068  00000-0  11360-3 0  9994
2 67531  49.9917 122.7916 0068672  56.2740 304.4690 14.14478721 26704
CZ-12 R/B
1 67531U 26013K   26208.92442966  .00000101  00000-0  13039-3 0  9995
2 67531  49.9917 118.9829 0068668  59.4302 301.3359 14.14479148 26834
CZ-12 R/B
1 67531U 26013K   26208.92442966  .00000101  00000-0  13039-3 0  9995
2 67531  49.9917 118.9829 0068668  59.4302 301.3359 14.14479148 26834
CZ-12 R/B
1 67531U 26013K   26209.91353066  .00000112  00000-0  13616-3 0  9990
2 67531  49.9919 114.8813 0068662  62.8243 297.9644 14.14479580 26972
CZ-12 R/B
1 67531U 26013K   26209.91353066  .00000112  00000-0  13616-3 0  9990
2 67531  49.9919 114.8813 0068662  62.8243 297.9644 14.14479580 26972
CZ-12 R/B
1 67531U 26013K   26210.97328067  .00000122  00000-0  14138-3 0  9992
2 67531  49.9920 110.4867 0068668  66.4685 294.3419 14.14480155 27120
CZ-12 R/B
1 67531U 26013K   26211.89172972  .00000119  00000-0  13982-3 0  9998
2 67531  49.9920 106.6781 0068659  69.6153 291.2114 14.14480682 27254
CZ-12 R/B
1 67531U 26013K   26211.96237961  .00000109  00000-0  13441-3 0  9995
2 67531  49.9920 106.3851 0068667  69.8660 290.9619 14.14480674 27261
CZ-12 R/B
1 67531U 26013K   26212.38627881  .00000096  00000-0  12819-3 0  9999
2 67531  49.9920 104.6273 0068669  71.3247 289.5101 14.14480897 27325
CZ-12 R/B
1 67531U 26013K   26212.88082774  .00000087  00000-0  12340-3 0  9999
2 67531  49.9920 102.5764 0068668  73.0309 287.8112 14.14481154 27391
CZ-12 R/B
1 67531U 26013K   26212.95147760  .00000078  00000-0  11876-3 0  9997
2 67531  49.9921 102.2835 0068674  73.2663 287.5768 14.14481147 27408
CZ-12 R/B
1 67531U 26013K   26213.37537648  .00000059  00000-0  10911-3 0  9990
2 67531  49.9921 100.5257 0068674  74.7212 286.1275 14.14481327 27467
CZ-12 R/B
1 67531U 26013K   26213.94057476  .00000030  00000-0  94500-4 0  9995
2 67531  49.9921  98.1819 0068676  76.6597 284.1957 14.14481524 27545
CZ-12 R/B
1 67531U 26013K   26213.94057476  .00000030  00000-0  94500-4 0  9995
2 67531  49.9921  98.1819 0068676  76.6597 284.1957 14.14481524 27545
CZ-12 R/B
1 67531U 26013K   26214.92967104 -.00000030  00000-0  64282-4 0  9997
2 67531  49.9922  94.0802 0068687  80.0641 280.8012 14.14481819 27681
CZ-12 R/B
1 67531U 26013K   26215.91876667 -.00000099  00000-0  28965-4 0  9993
2 67531  49.9921  89.9785 0068699  83.4712 277.4012 14.14481956 27822
CZ-12 R/B
1 67531U 26013K   26216.90786175 -.00000166  00000-0 -45379-5 0  9992
2 67531  49.9920  85.8768 0068712  86.8683 274.0085 14.14481972 27963
CZ-12 R/B
1 67531U 26013K   26217.61435786 -.00000202  00000-0 -23077-4 0  9991
2 67531  49.9920  82.9469 0068718  89.2924 271.5858 14.14481961 28060
CZ-12 R/B
1 67531U 26013K   26217.89695628 -.00000219  00000-0 -31772-4 0  9993
2 67531  49.9920  81.7750 0068729  90.2742 270.6043 14.14481928 28106
CZ-12 R/B
1 67531U 26013K   26218.60345213 -.00000251  00000-0 -48070-4 0  9990
2 67531  49.9922  78.8449 0068733  92.7180 268.1599 14.14481813 28200
CZ-12 R/B
1 67531U 26013K   26218.88605042 -.00000262  00000-0 -53389-4 0  9990
2 67531  49.9921  77.6729 0068735  93.6897 267.1875 14.14481766 28241
CZ-12 R/B
1 67531U 26013K   26219.87514424 -.00000287  00000-0 -66038-4 0  9995
2 67531  49.9918  73.5712 0068735  97.0726 263.8005 14.14481561 28389
CZ-12 R/B
1 67531U 26013K   26219.87514424 -.00000287  00000-0 -66038-4 0  9995
2 67531  49.9918  73.5712 0068735  97.0726 263.8005 14.14481561 28389
CZ-12 R/B
1 67531U 26013K   26220.01644332 -.00000288  00000-0 -66469-4 0  9994
2 67531  49.9917  72.9851 0068737  97.5533 263.3191 14.14481528 28405
CZ-12 R/B
1 67531U 26013K   26220.01644333 -.00000288  00000-0 -66469-4 0  9995
2 67531  49.9917  72.9851 0068737  97.5533 263.3191 14.14481528 28405
CZ-12 R/B
1 67531U 26013K   26220.29904147 -.00000294  00000-0 -69531-4 0  9997
2 67531  49.9920  71.8130 0068740  98.5382 262.3324 14.14481470 28441
CZ-12 R/B
1 67531U 26013K   26220.79358819 -.00000294  00000-0 -69891-4 0  9990
2 67531  49.9920  69.7620 0068746 100.2447 260.6222 14.14481360 28514
CZ-12 R/B
1 67531U 26013K   26220.93488729 -.00000293  00000-0 -69277-4 0  9997
2 67531  49.9919  69.1760 0068748 100.7252 260.1406 14.14481315 28533
CZ-12 R/B
1 67531U 26013K   26220.93488730 -.00000293  00000-0 -69277-4 0  9999
2 67531  49.9919  69.1760 0068748 100.7252 260.1406 14.14481315 28533
CZ-12 R/B
1 67531U 26013K   26221.28813489 -.00000293  00000-0 -69377-4 0  9992
2 67531  49.9919  67.7111 0068750 101.9404 258.9223 14.14481241 28587
CZ-12 R/B
1 67531U 26013K   26221.78268149 -.00000291  00000-0 -68076-4 0  9997
2 67531  49.9920  65.6601 0068754 103.6463 257.2114 14.14481107 28658
CZ-12 R/B
1 67531U 26013K   26221.92398057 -.00000288  00000-0 -66706-4 0  9999
2 67531  49.9919  65.0741 0068755 104.1261 256.7300 14.14481055 28673
CZ-12 R/B
1 67531U 26013K   26222.55982608 -.00000279  00000-0 -62002-4 0  9995
2 67531  49.9919  62.4371 0068758 106.3136 254.5349 14.14480901 28769
CZ-12 R/B
1 67531U 26013K   26222.77177455 -.00000275  00000-0 -60061-4 0  9994
2 67531  49.9920  61.5582 0068759 107.0433 253.8024 14.14480852 28794
CZ-12 R/B
1 67531U 26013K   26222.91307358 -.00000270  00000-0 -57509-4 0  9995
2 67531  49.9920  60.9722 0068762 107.5262 253.3175 14.14480817 28818
CZ-12 R/B
1 67531U 26013K   26222.91307358 -.00000270  00000-0 -57509-4 0  9995
2 67531  49.9920  60.9722 0068762 107.5262 253.3175 14.14480817 28818
CZ-12 R/B
1 67531U 26013K   26223.26632095 -.00000262  00000-0 -53452-4 0  9997
2 67531  49.9921  59.5073 0068768 108.7479 252.0908 14.14480765 28868
CZ-12 R/B
1 67531U 26013K   26223.26632095 -.00000262  00000-0 -53452-4 0  9997
2 67531  49.9921  59.5073 0068768 108.7479 252.0908 14.14480765 28868
CZ-12 R/B
1 67531U 26013K   26223.76086726 -.00000247  00000-0 -46065-4 0  9991
2 67531  49.9921  57.4564 0068772 110.4568 250.3742 14.14480669 28932
CZ-12 R/B
1 67531U 26013K   26223.76086726 -.00000247  00000-0 -46065-4 0  9991
2 67531  49.9921  57.4564 0068772 110.4568 250.3742 14.14480669 28932
CZ-12 R/B
1 67531U 26013K   26223.97281572 -.00000239  00000-0 -42068-4 0  9990
2 67531  49.9922  56.5775 0068779 111.1825 249.6450 14.14480627 28962
CZ-12 R/B
1 67531U 26013K   26224.53801134 -.00000223  00000-0 -33830-4 0  9995
2 67531  49.9923  54.2336 0068782 113.1327 247.6849 14.14480537 29044
CZ-12 R/B
1 67531U 26013K   26224.53801135 -.00000223  00000-0 -33830-4 0  9996
2 67531  49.9923  54.2336 0068782 113.1327 247.6849 14.14480537 29044
CZ-12 R/B
1 67531U 26013K   26224.96190804 -.00000206  00000-0 -24890-4 0  9994
2 67531  49.9923  52.4757 0068787 114.5884 246.2212 14.14480487 29109
CZ-12 R/B
1 67531U 26013K   26225.73905164 -.00000176  00000-0 -98070-5 0  9991
2 67531  49.9923  49.2527 0068786 117.2795 243.5141 14.14480437 29216
CZ-12 R/B
1 67531U 26013K   26225.73905165 -.00000176  00000-0 -98070-5 0  9992
2 67531  49.9923  49.2527 0068786 117.2795 243.5141 14.14480437 29216
CZ-12 R/B
1 67531U 26013K   26226.44554562 -.00000141  00000-0  77879-5 0  9997
2 67531  49.9924  46.3228 0068783 119.7142 241.0635 14.14480456 29316
CZ-12 R/B
1 67531U 26013K   26226.86944192 -.00000119  00000-0  18821-4 0  9991
2 67531  49.9925  44.5651 0068779 121.1700 239.5976 14.14480488 29370
CZ-12 R/B
1 67531U 26013K   26226.86944193 -.00000119  00000-0  18821-4 0  9992
2 67531  49.9925  44.5651 0068779 121.1700 239.5976 14.14480488 29370
CZ-12 R/B
1 67531U 26013K   26227.78788352 -.00000080  00000-0  38750-4 0  9997
2 67531  49.9926  40.7563 0068776 124.3346 236.4095 14.14480586 29501
CZ-12 R/B
1 67531U 26013K   26227.78788352 -.00000080  00000-0  38750-4 0  9997
2 67531  49.9926  40.7563 0068776 124.3346 236.4095 14.14480586 29501
CZ-12 R/B
1 67531U 26013K   26227.92918216 -.00000065  00000-0  46076-4 0  9990
2 67531  49.9926  40.1703 0068777 124.8214 235.9190 14.14480656 29521
CZ-12 R/B
1 67531U 26013K   26228.21177940 -.00000053  00000-0  52543-4 0  9997
2 67531  49.9926  38.9984 0068773 125.8044 234.9282 14.14480722 29564
CZ-12 R/B
1 67531U 26013K   26228.49437664 -.00000040  00000-0  58920-4 0  9990
2 67531  49.9927  37.8264 0068775 126.7791 233.9456 14.14480780 29606
CZ-12 R/B
1 67531U 26013K   26228.77697384 -.00000026  00000-0  66176-4 0  9994
2 67531  49.9927  36.6545 0068776 127.7466 232.9701 14.14480858 29648
CZ-12 R/B
1 67531U 26013K   26229.20086948 -.00000003  00000-0  77597-4 0  9995
2 67531  49.9930  34.8967 0068769 129.2136 231.4905 14.14481016 29707
CZ-12 R/B
1 67531U 26013K   26229.41281725  .00000008  00000-0  83187-4 0  9994
2 67531  49.9930  34.0177 0068769 129.9466 230.7511 14.14481090 29735
CZ-12 R/B
1 67531U 26013K   26230.18995882  .00000045  00000-0  10187-3 0  9996
2 67531  49.9931  30.7949 0068768 132.6249 228.0486 14.14481412 29846
CZ-12 R/B
1 67531U 26013K   26230.47255566  .00000055  00000-0  10688-3 0  9993
2 67531  49.9931  29.6230 0068769 133.5955 227.0689 14.14481522 29881
CZ-12 R/B
1 67531U 26013K   26230.68450328  .00000057  00000-0  10825-3 0  9994
2 67531  49.9932  28.7441 0068771 134.3286 226.3288 14.14481576 29915
CZ-12 R/B
1 67531U 26013K   26230.96710000  .00000069  00000-0  11394-3 0  9996
2 67531  49.9932  27.5722 0068768 135.2880 225.3601 14.14481718 29950
CZ-12 R/B
1 67531U 26013K   26232.09748625  .00000081  00000-0  12006-3 0  9991
2 67531  49.9935  22.8846 0068762 139.1822 221.4266 14.14482196 30116
CZ-12 R/B
1 67531U 26013K   26232.66267905  .00000079  00000-0  11899-3 0  9997
2 67531  49.9937  20.5409 0068764 141.1265 219.4618 14.14482420 30190
CZ-12 R/B
1 67531U 26013K   26232.66267905  .00000079  00000-0  11899-3 0  9997
2 67531  49.9937  20.5409 0068764 141.1265 219.4618 14.14482420 30190
CZ-12 R/B
1 67531U 26013K   26233.65176582  .00000066  00000-0  11261-3 0  9996
2 67531  49.9939  16.4393 0068760 144.5237 216.0273 14.14482844 30336
CZ-12 R/B
1 67531U 26013K   26234.64085195  .00000032  00000-0  95172-4 0  9992
2 67531  49.9941  12.3379 0068757 147.9372 212.5747 14.14483190 30478
CZ-12 R/B
1 67531U 26013K   26235.34734161  .00000007  00000-0  82416-4 0  9993
2 67531  49.9942   9.4083 0068750 150.3568 210.1264 14.14483451 30575
CZ-12 R/B
1 67531U 26013K   26237.04291587 -.00000084  00000-0  36506-4 0  9997
2 67531  49.9944   2.3774 0068750 156.1977 204.2136 14.14483815 30817
CZ-12 R/B
1 67531U 26013K   26237.60810704 -.00000110  00000-0  23202-4 0  9996
2 67531  49.9943   0.0336 0068759 158.1353 202.2514 14.14483882 30894
CZ-12 R/B
1 67531U 26013K   26239.72757337 -.00000189  00000-0 -17128-4 0  9990
2 67531  49.9943 351.2448 0068763 165.4056 194.8858 14.14483995 31191
CZ-12 R/B
1 67531U 26013K   26240.71665757 -.00000225  00000-0 -35130-4 0  9999
2 67531  49.9942 347.1433 0068765 168.7994 191.4464 14.14483857 31336
CZ-12 R/B
1 67531U 26013K   26240.99925302 -.00000239  00000-0 -42072-4 0  9992
2 67531  49.9942 345.9712 0068788 169.7703 190.4623 14.14483781 31372
CZ-12 R/B
1 67531U 26013K   26241.56444407 -.00000245  00000-0 -45427-4 0  9992
2 67531  49.9941 343.6274 0068792 171.7027 188.5036 14.14483696 31456
CZ-12 R/B
1 67531U 26013K   26241.63509296 -.00000245  00000-0 -45431-4 0  9993
2 67531  49.9941 343.3345 0068791 171.9432 188.2598 14.14483689 31466
CZ-12 R/B
1 67531U 26013K   26241.98833733 -.00000257  00000-0 -51288-4 0  9997
2 67531  49.9941 341.8697 0068787 173.1567 187.0297 14.14483608 31517
CZ-12 R/B
1 67531U 26013K   26242.55352835 -.00000258  00000-0 -51999-4 0  9990
2 67531  49.9940 339.5260 0068781 175.1097 185.0498 14.14483512 31593
CZ-12 R/B
1 67531U 26013K   26242.69482611 -.00000257  00000-0 -51297-4 0  9991
2 67531  49.9939 338.9400 0068776 175.5964 184.5564 14.14483489 31615
CZ-12 R/B
1 67531U 26013K   26243.47196387 -.00000262  00000-0 -54104-4 0  9996
2 67531  49.9938 335.7173 0068773 178.2742 181.8416 14.14483316 31724
CZ-12 R/B
1 67531U 26013K   26243.54261277 -.00000261  00000-0 -53294-4 0  9993
2 67531  49.9938 335.4244 0068772 178.5164 181.5960 14.14483305 31730
CZ-12 R/B
1 67531U 26013K   26243.54261277 -.00000261  00000-0 -53294-4 0  9993
2 67531  49.9938 335.4244 0068772 178.5164 181.5960 14.14483305 31730
CZ-12 R/B
1 67531U 26013K   26244.46104843 -.00000253  00000-0 -49633-4 0  9993
2 67531  49.9937 331.6159 0068766 181.6834 178.3853 14.14483148 31868
