OBJECT K
1 68138U 26047K   26075.90434169 -.00000236  00000-0 -43361-4 0  9995
2 68138  49.9544  40.8361 0044741 163.2705 196.9689 14.12227789   572
OBJECT K
1 68138U 26047K   26076.18738931 -.00000226  00000-0 -38223-4 0  9990
2 68138  49.9543  39.6657 0044740 164.2331 195.9980 14.12227843   619
OBJECT K
1 68138U 26047K   26076.25815123 -.00000223  00000-0 -36520-4 0  9992
2 68138  49.9544  39.3730 0044740 164.4694 195.7597 14.12227857   621
OBJECT K
1 68138U 26047K   26076.61196072 -.00000211  00000-0 -29970-4 0  9995
2 68138  49.9545  37.9097 0044761 165.6570 194.5619 14.12227958   670
OBJECT K
1 68138U 26047K   26076.89500846 -.00000199  00000-0 -23752-4 0  9990
2 68138  49.9546  36.7394 0044715 166.6325 193.5778 14.12227992   714
OBJECT K
1 68138U 26047K   26076.96577024 -.00000197  00000-0 -22596-4 0  9993
2 68138  49.9542  36.4466 0044743 166.8846 193.3235 14.12228004   720
OBJECT K
1 68138U 26047K   26077.24881778 -.00000179  00000-0 -13117-4 0  9998
2 68138  49.9543  35.2764 0044766 167.8493 192.3505 14.12228111   765
OBJECT K
1 68138U 26047K   26077.53186536 -.00000169  00000-0 -75266-5 0  9993
2 68138  49.9542  34.1057 0044760 168.8017 191.3896 14.12228173   809
OBJECT K
1 68138U 26047K   26077.53186536 -.00000169  00000-0 -75266-5 0  9993
2 68138  49.9542  34.1057 0044760 168.8017 191.3896 14.12228173   809
OBJECT K
1 68138U 26047K   26077.88567472 -.00000150  00000-0  23307-5 0  9991
2 68138  49.9539  32.6421 0044754 170.0360 190.1445 14.12228252   852
OBJECT K
1 68138U 26047K   26077.88567472 -.00000151  00000-0  22235-5 0  9991
2 68138  49.9540  32.6422 0044772 170.0373 190.1432 14.12228241   853
OBJECT K
1 68138U 26047K   26077.95643660 -.00000148  00000-0  33473-5 0  9995
2 68138  49.9539  32.3495 0044760 170.2852 189.8930 14.12228257   865
OBJECT K
1 68138U 26047K   26078.31024602 -.00000127  00000-0  14723-4 0  9998
2 68138  49.9542  30.8861 0044765 171.4824 188.6853 14.12228377   916
OBJECT K
1 68138U 26047K   26078.87634104 -.00000101  00000-0  28557-4 0  9995
2 68138  49.9540  28.5452 0044795 173.4098 186.7407 14.12228534   999
OBJECT K
1 68138U 26047K   26078.94710293 -.00000099  00000-0  29837-4 0  9995
2 68138  49.9540  28.2526 0044794 173.6515 186.4969 14.12228545  1008
OBJECT K
1 68138U 26047K   26079.15938865 -.00000087  00000-0  36056-4 0  9994
2 68138  49.9541  27.3750 0044747 174.3761 185.7657 14.12228617  1036
OBJECT K
1 68138U 26047K   26079.30091242 -.00000080  00000-0  39709-4 0  9991
2 68138  49.9543  26.7898 0044747 174.8535 185.2841 14.12228667  1055
OBJECT K
1 68138U 26047K   26079.51319802 -.00000073  00000-0  43589-4 0  9992
2 68138  49.9542  25.9121 0044744 175.5781 184.5530 14.12228749  1083
OBJECT K
1 68138U 26047K   26079.58395984 -.00000068  00000-0  46290-4 0  9990
2 68138  49.9542  25.6192 0044744 175.8234 184.3055 14.12228780  1090
OBJECT K
1 68138U 26047K   26079.86700729 -.00000057  00000-0  52225-4 0  9991
2 68138  49.9542  24.4490 0044746 176.8068 183.3133 14.12228852  1137
OBJECT K
1 68138U 26047K   26079.93776921  .00000039  00000-0  10352-3 0  9999
2 68138  49.9536  24.1575 0044768 177.0051 183.1133 14.12229214  1142
OBJECT K
1 68138U 26047K   26080.29157844  .00000059  00000-0  11422-3 0  9998
2 68138  49.9536  22.6946 0044769 178.2210 181.8864 14.12229383  1196
OBJECT K
1 68138U 26047K   26080.57462576  .00000083  00000-0  12700-3 0  9997
2 68138  49.9537  21.5243 0044768 179.1878 180.9110 14.12229572  1233
OBJECT K
1 68138U 26047K   26080.92843485  .00000094  00000-0  13333-3 0  9993
2 68138  49.9537  20.0614 0044773 180.4036 179.6842 14.12229742  1287
OBJECT K
1 68138U 26047K   26081.28224397  .00000100  00000-0  13637-3 0  9993
2 68138  49.9538  18.5986 0044771 181.6178 178.4591 14.12229883  1330
OBJECT K
1 68138U 26047K   26081.91910014  .00000100  00000-0  13655-3 0  9991
2 68138  49.9539  15.9654 0044771 183.8098 176.2475 14.12230164  1420
OBJECT K
1 68138U 26047K   26082.27290909  .00000109  00000-0  14138-3 0  9991
2 68138  49.9540  14.5026 0044769 185.0153 175.0311 14.12230365  1477
OBJECT K
1 68138U 26047K   26082.48519440  .00000100  00000-0  13613-3 0  9996
2 68138  49.9540  13.6249 0044767 185.7452 174.2947 14.12230441  1506
OBJECT K
1 68138U 26047K   26082.98052677  .00000088  00000-0  12998-3 0  9995
2 68138  49.9541  11.5768 0044771 187.4400 172.5848 14.12230633  1578
OBJECT K
1 68138U 26047K   26083.26357383  .00000083  00000-0  12744-3 0  9993
2 68138  49.9541  10.4066 0044764 188.4070 171.6091 14.12230758  1616
OBJECT K
1 68138U 26047K   26083.54662082  .00000071  00000-0  12082-3 0  9991
2 68138  49.9541   9.2364 0044761 189.3812 170.6263 14.12230865  1657
OBJECT K
1 68138U 26047K   26083.97119126  .00000047  00000-0  10773-3 0  9992
2 68138  49.9541   7.4809 0044766 190.8358 169.1589 14.12231003  1714
OBJECT K
1 68138U 26047K   26084.60804683  .00000023  00000-0  95281-4 0  9994
2 68138  49.9542   4.8479 0044760 193.0175 166.9580 14.12231262  1808
OBJECT K
1 68138U 26047K   26084.82033199  .00000009  00000-0  87672-4 0  9993
2 68138  49.9542   3.9702 0044762 193.7413 166.2279 14.12231322  1839
OBJECT K
1 68138U 26047K   26084.96185546  .00000002  00000-0  84011-4 0  9999
2 68138  49.9542   3.3851 0044764 194.2258 165.7391 14.12231362  1858
OBJECT K
1 68138U 26047K   26085.17414063 -.00000007  00000-0  79178-4 0  9996
2 68138  49.9542   2.5074 0044761 194.9523 165.0064 14.12231437  1881
OBJECT K
1 68138U 26047K   26085.31566404 -.00000011  00000-0  76830-4 0  9996
2 68138  49.9542   1.9223 0044758 195.4366 164.5179 14.12231502  1904
OBJECT K
1 68138U 26047K   26085.52794919 -.00000024  00000-0  69816-4 0  9993
2 68138  49.9542   1.0446 0044757 196.1677 163.7805 14.12231555  1932
OBJECT K
1 68138U 26047K   26085.81099600 -.00000037  00000-0  62811-4 0  9992
2 68138  49.9540 359.8743 0044761 197.1398 162.7999 14.12231627  1977
OBJECT K
1 68138U 26047K   26085.88175770 -.00000036  00000-0  63234-4 0  9991
2 68138  49.9540 359.5817 0044763 197.3805 162.5572 14.12231682  1980
OBJECT K
1 68138U 26047K   26085.95251941 -.00000038  00000-0  62247-4 0  9999
2 68138  49.9540 359.2892 0044763 197.6247 162.3109 14.12231703  1992
OBJECT K
1 68138U 26047K   26086.16480459 -.00000049  00000-0  56307-4 0  9993
2 68138  49.9540 358.4115 0044759 198.3385 161.5910 14.12231746  2020
OBJECT K
1 68138U 26047K   26086.23556630 -.00000049  00000-0  56600-4 0  9992
2 68138  49.9539 358.1190 0044757 198.5855 161.3419 14.12231778  2038
OBJECT K
1 68138U 26047K   26086.58937484 -.00000072  00000-0  43870-4 0  9991
2 68138  49.9539 356.6561 0044756 199.8045 160.1125 14.12231825  2086
OBJECT K
1 68138U 26047K   26086.73089824 -.00000079  00000-0  40239-4 0  9997
2 68138  49.9539 356.0710 0044759 200.2897 159.6233 14.12231860  2106
OBJECT K
1 68138U 26047K   26086.87242167 -.00000087  00000-0  35879-4 0  9996
2 68138  49.9539 355.4859 0044759 200.7723 159.1366 14.12231882  2124
OBJECT K
1 68138U 26047K   26086.94318339 -.00000083  00000-0  38409-4 0  9997
2 68138  49.9539 355.1933 0044759 201.0157 158.8912 14.12231930  2137
OBJECT K
1 68138U 26047K   26087.22623024 -.00000095  00000-0  31874-4 0  9991
2 68138  49.9539 354.0231 0044755 201.9964 157.9022 14.12231980  2178
OBJECT K
1 68138U 26047K   26087.29699193 -.00000097  00000-0  30964-4 0  9999
2 68138  49.9539 353.7305 0044755 202.2366 157.6601 14.12232008  2189
OBJECT K
1 68138U 26047K   26087.50927707 -.00000098  00000-0  30447-4 0  9995
2 68138  49.9539 352.8528 0044755 202.9697 156.9210 14.12232074  2215
OBJECT K
1 68138U 26047K   26087.58003881 -.00000103  00000-0  27759-4 0  9990
2 68138  49.9539 352.5603 0044755 203.2078 156.6809 14.12232066  2226
OBJECT K
1 68138U 26047K   26087.86308567 -.00000111  00000-0  23447-4 0  9999
2 68138  49.9538 351.3899 0044758 204.1725 155.7082 14.12232122  2261
OBJECT K
1 68138U 26047K   26087.93384738 -.00000111  00000-0  23013-4 0  9990
2 68138  49.9538 351.0973 0044759 204.4170 155.4617 14.12232132  2272
OBJECT K
1 68138U 26047K   26088.14613258 -.00000114  00000-0  21356-4 0  9997
2 68138  49.9538 350.2197 0044755 205.1421 154.7307 14.12232162  2309
OBJECT K
1 68138U 26047K   26089.20755855 -.00000126  00000-0  14925-4 0  9992
2 68138  49.9537 345.8311 0044757 208.7909 151.0527 14.12232288  2457
OBJECT K
1 68138U 26047K   26089.27832029 -.00000125  00000-0  15459-4 0  9990
2 68138  49.9537 345.5385 0044756 209.0343 150.8074 14.12232302  2462
OBJECT K
1 68138U 26047K   26089.41984375 -.00000130  00000-0  13015-4 0  9990
2 68138  49.9537 344.9534 0044755 209.5276 150.3102 14.12232299  2484
OBJECT K
1 68138U 26047K   26089.63212902 -.00000124  00000-0  16469-4 0  9993
2 68138  49.9537 344.0756 0044758 210.2550 149.5772 14.12232326  2516
OBJECT K
1 68138U 26047K   26089.91517608 -.00000129  00000-0  13660-4 0  9990
2 68138  49.9537 342.9053 0044757 211.2067 148.6181 14.12232316  2553
OBJECT K
1 68138U 26047K   26090.19822313 -.00000122  00000-0  17039-4 0  9991
2 68138  49.9536 341.7351 0044754 212.1736 147.6439 14.12232341  2597
OBJECT K
1 68138U 26047K   26090.26898491 -.00000118  00000-0  19336-4 0  9996
2 68138  49.9536 341.4425 0044753 212.4196 147.3960 14.12232362  2609
OBJECT K
1 68138U 26047K   26090.48127021 -.00000114  00000-0  21622-4 0  9991
2 68138  49.9536 340.5648 0044755 213.1465 146.6636 14.12232371  2630
OBJECT K
1 68138U 26047K   26090.62279375 -.00000107  00000-0  25129-4 0  9995
2 68138  49.9536 339.9796 0044755 213.6301 146.1764 14.12232393  2653
OBJECT K
1 68138U 26047K   26090.83507906 -.00000107  00000-0  25502-4 0  9997
2 68138  49.9536 339.1019 0044757 214.3524 145.4487 14.12232407  2683
OBJECT K
1 68138U 26047K   26090.97660263 -.00000104  00000-0  26739-4 0  9998
2 68138  49.9536 338.5168 0044756 214.8327 144.9648 14.12232404  2709
OBJECT K
1 68138U 26047K   26091.18888796 -.00000095  00000-0  31659-4 0  9991
2 68138  49.9536 337.6391 0044754 215.5591 144.2331 14.12232437  2737
OBJECT K
1 68138U 26047K   26091.18888796 -.00000095  00000-0  31659-4 0  9991
2 68138  49.9536 337.6391 0044754 215.5591 144.2331 14.12232437  2737
OBJECT K
1 68138U 26047K   26091.54269696 -.00000101  00000-0  28503-4 0  9995
2 68138  49.9536 336.1762 0044756 216.7675 143.0160 14.12232363  2781
OBJECT K
1 68138U 26047K   26091.89650589 -.00000086  00000-0  36770-4 0  9995
2 68138  49.9536 334.7133 0044761 217.9762 141.7986 14.12232418  2831
OBJECT K
1 68138U 26047K   26091.96726772 -.00000102  00000-0  27938-4 0  9996
2 68138  49.9535 334.4207 0044761 218.2104 141.5628 14.12232359  2849
OBJECT K
1 68138U 26047K   26092.17955312 -.00000089  00000-0  34700-4 0  9993
2 68138  49.9535 333.5430 0044760 218.9309 140.8372 14.12232388  2873
OBJECT K
1 68138U 26047K   26092.32107669 -.00000073  00000-0  43360-4 0  9999
2 68138  49.9535 332.9578 0044760 219.4184 140.3464 14.12232481  2899
OBJECT K
1 68138U 26047K   26092.67488568 -.00000058  00000-0  51548-4 0  9997
2 68138  49.9535 331.4950 0044762 220.6233 139.1332 14.12232545  2945
OBJECT K
1 68138U 26047K   26092.88717112 -.00000062  00000-0  49503-4 0  9993
2 68138  49.9535 330.6173 0044766 221.3518 138.3996 14.12232490  2970
OBJECT K
1 68138U 26047K   26092.95793286 -.00000040  00000-0  61130-4 0  9993
2 68138  49.9534 330.3247 0044763 221.6006 138.1493 14.12232615  2980
OBJECT K
1 68138U 26047K   26093.31174175  .00000010  00000-0  88056-4 0  9996
2 68138  49.9534 328.8619 0044759 222.8160 136.9258 14.12232889  3039
OBJECT K
1 68138U 26047K   26093.52402715  .00000028  00000-0  97865-4 0  9990
2 68138  49.9534 327.9841 0044762 223.5404 136.1966 14.12232977  3068
OBJECT K
1 68138U 26047K   26093.66555068  .00000049  00000-0  10872-3 0  9990
2 68138  49.9534 327.3989 0044764 224.0270 135.7069 14.12233078  3088
OBJECT K
1 68138U 26047K   26093.87783603  .00000064  00000-0  11708-3 0  9997
2 68138  49.9533 326.5212 0044766 224.7555 134.9736 14.12233179  3110
OBJECT K
1 68138U 26047K   26093.94859778  .00000071  00000-0  12055-3 0  9996
2 68138  49.9533 326.2287 0044766 224.9991 134.7285 14.12233230  3121
OBJECT K
1 68138U 26047K   26094.30240664  .00000085  00000-0  12801-3 0  9999
2 68138  49.9533 324.7658 0044764 226.2116 133.5085 14.12233379  3172
OBJECT K
1 68138U 26047K   26094.65621558  .00000109  00000-0  14102-3 0  9995
2 68138  49.9533 323.3029 0044767 227.4250 132.2875 14.12233545  3228
OBJECT K
1 68138U 26047K   26094.86850093  .00000114  00000-0  14390-3 0  9991
2 68138  49.9532 322.4252 0044767 228.1470 131.5612 14.12233630  3256
OBJECT K
1 68138U 26047K   26094.93926271  .00000100  00000-0  13597-3 0  9994
2 68138  49.9533 322.1326 0044767 228.3877 131.3191 14.12233568  3260
OBJECT K
1 68138U 26047K   26095.22230978  .00000109  00000-0  14078-3 0  9993
2 68138  49.9532 320.9623 0044767 229.3603 130.3408 14.12233727  3305
OBJECT K
1 68138U 26047K   26095.57611863  .00000112  00000-0  14271-3 0  9996
2 68138  49.9532 319.4994 0044772 230.5742 129.1198 14.12233873  3352
OBJECT K
1 68138U 26047K   26095.64688042  .00000110  00000-0  14141-3 0  9991
2 68138  49.9532 319.2068 0044771 230.8097 128.8830 14.12233895  3361
OBJECT K
1 68138U 26047K   26095.85916576  .00000113  00000-0  14297-3 0  9995
2 68138  49.9532 318.3291 0044770 231.5278 128.1608 14.12233982  3393
OBJECT K
1 68138U 26047K   26095.92992753  .00000105  00000-0  13878-3 0  9999
2 68138  49.9532 318.0365 0044769 231.7761 127.9113 14.12233970  3406
OBJECT K
1 68138U 26047K   26096.28373634  .00000097  00000-0  13452-3 0  9998
2 68138  49.9532 316.5737 0044768 232.9911 126.6896 14.12234108  3454
OBJECT K
1 68138U 26047K   26096.92059222  .00000084  00000-0  12771-3 0  9992
2 68138  49.9531 313.9405 0044773 235.1602 124.5091 14.12234330  3545
OBJECT K
1 68138U 26047K   26097.13287747  .00000079  00000-0  12505-3 0  9990
2 68138  49.9531 313.0627 0044772 235.8914 123.7742 14.12234417  3577
OBJECT K
1 68138U 26047K   26097.27440096  .00000077  00000-0  12385-3 0  9997
2 68138  49.9531 312.4775 0044772 236.3796 123.2835 14.12234489  3597
OBJECT K
1 68138U 26047K   26097.62820972  .00000070  00000-0  12027-3 0  9997
2 68138  49.9530 311.0145 0044776 237.5871 122.0700 14.12234627  3641
OBJECT K
1 68138U 26047K   26097.84049500  .00000061  00000-0  11522-3 0  9990
2 68138  49.9529 310.1368 0044774 238.3104 121.3433 14.12234666  3673
OBJECT K
1 68138U 26047K   26097.91125677  .00000057  00000-0  11311-3 0  9999
2 68138  49.9529 309.8443 0044773 238.5538 121.0988 14.12234681  3684
OBJECT K
1 68138U 26047K   26098.12354199  .00000049  00000-0  10883-3 0  9990
2 68138  49.9528 308.9665 0044770 239.2853 120.3639 14.12234763  3714
OBJECT K
1 68138U 26047K   26098.26506546  .00000044  00000-0  10638-3 0  9993
2 68138  49.9528 308.3814 0044770 239.7684 119.8787 14.12234833  3738
OBJECT K
1 68138U 26047K   26098.61887421  .00000035  00000-0  10138-3 0  9991
2 68138  49.9527 306.9184 0044773 240.9791 118.6626 14.12234959  3780
OBJECT K
1 68138U 26047K   26098.90192120  .00000024  00000-0  95354-4 0  9990
2 68138  49.9527 305.7480 0044772 241.9508 117.6868 14.12235044  3820
OBJECT K
1 68138U 26047K   26099.11420644  .00000013  00000-0  89580-4 0  9991
2 68138  49.9527 304.8703 0044771 242.6799 116.9547 14.12235110  3850
CZ-8A R/B
1 68138U 26047K   26099.11420644  .00000013  00000-0  89580-4 0  9991
2 68138  49.9527 304.8703 0044771 242.6799 116.9547 14.12235110  3850
CZ-8A R/B
1 68138U 26047K   26099.60953865  .00000001  00000-0  83070-4 0  9996
2 68138  49.9526 302.8221 0044774 244.3796 115.2481 14.12235322  3923
CZ-8A R/B
1 68138U 26047K   26099.82182388 -.00000011  00000-0  76935-4 0  9998
2 68138  49.9526 301.9443 0044773 245.1157 114.5092 14.12235370  3954
CZ-8A R/B
1 68138U 26047K   26099.89258564 -.00000015  00000-0  74373-4 0  9993
2 68138  49.9526 301.6518 0044772 245.3595 114.2645 14.12235382  3966
CZ-8A R/B
1 68138U 26047K   26100.17563264 -.00000029  00000-0  67110-4 0  9999
2 68138  49.9525 300.4814 0044771 246.3373 113.2832 14.12235469  4004
CZ-8A R/B
1 68138U 26047K   26100.24639438 -.00000032  00000-0  65512-4 0  9992
2 68138  49.9525 300.1889 0044772 246.5800 113.0396 14.12235495  4014
CZ-8A R/B
1 68138U 26047K   26100.52944144 -.00000056  00000-0  52735-4 0  9995
2 68138  49.9525 299.0184 0044771 247.5350 112.0813 14.12235500  4052
CZ-8A R/B
1 68138U 26047K   26100.88325024 -.00000078  00000-0  40646-4 0  9996
2 68138  49.9524 297.5554 0044767 248.7590 110.8533 14.12235540  4104
CZ-8A R/B
1 68138U 26047K   26101.16629731 -.00000102  00000-0  28072-4 0  9997
2 68138  49.9524 296.3851 0044766 249.7324 109.8768 14.12235543  4141
CZ-8A R/B
1 68138U 26047K   26101.16629732 -.00000102  00000-0  28072-4 0  9998
2 68138  49.9524 296.3851 0044766 249.7324 109.8768 14.12235543  4141
CZ-8A R/B
1 68138U 26047K   26101.52010619 -.00000117  00000-0  19927-4 0  9991
2 68138  49.9524 294.9221 0044769 250.9444 108.6611 14.12235583  4199
CZ-8A R/B
1 68138U 26047K   26101.87391514 -.00000142  00000-0  63691-5 0  9991
2 68138  49.9523 293.4593 0044769 252.1571 107.4450 14.12235576  4245
CZ-8A R/B
1 68138U 26047K   26101.94467695 -.00000146  00000-0  46303-5 0  9998
2 68138  49.9523 293.1667 0044767 252.4007 107.2008 14.12235582  4254
CZ-8A R/B
1 68138U 26047K   26102.15696229 -.00000150  00000-0  22563-5 0  9996
2 68138  49.9523 292.2890 0044766 253.1347 106.4648 14.12235625  4288
CZ-8A R/B
1 68138U 26047K   26102.29848589 -.00000154  00000-0  30241-6 0  9996
2 68138  49.9523 291.7038 0044768 253.6205 105.9778 14.12235634  4307
CZ-8A R/B
1 68138U 26047K   26102.51077128 -.00000156  00000-0 -11992-5 0  9998
2 68138  49.9523 290.8260 0044770 254.3451 105.2514 14.12235655  4335
CZ-8A R/B
1 68138U 26047K   26102.86458036 -.00000172  00000-0 -95097-5 0  9993
2 68138  49.9523 289.3631 0044767 255.5638 104.0299 14.12235655  4388
CZ-8A R/B
1 68138U 26047K   26102.93534220 -.00000174  00000-0 -10559-4 0  9992
2 68138  49.9523 289.0706 0044766 255.8077 103.7855 14.12235657  4394
CZ-8A R/B
1 68138U 26047K   26103.07686583 -.00000179  00000-0 -13084-4 0  9999
2 68138  49.9522 288.4854 0044762 256.2993 103.2928 14.12235658  4418
CZ-8A R/B
1 68138U 26047K   26103.28915132 -.00000182  00000-0 -14942-4 0  9995
2 68138  49.9523 287.6076 0044766 257.0269 102.5637 14.12235667  4447
CZ-8A R/B
1 68138U 26047K   26103.92600791 -.00000186  00000-0 -17093-4 0  9992
2 68138  49.9522 284.9743 0044763 259.2028 100.3839 14.12235674  4539
CZ-8A R/B
1 68138U 26047K   26103.99676977 -.00000188  00000-0 -18209-4 0  9990
2 68138  49.9522 284.6817 0044761 259.4499 100.1364 14.12235664  4541
CZ-8A R/B
1 68138U 26047K   26104.20905534 -.00000199  00000-0 -23853-4 0  9992
2 68138  49.9522 283.8040 0044764 260.1720  99.4132 14.12235638  4576
CZ-8A R/B
1 68138U 26047K   26104.56286470 -.00000203  00000-0 -25926-4 0  9991
2 68138  49.9521 282.3410 0044763 261.3774  98.2060 14.12235606  4629
CZ-8A R/B
1 68138U 26047K   26104.56286470 -.00000203  00000-0 -25926-4 0  9991
2 68138  49.9521 282.3410 0044763 261.3774  98.2060 14.12235607  4620
CZ-8A R/B
1 68138U 26047K   26104.84591229 -.00000205  00000-0 -27254-4 0  9991
2 68138  49.9521 281.1707 0044758 262.3581  97.2241 14.12235564  4663
CZ-8A R/B
1 68138U 26047K   26104.91667417 -.00000197  00000-0 -23006-4 0  9993
2 68138  49.9521 280.8781 0044759 262.6021  96.9799 14.12235598  4676
CZ-8A R/B
1 68138U 26047K   26104.98743603 -.00000193  00000-0 -21045-4 0  9999
2 68138  49.9521 280.5855 0044758 262.8455  96.7362 14.12235614  4681
CZ-8A R/B
1 68138U 26047K   26105.19972171 -.00000195  00000-0 -21942-4 0  9995
2 68138  49.9521 279.7078 0044761 263.5762  96.0047 14.12235594  4715
CZ-8A R/B
1 68138U 26047K   26105.19972172 -.00000195  00000-0 -21942-4 0  9996
2 68138  49.9521 279.7078 0044761 263.5762  96.0047 14.12235594  4715
CZ-8A R/B
1 68138U 26047K   26105.55353126 -.00000191  00000-0 -19575-4 0  9993
2 68138  49.9521 278.2448 0044760 264.7783  94.8015 14.12235579  4764
CZ-8A R/B
1 68138U 26047K   26105.83657906 -.00000192  00000-0 -20264-4 0  9995
2 68138  49.9520 277.0745 0044756 265.7542  93.8250 14.12235497  4803
CZ-8A R/B
1 68138U 26047K   26105.90734102 -.00000191  00000-0 -19854-4 0  9999
2 68138  49.9520 276.7819 0044755 265.9969  93.5822 14.12235487  4817
CZ-8A R/B
1 68138U 26047K   26106.26115068 -.00000183  00000-0 -15604-4 0  9993
2 68138  49.9520 275.3191 0044766 267.1974  92.3809 14.12235482  4869
CZ-8A R/B
1 68138U 26047K   26106.75648436 -.00000160  00000-0 -32660-5 0  9994
2 68138  49.9520 273.2710 0044764 268.8912  90.6867 14.12235487  4939
CZ-8A R/B
1 68138U 26047K   26106.82724634 -.00000154  00000-0  11180-6 0  9994
2 68138  49.9520 272.9784 0044764 269.1340  90.4439 14.12235499  4942
CZ-8A R/B
1 68138U 26047K   26106.89800832 -.00000150  00000-0  24242-5 0  9994
2 68138  49.9519 272.6858 0044761 269.3781  90.1997 14.12235507  4954
CZ-8A R/B
1 68138U 26047K   26107.25181813 -.00000131  00000-0  12340-4 0  9990
2 68138  49.9519 271.2229 0044768 270.5874  88.9903 14.12235539  5009
CZ-8A R/B
1 68138U 26047K   26107.88867596 -.00000092  00000-0  33206-4 0  9998
2 68138  49.9518 268.5896 0044767 272.7642  86.8142 14.12235618  5092
CZ-8A R/B
1 68138U 26047K   26108.24248588 -.00000073  00000-0  43681-4 0  9990
2 68138  49.9518 267.1266 0044774 273.9754  85.6036 14.12235678  5144
CZ-8A R/B
1 68138U 26047K   26109.23315387 -.00000014  00000-0  75297-4 0  9995
2 68138  49.9518 263.0303 0044770 277.3782  82.2039 14.12235901  5286
CZ-8A R/B
1 68138U 26047K   26109.23315387 -.00000014  00000-0  75297-4 0  9995
2 68138  49.9518 263.0303 0044770 277.3782  82.2039 14.12235901  5286
CZ-8A R/B
1 68138U 26047K   26109.51620186  .00000003  00000-0  84449-4 0  9998
2 68138  49.9517 261.8599 0044764 278.3495  81.2339 14.12235992  5320
CZ-8A R/B
1 68138U 26047K   26109.51620187  .00000003  00000-0  84449-4 0  9999
2 68138  49.9517 261.8599 0044764 278.3495  81.2339 14.12235992  5320
CZ-8A R/B
1 68138U 26047K   26110.22382189  .00000041  00000-0  10460-3 0  9999
2 68138  49.9518 258.9341 0044780 280.7677  78.8191 14.12236234  5429
CZ-8A R/B
1 68138U 26047K   26110.22382189  .00000041  00000-0  10460-3 0  9999
2 68138  49.9518 258.9341 0044780 280.7677  78.8191 14.12236234  5429
CZ-8A R/B
1 68138U 26047K   26111.21448986  .00000064  00000-0  11691-3 0  9999
2 68138  49.9518 254.8378 0044791 284.1490  75.4443 14.12236582  5561
CZ-8A R/B
1 68138U 26047K   26111.21448987  .00000064  00000-0  11691-3 0  9990
2 68138  49.9518 254.8378 0044791 284.1490  75.4443 14.12236583  5562
CZ-8A R/B
1 68138U 26047K   26112.20515794  .00000060  00000-0  11465-3 0  9996
2 68138  49.9518 250.7415 0044791 287.5580  72.0436 14.12236881  5708
CZ-8A R/B
1 68138U 26047K   26112.62972992  .00000049  00000-0  10888-3 0  9994
2 68138  49.9518 248.9859 0044786 289.0093  70.5966 14.12237005  5765
CZ-8A R/B
1 68138U 26047K   26112.62972993  .00000049  00000-0  10888-3 0  9995
2 68138  49.9518 248.9860 0044786 289.0093  70.5966 14.12237005  5767
CZ-8A R/B
1 68138U 26047K   26113.19582589  .00000031  00000-0  99284-4 0  9995
2 68138  49.9519 246.6453 0044790 290.9575  68.6543 14.12237184  5848
CZ-8A R/B
1 68138U 26047K   26113.19582589  .00000031  00000-0  99284-4 0  9995
2 68138  49.9519 246.6453 0044790 290.9575  68.6543 14.12237184  5848
CZ-8A R/B
1 68138U 26047K   26113.62039789  .00000009  00000-0  87207-4 0  9999
2 68138  49.9519 244.8897 0044788 292.4028  67.2137 14.12237271  5905
CZ-8A R/B
1 68138U 26047K   26113.62039790  .00000009  00000-0  87207-4 0  9991
2 68138  49.9519 244.8897 0044788 292.4028  67.2137 14.12237271  5905
CZ-8A R/B
1 68138U 26047K   26115.03563785 -.00000058  00000-0  51524-4 0  9992
2 68138  49.9519 239.0381 0044798 297.2564  62.3783 14.12237660  6106
CZ-8A R/B
1 68138U 26047K   26115.03563785 -.00000058  00000-0  51524-4 0  9992
2 68138  49.9519 239.0381 0044798 297.2564  62.3783 14.12237660  6106
CZ-8A R/B
1 68138U 26047K   26116.02630605 -.00000113  00000-0  22040-4 0  9991
2 68138  49.9519 234.9421 0044801 300.6598  58.9897 14.12237821  6247
CZ-8A R/B
1 68138U 26047K   26117.01697441 -.00000154  00000-0  25289-6 0  9997
2 68138  49.9519 230.8459 0044798 304.0576  55.6082 14.12237969  6380
CZ-8A R/B
1 68138U 26047K   26117.01697441 -.00000154  00000-0  25289-6 0  9997
2 68138  49.9519 230.8459 0044798 304.0576  55.6082 14.12237969  6380
CZ-8A R/B
1 68138U 26047K   26117.58307079 -.00000167  00000-0 -66044-5 0  9992
2 68138  49.9519 228.5053 0044814 306.0008  53.6749 14.12238029  6460
CZ-8A R/B
1 68138U 26047K   26117.58307079 -.00000167  00000-0 -66044-5 0  9992
2 68138  49.9519 228.5053 0044814 306.0008  53.6749 14.12238029  6460
CZ-8A R/B
1 68138U 26047K   26118.00764318 -.00000195  00000-0 -21685-4 0  9995
2 68138  49.9518 226.7498 0044807 307.4536  52.2299 14.12237971  6522
CZ-8A R/B
1 68138U 26047K   26118.00764319 -.00000195  00000-0 -21685-4 0  9996
2 68138  49.9518 226.7498 0044807 307.4536  52.2299 14.12237971  6522
CZ-8A R/B
1 68138U 26047K   26118.57373985 -.00000200  00000-0 -24326-4 0  9995
2 68138  49.9517 224.4091 0044802 309.3895  50.3049 14.12237961  6609
CZ-8A R/B
1 68138U 26047K   26118.57373985 -.00000200  00000-0 -24326-4 0  9995
2 68138  49.9517 224.4091 0044802 309.3895  50.3049 14.12237961  6609
CZ-8A R/B
1 68138U 26047K   26118.99831243 -.00000212  00000-0 -30769-4 0  9998
2 68138  49.9517 222.6537 0044816 310.8391  48.8635 14.12237903  6662
CZ-8A R/B
1 68138U 26047K   26119.28136091 -.00000210  00000-0 -29677-4 0  9994
2 68138  49.9516 221.4833 0044815 311.8054  47.9029 14.12237873  6701
CZ-8A R/B
1 68138U 26047K   26119.56440939 -.00000204  00000-0 -26391-4 0  9997
2 68138  49.9517 220.3130 0044818 312.7756  46.9385 14.12237880  6748
CZ-8A R/B
1 68138U 26047K   26119.56440939 -.00000204  00000-0 -26391-4 0  9997
2 68138  49.9517 220.3130 0044818 312.7756  46.9385 14.12237880  6748
CZ-8A R/B
1 68138U 26047K   26119.56440939 -.00000204  00000-0 -26391-4 0  9997
2 68138  49.9517 220.3130 0044818 312.7756  46.9385 14.12237880  6748
CZ-8A R/B
1 68138U 26047K   26120.55507929 -.00000175  00000-0 -11198-4 0  9997
2 68138  49.9516 216.2170 0044826 316.1646  43.5707 14.12237879  6884
CZ-8A R/B
1 68138U 26047K   26120.55507930 -.00000175  00000-0 -11198-4 0  9999
2 68138  49.9516 216.2170 0044826 316.1647  43.5707 14.12237879  6885
CZ-8A R/B
1 68138U 26047K   26120.69660365 -.00000168  00000-0 -71050-5 0  9992
2 68138  49.9516 215.6319 0044829 316.6522  43.0862 14.12237882  6907
CZ-8A R/B
1 68138U 26047K   26121.26270086 -.00000137  00000-0  92053-5 0  9994
2 68138  49.9516 213.2912 0044832 318.5846  41.1667 14.12237951  6981
CZ-8A R/B
1 68138U 26047K   26121.54574950 -.00000122  00000-0  17584-4 0  9991
2 68138  49.9516 212.1209 0044831 319.5539  40.2039 14.12237989  7027
CZ-8A R/B
1 68138U 26047K   26121.54574951 -.00000122  00000-0  17584-4 0  9992
2 68138  49.9516 212.1209 0044831 319.5539  40.2039 14.12237990  7029
CZ-8A R/B
1 68138U 26047K   26121.97032255 -.00000099  00000-0  29947-4 0  9994
2 68138  49.9517 210.3656 0044818 321.0295  38.7386 14.12238060  7080
CZ-8A R/B
1 68138U 26047K   26122.53641993 -.00000062  00000-0  49550-4 0  9994
2 68138  49.9516 208.0249 0044815 322.9615  36.8201 14.12238171  7161
CZ-8A R/B
1 68138U 26047K   26122.53641994 -.00000062  00000-0  49550-4 0  9995
2 68138  49.9516 208.0249 0044815 322.9616  36.8201 14.12238171  7162
CZ-8A R/B
1 68138U 26047K   26122.96099301 -.00000038  00000-0  62670-4 0  9992
2 68138  49.9516 206.2695 0044819 324.4227  35.3694 14.12238264  7226
CZ-8A R/B
1 68138U 26047K   26122.96099301 -.00000038  00000-0  62670-4 0  9992
2 68138  49.9516 206.2695 0044819 324.4227  35.3694 14.12238264  7226
CZ-8A R/B
1 68138U 26047K   26123.52709044 -.00000006  00000-0  79749-4 0  9997
2 68138  49.9516 203.9288 0044816 326.3548  33.4516 14.12238402  7307
CZ-8A R/B
1 68138U 26047K   26123.52709045 -.00000006  00000-0  79749-4 0  9998
2 68138  49.9516 203.9288 0044816 326.3548  33.4516 14.12238402  7307
CZ-8A R/B
1 68138U 26047K   26123.73937698  .00000006  00000-0  86225-4 0  9994
2 68138  49.9515 203.0510 0044818 327.0879  32.7240 14.12238458  7332
CZ-8A R/B
1 68138U 26047K   26123.95166350  .00000013  00000-0  89597-4 0  9990
2 68138  49.9516 202.1733 0044823 327.8103  32.0070 14.12238505  7364
CZ-8A R/B
1 68138U 26047K   26123.95166350  .00000013  00000-0  89597-4 0  9990
2 68138  49.9516 202.1733 0044823 327.8103  32.0070 14.12238505  7364
CZ-8A R/B
1 68138U 26047K   26124.51776094  .00000036  00000-0  10232-3 0  9999
2 68138  49.9516 199.8327 0044818 329.7459  30.0862 14.12238668  7440
CZ-8A R/B
1 68138U 26047K   26124.51776094  .00000036  00000-0  10232-3 0  9999
2 68138  49.9516 199.8327 0044818 329.7459  30.0862 14.12238668  7440
CZ-8A R/B
1 68138U 26047K   26125.22538260  .00000061  00000-0  11523-3 0  9991
2 68138  49.9515 196.9069 0044822 332.1737  27.6774 14.12238928  7546
CZ-8A R/B
1 68138U 26047K   26125.22538261  .00000061  00000-0  11523-3 0  9992
2 68138  49.9515 196.9069 0044822 332.1737  27.6774 14.12238928  7546
CZ-8A R/B
1 68138U 26047K   26125.50843127  .00000063  00000-0  11642-3 0  9997
2 68138  49.9515 195.7366 0044819 333.1452  26.7136 14.12238990  7589
CZ-8A R/B
1 68138U 26047K   26125.64995560  .00000065  00000-0  11781-3 0  9997
2 68138  49.9514 195.1515 0044820 333.6319  26.2308 14.12239035  7607
CZ-8A R/B
1 68138U 26047K   26125.64995561  .00000065  00000-0  11781-3 0  9998
2 68138  49.9514 195.1515 0044820 333.6319  26.2308 14.12239035  7607
CZ-8A R/B
1 68138U 26047K   26126.21605277  .00000063  00000-0  11681-3 0  9991
2 68138  49.9514 192.8108 0044823 335.5654  24.3129 14.12239222  7681
CZ-8A R/B
1 68138U 26047K   26126.21605277  .00000063  00000-0  11681-3 0  9991
2 68138  49.9514 192.8108 0044823 335.5654  24.3129 14.12239222  7681
CZ-8A R/B
1 68138U 26047K   26126.42833918  .00000063  00000-0  11653-3 0  9998
2 68138  49.9513 191.9331 0044822 336.2890  23.5951 14.12239302  7714
CZ-8A R/B
1 68138U 26047K   26126.42833918  .00000063  00000-0  11653-3 0  9998
2 68138  49.9513 191.9331 0044822 336.2891  23.5951 14.12239302  7715
CZ-8A R/B
1 68138U 26047K   26127.20672262  .00000050  00000-0  10965-3 0  9999
2 68138  49.9513 188.7147 0044824 338.9750  20.9314 14.12239587  7820
CZ-8A R/B
1 68138U 26047K   26127.20672262  .00000050  00000-0  10965-3 0  9999
2 68138  49.9513 188.7147 0044824 338.9750  20.9314 14.12239587  7820
CZ-8A R/B
1 68138U 26047K   26127.41900902  .00000042  00000-0  10536-3 0  9992
2 68138  49.9513 187.8370 0044823 339.7064  20.2061 14.12239638  7856
CZ-8A R/B
1 68138U 26047K   26127.84358171  .00000024  00000-0  95567-4 0  9992
2 68138  49.9512 186.0815 0044832 341.1512  18.7735 14.12239748  7914
CZ-8A R/B
1 68138U 26047K   26127.84358172  .00000024  00000-0  95567-4 0  9993
2 68138  49.9512 186.0815 0044832 341.1512  18.7735 14.12239748  7914
CZ-8A R/B
1 68138U 26047K   26128.19739228  .00000010  00000-0  88467-4 0  9993
2 68138  49.9511 184.6185 0044829 342.3602  17.5747 14.12239841  7965
CZ-8A R/B
1 68138U 26047K   26128.19739229  .00000010  00000-0  88467-4 0  9994
2 68138  49.9511 184.6186 0044829 342.3602  17.5747 14.12239841  7966
CZ-8A R/B
1 68138U 26047K   26128.69272697 -.00000010  00000-0  77288-4 0  9990
2 68138  49.9505 182.5703 0044824 344.0695  15.8801 14.12239971  8032
CZ-8A R/B
1 68138U 26047K   26128.83425113 -.00000017  00000-0  73544-4 0  9997
2 68138  49.9505 181.9851 0044825 344.5610  15.3928 14.12240025  8051
CZ-8A R/B
1 68138U 26047K   26128.83425114 -.00000017  00000-0  73544-4 0  9998
2 68138  49.9505 181.9851 0044825 344.5610  15.3928 14.12240025  8051
CZ-8A R/B
1 68138U 26047K   26129.40034792 -.00000045  00000-0  58629-4 0  9998
2 68138  49.9504 179.6443 0044824 346.4987  13.4718 14.12240140  8131
CZ-8A R/B
1 68138U 26047K   26129.82492047 -.00000073  00000-0  43600-4 0  9999
2 68138  49.9503 177.8888 0044829 347.9555  12.0277 14.12240212  8196
CZ-8A R/B
1 68138U 26047K   26129.82492048 -.00000073  00000-0  43600-4 0  9990
2 68138  49.9503 177.8888 0044829 347.9555  12.0277 14.12240212  8196
CZ-8A R/B
1 68138U 26047K   26130.39101723 -.00000101  00000-0  28914-4 0  9994
2 68138  49.9501 175.5480 0044812 349.9061  10.0942 14.12240288  8272
CZ-8A R/B
1 68138U 26047K   26130.39101724 -.00000101  00000-0  28914-4 0  9995
2 68138  49.9501 175.5480 0044812 349.9061  10.0942 14.12240288  8272
CZ-8A R/B
1 68138U 26047K   26131.38168655 -.00000152  00000-0  16121-5 0  9995
2 68138  49.9501 171.4517 0044830 353.2953   6.7350 14.12240362  8410
CZ-8A R/B
1 68138U 26047K   26131.38168656 -.00000152  00000-0  16121-5 0  9996
2 68138  49.9501 171.4517 0044830 353.2953   6.7350 14.12240362  8410
CZ-8A R/B
1 68138U 26047K   26131.80625916 -.00000174  00000-0 -10364-4 0  9997
2 68138  49.9501 169.6962 0044845 354.7392   5.3039 14.12240362  8477
CZ-8A R/B
1 68138U 26047K   26131.80625916 -.00000174  00000-0 -10364-4 0  9997
2 68138  49.9501 169.6962 0044845 354.7392   5.3039 14.12240362  8477
CZ-8A R/B
1 68138U 26047K   26132.37235602 -.00000191  00000-0 -19342-4 0  9993
2 68138  49.9500 167.3554 0044850 356.6752   3.3851 14.12240345  8555
CZ-8A R/B
1 68138U 26047K   26132.79692867 -.00000205  00000-0 -26656-4 0  9991
2 68138  49.9499 165.5998 0044843 358.1431   1.9304 14.12240325  8619
CZ-8A R/B
1 68138U 26047K   26132.79692868 -.00000205  00000-0 -26656-4 0  9992
2 68138  49.9499 165.5998 0044843 358.1431   1.9304 14.12240325  8619
CZ-8A R/B
1 68138U 26047K   26133.50454991 -.00000214  00000-0 -31768-4 0  9995
2 68138  49.9499 162.6738 0044848   0.5660 359.5291 14.12240265  8717
CZ-8A R/B
1 68138U 26047K   26133.50454991 -.00000214  00000-0 -31768-4 0  9995
2 68138  49.9499 162.6738 0044848   0.5660 359.5291 14.12240265  8717
CZ-8A R/B
1 68138U 26047K   26134.28293329 -.00000216  00000-0 -32927-4 0  9997
2 68138  49.9497 159.4552 0044849   3.2340 356.8849 14.12240195  8822
CZ-8A R/B
1 68138U 26047K   26134.42445757 -.00000213  00000-0 -31319-4 0  9998
2 68138  49.9497 158.8700 0044851   3.7226 356.4008 14.12240187  8847
CZ-8A R/B
1 68138U 26047K   26135.27360324 -.00000206  00000-0 -27208-4 0  9992
2 68138  49.9498 155.3588 0044849   6.6329 353.5163 14.12240091  8964
CZ-8A R/B
1 68138U 26047K   26135.41512753 -.00000199  00000-0 -23823-4 0  9993
2 68138  49.9498 154.7736 0044853   7.1202 353.0333 14.12240092  8980
CZ-8A R/B
1 68138U 26047K   26136.54732176 -.00000155  00000-0 -11480-6 0  9991
2 68138  49.9500 150.0921 0044861  10.9954 349.1924 14.12240139  9147
CZ-8A R/B
1 68138U 26047K   26136.75960810 -.00000146  00000-0  48521-5 0  9996
2 68138  49.9501 149.2144 0044841  11.7425 348.4518 14.12240187  9172
CZ-8A R/B
1 68138U 26047K   26136.75960811 -.00000146  00000-0  48521-5 0  9997
2 68138  49.9501 149.2144 0044841  11.7425 348.4518 14.12240187  9172
CZ-8A R/B
1 68138U 26047K   26137.39646738 -.00000115  00000-0  21704-4 0  9996
2 68138  49.9500 146.5811 0044840  13.9318 346.2816 14.12240229  9260
CZ-8A R/B
1 68138U 26047K   26137.39646739 -.00000115  00000-0  21704-4 0  9997
2 68138  49.9500 146.5811 0044840  13.9318 346.2816 14.12240229  9260
CZ-8A R/B
1 68138U 26047K   26137.75027804 -.00000100  00000-0  29273-4 0  9996
2 68138  49.9501 145.1181 0044839  15.1456 345.0783 14.12240272  9315
CZ-8A R/B
1 68138U 26047K   26137.75027805 -.00000100  00000-0  29273-4 0  9997
2 68138  49.9501 145.1181 0044839  15.1456 345.0783 14.12240272  9315
CZ-8A R/B
1 68138U 26047K   26138.45789928 -.00000060  00000-0  51025-4 0  9991
2 68138  49.9502 142.1922 0044847  17.5712 342.6735 14.12240434  9417
CZ-8A R/B
1 68138U 26047K   26138.74094770 -.00000047  00000-0  58094-4 0  9995
2 68138  49.9502 141.0218 0044843  18.5403 341.7127 14.12240518  9459
CZ-8A R/B
1 68138U 26047K   26138.74094770 -.00000047  00000-0  58094-4 0  9995
2 68138  49.9502 141.0218 0044843  18.5403 341.7127 14.12240518  9459
CZ-8A R/B
1 68138U 26047K   26139.16552039 -.00000032  00000-0  66098-4 0  9996
2 68138  49.9501 139.2663 0044837  20.0016 340.2637 14.12240586  9514
CZ-8A R/B
1 68138U 26047K   26139.30704459 -.00000024  00000-0  70249-4 0  9991
2 68138  49.9501 138.6811 0044841  20.4869 339.7824 14.12240635  9535
CZ-8A R/B
1 68138U 26047K   26139.37780669 -.00000019  00000-0  72825-4 0  9991
2 68138  49.9502 138.3885 0044844  20.7305 339.5409 14.12240656  9546
CZ-8A R/B
1 68138U 26047K   26139.73161708 -.00000006  00000-0  79786-4 0  9997
2 68138  49.9501 136.9255 0044838  21.9408 338.3407 14.12240777  9594
CZ-8A R/B
1 68138U 26047K   26139.73161709 -.00000006  00000-0  79786-4 0  9998
2 68138  49.9501 136.9255 0044838  21.9408 338.3407 14.12240777  9594
CZ-8A R/B
1 68138U 26047K   26140.15618955  .00000007  00000-0  86935-4 0  9990
2 68138  49.9501 135.1699 0044829  23.4000 336.8935 14.12240896  9650
CZ-8A R/B
1 68138U 26047K   26140.29771368  .00000013  00000-0  90095-4 0  9992
2 68138  49.9501 134.5847 0044832  23.8868 336.4107 14.12240950  9678
CZ-8A R/B
1 68138U 26047K   26140.29771369  .00000013  00000-0  90095-4 0  9993
2 68138  49.9501 134.5847 0044832  23.8868 336.4107 14.12240950  9678
CZ-8A R/B
1 68138U 26047K   26140.72228601  .00000021  00000-0  94595-4 0  9995
2 68138  49.9501 132.8291 0044837  25.3429 334.9665 14.12241096  9738
CZ-8A R/B
1 68138U 26047K   26141.21762032  .00000032  00000-0  10010-3 0  9992
2 68138  49.9502 130.7809 0044835  27.0451 333.2779 14.12241267  9809
CZ-8A R/B
1 68138U 26047K   26141.35914436  .00000035  00000-0  10166-3 0  9999
2 68138  49.9501 130.1957 0044836  27.5357 332.7913 14.12241319  9821
CZ-8A R/B
1 68138U 26047K   26141.35914437  .00000035  00000-0  10166-3 0  9990
2 68138  49.9501 130.1957 0044836  27.5357 332.7913 14.12241319  9821
CZ-8A R/B
1 68138U 26047K   26142.20828842  .00000037  00000-0  10295-3 0  9994
2 68138  49.9502 126.6844 0044836  30.4518 329.8980 14.12241642  9942
CZ-8A R/B
1 68138U 26047K   26142.34981242  .00000039  00000-0  10417-3 0  9991
2 68138  49.9501 126.0993 0044846  30.9424 329.4112 14.12241704  9966
CZ-8A R/B
1 68138U 26047K   26142.63286031  .00000032  00000-0  10039-3 0  9990
2 68138  49.9503 124.9289 0044859  31.9120 328.4491 14.12241817 10002
CZ-8A R/B
1 68138U 26047K   26143.19895598  .00000027  00000-0  97324-4 0  9993
2 68138  49.9503 122.5881 0044845  33.8550 326.5206 14.12242043 10080
CZ-8A R/B
1 68138U 26047K   26143.34047987  .00000026  00000-0  97091-4 0  9991
2 68138  49.9503 122.0029 0044852  34.3468 326.0325 14.12242104 10109
CZ-8A R/B
1 68138U 26047K   26143.62352763  .00000007  00000-0  87124-4 0  9998
2 68138  49.9504 120.8326 0044853  35.3131 325.0734 14.12242161 10145
CZ-8A R/B
1 68138U 26047K   26144.18962303 -.00000006  00000-0  79735-4 0  9996
2 68138  49.9505 118.4917 0044853  37.2600 323.1405 14.12242355 10225
CZ-8A R/B
1 68138U 26047K   26144.89724203 -.00000033  00000-0  65255-4 0  9991
2 68138  49.9506 115.5658 0044858  39.6878 320.7298 14.12242582 10320
CZ-8A R/B
1 68138U 26047K   26145.18028955 -.00000040  00000-0  61627-4 0  9992
2 68138  49.9507 114.3954 0044858  40.6660 319.7583 14.12242696 10363
CZ-8A R/B
1 68138U 26047K   26145.18028955 -.00000040  00000-0  61627-4 0  9992
2 68138  49.9507 114.3954 0044858  40.6660 319.7583 14.12242696 10363
CZ-8A R/B
1 68138U 26047K   26146.17095565 -.00000077  00000-0  41767-4 0  9996
2 68138  49.9510 110.2992 0044858  44.0679 316.3790 14.12242988 10505
CZ-8A R/B
1 68138U 26047K   26146.31247935 -.00000083  00000-0  38845-4 0  9992
2 68138  49.9509 109.7140 0044864  44.5584 315.8917 14.12243022 10525
CZ-8A R/B
1 68138U 26047K   26147.16162139 -.00000110  00000-0  24299-4 0  9997
2 68138  49.9511 106.2029 0044860  47.4737 312.9946 14.12243207 10642
CZ-8A R/B
1 68138U 26047K   26147.16162139 -.00000110  00000-0  24299-4 0  9997
2 68138  49.9511 106.2029 0044860  47.4737 312.9946 14.12243207 10642
CZ-8A R/B
1 68138U 26047K   26147.58619232 -.00000132  00000-0  12247-4 0  9998
2 68138  49.9512 104.4474 0044863  48.9262 311.5507 14.12243242 10703
CZ-8A R/B
1 68138U 26047K   26147.86923959 -.00000138  00000-0  91605-5 0  9995
2 68138  49.9512 103.2770 0044861  49.9007 310.5819 14.12243271 10746
CZ-8A R/B
1 68138U 26047K   26147.86923960 -.00000138  00000-0  91605-5 0  9997
2 68138  49.9512 103.2770 0044861  49.9007 310.5819 14.12243271 10746
CZ-8A R/B
1 68138U 26047K   26148.15228684 -.00000138  00000-0  92121-5 0  9995
2 68138  49.9514 102.1067 0044855  50.8720 309.6161 14.12243343 10784
CZ-8A R/B
1 68138U 26047K   26148.15228685 -.00000138  00000-0  92121-5 0  9996
2 68138  49.9514 102.1067 0044855  50.8720 309.6161 14.12243343 10784
CZ-8A R/B
1 68138U 26047K   26148.85990493 -.00000146  00000-0  49141-5 0  9999
2 68138  49.9515  99.1808 0044854  53.3021 307.1995 14.12243410 10888
CZ-8A R/B
1 68138U 26047K   26148.93066675 -.00000150  00000-0  30425-5 0  9994
2 68138  49.9514  98.8882 0044853  53.5491 306.9538 14.12243401 10898
CZ-8A R/B
1 68138U 26047K   26149.28447580 -.00000142  00000-0  71207-5 0  9995
2 68138  49.9515  97.4253 0044857  54.7668 305.7426 14.12243456 10948
CZ-8A R/B
1 68138U 26047K   26149.28447580 -.00000142  00000-0  71207-5 0  9995
2 68138  49.9515  97.4253 0044857  54.7668 305.7426 14.12243456 10948
CZ-8A R/B
1 68138U 26047K   26150.20437904 -.00000111  00000-0  23633-4 0  9993
2 68138  49.9517  93.6216 0044854  57.9275 302.5977 14.12243649 11078
CZ-8A R/B
1 68138U 26047K   26150.20437904 -.00000111  00000-0  23633-4 0  9993
2 68138  49.9517  93.6216 0044854  57.9275 302.5977 14.12243649 11078
CZ-8A R/B
1 68138U 26047K   26151.05352030 -.00000089  00000-0  35417-4 0  9990
2 68138  49.9518  90.1106 0044850  60.8466 299.6918 14.12243747 11193
CZ-8A R/B
1 68138U 26047K   26152.18570855 -.00000043  00000-0  60295-4 0  9994
2 68138  49.9519  85.4292 0044857  64.7256 295.8290 14.12243866 11355
CZ-8A R/B
1 68138U 26047K   26152.18570856 -.00000043  00000-0  60295-4 0  9995
2 68138  49.9519  85.4292 0044857  64.7256 295.8290 14.12243866 11355
CZ-8A R/B
1 68138U 26047K   26153.03484916  .00000005  00000-0  85876-4 0  9990
2 68138  49.9520  81.9181 0044852  67.6478 292.9174 14.12244133 11478
CZ-8A R/B
1 68138U 26047K   26155.01617554  .00000090  00000-0  13128-3 0  9990
2 68138  49.9524  73.7257 0044846  74.4553 286.1299 14.12244893 11755
CZ-8A R/B
1 68138U 26047K   26155.01617555  .00000090  00000-0  13128-3 0  9991
2 68138  49.9524  73.7257 0044846  74.4553 286.1299 14.12244893 11755
CZ-8A R/B
1 68138U 26047K   26156.00683782  .00000110  00000-0  14181-3 0  9999
2 68138  49.9526  69.6297 0044850  77.8727 282.7200 14.12245309 11892
CZ-8A R/B
1 68138U 26047K   26156.00683783  .00000110  00000-0  14181-3 0  9990
2 68138  49.9526  69.6297 0044850  77.8727 282.7200 14.12245309 11892
CZ-8A R/B
1 68138U 26047K   26156.43140720  .00000093  00000-0  13280-3 0  9995
2 68138  49.9525  67.8741 0044846  79.3176 281.2777 14.12245367 11959
CZ-8A R/B
1 68138U 26047K   26156.99749955  .00000091  00000-0  13214-3 0  9996
2 68138  49.9528  65.5336 0044897  81.3261 279.2728 14.12245621 12037
CZ-8A R/B
1 68138U 26047K   26156.99749955  .00000091  00000-0  13214-3 0  9996
2 68138  49.9528  65.5336 0044897  81.3261 279.2728 14.12245621 12037
CZ-8A R/B
1 68138U 26047K   26156.99749955  .00000091  00000-0  13214-3 0  9996
2 68138  49.9528  65.5336 0044897  81.3261 279.2728 14.12245621 12037
CZ-8A R/B
1 68138U 26047K   26157.42206845  .00000079  00000-0  12533-3 0  9990
2 68138  49.9529  63.7782 0044900  82.7819 277.8189 14.12245801 12093
CZ-8A R/B
1 68138U 26047K   26157.42206846  .00000079  00000-0  12533-3 0  9991
2 68138  49.9529  63.7782 0044900  82.7819 277.8189 14.12245801 12093
CZ-8A R/B
1 68138U 26047K   26158.41272889  .00000038  00000-0  10333-3 0  9992
2 68138  49.9530  59.6822 0044904  86.1935 274.4105 14.12246111 12237
CZ-8A R/B
1 68138U 26047K   26158.97882030  .00000006  00000-0  86296-4 0  9995
2 68138  49.9530  57.3415 0044916  88.1429 272.4622 14.12246239 12315
CZ-8A R/B
1 68138U 26047K   26158.97882031  .00000006  00000-0  86296-4 0  9996
2 68138  49.9530  57.3415 0044916  88.1429 272.4622 14.12246239 12315
CZ-8A R/B
1 68138U 26047K   26159.40338868 -.00000028  00000-0  68008-4 0  9995
2 68138  49.9530  55.5861 0044921  89.5989 271.0065 14.12246308 12371
CZ-8A R/B
1 68138U 26047K   26159.40338869 -.00000028  00000-0  68008-4 0  9996
2 68138  49.9530  55.5861 0044921  89.5989 271.0065 14.12246308 12371
CZ-8A R/B
1 68138U 26047K   26159.96947972 -.00000062  00000-0  49729-4 0  9995
2 68138  49.9531  53.2455 0044927  91.5481 269.0573 14.12246413 12459
CZ-8A R/B
1 68138U 26047K   26159.96947973 -.00000062  00000-0  49729-4 0  9996
2 68138  49.9531  53.2455 0044927  91.5481 269.0573 14.12246413 12459
CZ-8A R/B
1 68138U 26047K   26160.39404791 -.00000096  00000-0  31565-4 0  9997
2 68138  49.9531  51.4900 0044935  93.0151 267.5899 14.12246436 12510
CZ-8A R/B
1 68138U 26047K   26160.39404791 -.00000096  00000-0  31565-4 0  9997
2 68138  49.9531  51.4900 0044935  93.0151 267.5899 14.12246436 12510
CZ-8A R/B
1 68138U 26047K   26160.96013867 -.00000126  00000-0  15440-4 0  9998
2 68138  49.9531  49.1491 0044951  94.9847 265.6194 14.12246489 12592
CZ-8A R/B
1 68138U 26047K   26160.96013868 -.00000126  00000-0  15440-4 0  9999
2 68138  49.9531  49.1491 0044951  94.9847 265.6194 14.12246489 12592
CZ-8A R/B
1 68138U 26047K   26161.38470663 -.00000151  00000-0  24887-5 0  9990
2 68138  49.9530  47.3936 0044956  96.4441 264.1588 14.12246531 12653
CZ-8A R/B
1 68138U 26047K   26161.38470664 -.00000151  00000-0  24887-5 0  9991
2 68138  49.9531  47.3936 0044956  96.4441 264.1588 14.12246531 12654
CZ-8A R/B
1 68138U 26047K   26161.95079719 -.00000171  00000-0 -83183-5 0  9997
2 68138  49.9532  45.0529 0044947  98.3845 262.2161 14.12246576 12731
CZ-8A R/B
1 68138U 26047K   26162.37536500 -.00000185  00000-0 -15933-4 0  9992
2 68138  49.9532  43.2974 0044957  99.8541 260.7446 14.12246615 12794
CZ-8A R/B
1 68138U 26047K   26162.37536501 -.00000185  00000-0 -15933-4 0  9993
2 68138  49.9532  43.2974 0044957  99.8541 260.7446 14.12246615 12794
CZ-8A R/B
1 68138U 26047K   26162.94145542 -.00000193  00000-0 -20081-4 0  9996
2 68138  49.9533  40.9567 0044964 101.8114 258.7842 14.12246643 12872
CZ-8A R/B
1 68138U 26047K   26163.86135219 -.00000187  00000-0 -17253-4 0  9998
2 68138  49.9534  37.1529 0044972 104.9680 255.6212 14.12246698 13003
CZ-8A R/B
1 68138U 26047K   26163.93211350 -.00000188  00000-0 -17612-4 0  9997
2 68138  49.9532  36.8603 0044961 105.1771 255.4115 14.12246666 13018
CZ-8A R/B
1 68138U 26047K   26164.85201008 -.00000169  00000-0 -74877-5 0  9994
2 68138  49.9533  33.0567 0044969 108.3493 252.2313 14.12246697 13144
CZ-8A R/B
1 68138U 26047K   26164.92277137 -.00000167  00000-0 -63632-5 0  9993
2 68138  49.9534  32.7641 0044974 108.5960 251.9840 14.12246699 13155
CZ-8A R/B
1 68138U 26047K   26164.92277137 -.00000167  00000-0 -63632-5 0  9993
2 68138  49.9534  32.7641 0044974 108.5960 251.9839 14.12246699 13153
CZ-8A R/B
1 68138U 26047K   26165.84266770 -.00000134  00000-0  11573-4 0  9995
2 68138  49.9535  28.9604 0044982 111.7679 248.8024 14.12246764 13280
CZ-8A R/B
1 68138U 26047K   26165.91342897 -.00000131  00000-0  12782-4 0  9998
2 68138  49.9535  28.6677 0044986 112.0106 248.5589 14.12246756 13295
CZ-8A R/B
1 68138U 26047K   26165.91342897 -.00000131  00000-0  12782-4 0  9998
2 68138  49.9535  28.6677 0044986 112.0106 248.5589 14.12246756 13295
CZ-8A R/B
1 68138U 26047K   26166.33799640 -.00000113  00000-0  22860-4 0  9995
2 68138  49.9535  26.9121 0044981 113.4629 247.1016 14.12246791 13356
CZ-8A R/B
1 68138U 26047K   26166.33799641 -.00000113  00000-0  22860-4 0  9996
2 68138  49.9535  26.9121 0044981 113.4629 247.1016 14.12246792 13357
CZ-8A R/B
1 68138U 26047K   26166.90408633 -.00000084  00000-0  38013-4 0  9991
2 68138  49.9535  24.5715 0044996 115.4228 245.1346 14.12246855 13436
CZ-8A R/B
1 68138U 26047K   26166.90408634 -.00000084  00000-0  38013-4 0  9992
2 68138  49.9535  24.5715 0044996 115.4228 245.1346 14.12246855 13436
CZ-8A R/B
1 68138U 26047K   26167.89474340 -.00000039  00000-0  62083-4 0  9992
2 68138  49.9535  20.4754 0045011 118.8448 241.6988 14.12246970 13570
CZ-8A R/B
1 68138U 26047K   26167.89474341 -.00000039  00000-0  62083-4 0  9993
2 68138  49.9535  20.4754 0045011 118.8448 241.6988 14.12246970 13570
CZ-8A R/B
1 68138U 26047K   26168.81463892 -.00000004  00000-0  80955-4 0  9995
2 68138  49.9538  16.6723 0045011 122.0190 238.5103 14.12247133 13708
CZ-8A R/B
1 68138U 26047K   26168.81463893 -.00000004  00000-0  80955-4 0  9996
2 68138  49.9538  16.6723 0045011 122.0190 238.5103 14.12247133 13708
CZ-8A R/B
1 68138U 26047K   26168.95616133  .00000002  00000-0  84130-4 0  9994
2 68138  49.9539  16.0873 0045009 122.5014 238.0255 14.12247155 13725
CZ-8A R/B
1 68138U 26047K   26169.30996713  .00000008  00000-0  87348-4 0  9999
2 68138  49.9536  14.6242 0044980 123.7000 236.8207 14.12247169 13774
CZ-8A R/B
1 68138U 26047K   26169.30996713  .00000008  00000-0  87348-4 0  9999
2 68138  49.9536  14.6242 0044980 123.7000 236.8207 14.12247169 13774
CZ-8A R/B
1 68138U 26047K   26169.87605625  .00000017  00000-0  92097-4 0  9997
2 68138  49.9534  12.2833 0045007 125.6645 234.8465 14.12247253 13856
CZ-8A R/B
1 68138U 26047K   26169.87605625  .00000017  00000-0  92097-4 0  9997
2 68138  49.9534  12.2833 0045007 125.6645 234.8465 14.12247253 13856
CZ-8A R/B
1 68138U 26047K   26170.30062290  .00000022  00000-0  94976-4 0  9996
2 68138  49.9533  10.5277 0045003 127.1294 233.3737 14.12247356 13918
CZ-8A R/B
1 68138U 26047K   26170.72518948  .00000023  00000-0  95524-4 0  9999
2 68138  49.9534   8.7722 0045006 128.5896 231.9055 14.12247461 13979
CZ-8A R/B
1 68138U 26047K   26170.93747272  .00000026  00000-0  97143-4 0  9998
2 68138  49.9532   7.8944 0045010 129.3169 231.1741 14.12247518 14002
CZ-8A R/B
1 68138U 26047K   26173.48486940 -.00000034  00000-0  64834-4 0  9994
2 68138  49.9533 357.3612 0045027 138.0940 222.3428 14.12248195 14365
CZ-8A R/B
1 68138U 26047K   26174.90008826 -.00000089  00000-0  35223-4 0  9995
2 68138  49.9530 351.5093 0045040 142.9571 217.4459 14.12248525 14568
CZ-8A R/B
1 68138U 26047K   26175.18313192 -.00000103  00000-0  27762-4 0  9997
2 68138  49.9531 350.3390 0045035 143.9282 216.4678 14.12248584 14602
CZ-8A R/B
1 68138U 26047K   26176.17378456 -.00000136  00000-0  10050-4 0  9999
2 68138  49.9532 346.2427 0045032 147.3371 213.0335 14.12248771 14748
CZ-8A R/B
1 68138U 26047K   26176.17378457 -.00000136  00000-0  10050-4 0  9990
2 68138  49.9532 346.2427 0045032 147.3371 213.0335 14.12248771 14748
CZ-8A R/B
1 68138U 26047K   26176.66911084 -.00000154  00000-0  38495-6 0  9998
2 68138  49.9532 344.1945 0045041 149.0444 211.3132 14.12248799 14814
CZ-8A R/B
1 68138U 26047K   26177.16443709 -.00000169  00000-0 -73057-5 0  9997
2 68138  49.9532 342.1465 0045048 150.7528 209.5915 14.12248836 14885
CZ-8A R/B
1 68138U 26047K   26177.16443710 -.00000169  00000-0 -73057-5 0  9999
2 68138  49.9532 342.1465 0045048 150.7528 209.5915 14.12248836 14885
CZ-8A R/B
1 68138U 26047K   26177.51824160 -.00000182  00000-0 -14291-4 0  9999
2 68138  49.9533 340.6835 0045060 151.9770 208.3577 14.12248801 14935
CZ-8A R/B
1 68138U 26047K   26177.51824160 -.00000182  00000-0 -14291-4 0  9999
2 68138  49.9532 340.6835 0045060 151.9770 208.3577 14.12248800 14933
CZ-8A R/B
1 68138U 26047K   26177.87204605 -.00000181  00000-0 -14127-4 0  9991
2 68138  49.9532 339.2207 0045063 153.1905 207.1345 14.12248835 14980
CZ-8A R/B
1 68138U 26047K   26177.87204606 -.00000181  00000-0 -14127-4 0  9992
2 68138  49.9532 339.2207 0045063 153.1905 207.1345 14.12248836 14981
CZ-8A R/B
1 68138U 26047K   26178.50889420 -.00000198  00000-0 -23018-4 0  9993
2 68138  49.9532 336.5874 0045077 155.3932 204.9139 14.12248723 15072
CZ-8A R/B
1 68138U 26047K   26178.72117701 -.00000199  00000-0 -23459-4 0  9993
2 68138  49.9533 335.7096 0045052 156.0960 204.2052 14.12248680 15105
CZ-8A R/B
1 68138U 26047K   26178.72117702 -.00000199  00000-0 -23459-4 0  9994
2 68138  49.9533 335.7096 0045052 156.0960 204.2052 14.12248680 15105
CZ-8A R/B
1 68138U 26047K   26179.71182971 -.00000188  00000-0 -18021-4 0  9991
2 68138  49.9533 331.6134 0045060 159.4993 200.7735 14.12248607 15248
CZ-8A R/B
1 68138U 26047K   26181.12704805 -.00000140  00000-0  79291-5 0  9999
2 68138  49.9530 325.7619 0045076 164.3947 195.8361 14.12248514 15446
CZ-8A R/B
1 68138U 26047K   26181.12704805 -.00000140  00000-0  79291-5 0  9999
2 68138  49.9530 325.7619 0045076 164.3947 195.8361 14.12248514 15446
CZ-8A R/B
1 68138U 26047K   26182.11770074 -.00000099  00000-0  30066-4 0  9999
2 68138  49.9528 321.6658 0045096 167.8608 192.3397 14.12248496 15580
CZ-8A R/B
1 68138U 26047K   26182.11770075 -.00000099  00000-0  30066-4 0  9990
2 68138  49.9528 321.6658 0045096 167.8608 192.3397 14.12248496 15580
CZ-8A R/B
1 68138U 26047K   26182.75454888 -.00000064  00000-0  48289-4 0  9999
2 68138  49.9529 319.0326 0045108 170.0553 190.1257 14.12248560 15676
CZ-8A R/B
1 68138U 26047K   26183.10835333 -.00000043  00000-0  59657-4 0  9995
2 68138  49.9530 317.5698 0045108 171.2754 188.8947 14.12248656 15721
CZ-8A R/B
1 68138U 26047K   26183.74520139 -.00000014  00000-0  75366-4 0  9993
2 68138  49.9530 314.9366 0045117 173.4386 186.7121 14.12248752 15817
CZ-8A R/B
1 68138U 26047K   26183.81596226 -.00000010  00000-0  77387-4 0  9992
2 68138  49.9530 314.6440 0045116 173.6815 186.4670 14.12248778 15820
CZ-8A R/B
1 68138U 26047K   26186.57563461  .00000055  00000-0  11205-3 0  9997
2 68138  49.9532 303.2336 0045109 183.1467 176.9163 14.12249837 16213
CZ-8A R/B
1 68138U 26047K   26186.71715610  .00000053  00000-0  11131-3 0  9994
2 68138  49.9530 302.6484 0045106 183.6065 176.4523 14.12249930 16235
CZ-8A R/B
1 68138U 26047K   26187.35400303  .00000034  00000-0  10117-3 0  9997
2 68138  49.9530 300.0152 0045105 185.7991 174.2399 14.12250153 16325
CZ-8A R/B
1 68138U 26047K   26187.56628531  .00000024  00000-0  95423-4 0  9998
2 68138  49.9531 299.1376 0045106 186.5311 173.5013 14.12250209 16358
CZ-8A R/B
1 68138U 26047K   26188.27389278 -.00000007  00000-0  78789-4 0  9997
2 68138  49.9531 296.2118 0045112 188.9790 171.0315 14.12250438 16457
CZ-8A R/B
1 68138U 26047K   26188.27389278 -.00000007  00000-0  78789-4 0  9997
2 68138  49.9531 296.2118 0045112 188.9790 171.0315 14.12250438 16457
CZ-8A R/B
1 68138U 26047K   26189.26454310 -.00000062  00000-0  49762-4 0  9997
2 68138  49.9530 292.1159 0045118 192.3949 167.5852 14.12250677 16593
CZ-8A R/B
1 68138U 26047K   26189.26454311 -.00000062  00000-0  49762-4 0  9998
2 68138  49.9530 292.1159 0045118 192.3949 167.5852 14.12250677 16593
CZ-8A R/B
1 68138U 26047K   26189.26454311 -.00000062  00000-0  49762-4 0  9998
2 68138  49.9530 292.1159 0045118 192.3949 167.5852 14.12250677 16593
CZ-8A R/B
1 68138U 26047K   26190.25519355 -.00000116  00000-0  20727-4 0  9999
2 68138  49.9528 288.0198 0045109 195.7842 164.1661 14.12250804 16735
CZ-8A R/B
1 68138U 26047K   26190.53823663 -.00000137  00000-0  93139-5 0  9991
2 68138  49.9528 286.8495 0045122 196.7712 163.1706 14.12250747 16772
CZ-8A R/B
1 68138U 26047K   26190.53823664 -.00000137  00000-0  93139-5 0  9992
2 68138  49.9528 286.8495 0045122 196.7712 163.1706 14.12250747 16772
CZ-8A R/B
1 68138U 26047K   26191.59964793 -.00000183  00000-0 -15070-4 0  9997
2 68138  49.9526 282.4608 0045122 200.4160 159.4945 14.12250779 16923
CZ-8A R/B
1 68138U 26047K   26192.23649490 -.00000201  00000-0 -24914-4 0  9991
2 68138  49.9524 279.8275 0045121 202.5972 157.2949 14.12250742 17015
CZ-8A R/B
1 68138U 26047K   26192.51953794 -.00000208  00000-0 -28647-4 0  9991
2 68138  49.9524 278.6573 0045140 203.6022 156.2815 14.12250715 17057
CZ-8A R/B
1 68138U 26047K   26192.51953795 -.00000208  00000-0 -28647-4 0  9992
2 68138  49.9524 278.6573 0045140 203.6022 156.2815 14.12250715 17057
CZ-8A R/B
1 68138U 26047K   26192.51953795 -.00000208  00000-0 -28647-4 0  9992
2 68138  49.9524 278.6573 0045140 203.6022 156.2815 14.12250715 17057
CZ-8A R/B
1 68138U 26047K   26193.43942825 -.00000212  00000-0 -31130-4 0  9992
2 68138  49.9522 274.8537 0045140 206.7519 153.1059 14.12250658 17184
CZ-8A R/B
1 68138U 26047K   26193.43942826 -.00000212  00000-0 -31130-4 0  9993
2 68138  49.9522 274.8537 0045140 206.7519 153.1059 14.12250658 17184
CZ-8A R/B
1 68138U 26047K   26193.58094988 -.00000212  00000-0 -30706-4 0  9994
2 68138  49.9522 274.2685 0045136 207.2432 152.6106 14.12250634 17201
CZ-8A R/B
1 68138U 26047K   26194.21779721 -.00000201  00000-0 -25171-4 0  9998
2 68138  49.9520 271.6352 0045139 209.4347 150.4017 14.12250603 17295
CZ-8A R/B
1 68138U 26047K   26194.43007971 -.00000199  00000-0 -23972-4 0  9996
2 68138  49.9520 270.7575 0045135 210.1696 149.6611 14.12250565 17325
CZ-8A R/B
1 68138U 26047K   26194.43007972 -.00000199  00000-0 -23972-4 0  9997
2 68138  49.9520 270.7575 0045135 210.1696 149.6611 14.12250565 17325
CZ-8A R/B
1 68138U 26047K   26195.13768810 -.00000179  00000-0 -13211-4 0  9993
2 68138  49.9519 267.8316 0045147 212.6075 147.2043 14.12250504 17421
CZ-8A R/B
1 68138U 26047K   26195.49149235 -.00000167  00000-0 -65434-5 0  9998
2 68138  49.9519 266.3688 0045139 213.8115 145.9912 14.12250515 17473
CZ-8A R/B
1 68138U 26047K   26196.41138348 -.00000126  00000-0  14884-4 0  9990
2 68138  49.9518 262.5652 0045143 216.9756 142.8037 14.12250557 17606
CZ-8A R/B
1 68138U 26047K   26196.41138349 -.00000126  00000-0  14884-4 0  9991
2 68138  49.9518 262.5652 0045143 216.9756 142.8037 14.12250557 17606
CZ-8A R/B
1 68138U 26047K   26197.61431831 -.00000067  00000-0  46842-4 0  9999
2 68138  49.9516 257.5911 0045129 221.1223 138.6280 14.12250711 17770
CZ-8A R/B
1 68138U 26047K   26197.61431832 -.00000067  00000-0  46842-4 0  9990
2 68138  49.9516 257.5911 0045129 221.1223 138.6280 14.12250711 17770
CZ-8A R/B
1 68138U 26047K   26198.10964439 -.00000045  00000-0  58236-4 0  9995
2 68138  49.9515 255.5429 0045140 222.8352 136.9035 14.12250808 17849
CZ-8A R/B
1 68138U 26047K   26198.10964439 -.00000045  00000-0  58236-4 0  9995
2 68138  49.9515 255.5430 0045140 222.8352 136.9035 14.12250808 17841
CZ-8A R/B
1 68138U 26047K   26198.60497054 -.00000026  00000-0  68634-4 0  9996
2 68138  49.9514 253.4950 0045148 224.5515 135.1759 14.12250910 17918
CZ-8A R/B
1 68138U 26047K   26198.60497055 -.00000026  00000-0  68634-4 0  9997
2 68138  49.9514 253.4950 0045148 224.5515 135.1759 14.12250910 17918
CZ-8A R/B
1 68138U 26047K   26199.10029665 -.00000011  00000-0  76816-4 0  9996
2 68138  49.9514 251.4469 0045158 226.2675 133.4489 14.12251029 17988
CZ-8A R/B
1 68138U 26047K   26199.52486199 -.00000001  00000-0  81939-4 0  9992
2 68138  49.9513 249.6914 0045150 227.7212 131.9863 14.12251112 18046
CZ-8A R/B
1 68138U 26047K   26200.16170982  .00000005  00000-0  85438-4 0  9996
2 68138  49.9513 247.0580 0045160 229.9337 129.7606 14.12251280 18136
CZ-8A R/B
1 68138U 26047K   26200.44475334  .00000007  00000-0  86241-4 0  9991
2 68138  49.9512 245.8877 0045168 230.8995 128.7892 14.12251335 18170
CZ-8A R/B
1 68138U 26047K   26201.15236208  .00000005  00000-0  85374-4 0  9999
2 68138  49.9511 242.9619 0045172 233.3398 126.3352 14.12251519 18271
CZ-8A R/B
1 68138U 26047K   26201.36464470  .00000006  00000-0  85983-4 0  9993
2 68138  49.9511 242.0841 0045175 234.0615 125.6097 14.12251592 18305
CZ-8A R/B
1 68138U 26047K   26202.35529691 -.00000002  00000-0  81675-4 0  9991
2 68138  49.9509 237.9879 0045175 237.4725 122.1814 14.12251903 18445
CZ-8A R/B
1 68138U 26047K   26203.34594909 -.00000030  00000-0  66562-4 0  9994
2 68138  49.9507 233.8915 0045177 240.8791 118.7590 14.12252168 18583
CZ-8A R/B
1 68138U 26047K   26204.12431870 -.00000058  00000-0  51276-4 0  9994
2 68138  49.9507 230.6730 0045179 243.5717 116.0551 14.12252350 18696
CZ-8A R/B
1 68138U 26047K   26204.33660126 -.00000061  00000-0  50142-4 0  9990
2 68138  49.9506 229.7951 0045181 244.2792 115.3447 14.12252440 18723
CZ-8A R/B
1 68138U 26047K   26204.33660127 -.00000061  00000-0  50142-4 0  9991
2 68138  49.9506 229.7951 0045181 244.2792 115.3447 14.12252440 18723
CZ-8A R/B
1 68138U 26047K   26205.32725360 -.00000095  00000-0  31579-4 0  9992
2 68138  49.9505 225.6988 0045178 247.6652 111.9463 14.12252668 18862
CZ-8A R/B
1 68138U 26047K   26205.32725360 -.00000095  00000-0  31579-4 0  9992
2 68138  49.9505 225.6988 0045178 247.6652 111.9463 14.12252668 18862
CZ-8A R/B
1 68138U 26047K   26206.45942805 -.00000137  00000-0  94082-5 0  9998
2 68138  49.9505 221.0172 0045177 251.5424 108.0570 14.12252815 19026
CZ-8A R/B
1 68138U 26047K   26207.30855917 -.00000151  00000-0  15888-5 0  9993
2 68138  49.9506 217.5062 0045176 254.4579 105.1338 14.12252945 19144
CZ-8A R/B
1 68138U 26047K   26207.45008105 -.00000153  00000-0  41645-6 0  9991
2 68138  49.9505 216.9210 0045175 254.9498 104.6407 14.12252956 19160
CZ-8A R/B
1 68138U 26047K   26208.01616864 -.00000168  00000-0 -73158-5 0  9991
2 68138  49.9505 214.5801 0045179 256.8992 102.6870 14.12252957 19246
CZ-8A R/B
1 68138U 26047K   26208.22845153 -.00000171  00000-0 -89558-5 0  9994
2 68138  49.9505 213.7024 0045178 257.6234 101.9614 14.12252964 19270
CZ-8A R/B
1 68138U 26047K   26208.22845153 -.00000171  00000-0 -89558-5 0  9994
2 68138  49.9505 213.7024 0045178 257.6234 101.9614 14.12252964 19270
CZ-8A R/B
1 68138U 26047K   26209.36062738 -.00000170  00000-0 -83268-5 0  9991
2 68138  49.9505 209.0209 0045175 261.5208  98.0578 14.12252970 19435
CZ-8A R/B
1 68138U 26047K   26210.20975962 -.00000150  00000-0  23734-5 0  9997
2 68138  49.9506 205.5098 0045177 264.4316  95.1437 14.12253027 19556
CZ-8A R/B
1 68138U 26047K   26211.27117543 -.00000114  00000-0  21385-4 0  9997
2 68138  49.9504 201.1209 0045169 268.0823  91.4911 14.12253083 19709
CZ-8A R/B
1 68138U 26047K   26212.04954727 -.00000078  00000-0  40637-4 0  9996
2 68138  49.9505 197.9023 0045156 270.7793  88.7941 14.12253206 19819
CZ-8A R/B
1 68138U 26047K   26212.33259163 -.00000063  00000-0  48992-4 0  9996
2 68138  49.9505 196.7320 0045158 271.7552  87.8183 14.12253251 19854
CZ-8A R/B
1 68138U 26047K   26212.68639705 -.00000035  00000-0  63909-4 0  9992
2 68138  49.9506 195.2691 0045160 272.9633  86.6107 14.12253399 19908
CZ-8A R/B
1 68138U 26047K   26212.68639705 -.00000035  00000-0  63909-4 0  9992
2 68138  49.9506 195.2691 0045160 272.9633  86.6107 14.12253399 19908
CZ-8A R/B
1 68138U 26047K   26213.25248579 -.00000010  00000-0  77224-4 0  9999
2 68138  49.9506 192.9283 0045161 274.8939  84.6814 14.12253520 19987
CZ-8A R/B
1 68138U 26047K   26213.46476911  .00000011  00000-0  88270-4 0  9998
2 68138  49.9505 192.0505 0045158 275.6308  83.9450 14.12253622 20016
CZ-8A R/B
1 68138U 26047K   26213.96009678  .00000021  00000-0  93807-4 0  9998
2 68138  49.9505 190.0023 0045161 277.3269  82.2507 14.12253721 20080
CZ-8A R/B
1 68138U 26047K   26214.10161897  .00000026  00000-0  96699-4 0  9994
2 68138  49.9505 189.4171 0045161 277.8097  81.7685 14.12253768 20105
CZ-8A R/B
1 68138U 26047K   26214.17238008  .00000023  00000-0  94904-4 0  9994
2 68138  49.9506 189.1245 0045167 278.0469  81.5315 14.12253748 20114
CZ-8A R/B
1 68138U 26047K   26214.31390230  .00000031  00000-0  98920-4 0  9997
2 68138  49.9505 188.5393 0045169 278.5327  81.0463 14.12253794 20132
CZ-8A R/B
1 68138U 26047K   26214.95075224  .00000053  00000-0  11118-3 0  9997
2 68138  49.9506 185.9059 0045165 280.7275  78.8549 14.12254043 20223
CZ-8A R/B
1 68138U 26047K   26215.44608005  .00000064  00000-0  11703-3 0  9993
2 68138  49.9507 183.8579 0045160 282.4364  77.1492 14.12254205 20297
CZ-8A R/B
1 68138U 26047K   26215.94140780  .00000057  00000-0  11335-3 0  9992
2 68138  49.9508 181.8097 0045158 284.1364  75.4528 14.12254318 20361
CZ-8A R/B
1 68138U 26047K   26217.07358542  .00000037  00000-0  10263-3 0  9992
2 68138  49.9511 177.1282 0045157 288.0255  71.5734 14.12254682 20528
CZ-8A R/B
1 68138U 26047K   26217.14434654  .00000035  00000-0  10155-3 0  9997
2 68138  49.9511 176.8357 0045161 288.2657  71.3339 14.12254694 20533
CZ-8A R/B
1 68138U 26047K   26218.13500191 -.00000007  00000-0  79108-4 0  9991
2 68138  49.9514 172.7395 0045164 291.6714  67.9387 14.12254980 20675
CZ-8A R/B
1 68138U 26047K   26218.55956855 -.00000032  00000-0  65395-4 0  9990
2 68138  49.9514 170.9840 0045160 293.1374  66.4778 14.12255074 20735
CZ-8A R/B
1 68138U 26047K   26218.84261300 -.00000046  00000-0  57762-4 0  9990
2 68138  49.9514 169.8136 0045161 294.1097  65.5090 14.12255121 20778
CZ-8A R/B
1 68138U 26047K   26219.26717962 -.00000071  00000-0  44405-4 0  9995
2 68138  49.9515 168.0582 0045163 295.5608  64.0634 14.12255216 20830
CZ-8A R/B
1 68138U 26047K   26219.55022409 -.00000094  00000-0  32134-4 0  9993
2 68138  49.9515 166.8878 0045166 296.5357  63.0924 14.12255234 20874
CZ-8A R/B
1 68138U 26047K   26219.55022409 -.00000094  00000-0  32134-4 0  9993
2 68138  49.9515 166.8878 0045166 296.5357  63.0924 14.12255234 20874
CZ-8A R/B
1 68138U 26047K   26220.11631309 -.00000131  00000-0  12270-4 0  9993
2 68138  49.9516 164.5472 0045167 298.4756  61.1606 14.12255267 20956
CZ-8A R/B
1 68138U 26047K   26220.11631310 -.00000131  00000-0  12270-4 0  9995
2 68138  49.9516 164.5472 0045167 298.4756  61.1606 14.12255267 20956
CZ-8A R/B
1 68138U 26047K   26220.82392448 -.00000171  00000-0 -91098-5 0  9990
2 68138  49.9517 161.6213 0045169 300.9094  58.7377 14.12255309 21050
CZ-8A R/B
1 68138U 26047K   26220.82392449 -.00000171  00000-0 -91098-5 0  9991
2 68138  49.9517 161.6213 0045169 300.9094  58.7377 14.12255309 21050
CZ-8A R/B
1 68138U 26047K   26221.10696917 -.00000189  00000-0 -18776-4 0  9990
2 68138  49.9517 160.4510 0045152 301.8898  57.7620 14.12255287 21090
CZ-8A R/B
1 68138U 26047K   26221.10696917 -.00000189  00000-0 -18776-4 0  9990
2 68138  49.9517 160.4510 0045152 301.8898  57.7620 14.12255287 21090
CZ-8A R/B
1 68138U 26047K   26221.53153612 -.00000212  00000-0 -31097-4 0  9995
2 68138  49.9517 158.6955 0045152 303.3484  56.3105 14.12255276 21158
CZ-8A R/B
1 68138U 26047K   26222.09762566 -.00000234  00000-0 -42588-4 0  9992
2 68138  49.9517 156.3548 0045139 305.3013  54.3677 14.12255212 21237
CZ-8A R/B
1 68138U 26047K   26222.52219284 -.00000248  00000-0 -50082-4 0  9997
2 68138  49.9516 154.5993 0045142 306.7609  52.9158 14.12255171 21298
CZ-8A R/B
1 68138U 26047K   26222.52219284 -.00000248  00000-0 -50082-4 0  9997
2 68138  49.9516 154.5993 0045142 306.7609  52.9158 14.12255171 21298
CZ-8A R/B
1 68138U 26047K   26223.15904392 -.00000257  00000-0 -55010-4 0  9994
2 68138  49.9516 151.9660 0045125 308.9545  50.7345 14.12255055 21389
CZ-8A R/B
1 68138U 26047K   26223.15904393 -.00000257  00000-0 -55010-4 0  9995
2 68138  49.9517 151.9660 0045125 308.9545  50.7345 14.12255055 21380
CZ-8A R/B
1 68138U 26047K   26223.51285013 -.00000260  00000-0 -56276-4 0  9995
2 68138  49.9517 150.5031 0045123 310.1722  49.5239 14.12255013 21435
CZ-8A R/B
1 68138U 26047K   26223.51285013 -.00000260  00000-0 -56276-4 0  9995
2 68138  49.9517 150.5031 0045123 310.1722  49.5239 14.12255013 21435
CZ-8A R/B
1 68138U 26047K   26224.07894021 -.00000252  00000-0 -52111-4 0  9997
2 68138  49.9516 148.1623 0045116 312.1103  47.5973 14.12254926 21515
CZ-8A R/B
1 68138U 26047K   26224.22046279 -.00000249  00000-0 -50368-4 0  9996
2 68138  49.9516 147.5772 0045115 312.6011  47.1095 14.12254903 21533
CZ-8A R/B
1 68138U 26047K   26224.22046279 -.00000249  00000-0 -50368-4 0  9996
2 68138  49.9516 147.5772 0045115 312.6011  47.1095 14.12254903 21533
CZ-8A R/B
1 68138U 26047K   26225.14035957 -.00000217  00000-0 -33480-4 0  9990
2 68138  49.9515 143.7735 0045117 315.7498  43.9805 14.12254797 21662
CZ-8A R/B
1 68138U 26047K   26225.14035958 -.00000217  00000-0 -33480-4 0  9991
2 68138  49.9515 143.7735 0045117 315.7498  43.9805 14.12254797 21662
CZ-8A R/B
1 68138U 26047K   26226.20177943 -.00000156  00000-0 -51639-6 0  9990
2 68138  49.9517 139.3848 0045099 319.4116  40.3432 14.12254799 21813
CZ-8A R/B
1 68138U 26047K   26226.20177944 -.00000156  00000-0 -51639-6 0  9991
2 68138  49.9517 139.3848 0045099 319.4116  40.3432 14.12254799 21813
CZ-8A R/B
1 68138U 26047K   26226.76787014 -.00000123  00000-0  17066-4 0  9994
2 68138  49.9516 137.0440 0045082 321.3605  38.4079 14.12254825 21895
CZ-8A R/B
1 68138U 26047K   26226.76787014 -.00000123  00000-0  17066-4 0  9994
2 68138  49.9516 137.0440 0045082 321.3605  38.4079 14.12254825 21895
CZ-8A R/B
1 68138U 26047K   26227.12167690 -.00000095  00000-0  31971-4 0  9996
2 68138  49.9516 135.5812 0045084 322.5766  37.2005 14.12254866 21941
CZ-8A R/B
1 68138U 26047K   26227.12167690 -.00000095  00000-0  31971-4 0  9996
2 68138  49.9516 135.5812 0045084 322.5766  37.2005 14.12254866 21941
CZ-8A R/B
1 68138U 26047K   26227.47548362 -.00000078  00000-0  40814-4 0  9990
2 68138  49.9517 134.1182 0045086 323.7928  35.9930 14.12254890 21996
CZ-8A R/B
1 68138U 26047K   26227.47548363 -.00000078  00000-0  40814-4 0  9991
2 68138  49.9517 134.1182 0045086 323.7928  35.9930 14.12254890 21996
CZ-8A R/B
1 68138U 26047K   26227.75852902 -.00000063  00000-0  49216-4 0  9998
2 68138  49.9516 132.9478 0045079 324.7608  35.0321 14.12254926 22038
CZ-8A R/B
1 68138U 26047K   26227.75852902 -.00000063  00000-0  49216-4 0  9998
2 68138  49.9516 132.9478 0045079 324.7608  35.0321 14.12254927 22039
CZ-8A R/B
1 68138U 26047K   26228.11233580 -.00000036  00000-0  63235-4 0  9991
2 68138  49.9518 131.4850 0045080 325.9777  33.8242 14.12255009 22086
CZ-8A R/B
1 68138U 26047K   26228.11233580 -.00000036  00000-0  63235-4 0  9991
2 68138  49.9518 131.4850 0045080 325.9777  33.8242 14.12255009 22086
CZ-8A R/B
1 68138U 26047K   26228.46614254 -.00000020  00000-0  72047-4 0  9994
2 68138  49.9518 130.0221 0045084 327.1901  32.6209 14.12255079 22133
CZ-8A R/B
1 68138U 26047K   26228.74918794 -.00000011  00000-0  76754-4 0  9990
2 68138  49.9518 128.8516 0045075 328.1630  31.6554 14.12255118 22175
CZ-8A R/B
1 68138U 26047K   26229.10299473  .00000007  00000-0  86714-4 0  9998
2 68138  49.9519 127.3888 0045071 329.3836  30.4443 14.12255212 22224
CZ-8A R/B
1 68138U 26047K   26229.73984678  .00000019  00000-0  92740-4 0  9994
2 68138  49.9520 124.7555 0045072 331.5604  28.2845 14.12255348 22318
CZ-8A R/B
1 68138U 26047K   26230.02289214  .00000028  00000-0  97739-4 0  9995
2 68138  49.9520 123.5852 0045068 332.5338  27.3188 14.12255442 22354
CZ-8A R/B
1 68138U 26047K   26230.37669877  .00000039  00000-0  10373-3 0  9990
2 68138  49.9520 122.1223 0045066 333.7578  26.1047 14.12255604 22405
CZ-8A R/B
1 68138U 26047K   26230.94278934  .00000039  00000-0  10374-3 0  9994
2 68138  49.9520 119.7816 0045058 335.6981  24.1801 14.12255771 22484
CZ-8A R/B
1 68138U 26047K   26230.94278935  .00000039  00000-0  10374-3 0  9995
2 68138  49.9520 119.7816 0045058 335.6981  24.1801 14.12255771 22484
CZ-8A R/B
1 68138U 26047K   26231.93344771  .00000020  00000-0  93625-4 0  9998
2 68138  49.9520 115.6854 0045057 339.1050  20.8015 14.12256055 22628
CZ-8A R/B
1 68138U 26047K   26231.93344771  .00000020  00000-0  93625-4 0  9998
2 68138  49.9520 115.6854 0045057 339.1050  20.8015 14.12256055 22628
CZ-8A R/B
1 68138U 26047K   26232.92410585 -.00000017  00000-0  73707-4 0  9991
2 68138  49.9519 111.5892 0045053 342.5128  17.4226 14.12256313 22761
CZ-8A R/B
1 68138U 26047K   26233.06562842 -.00000022  00000-0  71317-4 0  9992
2 68138  49.9519 111.0040 0045049 343.0046  16.9351 14.12256357 22784
CZ-8A R/B
1 68138U 26047K   26233.70247993 -.00000053  00000-0  54250-4 0  9991
2 68138  49.9518 108.3706 0045049 345.1896  14.7689 14.12256500 22877
CZ-8A R/B
1 68138U 26047K   26233.98552508 -.00000068  00000-0  46721-4 0  9992
2 68138  49.9518 107.2003 0045047 346.1655  13.8015 14.12256544 22913
CZ-8A R/B
1 68138U 26047K   26234.33933139 -.00000087  00000-0  36478-4 0  9994
2 68138  49.9517 105.7373 0045038 347.3794  12.5983 14.12256632 22965
CZ-8A R/B
1 68138U 26047K   26234.33933139 -.00000087  00000-0  36478-4 0  9994
2 68138  49.9517 105.7373 0045038 347.3794  12.5983 14.12256632 22965
CZ-8A R/B
1 68138U 26047K   26234.90542162 -.00000114  00000-0  21713-4 0  9996
2 68138  49.9517 103.3965 0045032 349.3247  10.6701 14.12256693 23049
CZ-8A R/B
1 68138U 26047K   26234.97618291 -.00000118  00000-0  19701-4 0  9998
2 68138  49.9516 103.1039 0045026 349.5743  10.4227 14.12256697 23050
CZ-8A R/B
1 68138U 26047K   26236.03760206 -.00000167  00000-0 -64359-5 0  9996
2 68138  49.9515  98.7149 0045018 353.2303   6.7991 14.12256777 23207
CZ-8A R/B
1 68138U 26047K   26236.32064715 -.00000178  00000-0 -12460-4 0  9997
2 68138  49.9515  97.5445 0045012 354.2051   5.8330 14.12256804 23240
CZ-8A R/B
1 68138U 26047K   26236.32064716 -.00000178  00000-0 -12460-4 0  9998
2 68138  49.9515  97.5445 0045012 354.2051   5.8330 14.12256805 23241
CZ-8A R/B
1 68138U 26047K   26237.02826005 -.00000196  00000-0 -22159-4 0  9999
2 68138  49.9514  94.6185 0045006 356.6412   3.4187 14.12256801 23340
CZ-8A R/B
1 68138U 26047K   26237.94815687 -.00000205  00000-0 -26970-4 0  9990
2 68138  49.9514  90.8147 0044998 359.8026   0.2856 14.12256800 23472
CZ-8A R/B
1 68138U 26047K   26237.94815688 -.00000205  00000-0 -26970-4 0  9991
2 68138  49.9514  90.8147 0044998 359.8026   0.2856 14.12256801 23473
CZ-8A R/B
1 68138U 26047K   26238.30196339 -.00000204  00000-0 -26280-4 0  9990
2 68138  49.9514  89.3517 0044998   1.0173 359.0819 14.12256799 23522
CZ-8A R/B
1 68138U 26047K   26238.30196340 -.00000204  00000-0 -26280-4 0  9992
2 68138  49.9514  89.3517 0044998   1.0173 359.0819 14.12256799 23522
CZ-8A R/B
1 68138U 26047K   26238.30196340 -.00000204  00000-0 -26280-4 0  9992
2 68138  49.9514  89.3517 0044998   1.0173 359.0819 14.12256799 23522
CZ-8A R/B
1 68138U 26047K   26238.93881519 -.00000197  00000-0 -22696-4 0  9998
2 68138  49.9514  86.7183 0044987   3.2113 356.9076 14.12256767 23614
CZ-8A R/B
1 68138U 26047K   26238.93881519 -.00000197  00000-0 -22696-4 0  9998
2 68138  49.9514  86.7183 0044987   3.2113 356.9076 14.12256767 23614
CZ-8A R/B
1 68138U 26047K   26239.92947359 -.00000165  00000-0 -55738-5 0  9992
2 68138  49.9515  82.6218 0044974   6.6189 353.5303 14.12256799 23751
CZ-8A R/B
1 68138U 26047K   26239.92947359 -.00000165  00000-0 -55738-5 0  9992
2 68138  49.9515  82.6218 0044974   6.6189 353.5303 14.12256798 23750
CZ-8A R/B
1 68138U 26047K   26240.28328022 -.00000165  00000-0 -51187-5 0  9997
2 68138  49.9515  81.1588 0044982   7.8275 352.3325 14.12256739 23804
CZ-8A R/B
1 68138U 26047K   26240.56632547 -.00000148  00000-0  39509-5 0  9992
2 68138  49.9515  79.9884 0044975   8.7984 351.3703 14.12256775 23840
CZ-8A R/B
1 68138U 26047K   26240.56632548 -.00000148  00000-0  39509-5 0  9993
2 68138  49.9515  79.9884 0044975   8.7984 351.3703 14.12256775 23840
CZ-8A R/B
1 68138U 26047K   26240.92013209 -.00000132  00000-0  12588-4 0  9990
2 68138  49.9515  78.5254 0044972  10.0183 350.1611 14.12256792 23899
CZ-8A R/B
1 68138U 26047K   26240.92013210 -.00000132  00000-0  12588-4 0  9992
2 68138  49.9515  78.5254 0044972  10.0183 350.1611 14.12256792 23899
CZ-8A R/B
1 68138U 26047K   26241.48622264 -.00000105  00000-0  26669-4 0  9994
2 68138  49.9515  76.1846 0044966  11.9604 348.2361 14.12256838 23971
CZ-8A R/B
1 68138U 26047K   26241.55698395 -.00000104  00000-0  27493-4 0  9995
2 68138  49.9515  75.8920 0044960  12.2064 347.9923 14.12256845 23987
CZ-8A R/B
1 68138U 26047K   26241.69850656 -.00000096  00000-0  31391-4 0  9992
2 68138  49.9515  75.3068 0044958  12.6940 347.5089 14.12256866 24005
CZ-8A R/B
1 68138U 26047K   26241.91079054 -.00000089  00000-0  35585-4 0  9993
2 68138  49.9515  74.4291 0044958  13.4283 346.7810 14.12256868 24030
CZ-8A R/B
1 68138U 26047K   26241.98155183 -.00000085  00000-0  37656-4 0  9995
2 68138  49.9514  74.1364 0044958  13.6725 346.5390 14.12256881 24047
CZ-8A R/B
1 68138U 26047K   26241.98155184 -.00000085  00000-0  37656-4 0  9996
2 68138  49.9514  74.1364 0044958  13.6725 346.5390 14.12256881 24047
CZ-8A R/B
1 68138U 26047K   26242.54764229 -.00000061  00000-0  50502-4 0  9994
2 68138  49.9515  71.7956 0044951  15.6155 344.6127 14.12256958 24121
CZ-8A R/B
1 68138U 26047K   26242.75992619 -.00000051  00000-0  55632-4 0  9991
2 68138  49.9515  70.9178 0044946  16.3446 343.8900 14.12256988 24159
CZ-8A R/B
1 68138U 26047K   26242.75992620 -.00000051  00000-0  55632-4 0  9993
2 68138  49.9515  70.9178 0044946  16.3446 343.8900 14.12256988 24159
CZ-8A R/B
1 68138U 26047K   26242.97221008 -.00000042  00000-0  60512-4 0  9995
2 68138  49.9515  70.0400 0044945  17.0803 343.1606 14.12257027 24186
CZ-8A R/B
1 68138U 26047K   26242.97221009 -.00000042  00000-0  60512-4 0  9996
2 68138  49.9515  70.0400 0044945  17.0803 343.1606 14.12257027 24186
CZ-8A R/B
1 68138U 26047K   26243.53830036 -.00000021  00000-0  71836-4 0  9993
2 68138  49.9515  67.6991 0044938  19.0212 341.2362 14.12257149 24263
CZ-8A R/B
1 68138U 26047K   26243.53830037 -.00000021  00000-0  71836-4 0  9994
2 68138  49.9515  67.6991 0044938  19.0212 341.2362 14.12257149 24263
CZ-8A R/B
1 68138U 26047K   26243.67982293 -.00000017  00000-0  73822-4 0  9993
2 68138  49.9516  67.1139 0044933  19.5097 340.7518 14.12257173 24280
CZ-8A R/B
1 68138U 26047K   26243.67982293 -.00000017  00000-0  73822-4 0  9993
2 68138  49.9516  67.1139 0044933  19.5097 340.7518 14.12257173 24280
CZ-8A R/B
1 68138U 26047K   26244.52895810  .00000006  00000-0  86442-4 0  9995
2 68138  49.9516  63.6026 0044933  22.4230 337.8629 14.12257379 24400
CZ-8A R/B
1 68138U 26047K   26244.52895811  .00000006  00000-0  86442-4 0  9996
2 68138  49.9516  63.6026 0044933  22.4230 337.8629 14.12257380 24402
