TBA - TO BE ASSIGNED
1 68654U 26075U   26105.59800181  .00000089  00000-0  22285-4 0  9995
2 68654  88.9902 327.7639 0073505  93.5024 267.4588 14.40033918  1146
QIANFAN-127
1 68654U 26075U   26106.22339252  .00000111  00000-0  29029-4 0  9991
2 68654  88.9904 327.6901 0073657  91.4542 269.5098 14.40034125  1239
QIANFAN-127
1 68654U 26075U   26106.91827023  .00000114  00000-0  29888-4 0  9991
2 68654  88.9903 327.6079 0073661  89.2062 271.7578 14.40034254  1333
QIANFAN-127
1 68654U 26075U   26107.26570899  .00000100  00000-0  25543-4 0  9995
2 68654  88.9902 327.5667 0073660  88.0773 272.8863 14.40034266  1386
QIANFAN-127
1 68654U 26075U   26107.89109852  .00000096  00000-0  24313-4 0  9999
2 68654  88.9901 327.4926 0073658  86.0522 274.9096 14.40034364  1479
QIANFAN-127
1 68654U 26075U   26107.89109853  .00000093  00000-0  23615-4 0  9991
2 68654  88.9901 327.4926 0073658  86.0497 274.9120 14.40034349  1471
QIANFAN-127
1 68654U 26075U   26110.53162887  .00000149  00000-0  40686-4 0  9991
2 68654  88.9896 327.1797 0073633  77.4999 283.4427 14.40035198  1851
QIANFAN-127
1 68654U 26075U   26110.80957913  .00000147  00000-0  40274-4 0  9994
2 68654  88.9895 327.1468 0073628  76.5984 284.3411 14.40035266  1896
QIANFAN-127
1 68654U 26075U   26111.01804179  .00000154  00000-0  42279-4 0  9998
2 68654  88.9895 327.1221 0073622  75.9250 285.0120 14.40035376  1927
QIANFAN-127
1 68654U 26075U   26111.92137960  .00000149  00000-0  40765-4 0  9997
2 68654  88.9894 327.0150 0073593  72.9928 287.9321 14.40035632  2056
QIANFAN-127
1 68654U 26075U   26112.06035459  .00000146  00000-0  39928-4 0  9999
2 68654  88.9894 326.9985 0073587  72.5403 288.3824 14.40035673  2077
QIANFAN-127
1 68654U 26075U   26112.54676703  .00000136  00000-0  36813-4 0  9994
2 68654  88.9893 326.9409 0073567  70.9558 289.9593 14.40035746  2147
QIANFAN-127
1 68654U 26075U   26112.89420433  .00000144  00000-0  39375-4 0  9994
2 68654  88.9893 326.8997 0073549  69.8342 291.0751 14.40035881  2191
QIANFAN-127
1 68654U 26075U   26113.72805354  .00000150  00000-0  41097-4 0  9997
2 68654  88.9892 326.8008 0073508  67.1238 293.7702 14.40036149  2310
QIANFAN-127
1 68654U 26075U   26114.56190227  .00000169  00000-0  46821-4 0  9996
2 68654  88.9890 326.7019 0073464  64.4193 296.4577 14.40036481  2432
QIANFAN-127
1 68654U 26075U   26114.97882643  .00000182  00000-0  51022-4 0  9995
2 68654  88.9890 326.6525 0073434  63.0614 297.8064 14.40036680  2496
QIANFAN-127
1 68654U 26075U   26115.67369962  .00000207  00000-0  58507-4 0  9990
2 68654  88.9889 326.5700 0073388  60.8107 300.0410 14.40037067  2591
QIANFAN-127
1 68654U 26075U   26116.85498317  .00000294  00000-0  85466-4 0  9998
2 68654  88.9888 326.4299 0073303  56.9654 303.8561 14.40037975  2767
QIANFAN-127
1 68654U 26075U   26117.96677844  .00000313  00000-0  91350-4 0  9996
2 68654  88.9887 326.2980 0073215  53.3426 307.4476 14.40038595  2923
QIANFAN-127
1 68654U 26075U   26118.24472714  .00000320  00000-0  93428-4 0  9993
2 68654  88.9886 326.2650 0073197  52.4336 308.3484 14.40038754  2965
QIANFAN-127
1 68654U 26075U   26118.87011133  .00000328  00000-0  95829-4 0  9991
2 68654  88.9885 326.1908 0073143  50.3873 310.3754 14.40039114  3058
QIANFAN-127
1 68654U 26075U   26119.28703397  .00000346  00000-0  10164-3 0  9995
2 68654  88.9884 326.1413 0073106  49.0277 311.7218 14.40039433  3111
QIANFAN-127
1 68654U 26075U   26119.63446935  .00000356  00000-0  10452-3 0  9997
2 68654  88.9884 326.1001 0073074  47.8910 312.8472 14.40039711  3166
QIANFAN-127
1 68654U 26075U   26119.91241756  .00000355  00000-0  10432-3 0  9999
2 68654  88.9884 326.0671 0073046  46.9838 313.7452 14.40039880  3206
QIANFAN-127
1 68654U 26075U   26120.25985280  .00000333  00000-0  97620-4 0  9996
2 68654  88.9883 326.0259 0073015  45.8465 314.8707 14.40040000  3253
QIANFAN-127
1 68654U 26075U   26120.60728798  .00000322  00000-0  94120-4 0  9994
2 68654  88.9882 325.9847 0072976  44.7179 315.9874 14.40040171  3300
QIANFAN-127
1 68654U 26075U   26120.95472292  .00000318  00000-0  92824-4 0  9991
2 68654  88.9882 325.9434 0072938  43.5850 317.1081 14.40040408  3355
QIANFAN-127
1 68654U 26075U   26121.30215779  .00000332  00000-0  97091-4 0  9993
2 68654  88.9881 325.9022 0072906  42.4522 318.2286 14.40040756  3407
QIANFAN-127
1 68654U 26075U   26121.92754052  .00000293  00000-0  85156-4 0  9998
2 68654  88.9880 325.8280 0072834  40.4069 320.2510 14.40040915  3494
QIANFAN-127
1 68654U 26075U   26122.62240979  .00000296  00000-0  86315-4 0  9995
2 68654  88.9879 325.7455 0072759  38.1251 322.5066 14.40041351  3595
QIANFAN-127
1 68654U 26075U   26122.90035740  .00000281  00000-0  81457-4 0  9990
2 68654  88.9879 325.7125 0072727  37.2139 323.4070 14.40041442  3630
QIANFAN-127
1 68654U 26075U   26123.24779182  .00000282  00000-0  81966-4 0  9999
2 68654  88.9878 325.6712 0072701  36.0658 324.5415 14.40041679  3687
QIANFAN-127
1 68654U 26075U   26123.59522619  .00000279  00000-0  80925-4 0  9998
2 68654  88.9878 325.6300 0072658  34.9253 325.6683 14.40041870  3737
QIANFAN-127
1 68654U 26075U   26123.94266046  .00000269  00000-0  78047-4 0  9997
2 68654  88.9878 325.5887 0072617  33.7810 326.7987 14.40041997  3781
QIANFAN-127
1 68654U 26075U   26124.63752877  .00000270  00000-0  78178-4 0  9993
2 68654  88.9877 325.5062 0072535  31.4932 329.0581 14.40042404  3885
QIANFAN-127
1 68654U 26075U   26125.26290981  .00000270  00000-0  78106-4 0  9997
2 68654  88.9877 325.4319 0072449  29.4371 331.0880 14.40042930  3976
QIANFAN-127
1 68654U 26075U   26125.88664235 -.01823754  00000-0 -65899+0 0  9995
2 68654  88.9871 325.3576 0074720  27.1822 333.3257 14.35692382  4064
QIANFAN-127
1 68654U 26075U   26126.23572466  .00000266  00000-0  77081-4 0  9992
2 68654  88.9876 325.3163 0072334  26.2285 334.2550 14.40043262  4118
QIANFAN-127
1 68654U 26075U   26126.58140202 -.01665569  00000-0 -61602+0 0  9992
2 68654  88.9871 325.2751 0074279  22.2922 338.1477 14.34837587  4169
QIANFAN-127
1 68654U 26075U   26126.93059201  .00000264  00000-0  76381-4 0  9996
2 68654  88.9876 325.2339 0072244  23.9325 336.5206 14.40043591  4210
QIANFAN-127
1 68654U 26075U   26127.27802561  .00000234  00000-0  67102-4 0  9997
2 68654  88.9876 325.1926 0072188  22.7855 337.6522 14.40043689  4269
QIANFAN-127
1 68654U 26075U   26127.97289260  .00000235  00000-0  67404-4 0  9995
2 68654  88.9876 325.1101 0072092  20.4821 339.9244 14.40044027  4360
QIANFAN-127
1 68654U 26075U   26128.24950186 -.01487651  00000-0 -52287+0 0  9990
2 68654  88.9873 325.0811 0071559  23.2035 337.2366 14.34577266  4409
QIANFAN-127
1 68654U 26075U   26128.94570596  .00000242  00000-0  69583-4 0  9996
2 68654  88.9875 324.9945 0071951  17.2586 343.1037 14.40044516  4503
QIANFAN-127
1 68654U 26075U   26129.22365260  .00000229  00000-0  65874-4 0  9992
2 68654  88.9875 324.9615 0071915  16.3369 344.0126 14.40044580  4540
QIANFAN-127
1 68654U 26075U   26129.91851904  .00000215  00000-0  61343-4 0  9995
2 68654  88.9875 324.8789 0071816  14.0277 346.2896 14.40044813  4642
QIANFAN-127
1 68654U 26075U   26130.26595221  .00000203  00000-0  57859-4 0  9996
2 68654  88.9874 324.8377 0071773  12.8704 347.4307 14.40044903  4692
QIANFAN-127
1 68654U 26075U   26130.96081837  .00000200  00000-0  56807-4 0  9995
2 68654  88.9874 324.7551 0071679  10.5548 349.7137 14.40045174  4799
QIANFAN-127
1 68654U 26075U   26131.58619774  .00000191  00000-0  54156-4 0  9995
2 68654  88.9873 324.6808 0071583   8.4698 351.7692 14.40045408  4887
QIANFAN-127
1 68654U 26075U   26131.93363073  .00000246  00000-0  71073-4 0  9990
2 68654  88.9873 324.6395 0071539   7.3067 352.9158 14.40045478  4930
QIANFAN-127
1 68654U 26075U   26132.28106364  .00000264  00000-0  76548-4 0  9999
2 68654  88.9872 324.5982 0071488   6.1474 354.0587 14.40045700  4984
QIANFAN-127
1 68654U 26075U   26132.62849648  .00000293  00000-0  85542-4 0  9992
2 68654  88.9872 324.5569 0071443   4.9867 355.2029 14.40045945  5030
QIANFAN-127
1 68654U 26075U   26132.76746959  .00000299  00000-0  87339-4 0  9990
2 68654  88.9872 324.5405 0071423   4.5198 355.6632 14.40046030  5052
QIANFAN-127
1 68654U 26075U   26133.94874114  .00000224  00000-0  64290-4 0  9995
2 68654  88.9871 324.4000 0071241   0.5674 359.5595 14.40046329  5225
QIANFAN-127
1 68654U 26075U   26134.29617389  .00000189  00000-0  53616-4 0  9993
2 68654  88.9871 324.3588 0071182 359.3988   0.7115 14.40046414  5275
QIANFAN-127
1 68654U 26075U   26134.92155281  .00000186  00000-0  52601-4 0  9991
2 68654  88.9871 324.2844 0071102 357.3043   2.7764 14.40046568  5363
QIANFAN-127
1 68654U 26075U   26135.26898552  .00000180  00000-0  50627-4 0  9994
2 68654  88.9870 324.2431 0071053 356.1372   3.9271 14.40046640  5414
QIANFAN-127
1 68654U 26075U   26136.24179680  .00000160  00000-0  44636-4 0  9998
2 68654  88.9869 324.1274 0070901 352.8507   7.1676 14.40047027  5550
QIANFAN-127
1 68654U 26075U   26136.58922947  .00000160  00000-0  44779-4 0  9995
2 68654  88.9869 324.0862 0070870 351.6946   8.3076 14.40047079  5601
QIANFAN-127
1 68654U 26075U   26136.93666212  .00000132  00000-0  35925-4 0  9996
2 68654  88.9869 324.0448 0070814 350.5204   9.4655 14.40047081  5657
QIANFAN-127
1 68654U 26075U   26137.56204081  .00000134  00000-0  36622-4 0  9995
2 68654  88.9868 323.9705 0070729 348.4125  11.5444 14.40047242  5742
QIANFAN-127
1 68654U 26075U   26137.90947338  .00000138  00000-0  37912-4 0  9999
2 68654  88.9869 323.9292 0070671 347.2348  12.7061 14.40047362  5790
QIANFAN-127
1 68654U 26075U   26138.95177109  .00000146  00000-0  40261-4 0  9996
2 68654  88.9868 323.8053 0070526 343.7085  16.1848 14.40047674  5945
QIANFAN-127
1 68654U 26075U   26139.29920365  .00000145  00000-0  40121-4 0  9998
2 68654  88.9868 323.7640 0070473 342.5273  17.3504 14.40047750  5995
QIANFAN-127
1 68654U 26075U   26139.92458230  .00000078  00000-0  19429-4 0  9997
2 68654  88.9868 323.6896 0070386 340.4052  19.4446 14.40047826  6085
CZ-8 R/B
1 68654U 26075U   26140.27201489  .00000078  00000-0  19287-4 0  9991
2 68654  88.9868 323.6483 0070336 339.2292  20.6053 14.40047881  6139
CZ-8 R/B
1 68654U 26075U   26140.54996095  .00000075  00000-0  18399-4 0  9995
2 68654  88.9868 323.6153 0070303 338.2846  21.5377 14.40047936  6175
CZ-8 R/B
1 68654U 26075U   26140.96688006  .00000079  00000-0  19819-4 0  9993
2 68654  88.9868 323.5657 0070243 336.8655  22.9388 14.40048047  6236
CZ-8 R/B
1 68654U 26075U   26141.24482603  .00000148  00000-0  41077-4 0  9998
2 68654  88.9868 323.5327 0070207 335.9181  23.8742 14.40048328  6274
CZ-8 R/B
1 68654U 26075U   26141.59225861  .00000143  00000-0  39401-4 0  9990
2 68654  88.9868 323.4914 0070164 334.7372  25.0403 14.40048405  6326
CZ-8 R/B
1 68654U 26075U   26141.93969119  .00000157  00000-0  43887-4 0  9997
2 68654  88.9868 323.4501 0070119 333.5520  26.2108 14.40048568  6370
CZ-8 R/B
1 68654U 26075U   26142.21763727  .00000171  00000-0  48084-4 0  9996
2 68654  88.9868 323.4170 0070085 332.6079  27.1433 14.40048678  6411
CZ-8 R/B
1 68654U 26075U   26142.56506984  .00000166  00000-0  46558-4 0  9992
2 68654  88.9868 323.3757 0070043 331.4232  28.3137 14.40048781  6467
CZ-8 R/B
1 68654U 26075U   26143.25993502  .00000187  00000-0  53159-4 0  9993
2 68654  88.9869 323.2931 0069951 329.0472  30.6614 14.40049070  6565
CZ-8 R/B
1 68654U 26075U   26144.92761152  .00000209  00000-0  59768-4 0  9999
2 68654  88.9869 323.0947 0069750 323.3212  36.3225 14.40049722  6808
CZ-8 R/B
1 68654U 26075U   26145.55299028  .00000222  00000-0  63799-4 0  9991
2 68654  88.9869 323.0204 0069687 321.1923  38.4284 14.40049998  6890
CZ-8 R/B
1 68654U 26075U   26146.24785550  .00000263  00000-0  76700-4 0  9999
2 68654  88.9869 322.9378 0069617 318.8106  40.7853 14.40050465  6999
CZ-8 R/B
1 68654U 26075U   26146.52580165  .00000237  00000-0  68689-4 0  9993
2 68654  88.9869 322.9048 0069587 317.8574  41.7289 14.40050467  7039
CZ-8 R/B
1 68654U 26075U   26146.94272076  .00000254  00000-0  73781-4 0  9996
2 68654  88.9869 322.8553 0069543 316.4218  43.1502 14.40050742  7097
CZ-8 R/B
1 68654U 26075U   26147.22066687  .00000258  00000-0  74928-4 0  9995
2 68654  88.9869 322.8222 0069515 315.4786  44.0842 14.40050897  7131
CZ-8 R/B
1 68654U 26075U   26147.56809945  .00000256  00000-0  74579-4 0  9994
2 68654  88.9869 322.7809 0069485 314.2739  45.2773 14.40051051  7186
CZ-8 R/B
1 68654U 26075U   26147.91553207  .00000263  00000-0  76540-4 0  9998
2 68654  88.9869 322.7396 0069453 313.0735  46.4665 14.40051233  7236
CZ-8 R/B
1 68654U 26075U   26148.26296465  .00000272  00000-0  79274-4 0  9994
2 68654  88.9868 322.6983 0069420 311.8734  47.6556 14.40051460  7284
CZ-8 R/B
1 68654U 26075U   26149.16453175 -.01664024  00000-0 -61559+0 0  9993
2 68654  88.9863 322.5909 0074005 308.0881  51.3658 14.34835025  7412
CZ-8 R/B
1 68654U 26075U   26150.90166027 -.01722274  00000-0 -63692+0 0  9996
2 68654  88.9864 322.3844 0069069 305.1180  54.3557 14.35198530  7665
CZ-8 R/B
1 68654U 26075U   26151.73631706 -.01960209  00000-0 -70764+0 0  9999
2 68654  88.9866 322.2856 0069474 302.2463  57.2015 14.36240169  7782
CZ-8 R/B
1 68654U 26075U   26152.91856228  .00000252  00000-0  73392-4 0  9993
2 68654  88.9871 322.1448 0069047 295.8087  63.6002 14.40053848  7956
CZ-8 R/B
1 68654U 26075U   26153.26599501  .00000254  00000-0  73980-4 0  9995
2 68654  88.9871 322.1035 0069024 294.6064  64.7956 14.40054000  8003
CZ-8 R/B
1 68654U 26075U   26153.54394119  .00000279  00000-0  81507-4 0  9995
2 68654  88.9872 322.0705 0069014 293.6323  65.7643 14.40054282  8043
CZ-8 R/B
1 68654U 26075U   26153.96086049  .00000267  00000-0  77967-4 0  9993
2 68654  88.9872 322.0209 0068987 292.1980  67.1911 14.40054454  8105
CZ-8 R/B
1 68654U 26075U   26154.23880667  .00000279  00000-0  81573-4 0  9993
2 68654  88.9872 321.9879 0068973 291.2311  68.1532 14.40054667  8149
CZ-8 R/B
1 68654U 26075U   26154.51675295  .00000275  00000-0  80457-4 0  9999
2 68654  88.9873 321.9549 0068958 290.2684  69.1113 14.40054808  8186
CZ-8 R/B
1 68654U 26075U   26154.86418576  .00000259  00000-0  75566-4 0  9991
2 68654  88.9873 321.9136 0068947 289.0641  70.3102 14.40054916  8233
CZ-8 R/B
1 68654U 26075U   26155.28110515  .00000283  00000-0  82964-4 0  9997
2 68654  88.9873 321.8641 0068933 287.6183  71.7498 14.40055265  8290
CZ-8 R/B
1 68654U 26075U   26155.90648432  .00000274  00000-0  80009-4 0  9998
2 68654  88.9874 321.7898 0068908 285.4528  73.9070 14.40055547  8388
CZ-8 R/B
1 68654U 26075U   26156.18443070  .00000243  00000-0  70536-4 0  9990
2 68654  88.9874 321.7568 0068897 284.4827  74.8737 14.40055509  8423
CZ-8 R/B
1 68654U 26075U   26156.87929645  .00000275  00000-0  80428-4 0  9999
2 68654  88.9875 321.6742 0068876 282.0722  77.2767 14.40056042  8526
CZ-8 R/B
1 68654U 26075U   26157.15724277  .00000276  00000-0  80793-4 0  9991
2 68654  88.9875 321.6412 0068865 281.1082  78.2381 14.40056194  8562
CZ-8 R/B
1 68654U 26075U   26157.57416239  .00000280  00000-0  81855-4 0  9998
2 68654  88.9875 321.5917 0068852 279.6650  79.6779 14.40056393  8624
CZ-8 R/B
1 68654U 26075U   26157.85210886  .00000260  00000-0  75730-4 0  9992
2 68654  88.9875 321.5586 0068847 278.7039  80.6368 14.40056423  8665
CZ-8 R/B
1 68654U 26075U   26158.19954195  .00000287  00000-0  84115-4 0  9994
2 68654  88.9875 321.5174 0068838 277.4978  81.8406 14.40056707  8713
CZ-8 R/B
1 68654U 26075U   26159.24184126  .00000254  00000-0  73917-4 0  9992
2 68654  88.9876 321.3935 0068828 273.8831  85.4503 14.40057029  8866
CZ-8 R/B
1 68654U 26075U   26159.51978773  .00000263  00000-0  76711-4 0  9996
2 68654  88.9876 321.3605 0068827 272.9182  86.4144 14.40057237  8906
CZ-8 R/B
1 68654U 26075U   26160.21465410  .00000222  00000-0  63919-4 0  9995
2 68654  88.9876 321.2779 0068830 270.5020  88.8295 14.40057339  9004
CZ-8 R/B
1 68654U 26075U   26160.49260066  .00000227  00000-0  65528-4 0  9998
2 68654  88.9876 321.2449 0068834 269.5336  89.7977 14.40057515  9047
CZ-8 R/B
1 68654U 26075U   26160.77054724  .00000222  00000-0  64022-4 0  9994
2 68654  88.9876 321.2118 0068831 268.5707  90.7608 14.40057605  9085
CZ-8 R/B
1 68654U 26075U   26161.25695381  .00000211  00000-0  60472-4 0  9991
2 68654  88.9876 321.1541 0068837 266.8797  92.4527 14.40057780  9151
CZ-8 R/B
1 68654U 26075U   26161.60438713  .00000214  00000-0  61597-4 0  9996
2 68654  88.9876 321.1128 0068838 265.6688  93.6646 14.40057948  9206
CZ-8 R/B
1 68654U 26075U   26162.22976715  .00000211  00000-0  60733-4 0  9992
2 68654  88.9877 321.0385 0068852 263.4959  95.8400 14.40058198  9293
CZ-8 R/B
1 68654U 26075U   26162.57720051  .00000221  00000-0  63830-4 0  9992
2 68654  88.9877 320.9972 0068855 262.2914  97.0464 14.40058426  9348
CZ-8 R/B
1 68654U 26075U   26162.92463391  .00000211  00000-0  60715-4 0  9990
2 68654  88.9877 320.9559 0068866 261.0829  98.2572 14.40058537  9394
CZ-8 R/B
1 68654U 26075U   26163.27206735  .00000228  00000-0  65834-4 0  9991
2 68654  88.9877 320.9147 0068868 259.8794  99.4633 14.40058793  9446
CZ-8 R/B
1 68654U 26075U   26164.24488114  .00000216  00000-0  62240-4 0  9997
2 68654  88.9878 320.7992 0068900 256.5038 102.8480 14.40059166  9584
CZ-8 R/B
1 68654U 26075U   26164.66180135  .00000222  00000-0  63844-4 0  9993
2 68654  88.9878 320.7497 0068917 255.0575 104.2989 14.40059385  9642
CZ-8 R/B
1 68654U 26075U   26164.93974819  .00000226  00000-0  65128-4 0  9994
2 68654  88.9878 320.7166 0068933 254.0960 105.2637 14.40059532  9689
CZ-8 R/B
1 68654U 26075U   26165.21769507  .00000225  00000-0  64998-4 0  9995
2 68654  88.9878 320.6836 0068942 253.1296 106.2337 14.40059623  9728
CZ-8 R/B
1 68654U 26075U   26165.56512871  .00000218  00000-0  62692-4 0  9994
2 68654  88.9879 320.6424 0068954 251.9265 107.4416 14.40059746  9779
CZ-8 R/B
1 68654U 26075U   26165.91256239  .00000217  00000-0  62485-4 0  9995
2 68654  88.9879 320.6011 0068970 250.7240 108.6492 14.40059897  9829
CZ-8 R/B
1 68654U 26075U   26166.25999614  .00000205  00000-0  58595-4 0  9998
2 68654  88.9879 320.5599 0068990 249.5206 109.8580 14.40059967  9873
CZ-8 R/B
1 68654U 26075U   26166.53794309  .00000203  00000-0  58097-4 0  9998
2 68654  88.9880 320.5269 0068999 248.5594 110.8238 14.40060095  9918
CZ-8 R/B
1 68654U 26075U   26166.95486363  .00000196  00000-0  55917-4 0  9991
2 68654  88.9880 320.4774 0069025 247.1172 112.2732 14.40060235  9973
CZ-8 R/B
1 68654U 26075U   26167.23281065  .00000205  00000-0  58736-4 0  9998
2 68654  88.9880 320.4444 0069045 246.1520 113.2434 14.40060371 10013
CZ-8 R/B
1 68654U 26075U   26167.58024446  .00000196  00000-0  55766-4 0  9993
2 68654  88.9881 320.4032 0069066 244.9513 114.4508 14.40060467 10064
CZ-8 R/B
1 68654U 26075U   26168.55305930  .00000213  00000-0  61197-4 0  9996
2 68654  88.9882 320.2876 0069130 241.5856 117.8366 14.40060887 10205
CZ-8 R/B
1 68654U 26075U   26168.90049318  .00000307  00000-0  90072-4 0  9998
2 68654  88.9883 320.2464 0069165 240.3883 119.0416 14.40061198 10255
CZ-8 R/B
1 68654U 26075U   26169.24792717  .00000317  00000-0  93186-4 0  9994
2 68654  88.9883 320.2051 0069190 239.1908 120.2472 14.40061392 10307
CZ-8 R/B
1 68654U 26075U   26169.59536118  .00000242  00000-0  70017-4 0  9998
2 68654  88.9883 320.1638 0069202 237.9844 121.4622 14.40061367 10353
CZ-8 R/B
1 68654U 26075U   26169.94279519  .00000241  00000-0  69672-4 0  9990
2 68654  88.9884 320.1226 0069234 236.7862 122.6689 14.40061505 10405
CZ-8 R/B
1 68654U 26075U   26170.22074237  .00000245  00000-0  71087-4 0  9990
2 68654  88.9884 320.0896 0069257 235.8268 123.6355 14.40061638 10444
CZ-8 R/B
1 68654U 26075U   26170.56817643  .00000234  00000-0  67656-4 0  9998
2 68654  88.9884 320.0484 0069284 234.6269 124.8446 14.40061727 10493
CZ-8 R/B
1 68654U 26075U   26170.91561046  .00000241  00000-0  69691-4 0  9999
2 68654  88.9885 320.0071 0069315 233.4290 126.0520 14.40061914 10543
CZ-8 R/B
1 68654U 26075U   26171.26304457  .00000241  00000-0  69776-4 0  9993
2 68654  88.9885 319.9659 0069342 232.2281 127.2627 14.40062034 10599
CZ-8 R/B
1 68654U 26075U   26173.76457033  .00000231  00000-0  66684-4 0  9993
2 68654  88.9888 319.6690 0069599 223.6260 135.9427 14.40063029 10958
CZ-8 R/B
1 68654U 26075U   26174.94584649  .00000266  00000-0  77335-4 0  9991
2 68654  88.9888 319.5288 0069726 219.5676 140.0425 14.40063747 11129
CZ-8 R/B
1 68654U 26075U   26175.22379387  .00000272  00000-0  79266-4 0  9996
2 68654  88.9888 319.4959 0069757 218.6146 141.0056 14.40063890 11163
CZ-8 R/B
1 68654U 26075U   26176.26609622  .00000298  00000-0  87087-4 0  9997
2 68654  88.9889 319.3723 0069871 215.0436 144.6158 14.40064595 11314
CZ-8 R/B
1 68654U 26075U   26176.47455667  .00000298  00000-0  87151-4 0  9990
2 68654  88.9889 319.3475 0069892 214.3328 145.3348 14.40064718 11342
CZ-8 R/B
1 68654U 26075U   26177.23891167  .00000308  00000-0  90111-4 0  9996
2 68654  88.9890 319.2569 0069981 211.7203 147.9774 14.40065188 11454
CZ-8 R/B
1 68654U 26075U   26177.58634574  .00000298  00000-0  87022-4 0  9996
2 68654  88.9890 319.2157 0070026 210.5350 149.1767 14.40065325 11504
CZ-8 R/B
1 68654U 26075U   26177.93377974  .00000310  00000-0  90929-4 0  9998
2 68654  88.9891 319.1745 0070072 209.3526 150.3732 14.40065620 11558
CZ-8 R/B
1 68654U 26075U   26178.28121377  .00000316  00000-0  92761-4 0  9993
2 68654  88.9891 319.1333 0070120 208.1719 151.5682 14.40065855 11609
CZ-8 R/B
1 68654U 26075U   26178.90659502  .00000301  00000-0  87913-4 0  9995
2 68654  88.9892 319.0591 0070193 206.0422 153.7242 14.40066148 11694
CZ-8 R/B
1 68654U 26075U   26179.32351583  .00000300  00000-0  87591-4 0  9991
2 68654  88.9892 319.0097 0070253 204.6303 155.1539 14.40066376 11759
CZ-8 R/B
1 68654U 26075U   26179.60146299  .00000293  00000-0  85614-4 0  9993
2 68654  88.9893 318.9768 0070293 203.6851 156.1110 14.40066505 11798
CZ-8 R/B
1 68654U 26075U   26179.94889691  .00000299  00000-0  87380-4 0  9998
2 68654  88.9893 318.9356 0070337 202.5063 157.3050 14.40066757 11844
CZ-8 R/B
1 68654U 26075U   26181.54709284  .00000303  00000-0  88537-4 0  9997
2 68654  88.9896 318.7462 0070556 197.0877 162.7948 14.40067713 12072
CZ-8 R/B
1 68654U 26075U   26181.89452660  .00000323  00000-0  94744-4 0  9997
2 68654  88.9897 318.7050 0070602 195.9078 163.9907 14.40068047 12123
CZ-8 R/B
1 68654U 26075U   26182.24196031  .00000357  00000-0  10535-3 0  9996
2 68654  88.9897 318.6639 0070648 194.7276 165.1869 14.40068421 12174
CZ-8 R/B
1 68654U 26075U   26182.58939416  .00000325  00000-0  95467-4 0  9998
2 68654  88.9898 318.6227 0070695 193.5520 166.3786 14.40068440 12227
CZ-8 R/B
1 68654U 26075U   26182.93682785  .00000336  00000-0  98627-4 0  9994
2 68654  88.9898 318.5815 0070743 192.3762 167.5706 14.40068718 12276
CZ-8 R/B
1 68654U 26075U   26183.28426156  .00000363  00000-0  10688-3 0  9991
2 68654  88.9898 318.5403 0070792 191.2014 168.7615 14.40069042 12320
CZ-8 R/B
1 68654U 26075U   26183.63169526  .00000379  00000-0  11190-3 0  9991
2 68654  88.9899 318.4992 0070841 190.0342 169.9450 14.40069291 12370
CZ-8 R/B
1 68654U 26075U   26183.84015529  .00000394  00000-0  11668-3 0  9994
2 68654  88.9899 318.4744 0070874 189.3302 170.6589 14.40069549 12400
CZ-8 R/B
1 68654U 26075U   26185.09091597  .00000394  00000-0  11641-3 0  9993
2 68654  88.9900 318.3262 0071056 185.1351 174.9130 14.40070265 12583
CZ-8 R/B
1 68654U 26075U   26185.64680901  .00000479  00000-0  14283-3 0  9996
2 68654  88.9900 318.2603 0071133 183.2677 176.8070 14.40071202 12662
CZ-8 R/B
1 68654U 26075U   26185.78578227  .00000482  00000-0  14355-3 0  9992
2 68654  88.9901 318.2439 0071157 182.8030 177.2783 14.40071338 12682
CZ-8 R/B
1 68654U 26075U   26186.13321580  .00000424  00000-0  12556-3 0  9997
2 68654  88.9901 318.2028 0071204 181.6254 178.4727 14.40071216 12736
CZ-8 R/B
1 68654U 26075U   26186.34167565  .00000437  00000-0  12966-3 0  9990
2 68654  88.9901 318.1781 0071234 180.9281 179.1800 14.40071444 12762
CZ-8 R/B
1 68654U 26075U   26187.10602872  .00000367  00000-0  10808-3 0  9995
2 68654  88.9901 318.0875 0071343 178.3660 181.7789 14.40071517 12876
CZ-8 R/B
1 68654U 26075U   26187.38397514  .00000364  00000-0  10705-3 0  9992
2 68654  88.9901 318.0546 0071385 177.4390 182.7192 14.40071715 12911
CZ-8 R/B
1 68654U 26075U   26188.28730101  .00000297  00000-0  86530-4 0  9990
2 68654  88.9902 317.9475 0071506 174.4131 185.7886 14.40071956 13041
CZ-8 R/B
1 68654U 26075U   26188.56524734  .00000291  00000-0  84526-4 0  9991
2 68654  88.9902 317.9146 0071549 173.4862 186.7287 14.40072092 13085
CZ-8 R/B
1 68654U 26075U   26189.53805923  .00000253  00000-0  72855-4 0  9991
2 68654  88.9903 317.7994 0071691 170.2389 190.0226 14.40072549 13226
CZ-8 R/B
1 68654U 26075U   26189.88549196  .00000222  00000-0  63539-4 0  9991
2 68654  88.9903 317.7582 0071742 169.0817 191.1963 14.40072622 13275
CZ-8 R/B
1 68654U 26075U   26190.30241114  .00000230  00000-0  65837-4 0  9991
2 68654  88.9903 317.7089 0071795 167.6957 192.6020 14.40072899 13337
CZ-8 R/B
1 68654U 26075U   26191.34470889  .00000197  00000-0  55807-4 0  9997
2 68654  88.9904 317.5855 0071945 164.2331 196.1134 14.40073282 13481
CZ-8 R/B
1 68654U 26075U   26191.55316837  .00000192  00000-0  54211-4 0  9995
2 68654  88.9904 317.5608 0071979 163.5454 196.8108 14.40073329 13516
CZ-8 R/B
1 68654U 26075U   26192.73443865  .00000181  00000-0  50616-4 0  9991
2 68654  88.9905 317.4209 0072135 159.6328 200.7777 14.40073757 13684
CZ-8 R/B
1 68654U 26075U   26192.87341157  .00000177  00000-0  49430-4 0  9994
2 68654  88.9905 317.4045 0072152 159.1756 201.2412 14.40073814 13700
CZ-8 R/B
1 68654U 26075U   26193.29033035  .00000185  00000-0  52012-4 0  9993
2 68654  88.9905 317.3551 0072205 157.7923 202.6434 14.40073987 13766
CZ-8 R/B
1 68654U 26075U   26193.56827612  .00000173  00000-0  48346-4 0  9997
2 68654  88.9905 317.3222 0072245 156.8737 203.5744 14.40074033 13800
CZ-8 R/B
1 68654U 26075U   26194.33262693  .00000173  00000-0  48095-4 0  9996
2 68654  88.9906 317.2317 0072345 154.3520 206.1299 14.40074317 13910
CZ-8 R/B
1 68654U 26075U   26194.61057264  .00000170  00000-0  47335-4 0  9996
2 68654  88.9906 317.1988 0072384 153.4333 207.0608 14.40074372 13957
CZ-8 R/B
1 68654U 26075U   26195.58338229  .00000168  00000-0  46683-4 0  9998
2 68654  88.9907 317.0836 0072503 150.2235 210.3124 14.40074667 14091
CZ-8 R/B
1 68654U 26075U   26195.86132782  .00000164  00000-0  45335-4 0  9994
2 68654  88.9907 317.0507 0072536 149.3096 211.2379 14.40074764 14131
CZ-8 R/B
1 68654U 26075U   26196.55619142  .00000189  00000-0  53174-4 0  9998
2 68654  88.9908 316.9685 0072617 147.0238 213.5525 14.40075069 14238
CZ-8 R/B
1 68654U 26075U   26196.90362318  .00000174  00000-0  48465-4 0  9998
2 68654  88.9908 316.9273 0072660 145.8826 214.7077 14.40075123 14289
CZ-8 R/B
1 68654U 26075U   26197.25105486  .00000182  00000-0  51005-4 0  9991
2 68654  88.9909 316.8862 0072708 144.7451 215.8592 14.40075245 14333
CZ-8 R/B
1 68654U 26075U   26197.59848648  .00000178  00000-0  49717-4 0  9994
2 68654  88.9909 316.8451 0072752 143.6005 217.0176 14.40075337 14388
CZ-8 R/B
1 68654U 26075U   26198.29334953  .00000174  00000-0  48568-4 0  9990
2 68654  88.9909 316.7628 0072823 141.3212 219.3237 14.40075548 14485
CZ-8 R/B
1 68654U 26075U   26198.57129466  .00000170  00000-0  47336-4 0  9990
2 68654  88.9910 316.7300 0072855 140.4094 220.2460 14.40075602 14522
CZ-8 R/B
1 68654U 26075U   26198.91872602  .00000171  00000-0  47450-4 0  9993
2 68654  88.9910 316.6888 0072890 139.2697 221.3987 14.40075733 14572
CZ-8 R/B
1 68654U 26075U   26199.26615729  .00000182  00000-0  50990-4 0  9992
2 68654  88.9910 316.6477 0072928 138.1385 222.5426 14.40075876 14625
CZ-8 R/B
1 68654U 26075U   26199.61358849  .00000179  00000-0  49832-4 0  9997
2 68654  88.9911 316.6066 0072963 137.0046 223.6889 14.40075952 14676
CZ-8 R/B
1 68654U 26075U   26199.89153336  .00000188  00000-0  52595-4 0  9991
2 68654  88.9911 316.5737 0072987 136.0976 224.6058 14.40076115 14713
CZ-8 R/B
1 68654U 26075U   26200.23896450  .00000182  00000-0  50859-4 0  9998
2 68654  88.9911 316.5325 0073025 134.9594 225.7561 14.40076196 14768
CZ-8 R/B
1 68654U 26075U   26200.58639549  .00000171  00000-0  47468-4 0  9990
2 68654  88.9911 316.4914 0073060 133.8252 226.9022 14.40076251 14812
CZ-8 R/B
1 68654U 26075U   26201.21177114  .00000191  00000-0  53531-4 0  9996
2 68654  88.9911 316.4174 0073120 131.7803 228.9678 14.40076569 14907
CZ-8 R/B
1 68654U 26075U   26201.55920190  .00000191  00000-0  53552-4 0  9996
2 68654  88.9911 316.3763 0073153 130.6410 230.1183 14.40076684 14957
CZ-8 R/B
1 68654U 26075U   26201.90663260  .00000199  00000-0  56016-4 0  9993
2 68654  88.9911 316.3353 0073184 129.5057 231.2646 14.40076880 15001
CZ-8 R/B
1 68654U 26075U   26202.25406321  .00000221  00000-0  62761-4 0  9995
2 68654  88.9911 316.2942 0073214 128.3745 232.4064 14.40077109 15056
CZ-8 R/B
1 68654U 26075U   26202.60149359  .00000238  00000-0  67959-4 0  9991
2 68654  88.9911 316.2531 0073242 127.2393 233.5521 14.40077349 15100
CZ-8 R/B
1 68654U 26075U   26203.29635426  .00000251  00000-0  72087-4 0  9995
2 68654  88.9911 316.1709 0073296 124.9735 235.8378 14.40077737 15206
CZ-8 R/B
1 68654U 26075U   26203.57429840  .00000238  00000-0  68141-4 0  9998
2 68654  88.9911 316.1380 0073315 124.0725 236.7464 14.40077789 15240
CZ-8 R/B
1 68654U 26075U   26203.85224247  .00000260  00000-0  74925-4 0  9995
2 68654  88.9911 316.1051 0073332 123.1677 237.6587 14.40078057 15289
CZ-8 R/B
1 68654U 26075U   26204.26915857  .00000267  00000-0  76852-4 0  9993
2 68654  88.9911 316.0558 0073364 121.8091 239.0282 14.40078259 15349
CZ-8 R/B
1 68654U 26075U   26204.54710248  .00000259  00000-0  74435-4 0  9997
2 68654  88.9911 316.0230 0073389 120.9038 239.9406 14.40078344 15380
CZ-8 R/B
1 68654U 26075U   26204.89453236  .00000269  00000-0  77415-4 0  9998
2 68654  88.9911 315.9819 0073413 119.7679 241.0851 14.40078584 15436
CZ-8 R/B
1 68654U 26075U   26205.31144781  .00000295  00000-0  85502-4 0  9993
2 68654  88.9911 315.9325 0073435 118.4142 242.4487 14.40078999 15499
CZ-8 R/B
1 68654U 26075U   26205.58939152  .00000292  00000-0  84754-4 0  9991
2 68654  88.9912 315.8996 0073452 117.5118 243.3574 14.40079101 15533
CZ-8 R/B
1 68654U 26075U   26206.56219386  .00000302  00000-0  87782-4 0  9996
2 68654  88.9912 315.7846 0073507 114.3555 246.5343 14.40079660 15671
CZ-8 R/B
1 68654U 26075U   26206.90962301  .00000303  00000-0  87881-4 0  9997
2 68654  88.9913 315.7435 0073521 113.2236 247.6730 14.40079879 15726
CZ-8 R/B
1 68654U 26075U   26207.25705211  .00000317  00000-0  92397-4 0  9994
2 68654  88.9913 315.7024 0073534 112.0955 248.8075 14.40080168 15772
CZ-8 R/B
1 68654U 26075U   26207.60448104  .00000326  00000-0  94946-4 0  9990
2 68654  88.9913 315.6613 0073545 110.9702 249.9389 14.40080399 15826
CZ-8 R/B
1 68654U 26075U   26208.29933870  .00000286  00000-0  82622-4 0  9998
2 68654  88.9913 315.5791 0073570 108.7156 252.2049 14.40080622 15928
CZ-8 R/B
1 68654U 26075U   26208.57728166  .00000289  00000-0  83787-4 0  9995
2 68654  88.9914 315.5462 0073585 107.8145 253.1102 14.40080772 15968
CZ-8 R/B
1 68654U 26075U   26208.78573876  .00000279  00000-0  80589-4 0  9990
2 68654  88.9914 315.5216 0073592 107.1369 253.7908 14.40080891 15999
CZ-8 R/B
1 68654U 26075U   26209.89750960  .00000274  00000-0  79220-4 0  9999
2 68654  88.9915 315.3901 0073636 103.5215 257.4205 14.40081424 16151
CZ-8 R/B
1 68654U 26075U   26210.17545215  .00000303  00000-0  87953-4 0  9992
2 68654  88.9915 315.3572 0073647 102.6185 258.3264 14.40081694 16191
CZ-8 R/B
1 68654U 26075U   26210.93979375  .00000277  00000-0  80131-4 0  9995
2 68654  88.9915 315.2668 0073667 100.1416 260.8105 14.40081993 16305
CZ-8 R/B
1 68654U 26075U   26211.28722161  .00000270  00000-0  77758-4 0  9997
2 68654  88.9915 315.2258 0073666  99.0182 261.9366 14.40082166 16354
CZ-8 R/B
1 68654U 26075U   26212.60744637  .00000284  00000-0  82204-4 0  9993
2 68654  88.9915 315.0696 0073661  94.7376 266.2242 14.40082894 16540
CZ-8 R/B
1 68654U 26075U   26212.88538815  .00000264  00000-0  76089-4 0  9994
2 68654  88.9915 315.0367 0073665  93.8405 267.1222 14.40082963 16581
CZ-8 R/B
1 68654U 26075U   26213.30230092  .00000263  00000-0  75800-4 0  9997
2 68654  88.9914 314.9874 0073671  92.4887 268.4751 14.40083169 16644
CZ-8 R/B
1 68654U 26075U   26213.58024266  .00000279  00000-0  80606-4 0  9998
2 68654  88.9914 314.9546 0073673  91.5878 269.3764 14.40083378 16682
CZ-8 R/B
1 68654U 26075U   26213.92766964  .00000262  00000-0  75308-4 0  9999
2 68654  88.9914 314.9135 0073675  90.4559 270.5085 14.40083463 16733
CZ-8 R/B
1 68654U 26075U   26214.27509659  .00000245  00000-0  70022-4 0  9993
2 68654  88.9914 314.8724 0073679  89.3347 271.6296 14.40083544 16783
CZ-8 R/B
1 68654U 26075U   26214.55303811  .00000253  00000-0  72609-4 0  9998
2 68654  88.9914 314.8395 0073678  88.4341 272.5298 14.40083713 16825
CZ-8 R/B
1 68654U 26075U   26214.90046476  .00000248  00000-0  71177-4 0  9991
2 68654  88.9914 314.7984 0073676  87.3068 273.6563 14.40083914 16875
CZ-8 R/B
1 68654U 26075U   26215.59531795  .00000247  00000-0  70799-4 0  9998
2 68654  88.9913 314.7163 0073668  85.0567 275.9039 14.40084227 16975
CZ-8 R/B
1 68654U 26075U   26215.94274441  .00000212  00000-0  60125-4 0  9993
2 68654  88.9913 314.6751 0073659  83.9253 277.0335 14.40084228 17026
CZ-8 R/B
1 68654U 26075U   26216.98502298  .00000212  00000-0  60062-4 0  9992
2 68654  88.9912 314.5519 0073626  80.5441 280.4073 14.40084707 17177
CZ-8 R/B
1 68654U 26075U   26217.54090460  .00000205  00000-0  58022-4 0  9993
2 68654  88.9912 314.4862 0073608  78.7444 282.2019 14.40084900 17253
CZ-8 R/B
1 68654U 26075U   26218.30524146  .00000177  00000-0  49212-4 0  9990
2 68654  88.9912 314.3958 0073579  76.2585 284.6792 14.40085112 17366
CZ-8 R/B
1 68654U 26075U   26218.58318205  .00000162  00000-0  44795-4 0  9992
2 68654  88.9912 314.3629 0073570  75.3595 285.5748 14.40085164 17406
CZ-8 R/B
1 68654U 26075U   26218.93060768  .00000149  00000-0  40762-4 0  9994
2 68654  88.9911 314.3218 0073555  74.2266 286.7031 14.40085242 17455
CZ-8 R/B
1 68654U 26075U   26219.27803323  .00000155  00000-0  42528-4 0  9993
2 68654  88.9911 314.2807 0073538  73.0973 287.8275 14.40085372 17503
CZ-8 R/B
1 68654U 26075U   26219.90339900  .00000141  00000-0  38278-4 0  9990
2 68654  88.9911 314.2067 0073504  71.0671 289.8479 14.40085514 17592
CZ-8 R/B
1 68654U 26075U   26220.25082437  .00000137  00000-0  37127-4 0  9997
2 68654  88.9911 314.1657 0073486  69.9376 290.9716 14.40085603 17645
CZ-8 R/B
1 68654U 26075U   26220.52876456  .00000140  00000-0  38005-4 0  9999
2 68654  88.9911 314.1328 0073467  69.0367 291.8675 14.40085678 17680
CZ-8 R/B
1 68654U 26075U   26220.87618970  .00000135  00000-0  36473-4 0  9993
2 68654  88.9911 314.0917 0073450  67.9021 292.9957 14.40085799 17734
CZ-8 R/B
1 68654U 26075U   26221.29309981  .00000141  00000-0  38283-4 0  9997
2 68654  88.9910 314.0424 0073435  66.5468 294.3431 14.40085957 17794
CZ-8 R/B
1 68654U 26075U   26222.89125423  .00000130  00000-0  34857-4 0  9992
2 68654  88.9910 313.8533 0073315  61.3506 299.5042 14.40086277 18023
CZ-8 R/B
1 68654U 26075U   26223.30816386  .00000132  00000-0  35409-4 0  9990
2 68654  88.9910 313.8040 0073284  59.9949 300.8498 14.40086376 18082
CZ-8 R/B
1 68654U 26075U   26223.93352808  .00000128  00000-0  34426-4 0  9996
2 68654  88.9910 313.7300 0073240  57.9564 302.8724 14.40086490 18174
CZ-8 R/B
1 68654U 26075U   26224.62837694  .00000119  00000-0  31618-4 0  9994
2 68654  88.9910 313.6478 0073171  55.6930 305.1168 14.40086586 18279
CZ-8 R/B
1 68654U 26075U   26225.94858901  .00000124  00000-0  33210-4 0  9990
2 68654  88.9908 313.4915 0073050  51.3797 309.3914 14.40086880 18463
CZ-8 R/B
1 68654U 26075U   26226.22652828  .00000125  00000-0  33294-4 0  9995
2 68654  88.9908 313.4587 0073027  50.4697 310.2928 14.40086953 18503
CZ-8 R/B
1 68654U 26075U   26226.57395227  .00000127  00000-0  33925-4 0  9993
2 68654  88.9908 313.4176 0072991  49.3323 311.4192 14.40087019 18554
CZ-8 R/B
1 68654U 26075U   26226.92137623  .00000121  00000-0  32258-4 0  9998
2 68654  88.9908 313.3765 0072961  48.1945 312.5457 14.40087084 18605
CZ-8 R/B
1 68654U 26075U   26227.26880013  .00000125  00000-0  33384-4 0  9999
2 68654  88.9907 313.3354 0072929  47.0571 313.6716 14.40087168 18653
CZ-8 R/B
1 68654U 26075U   26227.54673919  .00000117  00000-0  30878-4 0  9991
2 68654  88.9907 313.3025 0072896  46.1471 314.5722 14.40087173 18697
CZ-8 R/B
1 68654U 26075U   26227.89416295  .00000123  00000-0  32812-4 0  9998
2 68654  88.9907 313.2614 0072867  45.0055 315.7019 14.40087288 18749
CZ-8 R/B
1 68654U 26075U   26228.24158666  .00000131  00000-0  35247-4 0  9997
2 68654  88.9906 313.2202 0072831  43.8610 316.8342 14.40087405 18792
CZ-8 R/B
1 68654U 26075U   26228.51952553  .00000132  00000-0  35751-4 0  9995
2 68654  88.9906 313.1873 0072791  42.9539 317.7314 14.40087459 18833
CZ-8 R/B
1 68654U 26075U   26228.93643382  .00000132  00000-0  35668-4 0  9995
2 68654  88.9906 313.1380 0072745  41.5852 319.0849 14.40087568 18893
CZ-8 R/B
1 68654U 26075U   26229.28385734  .00000135  00000-0  36568-4 0  9991
2 68654  88.9905 313.0969 0072707  40.4437 320.2136 14.40087667 18948
CZ-8 R/B
1 68654U 26075U   26229.56179611  .00000122  00000-0  32479-4 0  9990
2 68654  88.9905 313.0640 0072671  39.5299 321.1170 14.40087648 18980
CZ-8 R/B
1 68654U 26075U   26229.90921950  .00000131  00000-0  35258-4 0  9997
2 68654  88.9904 313.0229 0072637  38.3882 322.2456 14.40087796 19039
CZ-8 R/B
1 68654U 26075U   26230.25664281  .00000153  00000-0  41998-4 0  9990
2 68654  88.9904 312.9818 0072596  37.2454 323.3750 14.40088008 19089
CZ-8 R/B
1 68654U 26075U   26230.60406607  .00000150  00000-0  41199-4 0  9995
2 68654  88.9903 312.9406 0072554  36.1082 324.4986 14.40088071 19139
CZ-8 R/B
1 68654U 26075U   26230.88200468  .00000148  00000-0  40513-4 0  9998
2 68654  88.9903 312.9077 0072528  35.1927 325.4033 14.40088129 19173
CZ-8 R/B
1 68654U 26075U   26231.22942777  .00000174  00000-0  48752-4 0  9995
2 68654  88.9902 312.8666 0072485  34.0490 326.5331 14.40088369 19225
CZ-8 R/B
1 68654U 26075U   26231.57685084  .00000170  00000-0  47287-4 0  9996
2 68654  88.9902 312.8255 0072438  32.9038 327.6641 14.40088428 19279
CZ-8 R/B
1 68654U 26075U   26231.92427394  .00000152  00000-0  41837-4 0  9998
2 68654  88.9901 312.7844 0072398  31.7585 328.7952 14.40088434 19320
CZ-8 R/B
1 68654U 26075U   26232.27169698  .00000145  00000-0  39573-4 0  9993
2 68654  88.9901 312.7433 0072356  30.6137 329.9255 14.40088496 19371
CZ-8 R/B
1 68654U 26075U   26232.61911994  .00000124  00000-0  33209-4 0  9992
2 68654  88.9901 312.7021 0072301  29.4641 331.0605 14.40088489 19421
CZ-8 R/B
1 68654U 26075U   26232.89705825  .00000130  00000-0  35176-4 0  9998
2 68654  88.9900 312.6692 0072275  28.5459 331.9670 14.40088597 19465
CZ-8 R/B
1 68654U 26075U   26233.24448110  .00000133  00000-0  36137-4 0  9990
2 68654  88.9900 312.6281 0072230  27.3940 333.1040 14.40088709 19518
CZ-8 R/B
1 68654U 26075U   26233.52241938  .00000123  00000-0  32847-4 0  9993
2 68654  88.9900 312.5952 0072190  26.4742 334.0118 14.40088706 19554
CZ-8 R/B
1 68654U 26075U   26233.93932673  .00000125  00000-0  33487-4 0  9994
2 68654  88.9900 312.5458 0072140  25.0954 335.3724 14.40088807 19616
CZ-8 R/B
1 68654U 26075U   26234.28674949  .00000121  00000-0  32405-4 0  9997
2 68654  88.9899 312.5047 0072094  23.9470 336.5056 14.40088869 19669
CZ-8 R/B
1 68654U 26075U   26234.63417221  .00000116  00000-0  30945-4 0  9995
2 68654  88.9899 312.4636 0072039  22.7933 337.6438 14.40088915 19716
CZ-8 R/B
1 68654U 26075U   26234.91211034  .00000113  00000-0  29818-4 0  9994
2 68654  88.9899 312.4306 0072007  21.8701 338.5547 14.40088957 19759
CZ-8 R/B
1 68654U 26075U   26235.25953298  .00000104  00000-0  27134-4 0  9996
2 68654  88.9899 312.3895 0071958  20.7174 339.6917 14.40089014 19801
CZ-8 R/B
1 68654U 26075U   26235.60695556  .00000119  00000-0  31656-4 0  9995
2 68654  88.9899 312.3484 0071907  19.5616 340.8318 14.40089125 19853
CZ-8 R/B
1 68654U 26075U   26235.88489359  .00000125  00000-0  33730-4 0  9999
2 68654  88.9898 312.3155 0071876  18.6416 341.7393 14.40089207 19898
CZ-8 R/B
1 68654U 26075U   26236.23231610  .00000149  00000-0  41041-4 0  9994
2 68654  88.9898 312.2743 0071828  17.4915 342.8735 14.40089385 19943
CZ-8 R/B
1 68654U 26075U   26236.57973852  .00000168  00000-0  46948-4 0  9994
2 68654  88.9898 312.2332 0071777  16.3324 344.0166 14.40089539 19990
CZ-8 R/B
1 68654U 26075U   26236.85767644  .00000178  00000-0  50048-4 0  9992
2 68654  88.9898 312.2003 0071743  15.4099 344.9264 14.40089654 20030
CZ-8 R/B
1 68654U 26075U   26237.20509885  .00000183  00000-0  51585-4 0  9996
2 68654  88.9897 312.1591 0071694  14.2565 346.0637 14.40089795 20088
CZ-8 R/B
1 68654U 26075U   26237.55252120  .00000177  00000-0  49579-4 0  9994
2 68654  88.9897 312.1180 0071640  13.0987 347.2053 14.40089857 20138
CZ-8 R/B
1 68654U 26075U   26237.89994351  .00000180  00000-0  50526-4 0  9998
2 68654  88.9896 312.0768 0071596  11.9415 348.3463 14.40089978 20187
CZ-8 R/B
1 68654U 26075U   26238.24736584  .00000189  00000-0  53259-4 0  9995
2 68654  88.9896 312.0357 0071547  10.7790 349.4923 14.40090127 20237
CZ-8 R/B
1 68654U 26075U   26238.52530365  .00000195  00000-0  55191-4 0  9999
2 68654  88.9896 312.0027 0071504   9.8522 350.4062 14.40090233 20274
CZ-8 R/B
1 68654U 26075U   26238.94221030  .00000175  00000-0  49169-4 0  9997
2 68654  88.9895 311.9533 0071448   8.4585 351.7801 14.40090252 20337
CZ-8 R/B
1 68654U 26075U   26239.22014803  .00000184  00000-0  51933-4 0  9999
2 68654  88.9895 311.9204 0071407   7.5253 352.7002 14.40090411 20374
CZ-8 R/B
1 68654U 26075U   26239.63705464  .00000193  00000-0  54537-4 0  9997
2 68654  88.9894 311.8710 0071347   6.1299 354.0758 14.40090552 20438
CZ-8 R/B
1 68654U 26075U   26239.91499233  .00000187  00000-0  52943-4 0  9994
2 68654  88.9894 311.8381 0071307   5.2010 354.9916 14.40090589 20478
CZ-8 R/B
1 68654U 26075U   26240.26241451  .00000161  00000-0  44791-4 0  9995
2 68654  88.9893 311.7969 0071255   4.0377 356.1384 14.40090547 20526
CZ-8 R/B
1 68654U 26075U   26240.60983665  .00000162  00000-0  45262-4 0  9998
2 68654  88.9893 311.7558 0071201   2.8751 357.2844 14.40090642 20577
CZ-8 R/B
1 68654U 26075U   26240.88777428  .00000158  00000-0  44041-4 0  9995
2 68654  88.9892 311.7228 0071167   1.9456 358.2008 14.40090699 20613
CZ-8 R/B
1 68654U 26075U   26241.23519631  .00000161  00000-0  44860-4 0  9998
2 68654  88.9891 311.6817 0071113   0.7825 359.3474 14.40090820 20663
CZ-8 R/B
1 68654U 26075U   26241.51313397  .00000167  00000-0  46723-4 0  9996
2 68654  88.9891 311.6487 0071069 359.8486   0.2681 14.40090899 20700
CZ-8 R/B
1 68654U 26075U   26241.93004035  .00000165  00000-0  46162-4 0  9993
2 68654  88.9890 311.5993 0071008 358.4516   1.6453 14.40090987 20768
CZ-8 R/B
1 68654U 26075U   26242.20797790  .00000168  00000-0  47139-4 0  9999
2 68654  88.9889 311.5664 0070971 357.5164   2.5674 14.40091106 20802
CZ-8 R/B
1 68654U 26075U   26242.55539988  .00000172  00000-0  48244-4 0  9993
2 68654  88.9889 311.5252 0070920 356.3471   3.7202 14.40091199 20854
CZ-8 R/B
1 68654U 26075U   26242.90282182  .00000152  00000-0  42066-4 0  9997
2 68654  88.9888 311.4840 0070875 355.1755   4.8754 14.40091212 20902
CZ-8 R/B
1 68654U 26075U   26243.18075935  .00000150  00000-0  41527-4 0  9993
2 68654  88.9887 311.4510 0070831 354.2381   5.7997 14.40091300 20943
CZ-8 R/B
1 68654U 26075U   26243.59766569  .00000141  00000-0  38872-4 0  9997
2 68654  88.9887 311.4016 0070772 352.8315   7.1867 14.40091372 21008
CZ-8 R/B
1 68654U 26075U   26243.87560322  .00000127  00000-0  34557-4 0  9997
2 68654  88.9886 311.3687 0070739 351.8937   8.1114 14.40091380 21041
CZ-8 R/B
1 68654U 26075U   26244.22302512  .00000118  00000-0  31763-4 0  9998
2 68654  88.9886 311.3275 0070693 350.7172   9.2717 14.40091460 21097
CZ-8 R/B
1 68654U 26075U   26244.50096265  .00000121  00000-0  32650-4 0  9994
2 68654  88.9885 311.2945 0070655 349.7764  10.1996 14.40091521 21135
CZ-8 R/B
1 68654U 26075U   26244.91786893  .00000109  00000-0  28956-4 0  9992
2 68654  88.9885 311.2451 0070600 348.3668  11.5898 14.40091572 21193
