TBA - TO BE ASSIGNED
1 68661U 26076F   26099.07926001 -.00000027  00000-0 -25742-4 0  9994
2 68661  86.5027  68.3195 0107444 110.2630 251.0141 14.09393158    43
TBA - TO BE ASSIGNED
1 68661U 26076F   26099.22125545 -.00000021  00000-0 -22308-4 0  9994
2 68661  86.5034  68.2572 0107304 109.4296 251.8519 14.09390871    60
OBJECT F
1 68661U 26076F   26099.29225240 -.00000017  00000-0 -20046-4 0  9996
2 68661  86.5042  68.2294 0107354 109.2143 252.0693 14.09390593    72
OBJECT F
1 68661U 26076F   26099.64723652 -.00000007  00000-0 -14432-4 0  9996
2 68661  86.5050  68.0911 0107375 108.1319 253.1592 14.09390954   128
OBJECT F
1 68661U 26076F   26099.86022678 -.00000001  00000-0 -11394-4 0  9998
2 68661  86.5056  68.0077 0107370 107.5095 253.7855 14.09391021   153
OBJECT F
1 68661U 26076F   26099.86022679 -.00000000  00000-0 -10820-4 0  9991
2 68661  86.5055  68.0079 0107369 107.5037 253.7914 14.09391066   153
OBJECT F
1 68661U 26076F   26100.00222031  .00000001  00000-0 -10493-4 0  9990
2 68661  86.5049  67.9526 0107373 107.0700 254.2278 14.09391222   173
OBJECT F
1 68661U 26076F   26100.21521054  .00000009  00000-0 -56945-5 0  9991
2 68661  86.5050  67.8696 0107386 106.4309 254.8708 14.09391401   201
OBJECT F
1 68661U 26076F   26100.28620731  .00000013  00000-0 -39194-5 0  9992
2 68661  86.5051  67.8420 0107393 106.2141 255.0890 14.09391427   211
OBJECT F
1 68661U 26076F   26100.57019432  .00000018  00000-0 -11601-5 0  9992
2 68661  86.5052  67.7316 0107397 105.3426 255.9654 14.09391459   251
OBJECT F
1 68661U 26076F   26100.99617473  .00000027  00000-0  38949-5 0  9990
2 68661  86.5055  67.5657 0107388 104.0245 257.2904 14.09391566   314
OBJECT F
1 68661U 26076F   26101.20916485  .00000035  00000-0  79860-5 0  9996
2 68661  86.5055  67.4828 0107388 103.3739 257.9442 14.09391621   342
OBJECT F
1 68661U 26076F   26101.28016157  .00000035  00000-0  80033-5 0  9995
2 68661  86.5055  67.4552 0107386 103.1554 258.1637 14.09391620   356
CZ-6A R/B
1 68661U 26076F   26101.56414834  .00000039  00000-0  10609-4 0  9995
2 68661  86.5056  67.3446 0107381 102.2792 259.0438 14.09391657   390
CZ-6A R/B
1 68661U 26076F   26101.84813505  .00000047  00000-0  14630-4 0  9991
2 68661  86.5056  67.2341 0107387 101.4153 259.9115 14.09391702   438
CZ-6A R/B
1 68661U 26076F   26101.91913171  .00000047  00000-0  14743-4 0  9994
2 68661  86.5056  67.2065 0107385 101.1975 260.1301 14.09391706   444
CZ-6A R/B
1 68661U 26076F   26102.20311829  .00000054  00000-0  18530-4 0  9995
2 68661  86.5057  67.0960 0107379 100.3261 261.0047 14.09391763   483
CZ-6A R/B
1 68661U 26076F   26102.27411495  .00000055  00000-0  19298-4 0  9995
2 68661  86.5057  67.0684 0107374 100.1063 261.2253 14.09391772   491
CZ-6A R/B
1 68661U 26076F   26102.55810147  .00000058  00000-0  20763-4 0  9995
2 68661  86.5059  66.9577 0107370  99.2333 262.1011 14.09391812   538
CZ-6A R/B
1 68661U 26076F   26102.91308437  .00000063  00000-0  23698-4 0  9995
2 68661  86.5059  66.8194 0107345  98.1585 263.1790 14.09391945   588
CZ-6A R/B
1 68661U 26076F   26102.91308437  .00000064  00000-0  23799-4 0  9998
2 68661  86.5059  66.8194 0107344  98.1594 263.1781 14.09391945   587
CZ-6A R/B
1 68661U 26076F   26103.19707075  .00000068  00000-0  26323-4 0  9990
2 68661  86.5060  66.7089 0107330  97.2872 264.0524 14.09391975   628
CZ-6A R/B
1 68661U 26076F   26103.26806735  .00000070  00000-0  27053-4 0  9995
2 68661  86.5060  66.6812 0107327  97.0686 264.2716 14.09391985   635
CZ-6A R/B
1 68661U 26076F   26103.90703649  .00000074  00000-0  29414-4 0  9993
2 68661  86.5062  66.4328 0107320  95.1052 266.2389 14.09392051   729
CZ-6A R/B
1 68661U 26076F   26104.19102286  .00000077  00000-0  30964-4 0  9990
2 68661  86.5062  66.3221 0107313  94.2307 267.1147 14.09391966   765
CZ-6A R/B
1 68661U 26076F   26104.26201943  .00000078  00000-0  31428-4 0  9995
2 68661  86.5061  66.2944 0107308  94.0138 267.3319 14.09391953   779
CZ-6A R/B
1 68661U 26076F   26104.54600557  .00000076  00000-0  30785-4 0  9993
2 68661  86.5063  66.1839 0107291  93.1489 268.1975 14.09391919   817
CZ-6A R/B
1 68661U 26076F   26104.61700211  .00000078  00000-0  31520-4 0  9999
2 68661  86.5063  66.1565 0107276  92.9357 268.4108 14.09391886   822
CZ-6A R/B
1 68661U 26076F   26104.90098839  .00000076  00000-0  30829-4 0  9996
2 68661  86.5063  66.0465 0107286  92.0510 269.2962 14.09391809   869
CZ-6A R/B
1 68661U 26076F   26104.90098840  .00000076  00000-0  30799-4 0  9994
2 68661  86.5063  66.0465 0107286  92.0545 269.2927 14.09391795   862
CZ-6A R/B
1 68661U 26076F   26105.18497463  .00000077  00000-0  31357-4 0  9991
2 68661  86.5062  65.9359 0107287  91.1905 270.1571 14.09391652   905
CZ-6A R/B
1 68661U 26076F   26105.25597113  .00000077  00000-0  30889-4 0  9991
2 68661  86.5062  65.9082 0107277  90.9758 270.3718 14.09391636   918
CZ-6A R/B
1 68661U 26076F   26105.53995707  .00000074  00000-0  29354-4 0  9995
2 68661  86.5063  65.7977 0107251  90.1101 271.2371 14.09391625   953
CZ-6A R/B
1 68661U 26076F   26105.61095360  .00000075  00000-0  29796-4 0  9991
2 68661  86.5063  65.7702 0107238  89.8844 271.4626 14.09391607   969
CZ-6A R/B
1 68661U 26076F   26105.89493968  .00000072  00000-0  28477-4 0  9999
2 68661  86.5066  65.6601 0107239  89.0065 272.3402 14.09391516  1004
CZ-6A R/B
1 68661U 26076F   26105.96593618  .00000071  00000-0  27875-4 0  9990
2 68661  86.5065  65.6324 0107238  88.7850 272.5615 14.09391497  1019
CZ-6A R/B
1 68661U 26076F   26106.32091862  .00000071  00000-0  28113-4 0  9991
2 68661  86.5065  65.4936 0107227  87.6948 273.6506 14.09391418  1069
CZ-6A R/B
1 68661U 26076F   26106.67590086  .00000068  00000-0  26122-4 0  9995
2 68661  86.5065  65.3555 0107207  86.6056 274.7382 14.09391410  1114
CZ-6A R/B
1 68661U 26076F   26106.81789374  .00000067  00000-0  25516-4 0  9996
2 68661  86.5066  65.3002 0107198  86.1672 275.1759 14.09391415  1130
CZ-6A R/B
1 68661U 26076F   26106.95988656  .00000064  00000-0  23891-4 0  9996
2 68661  86.5067  65.2450 0107189  85.7299 275.6123 14.09391429  1154
CZ-6A R/B
1 68661U 26076F   26107.31486859  .00000062  00000-0  22944-4 0  9991
2 68661  86.5067  65.1070 0107173  84.6360 276.7039 14.09391495  1208
CZ-6A R/B
1 68661U 26076F   26107.95383587  .00000052  00000-0  17477-4 0  9999
2 68661  86.5067  64.8583 0107130  82.6685 278.6658 14.09391613  1293
CZ-6A R/B
1 68661U 26076F   26108.30881760  .00000049  00000-0  15717-4 0  9996
2 68661  86.5067  64.7202 0107105  81.5694 279.7611 14.09391669  1348
CZ-6A R/B
1 68661U 26076F   26108.59280287  .00000044  00000-0  13375-4 0  9997
2 68661  86.5069  64.6093 0107096  80.7059 280.6216 14.09391707  1381
CZ-6A R/B
1 68661U 26076F   26108.87678816  .00000039  00000-0  10677-4 0  9993
2 68661  86.5070  64.4987 0107083  79.8295 281.4945 14.09391723  1421
CZ-6A R/B
1 68661U 26076F   26108.94778447  .00000038  00000-0  97055-5 0  9997
2 68661  86.5070  64.4711 0107077  79.6126 281.7104 14.09391721  1439
CZ-6A R/B
1 68661U 26076F   26109.23176968  .00000035  00000-0  85888-5 0  9998
2 68661  86.5069  64.3605 0107061  78.7373 282.5819 14.09391726  1476
CZ-6A R/B
1 68661U 26076F   26109.30276596  .00000034  00000-0  78644-5 0  9995
2 68661  86.5068  64.3328 0107054  78.5185 282.7996 14.09391735  1487
CZ-6A R/B
1 68661U 26076F   26109.51575479  .00000029  00000-0  51254-5 0  9992
2 68661  86.5069  64.2501 0107043  77.8604 283.4545 14.09391739  1512
CZ-6A R/B
1 68661U 26076F   26109.58675109  .00000028  00000-0  47896-5 0  9996
2 68661  86.5069  64.2225 0107043  77.6425 283.6714 14.09391735  1521
CZ-6A R/B
1 68661U 26076F   26109.87073618  .00000024  00000-0  24125-5 0  9991
2 68661  86.5070  64.1120 0107029  76.7673 284.5422 14.09391735  1565
CZ-6A R/B
1 68661U 26076F   26109.94173244  .00000022  00000-0  14666-5 0  9992
2 68661  86.5070  64.0844 0107024  76.5491 284.7592 14.09391729  1572
CZ-6A R/B
1 68661U 26076F   26110.22571748  .00000019  00000-0 -29067-6 0  9995
2 68661  86.5069  63.9736 0107010  75.6724 285.6310 14.09391710  1615
CZ-6A R/B
1 68661U 26076F   26110.29671372  .00000018  00000-0 -91356-6 0  9995
2 68661  86.5069  63.9459 0107006  75.4563 285.8459 14.09391716  1624
CZ-6A R/B
1 68661U 26076F   26110.50970240  .00000014  00000-0 -32470-5 0  9992
2 68661  86.5069  63.8633 0106997  74.7988 286.4996 14.09391714  1652
CZ-6A R/B
1 68661U 26076F   26110.58069863  .00000013  00000-0 -35273-5 0  9993
2 68661  86.5070  63.8356 0106992  74.5811 286.7159 14.09391715  1660
CZ-6A R/B
1 68661U 26076F   26110.93567969  .00000008  00000-0 -61867-5 0  9994
2 68661  86.5070  63.6974 0106969  73.4886 287.8016 14.09391734  1719
CZ-6A R/B
1 68661U 26076F   26111.50364924 -.00000000  00000-0 -10727-4 0  9995
2 68661  86.5073  63.4763 0106955  71.7333 289.5452 14.09391776  1796
CZ-6A R/B
1 68661U 26076F   26111.57464542 -.00000001  00000-0 -10937-4 0  9993
2 68661  86.5073  63.4486 0106953  71.5151 289.7619 14.09391781  1807
CZ-6A R/B
1 68661U 26076F   26111.85863006 -.00000003  00000-0 -12352-4 0  9997
2 68661  86.5074  63.3382 0106933  70.6359 290.6346 14.09391826  1842
CZ-6A R/B
1 68661U 26076F   26111.92962618 -.00000005  00000-0 -13227-4 0  9998
2 68661  86.5073  63.3105 0106928  70.4268 290.8422 14.09391823  1850
CZ-6A R/B
1 68661U 26076F   26112.21361082 -.00000006  00000-0 -13645-4 0  9994
2 68661  86.5075  63.2001 0106921  69.5443 291.7180 14.09391839  1895
CZ-6A R/B
1 68661U 26076F   26112.28460697 -.00000007  00000-0 -14422-4 0  9998
2 68661  86.5074  63.1725 0106918  69.3263 291.9343 14.09391846  1903
CZ-6A R/B
1 68661U 26076F   26112.56859150 -.00000012  00000-0 -17224-4 0  9994
2 68661  86.5075  63.0619 0106913  68.4446 292.8090 14.09391852  1943
CZ-6A R/B
1 68661U 26076F   26112.85257598 -.00000016  00000-0 -19095-4 0  9996
2 68661  86.5076  62.9514 0106897  67.5674 293.6788 14.09391871  1988
CZ-6A R/B
1 68661U 26076F   26112.92357208 -.00000016  00000-0 -19310-4 0  9993
2 68661  86.5076  62.9238 0106892  67.3511 293.8933 14.09391870  1998
CZ-6A R/B
1 68661U 26076F   26113.20755649 -.00000017  00000-0 -19623-4 0  9994
2 68661  86.5077  62.8134 0106880  66.4827 294.7542 14.09391876  2038
CZ-6A R/B
1 68661U 26076F   26113.27855259 -.00000017  00000-0 -19965-4 0  9998
2 68661  86.5077  62.7857 0106876  66.2655 294.9694 14.09391881  2048
CZ-6A R/B
1 68661U 26076F   26113.56253692 -.00000021  00000-0 -21987-4 0  9995
2 68661  86.5077  62.6752 0106868  65.4012 295.8260 14.09391873  2084
CZ-6A R/B
1 68661U 26076F   26113.91751731 -.00000024  00000-0 -23680-4 0  9996
2 68661  86.5077  62.5370 0106845  64.3051 296.9117 14.09391865  2135
CZ-6A R/B
1 68661U 26076F   26114.20150160 -.00000023  00000-0 -23176-4 0  9997
2 68661  86.5077  62.4264 0106835  63.4304 297.7779 14.09391851  2178
CZ-6A R/B
1 68661U 26076F   26114.27249765 -.00000022  00000-0 -22767-4 0  9998
2 68661  86.5077  62.3989 0106832  63.2156 297.9907 14.09391864  2181
CZ-6A R/B
1 68661U 26076F   26114.48548579 -.00000025  00000-0 -24333-4 0  9990
2 68661  86.5079  62.3161 0106829  62.5624 298.6374 14.09391861  2210
CZ-6A R/B
1 68661U 26076F   26114.84046597 -.00000027  00000-0 -25448-4 0  9993
2 68661  86.5078  62.1779 0106812  61.4677 299.7208 14.09391863  2265
CZ-6A R/B
1 68661U 26076F   26114.91146199 -.00000028  00000-0 -25558-4 0  9993
2 68661  86.5079  62.1503 0106808  61.2493 299.9369 14.09391861  2279
CZ-6A R/B
1 68661U 26076F   26115.19544606 -.00000022  00000-0 -22615-4 0  9994
2 68661  86.5079  62.0398 0106792  60.3831 300.7938 14.09391880  2317
CZ-6A R/B
1 68661U 26076F   26115.26644209 -.00000022  00000-0 -22790-4 0  9996
2 68661  86.5078  62.0122 0106790  60.1593 301.0152 14.09391885  2320
CZ-6A R/B
1 68661U 26076F   26115.47943010 -.00000025  00000-0 -24346-4 0  9993
2 68661  86.5080  61.9292 0106786  59.5053 301.6621 14.09391882  2354
CZ-6A R/B
1 68661U 26076F   26115.83441005 -.00000025  00000-0 -24132-4 0  9993
2 68661  86.5080  61.7910 0106766  58.4154 302.7396 14.09391917  2403
CZ-6A R/B
1 68661U 26076F   26115.90540602 -.00000022  00000-0 -22346-4 0  9996
2 68661  86.5081  61.7634 0106763  58.1965 302.9560 14.09391941  2414
CZ-6A R/B
1 68661U 26076F   26116.54436970 -.00000018  00000-0 -20460-4 0  9999
2 68661  86.5080  61.5146 0106740  56.2614 304.8683 14.09391977  2500
CZ-6A R/B
1 68661U 26076F   26116.61536567 -.00000016  00000-0 -19490-4 0  9999
2 68661  86.5079  61.4871 0106738  56.0406 305.0866 14.09391986  2513
CZ-6A R/B
1 68661U 26076F   26116.82835348 -.00000015  00000-0 -18787-4 0  9998
2 68661  86.5081  61.4040 0106728  55.3700 305.7488 14.09392045  2549
CZ-6A R/B
1 68661U 26076F   26116.89934943 -.00000018  00000-0 -20439-4 0  9996
2 68661  86.5079  61.3764 0106725  55.1473 305.9689 14.09392031  2551
CZ-6A R/B
1 68661U 26076F   26117.18333318 -.00000012  00000-0 -17040-4 0  9996
2 68661  86.5081  61.2659 0106716  54.2766 306.8286 14.09392055  2594
CZ-6A R/B
1 68661U 26076F   26117.25432912 -.00000011  00000-0 -16573-4 0  9993
2 68661  86.5081  61.2382 0106716  54.0605 307.0420 14.09392064  2602
CZ-6A R/B
1 68661U 26076F   26117.53831281 -.00000010  00000-0 -16001-4 0  9991
2 68661  86.5083  61.1277 0106706  53.1795 307.9117 14.09392063  2640
CZ-6A R/B
1 68661U 26076F   26117.89329238 -.00000007  00000-0 -14321-4 0  9993
2 68661  86.5083  60.9896 0106695  52.0781 308.9987 14.09392090  2695
CZ-6A R/B
1 68661U 26076F   26117.89329240 -.00000009  00000-0 -15429-4 0  9998
2 68661  86.5083  60.9896 0106696  52.0770 308.9997 14.09392075  2698
CZ-6A R/B
1 68661U 26076F   26118.17727595 -.00000001  00000-0 -11220-4 0  9992
2 68661  86.5081  60.8790 0106679  51.2146 309.8505 14.09392110  2737
CZ-6A R/B
1 68661U 26076F   26118.31926777 -.00000001  00000-0 -10818-4 0  9993
2 68661  86.5079  60.8239 0106689  50.7767 310.2826 14.09392141  2754
CZ-6A R/B
1 68661U 26076F   26118.53225539  .00000002  00000-0 -95321-5 0  9998
2 68661  86.5080  60.7408 0106679  50.1316 310.9189 14.09392136  2782
CZ-6A R/B
1 68661U 26076F   26118.81623891  .00000005  00000-0 -78623-5 0  9991
2 68661  86.5079  60.6302 0106678  49.2536 311.7847 14.09392180  2828
CZ-6A R/B
1 68661U 26076F   26118.95823064  .00000006  00000-0 -70670-5 0  9995
2 68661  86.5080  60.5752 0106670  48.8184 312.2136 14.09392183  2846
CZ-6A R/B
1 68661U 26076F   26119.17121819  .00000012  00000-0 -36988-5 0  9990
2 68661  86.5080  60.4923 0106664  48.1715 312.8514 14.09392217  2878
CZ-6A R/B
1 68661U 26076F   26119.31320990  .00000014  00000-0 -28130-5 0  9999
2 68661  86.5081  60.4374 0106658  47.7389 313.2777 14.09392241  2899
CZ-6A R/B
1 68661U 26076F   26119.52619740  .00000017  00000-0 -12257-5 0  9992
2 68661  86.5081  60.3544 0106653  47.0876 313.9196 14.09392275  2929
CZ-6A R/B
1 68661U 26076F   26119.59719324  .00000019  00000-0 -27337-6 0  9996
2 68661  86.5081  60.3268 0106653  46.8682 314.1357 14.09392288  2931
CZ-6A R/B
1 68661U 26076F   26119.88117653  .00000023  00000-0  20209-5 0  9999
2 68661  86.5082  60.2162 0106639  45.9936 314.9973 14.09392337  2971
CZ-6A R/B
1 68661U 26076F   26119.95217231  .00000024  00000-0  24427-5 0  9997
2 68661  86.5081  60.1887 0106631  45.7768 315.2108 14.09392346  2981
CZ-6A R/B
1 68661U 26076F   26120.16515980  .00000030  00000-0  59692-5 0  9993
2 68661  86.5080  60.1059 0106631  45.1187 315.8590 14.09392375  3018
CZ-6A R/B
1 68661U 26076F   26120.30715144  .00000031  00000-0  65526-5 0  9997
2 68661  86.5080  60.0510 0106628  44.6854 316.2858 14.09392398  3039
CZ-6A R/B
1 68661U 26076F   26120.52013882  .00000034  00000-0  81817-5 0  9995
2 68661  86.5081  59.9682 0106625  44.0307 316.9305 14.09392438  3063
CZ-6A R/B
1 68661U 26076F   26120.59113463  .00000036  00000-0  94429-5 0  9993
2 68661  86.5080  59.9406 0106626  43.8166 317.1413 14.09392458  3073
CZ-6A R/B
1 68661U 26076F   26120.94611348  .00000042  00000-0  12624-4 0  9990
2 68661  86.5083  59.8027 0106597  42.7231 318.2176 14.09392532  3129
CZ-6A R/B
1 68661U 26076F   26121.15910081  .00000052  00000-0  17744-4 0  9999
2 68661  86.5082  59.7198 0106588  42.0692 318.8612 14.09392586  3153
CZ-6A R/B
1 68661U 26076F   26121.30109235  .00000054  00000-0  18910-4 0  9995
2 68661  86.5081  59.6645 0106578  41.6380 319.2855 14.09392608  3177
CZ-6A R/B
1 68661U 26076F   26121.51407964  .00000056  00000-0  19978-4 0  9995
2 68661  86.5082  59.5816 0106571  40.9865 319.9264 14.09392622  3201
CZ-6A R/B
1 68661U 26076F   26121.79806267  .00000062  00000-0  23298-4 0  9991
2 68661  86.5083  59.4712 0106566  40.1086 320.7901 14.09392687  3240
CZ-6A R/B
1 68661U 26076F   26121.94005414  .00000061  00000-0  23112-4 0  9997
2 68661  86.5083  59.4163 0106562  39.6678 321.2236 14.09392696  3265
CZ-6A R/B
1 68661U 26076F   26122.22403716  .00000071  00000-0  28233-4 0  9996
2 68661  86.5083  59.3059 0106573  38.7852 322.0918 14.09392766  3303
CZ-6A R/B
1 68661U 26076F   26122.50802000  .00000075  00000-0  30548-4 0  9992
2 68661  86.5082  59.1951 0106562  37.9172 322.9452 14.09392838  3341
CZ-6A R/B
1 68661U 26076F   26122.57901566  .00000077  00000-0  31817-4 0  9998
2 68661  86.5082  59.1674 0106543  37.7033 323.1554 14.09392869  3357
CZ-6A R/B
1 68661U 26076F   26122.86299846  .00000082  00000-0  34175-4 0  9997
2 68661  86.5082  59.0567 0106521  36.8274 324.0163 14.09392931  3390
CZ-6A R/B
1 68661U 26076F   26122.93399406  .00000083  00000-0  34738-4 0  9994
2 68661  86.5082  59.0292 0106488  36.6179 324.2220 14.09392949  3406
CZ-6A R/B
1 68661U 26076F   26123.21797687  .00000091  00000-0  39045-4 0  9994
2 68661  86.5082  58.9190 0106487  35.7399 325.0850 14.09393031  3449
CZ-6A R/B
1 68661U 26076F   26123.28897255  .00000092  00000-0  39890-4 0  9992
2 68661  86.5082  58.8915 0106481  35.5247 325.2963 14.09393056  3452
CZ-6A R/B
1 68661U 26076F   26123.50195955  .00000095  00000-0  41494-4 0  9991
2 68661  86.5083  58.8085 0106467  34.8739 325.9358 14.09393110  3482
CZ-6A R/B
1 68661U 26076F   26123.57295517  .00000098  00000-0  43021-4 0  9994
2 68661  86.5084  58.7808 0106440  34.6637 326.1422 14.09393127  3495
CZ-6A R/B
1 68661U 26076F   26123.85693775  .00000100  00000-0  44438-4 0  9990
2 68661  86.5084  58.6703 0106410  33.7874 327.0029 14.09393213  3532
CZ-6A R/B
1 68661U 26076F   26123.92793340  .00000102  00000-0  45051-4 0  9991
2 68661  86.5084  58.6427 0106404  33.5679 327.2185 14.09393229  3542
CZ-6A R/B
1 68661U 26076F   26124.21191602  .00000108  00000-0  48561-4 0  9992
2 68661  86.5084  58.5323 0106392  32.6924 328.0783 14.09393306  3588
CZ-6A R/B
1 68661U 26076F   26124.49589852  .00000111  00000-0  50473-4 0  9999
2 68661  86.5083  58.4219 0106379  31.8210 328.9340 14.09393410  3623
CZ-6A R/B
1 68661U 26076F   26124.56689412  .00000115  00000-0  52518-4 0  9996
2 68661  86.5084  58.3942 0106357  31.6037 329.1473 14.09393443  3634
CZ-6A R/B
1 68661U 26076F   26124.85087655  .00000118  00000-0  54215-4 0  9998
2 68661  86.5085  58.2836 0106335  30.7238 330.0110 14.09393544  3670
CZ-6A R/B
1 68661U 26076F   26125.20585457  .00000125  00000-0  57741-4 0  9996
2 68661  86.5086  58.1458 0106309  29.6263 331.0883 14.09393646  3723
CZ-6A R/B
1 68661U 26076F   26125.27685015  .00000129  00000-0  60309-4 0  9992
2 68661  86.5086  58.1182 0106302  29.4099 331.3007 14.09393702  3730
CZ-6A R/B
1 68661U 26076F   26125.48983690  .00000132  00000-0  61439-4 0  9994
2 68661  86.5086  58.0353 0106289  28.7561 331.9423 14.09393768  3762
CZ-6A R/B
1 68661U 26076F   26125.84481470  .00000135  00000-0  63530-4 0  9990
2 68661  86.5087  57.8972 0106232  27.6705 333.0074 14.09393899  3819
CZ-6A R/B
1 68661U 26076F   26125.91581027  .00000136  00000-0  63707-4 0  9994
2 68661  86.5088  57.8697 0106223  27.4504 333.2233 14.09393919  3822
CZ-6A R/B
1 68661U 26076F   26126.19979255  .00000140  00000-0  66156-4 0  9995
2 68661  86.5088  57.7595 0106218  26.5676 334.0894 14.09394029  3861
CZ-6A R/B
1 68661U 26076F   26126.27078809  .00000141  00000-0  66379-4 0  9997
2 68661  86.5087  57.7320 0106215  26.3479 334.3050 14.09394066  3871
CZ-6A R/B
1 68661U 26076F   26126.48377470  .00000142  00000-0  67160-4 0  9996
2 68661  86.5088  57.6490 0106200  25.6869 334.9533 14.09394136  3902
CZ-6A R/B
1 68661U 26076F   26126.62576578  .00000146  00000-0  69130-4 0  9995
2 68661  86.5088  57.5937 0106175  25.2476 335.3841 14.09394183  3929
CZ-6A R/B
1 68661U 26076F   26126.90974786  .00000145  00000-0  69014-4 0  9999
2 68661  86.5089  57.4830 0106149  24.3633 336.2513 14.09394287  3962
CZ-6A R/B
1 68661U 26076F   26126.90974786  .00000145  00000-0  68760-4 0  9996
2 68661  86.5089  57.4830 0106150  24.3627 336.2520 14.09394284  3962
CZ-6A R/B
1 68661U 26076F   26127.19372993  .00000150  00000-0  71346-4 0  9990
2 68661  86.5089  57.3728 0106122  23.4805 337.1170 14.09394394  4003
CZ-6A R/B
1 68661U 26076F   26127.26472542  .00000150  00000-0  71472-4 0  9999
2 68661  86.5088  57.3452 0106112  23.2632 337.3300 14.09394430  4010
CZ-6A R/B
1 68661U 26076F   26127.76169389  .00000154  00000-0  73570-4 0  9991
2 68661  86.5089  57.1515 0106061  21.7183 338.8445 14.09394611  4080
CZ-6A R/B
1 68661U 26076F   26127.76169389  .00000154  00000-0  73570-4 0  9991
2 68661  86.5089  57.1515 0106061  21.7183 338.8445 14.09394611  4080
CZ-6A R/B
1 68661U 26076F   26127.76169390  .00000154  00000-0  73680-4 0  9995
2 68661  86.5089  57.1515 0106061  21.7184 338.8444 14.09394612  4081
CZ-6A R/B
1 68661U 26076F   26127.97468035  .00000154  00000-0  73573-4 0  9997
2 68661  86.5090  57.0689 0106046  21.0550 339.4948 14.09394680  4112
CZ-6A R/B
1 68661U 26076F   26128.18766683  .00000157  00000-0  75398-4 0  9991
2 68661  86.5090  56.9862 0106030  20.3962 340.1406 14.09394755  4149
CZ-6A R/B
1 68661U 26076F   26128.25866229  .00000156  00000-0  75104-4 0  9990
2 68661  86.5090  56.9586 0106020  20.1774 340.3550 14.09394782  4153
CZ-6A R/B
1 68661U 26076F   26128.75563058  .00000158  00000-0  75810-4 0  9995
2 68661  86.5091  56.7652 0105990  18.6272 341.8742 14.09394948  4227
CZ-6A R/B
1 68661U 26076F   26128.89762149  .00000157  00000-0  75255-4 0  9994
2 68661  86.5091  56.7100 0105988  18.1807 342.3118 14.09394996  4249
CZ-6A R/B
1 68661U 26076F   26128.89762150  .00000157  00000-0  75596-4 0  9994
2 68661  86.5090  56.7100 0105991  18.1787 342.3138 14.09395002  4240
CZ-6A R/B
1 68661U 26076F   26129.18160326  .00000159  00000-0  76633-4 0  9999
2 68661  86.5091  56.5997 0105952  17.2919 343.1827 14.09395102  4286
CZ-6A R/B
1 68661U 26076F   26129.25259867  .00000159  00000-0  76363-4 0  9996
2 68661  86.5091  56.5721 0105934  17.0750 343.3951 14.09395134  4298
CZ-6A R/B
1 68661U 26076F   26129.53658043  .00000157  00000-0  75556-4 0  9997
2 68661  86.5091  56.4616 0105918  16.1895 344.2628 14.09395214  4337
CZ-6A R/B
1 68661U 26076F   26129.89155750  .00000156  00000-0  74807-4 0  9990
2 68661  86.5093  56.3235 0105874  15.0797 345.3499 14.09395350  4389
CZ-6A R/B
1 68661U 26076F   26129.96255292  .00000156  00000-0  74814-4 0  9998
2 68661  86.5093  56.2958 0105866  14.8572 345.5679 14.09395364  4397
CZ-6A R/B
1 68661U 26076F   26130.17553917  .00000157  00000-0  75624-4 0  9999
2 68661  86.5093  56.2130 0105844  14.1947 346.2169 14.09395446  4421
CZ-6A R/B
1 68661U 26076F   26130.31752998  .00000155  00000-0  74413-4 0  9998
2 68661  86.5093  56.1578 0105833  13.7509 346.6515 14.09395493  4446
CZ-6A R/B
1 68661U 26076F   26130.53051618  .00000155  00000-0  74287-4 0  9992
2 68661  86.5094  56.0750 0105814  13.0855 347.3033 14.09395555  4479
CZ-6A R/B
1 68661U 26076F   26130.88549310  .00000151  00000-0  72562-4 0  9991
2 68661  86.5095  55.9368 0105771  11.9722 348.3937 14.09395683  4527
CZ-6A R/B
1 68661U 26076F   26131.09847927  .00000152  00000-0  72903-4 0  9990
2 68661  86.5095  55.8539 0105753  11.3035 349.0486 14.09395744  4555
CZ-6A R/B
1 68661U 26076F   26131.16947465  .00000152  00000-0  72620-4 0  9992
2 68661  86.5096  55.8263 0105746  11.0806 349.2668 14.09395771  4560
CZ-6A R/B
1 68661U 26076F   26131.52445147  .00000149  00000-0  71050-4 0  9994
2 68661  86.5096  55.6884 0105692   9.9757 350.3488 14.09395907  4618
CZ-6A R/B
1 68661U 26076F   26131.59544683  .00000149  00000-0  70974-4 0  9990
2 68661  86.5096  55.6608 0105679   9.7524 350.5675 14.09395932  4626
CZ-6A R/B
1 68661U 26076F   26131.80843289  .00000145  00000-0  69071-4 0  9990
2 68661  86.5097  55.5779 0105656   9.0805 351.2254 14.09396009  4655
CZ-6A R/B
1 68661U 26076F   26131.95042361  .00000143  00000-0  68137-4 0  9998
2 68661  86.5098  55.5226 0105640   8.6355 351.6612 14.09396035  4674
CZ-6A R/B
1 68661U 26076F   26132.09241434  .00000144  00000-0  68367-4 0  9992
2 68661  86.5098  55.4673 0105621   8.1894 352.0980 14.09396072  4697
CZ-6A R/B
1 68661U 26076F   26132.30540038  .00000141  00000-0  66706-4 0  9990
2 68661  86.5098  55.3845 0105596   7.5212 352.7523 14.09396145  4720
CZ-6A R/B
1 68661U 26076F   26132.58938181  .00000139  00000-0  65969-4 0  9997
2 68661  86.5100  55.2740 0105585   6.6298 353.6251 14.09396234  4760
CZ-6A R/B
1 68661U 26076F   26132.87336313  .00000134  00000-0  62958-4 0  9998
2 68661  86.5101  55.1636 0105565   5.7295 354.5066 14.09396336  4801
CZ-6A R/B
1 68661U 26076F   26132.94435846  .00000133  00000-0  62507-4 0  9996
2 68661  86.5101  55.1360 0105557   5.5059 354.7255 14.09396348  4818
CZ-6A R/B
1 68661U 26076F   26133.15734447  .00000132  00000-0  62191-4 0  9997
2 68661  86.5101  55.0531 0105531   4.8356 355.3818 14.09396417  4843
CZ-6A R/B
1 68661U 26076F   26133.22833983  .00000131  00000-0  61337-4 0  9990
2 68661  86.5102  55.0256 0105536   4.6131 355.5997 14.09396444  4853
CZ-6A R/B
1 68661U 26076F   26133.51232116  .00000126  00000-0  58732-4 0  9992
2 68661  86.5101  54.9152 0105520   3.7207 356.4734 14.09396509  4897
CZ-6A R/B
1 68661U 26076F   26133.79630237  .00000122  00000-0  56648-4 0  9998
2 68661  86.5100  54.8047 0105464   2.8206 357.3547 14.09396597  4938
CZ-6A R/B
1 68661U 26076F   26133.93829300  .00000120  00000-0  55383-4 0  9998
2 68661  86.5101  54.7495 0105447   2.3723 357.7936 14.09396616  4955
CZ-6A R/B
1 68661U 26076F   26134.22227427  .00000117  00000-0  53949-4 0  9995
2 68661  86.5102  54.6392 0105410   1.4797 358.6676 14.09396691  4990
CZ-6A R/B
1 68661U 26076F   26134.29326957  .00000115  00000-0  52812-4 0  9996
2 68661  86.5100  54.6114 0105400   1.2558 358.8868 14.09396708  5009
CZ-6A R/B
1 68661U 26076F   26134.93222727  .00000103  00000-0  46299-4 0  9996
2 68661  86.5103  54.3632 0105309 359.2406   0.8598 14.09396865  5097
CZ-6A R/B
1 68661U 26076F   26135.28720382  .00000096  00000-0  42528-4 0  9997
2 68661  86.5101  54.2249 0105301 358.1165   1.9604 14.09396940  5140
CZ-6A R/B
1 68661U 26076F   26136.21014269  .00000079  00000-0  33514-4 0  9997
2 68661  86.5101  53.8664 0105183 355.1950   4.8211 14.09397071  5279
CZ-6A R/B
1 68661U 26076F   26136.42312858  .00000073  00000-0  30292-4 0  9999
2 68661  86.5099  53.7834 0105165 354.5206   5.4816 14.09397078  5309
CZ-6A R/B
1 68661U 26076F   26136.49412384  .00000073  00000-0  29896-4 0  9999
2 68661  86.5099  53.7557 0105147 354.2983   5.6992 14.09397108  5312
CZ-6A R/B
1 68661U 26076F   26136.56511914  .00000072  00000-0  29337-4 0  9995
2 68661  86.5099  53.7281 0105138 354.0733   5.9196 14.09397118  5328
CZ-6A R/B
1 68661U 26076F   26136.84910032  .00000063  00000-0  24465-4 0  9997
2 68661  86.5098  53.6177 0105119 353.1754   6.7989 14.09397164  5366
CZ-6A R/B
1 68661U 26076F   26136.92009561  .00000061  00000-0  23560-4 0  9995
2 68661  86.5099  53.5901 0105107 352.9504   7.0192 14.09397165  5370
CZ-6A R/B
1 68661U 26076F   26137.13308148  .00000058  00000-0  21723-4 0  9997
2 68661  86.5099  53.5074 0105076 352.2754   7.6804 14.09397198  5402
CZ-6A R/B
1 68661U 26076F   26137.48805791  .00000047  00000-0  16153-4 0  9990
2 68661  86.5099  53.3694 0105029 351.1556   8.7771 14.09397249  5451
CZ-6A R/B
1 68661U 26076F   26137.63004846  .00000045  00000-0  14899-4 0  9992
2 68661  86.5099  53.3141 0105010 350.7032   9.2203 14.09397276  5470
CZ-6A R/B
1 68661U 26076F   26137.84303433  .00000038  00000-0  10823-4 0  9994
2 68661  86.5099  53.2312 0105000 350.0277   9.8819 14.09397300  5503
CZ-6A R/B
1 68661U 26076F   26137.91402963  .00000036  00000-0  10066-4 0  9997
2 68661  86.5099  53.2036 0104999 349.8016  10.1034 14.09397298  5510
CZ-6A R/B
1 68661U 26076F   26138.19801079  .00000030  00000-0  67013-5 0  9998
2 68661  86.5099  53.0931 0104966 348.8972  10.9893 14.09397323  5550
CZ-6A R/B
1 68661U 26076F   26138.55298729  .00000020  00000-0  12694-5 0  9994
2 68661  86.5099  52.9552 0104961 347.7658  12.0976 14.09397344  5605
CZ-6A R/B
1 68661U 26076F   26138.83696844  .00000011  00000-0 -39352-5 0  9996
2 68661  86.5098  52.8448 0104929 346.8594  12.9857 14.09397367  5646
CZ-6A R/B
1 68661U 26076F   26138.97895905  .00000007  00000-0 -57513-5 0  9994
2 68661  86.5099  52.7897 0104913 346.4075  13.4285 14.09397354  5666
CZ-6A R/B
1 68661U 26076F   26139.19194494  .00000002  00000-0 -83620-5 0  9997
2 68661  86.5098  52.7067 0104887 345.7283  14.0940 14.09397371  5694
CZ-6A R/B
1 68661U 26076F   26139.26294028 -.00000001  00000-0 -10226-4 0  9990
2 68661  86.5099  52.6791 0104886 345.5036  14.3142 14.09397355  5702
CZ-6A R/B
1 68661U 26076F   26139.54692147 -.00000008  00000-0 -14139-4 0  9999
2 68661  86.5099  52.5687 0104839 344.6011  15.1987 14.09397351  5742
CZ-6A R/B
1 68661U 26076F   26139.83090274 -.00000018  00000-0 -19377-4 0  9994
2 68661  86.5100  52.4583 0104801 343.7013  16.0806 14.09397315  5784
CZ-6A R/B
1 68661U 26076F   26139.97289337 -.00000021  00000-0 -20855-4 0  9996
2 68661  86.5101  52.4031 0104784 343.2482  16.5247 14.09397296  5803
CZ-6A R/B
1 68661U 26076F   26140.18587929 -.00000025  00000-0 -23530-4 0  9996
2 68661  86.5100  52.3202 0104763 342.5653  17.1941 14.09397311  5839
CZ-6A R/B
1 68661U 26076F   26140.25687461 -.00000028  00000-0 -25100-4 0  9994
2 68661  86.5100  52.2927 0104747 342.3401  17.4149 14.09397304  5849
CZ-6A R/B
1 68661U 26076F   26140.54085588 -.00000036  00000-0 -29171-4 0  9999
2 68661  86.5102  52.1821 0104685 341.4383  18.2991 14.09397266  5888
CZ-6A R/B
1 68661U 26076F   26140.68284657 -.00000039  00000-0 -31106-4 0  9996
2 68661  86.5102  52.1269 0104683 340.9871  18.7414 14.09397255  5904
CZ-6A R/B
1 68661U 26076F   26140.96682789 -.00000048  00000-0 -35776-4 0  9992
2 68661  86.5101  52.0164 0104662 340.0809  19.6300 14.09397225  5940
CZ-6A R/B
1 68661U 26076F   26141.25080931 -.00000055  00000-0 -39384-4 0  9993
2 68661  86.5101  51.9059 0104641 339.1816  20.5118 14.09397198  5986
CZ-6A R/B
1 68661U 26076F   26141.67678139 -.00000064  00000-0 -44774-4 0  9991
2 68661  86.5103  51.7403 0104584 337.8300  21.8375 14.09397174  6049
CZ-6A R/B
1 68661U 26076F   26141.74777675 -.00000067  00000-0 -46376-4 0  9997
2 68661  86.5103  51.7127 0104583 337.6047  22.0584 14.09397173  6052
CZ-6A R/B
1 68661U 26076F   26141.74777676 -.00000067  00000-0 -46307-4 0  9992
2 68661  86.5103  51.7126 0104584 337.6048  22.0584 14.09397170  6050
CZ-6A R/B
1 68661U 26076F   26141.81877212 -.00000070  00000-0 -47738-4 0  9990
2 68661  86.5102  51.6850 0104589 337.3789  22.2799 14.09397156  6061
CZ-6A R/B
1 68661U 26076F   26141.88976748 -.00000070  00000-0 -47900-4 0  9992
2 68661  86.5102  51.6574 0104579 337.1537  22.5009 14.09397151  6075
CZ-6A R/B
1 68661U 26076F   26142.24474433 -.00000077  00000-0 -51341-4 0  9998
2 68661  86.5100  51.5194 0104524 336.0274  23.6059 14.09397111  6125
CZ-6A R/B
1 68661U 26076F   26142.67071664 -.00000084  00000-0 -55278-4 0  9995
2 68661  86.5102  51.3538 0104479 334.6796  24.9285 14.09397058  6180
CZ-6A R/B
1 68661U 26076F   26142.74171201 -.00000086  00000-0 -56578-4 0  9997
2 68661  86.5102  51.3261 0104481 334.4561  25.1478 14.09397057  6191
CZ-6A R/B
1 68661U 26076F   26142.74171204 -.00000086  00000-0 -56469-4 0  9999
2 68661  86.5102  51.3261 0104479 334.4557  25.1482 14.09397047  6197
CZ-6A R/B
1 68661U 26076F   26143.30967525 -.00000094  00000-0 -60883-4 0  9995
2 68661  86.5101  51.1053 0104423 332.6554  26.9153 14.09396961  6276
CZ-6A R/B
1 68661U 26076F   26143.52266150 -.00000096  00000-0 -61771-4 0  9994
2 68661  86.5101  51.0225 0104395 331.9795  27.5789 14.09396922  6306
CZ-6A R/B
1 68661U 26076F   26143.80664323 -.00000100  00000-0 -64044-4 0  9991
2 68661  86.5102  50.9122 0104399 331.0843  28.4577 14.09396901  6346
CZ-6A R/B
1 68661U 26076F   26144.16162043 -.00000099  00000-0 -63634-4 0  9994
2 68661  86.5101  50.7744 0104368 329.9622  29.5598 14.09396863  6397
CZ-6A R/B
1 68661U 26076F   26144.94257042 -.00000100  00000-0 -64207-4 0  9994
2 68661  86.5100  50.4708 0104282 327.4836  31.9949 14.09396741  6503
CZ-6A R/B
1 68661U 26076F   26145.22655238 -.00000097  00000-0 -62615-4 0  9991
2 68661  86.5100  50.3604 0104267 326.5920  32.8710 14.09396726  6547
CZ-6A R/B
1 68661U 26076F   26145.51053433 -.00000095  00000-0 -61596-4 0  9997
2 68661  86.5100  50.2499 0104237 325.6954  33.7524 14.09396701  6582
CZ-6A R/B
1 68661U 26076F   26145.58152981 -.00000094  00000-0 -61024-4 0  9997
2 68661  86.5100  50.2223 0104231 325.4692  33.9747 14.09396696  6591
CZ-6A R/B
1 68661U 26076F   26146.29148492 -.00000084  00000-0 -55364-4 0  9997
2 68661  86.5100  49.9462 0104161 323.2211  36.1854 14.09396634  6693
CZ-6A R/B
1 68661U 26076F   26146.64646259 -.00000078  00000-0 -52169-4 0  9993
2 68661  86.5100  49.8082 0104131 322.0995  37.2887 14.09396608  6748
CZ-6A R/B
1 68661U 26076F   26146.93044478 -.00000072  00000-0 -49029-4 0  9995
2 68661  86.5100  49.6978 0104101 321.1996  38.1742 14.09396562  6781
CZ-6A R/B
1 68661U 26076F   26147.14343146 -.00000066  00000-0 -45602-4 0  9999
2 68661  86.5100  49.6150 0104073 320.5256  38.8375 14.09396553  6816
CZ-6A R/B
1 68661U 26076F   26147.28542256 -.00000063  00000-0 -43883-4 0  9993
2 68661  86.5100  49.5599 0104034 320.0733  39.2829 14.09396542  6833
CZ-6A R/B
1 68661U 26076F   26147.49840929 -.00000059  00000-0 -41433-4 0  9998
2 68661  86.5100  49.4770 0104013 319.4023  39.9435 14.09396516  6868
CZ-6A R/B
1 68661U 26076F   26147.64040045 -.00000055  00000-0 -39471-4 0  9991
2 68661  86.5101  49.4218 0104009 318.9516  40.3871 14.09396517  6885
CZ-6A R/B
1 68661U 26076F   26147.85338721 -.00000051  00000-0 -37536-4 0  9991
2 68661  86.5103  49.3387 0104000 318.2802  41.0481 14.09396483  6916
CZ-6A R/B
1 68661U 26076F   26147.92438280 -.00000049  00000-0 -35929-4 0  9991
2 68661  86.5102  49.3111 0103973 318.0515  41.2735 14.09396467  6924
CZ-6A R/B
1 68661U 26076F   26148.20836520 -.00000039  00000-0 -30968-4 0  9999
2 68661  86.5100  49.2007 0103924 317.1500  42.1616 14.09396456  6965
CZ-6A R/B
1 68661U 26076F   26148.27936083 -.00000038  00000-0 -30455-4 0  9991
2 68661  86.5099  49.1731 0103922 316.9274  42.3808 14.09396435  6971
CZ-6A R/B
1 68661U 26076F   26148.49234764 -.00000032  00000-0 -26963-4 0  9995
2 68661  86.5099  49.0900 0103889 316.2509  43.0473 14.09396429  7008
CZ-6A R/B
1 68661U 26076F   26148.84732561 -.00000023  00000-0 -22006-4 0  9996
2 68661  86.5101  48.9518 0103850 315.1155  44.1662 14.09396458  7057
CZ-6A R/B
1 68661U 26076F   26149.20230376 -.00000012  00000-0 -15880-4 0  9994
2 68661  86.5100  48.8137 0103795 313.9872  45.2785 14.09396467  7106
CZ-6A R/B
1 68661U 26076F   26149.48628628 -.00000004  00000-0 -11571-4 0  9999
2 68661  86.5100  48.7032 0103767 313.0918  46.1614 14.09396506  7149
CZ-6A R/B
1 68661U 26076F   26149.62827752  .00000000  00000-0 -92541-5 0  9996
2 68661  86.5101  48.6479 0103746 312.6304  46.6164 14.09396528  7166
CZ-6A R/B
1 68661U 26076F   26149.98325575  .00000010  00000-0 -38417-5 0  9994
2 68661  86.5100  48.5098 0103700 311.5050  47.7266 14.09396564  7218
CZ-6A R/B
1 68661U 26076F   26150.19624282  .00000017  00000-0 -27571-6 0  9993
2 68661  86.5100  48.4272 0103687 310.8436  48.3791 14.09396599  7246
CZ-6A R/B
1 68661U 26076F   26150.55122126  .00000027  00000-0  52600-5 0  9993
2 68661  86.5101  48.2891 0103651 309.7253  49.4827 14.09396627  7296
CZ-6A R/B
1 68661U 26076F   26150.62221686  .00000027  00000-0  55793-5 0  9998
2 68661  86.5101  48.2616 0103643 309.4917  49.7134 14.09396652  7300
CZ-6A R/B
1 68661U 26076F   26150.83520389  .00000031  00000-0  77364-5 0  9996
2 68661  86.5102  48.1786 0103626 308.8128  50.3835 14.09396672  7337
CZ-6A R/B
1 68661U 26076F   26150.90619956  .00000033  00000-0  88253-5 0  9994
2 68661  86.5101  48.1509 0103610 308.5869  50.6066 14.09396680  7340
CZ-6A R/B
1 68661U 26076F   26151.19018237  .00000041  00000-0  13132-4 0  9993
2 68661  86.5100  48.0404 0103569 307.6855  51.4969 14.09396702  7380
CZ-6A R/B
1 68661U 26076F   26151.47416517  .00000047  00000-0  16465-4 0  9995
2 68661  86.5099  47.9300 0103528 306.7834  52.3880 14.09396738  7428
CZ-6A R/B
1 68661U 26076F   26151.82914376  .00000052  00000-0  19123-4 0  9990
2 68661  86.5100  47.7921 0103505 305.6604  53.4974 14.09396772  7475
CZ-6A R/B
1 68661U 26076F   26152.18412247  .00000058  00000-0  22396-4 0  9992
2 68661  86.5101  47.6541 0103446 304.5338  54.6111 14.09396781  7521
CZ-6A R/B
1 68661U 26076F   26152.25511819  .00000058  00000-0  22452-4 0  9998
2 68661  86.5101  47.6265 0103444 304.3128  54.8295 14.09396794  7537
CZ-6A R/B
1 68661U 26076F   26152.61009687  .00000064  00000-0  25740-4 0  9993
2 68661  86.5099  47.4883 0103414 303.1927  55.9370 14.09396886  7581
CZ-6A R/B
1 68661U 26076F   26152.89407981  .00000067  00000-0  27071-4 0  9994
2 68661  86.5099  47.3778 0103395 302.2938  56.8260 14.09396953  7621
CZ-6A R/B
1 68661U 26076F   26153.24905861  .00000069  00000-0  28385-4 0  9995
2 68661  86.5100  47.2398 0103356 301.1717  57.9363 14.09397025  7673
CZ-6A R/B
1 68661U 26076F   26153.60403738  .00000074  00000-0  31091-4 0  9995
2 68661  86.5095  47.1017 0103289 300.0332  59.0633 14.09397134  7729
CZ-6A R/B
1 68661U 26076F   26153.81702465  .00000073  00000-0  30665-4 0  9992
2 68661  86.5095  47.0189 0103281 299.3566  59.7331 14.09397189  7754
CZ-6A R/B
1 68661U 26076F   26153.88802043  .00000073  00000-0  30387-4 0  9993
2 68661  86.5095  46.9912 0103270 299.1284  59.9590 14.09397182  7762
CZ-6A R/B
1 68661U 26076F   26154.17200359  .00000074  00000-0  31091-4 0  9992
2 68661  86.5093  46.8803 0103239 298.2236  60.8551 14.09397220  7806
CZ-6A R/B
1 68661U 26076F   26154.24299939  .00000074  00000-0  31206-4 0  9990
2 68661  86.5092  46.8527 0103232 298.0010  61.0757 14.09397232  7814
CZ-6A R/B
1 68661U 26076F   26154.52698265  .00000076  00000-0  31909-4 0  9998
2 68661  86.5092  46.7424 0103209 297.1113  61.9571 14.09397279  7855
CZ-6A R/B
1 68661U 26076F   26154.59797846  .00000076  00000-0  31975-4 0  9993
2 68661  86.5092  46.7147 0103204 296.8855  62.1807 14.09397286  7865
CZ-6A R/B
1 68661U 26076F   26154.88196164  .00000073  00000-0  30522-4 0  9995
2 68661  86.5092  46.6043 0103180 295.9786  63.0796 14.09397343  7901
CZ-6A R/B
1 68661U 26076F   26154.88196166  .00000073  00000-0  30406-4 0  9998
2 68661  86.5095  46.6043 0103179 295.9783  63.0798 14.09397339  7906
CZ-6A R/B
1 68661U 26076F   26155.16594500  .00000072  00000-0  30134-4 0  9991
2 68661  86.5095  46.4937 0103177 295.0847  63.9655 14.09397371  7947
CZ-6A R/B
1 68661U 26076F   26155.30793666  .00000072  00000-0  30135-4 0  9992
2 68661  86.5094  46.4383 0103159 294.6323  64.4141 14.09397386  7969
CZ-6A R/B
1 68661U 26076F   26155.73391164  .00000069  00000-0  28571-4 0  9993
2 68661  86.5092  46.2727 0103109 293.2687  65.7666 14.09397454  8020
CZ-6A R/B
1 68661U 26076F   26155.87590333  .00000068  00000-0  27954-4 0  9990
2 68661  86.5091  46.2174 0103100 292.8176  66.2142 14.09397456  8043
CZ-6A R/B
1 68661U 26076F   26155.94689921  .00000068  00000-0  27897-4 0  9996
2 68661  86.5091  46.1899 0103095 292.5924  66.4376 14.09397458  8051
CZ-6A R/B
1 68661U 26076F   26156.15988682  .00000066  00000-0  26787-4 0  9991
2 68661  86.5091  46.1068 0103087 291.9196  67.1052 14.09397492  8084
CZ-6A R/B
1 68661U 26076F   26156.30187856  .00000062  00000-0  24462-4 0  9996
2 68661  86.5091  46.0516 0103073 291.4679  67.5536 14.09397482  8100
CZ-6A R/B
1 68661U 26076F   26156.72785369  .00000058  00000-0  22198-4 0  9994
2 68661  86.5087  45.8859 0103019 290.0908  68.9211 14.09397576  8167
CZ-6A R/B
1 68661U 26076F   26156.79884958  .00000057  00000-0  21630-4 0  9994
2 68661  86.5087  45.8583 0103016 289.8668  69.1435 14.09397580  8174
CZ-6A R/B
1 68661U 26076F   26157.01183723  .00000057  00000-0  21522-4 0  9992
2 68661  86.5087  45.7755 0102995 289.1846  69.8211 14.09397617  8204
CZ-6A R/B
1 68661U 26076F   26157.15382902  .00000055  00000-0  20459-4 0  9993
2 68661  86.5087  45.7202 0102993 288.7352  70.2675 14.09397648  8222
CZ-6A R/B
1 68661U 26076F   26157.29582082  .00000052  00000-0  18901-4 0  9995
2 68661  86.5086  45.6650 0102980 288.2826  70.7173 14.09397653  8240
CZ-6A R/B
1 68661U 26076F   26157.50880855  .00000050  00000-0  18150-4 0  9992
2 68661  86.5085  45.5821 0102965 287.6055  71.3902 14.09397677  8274
CZ-6A R/B
1 68661U 26076F   26157.57980447  .00000050  00000-0  17780-4 0  9995
2 68661  86.5084  45.5545 0102959 287.3792  71.6151 14.09397698  8287
CZ-6A R/B
1 68661U 26076F   26157.86378812  .00000044  00000-0  14775-4 0  9998
2 68661  86.5085  45.4440 0102947 286.4758  72.5132 14.09397734  8325
CZ-6A R/B
1 68661U 26076F   26157.93478405  .00000043  00000-0  14394-4 0  9991
2 68661  86.5085  45.4164 0102940 286.2496  72.7381 14.09397742  8336
CZ-6A R/B
1 68661U 26076F   26158.21876778  .00000039  00000-0  12010-4 0  9996
2 68661  86.5085  45.3060 0102924 285.3404  73.6422 14.09397781  8374
CZ-6A R/B
1 68661U 26076F   26158.28976368  .00000040  00000-0  12235-4 0  9990
2 68661  86.5084  45.2782 0102918 285.1113  73.8702 14.09397807  8384
CZ-6A R/B
1 68661U 26076F   26158.50275150  .00000038  00000-0  11619-4 0  9998
2 68661  86.5086  45.1955 0102891 284.4192  74.5588 14.09397828  8413
CZ-6A R/B
1 68661U 26076F   26158.85773126  .00000034  00000-0  89938-5 0  9998
2 68661  86.5087  45.0571 0102884 283.2917  75.6807 14.09397890  8461
CZ-6A R/B
1 68661U 26076F   26159.14171516  .00000031  00000-0  73668-5 0  9996
2 68661  86.5088  44.9468 0102878 282.3810  76.5872 14.09397903  8502
CZ-6A R/B
1 68661U 26076F   26159.28370709  .00000026  00000-0  50822-5 0  9997
2 68661  86.5088  44.8915 0102874 281.9279  77.0384 14.09397916  8528
CZ-6A R/B
1 68661U 26076F   26159.49669510  .00000026  00000-0  51126-5 0  9999
2 68661  86.5088  44.8087 0102864 281.2500  77.7135 14.09397931  8558
CZ-6A R/B
1 68661U 26076F   26159.56769111  .00000026  00000-0  50880-5 0  9991
2 68661  86.5088  44.7811 0102862 281.0233  77.9393 14.09397941  8561
CZ-6A R/B
1 68661U 26076F   26159.85167512  .00000022  00000-0  26889-5 0  9998
2 68661  86.5088  44.6705 0102851 280.1146  78.8446 14.09397959  8606
CZ-6A R/B
1 68661U 26076F   26160.20665523  .00000018  00000-0  54239-6 0  9990
2 68661  86.5088  44.5324 0102843 278.9826  79.9727 14.09397972  8657
CZ-6A R/B
1 68661U 26076F   26160.27765126  .00000017  00000-0  65155-7 0  9996
2 68661  86.5089  44.5049 0102843 278.7582  80.1964 14.09397973  8668
CZ-6A R/B
1 68661U 26076F   26160.49063936  .00000018  00000-0  47799-6 0  9994
2 68661  86.5089  44.4219 0102827 278.0699  80.8827 14.09397992  8699
CZ-6A R/B
1 68661U 26076F   26160.63263146  .00000017  00000-0  62441-7 0  9996
2 68661  86.5088  44.3667 0102825 277.6167  81.3346 14.09398014  8718
CZ-6A R/B
1 68661U 26076F   26160.98761169  .00000016  00000-0 -89688-6 0  9993
2 68661  86.5088  44.2286 0102827 276.4782  82.4701 14.09398035  8761
CZ-6A R/B
1 68661U 26076F   26161.12960384  .00000015  00000-0 -10077-5 0  9994
2 68661  86.5088  44.1735 0102827 276.0275  82.9197 14.09398056  8781
CZ-6A R/B
1 68661U 26076F   26161.27159600  .00000014  00000-0 -16431-5 0  9990
2 68661  86.5088  44.1184 0102833 275.5787  83.3674 14.09398055  8805
CZ-6A R/B
1 68661U 26076F   26161.48458425  .00000016  00000-0 -86402-6 0  9998
2 68661  86.5088  44.0355 0102829 274.8967  84.0481 14.09398080  8836
CZ-6A R/B
1 68661U 26076F   26161.62657642  .00000015  00000-0 -98930-6 0  9994
2 68661  86.5088  43.9802 0102833 274.4427  84.5012 14.09398096  8857
CZ-6A R/B
1 68661U 26076F   26162.26554138  .00000015  00000-0 -99730-6 0  9990
2 68661  86.5086  43.7316 0102849 272.4018  86.5392 14.09398139  8945
CZ-6A R/B
1 68661U 26076F   26162.62052205  .00000018  00000-0  70385-6 0  9995
2 68661  86.5087  43.5935 0102852 271.2638  87.6763 14.09398171  8995
CZ-6A R/B
1 68661U 26076F   26162.69151818  .00000018  00000-0  40728-6 0  9990
2 68661  86.5087  43.5659 0102852 271.0394  87.9005 14.09398184  9004
CZ-6A R/B
1 68661U 26076F   26162.90450663  .00000019  00000-0  96167-6 0  9993
2 68661  86.5087  43.4830 0102854 270.3589  88.5808 14.09398185  9036
CZ-6A R/B
1 68661U 26076F   26162.90450663  .00000019  00000-0  12370-5 0  9996
2 68661  86.5087  43.4830 0102855 270.3594  88.5802 14.09398188  9030
CZ-6A R/B
1 68661U 26076F   26163.25948747  .00000023  00000-0  30773-5 0  9992
2 68661  86.5086  43.3448 0102865 269.2253  89.7142 14.09398211  9085
CZ-6A R/B
1 68661U 26076F   26163.89845317  .00000028  00000-0  59363-5 0  9992
2 68661  86.5087  43.0963 0102882 267.1949  91.7455 14.09398260  9177
CZ-6A R/B
1 68661U 26076F   26164.32443042  .00000032  00000-0  78909-5 0  9992
2 68661  86.5087  42.9305 0102895 265.8463  93.0954 14.09398342  9232
CZ-6A R/B
1 68661U 26076F   26164.46642286  .00000034  00000-0  93940-5 0  9992
2 68661  86.5088  42.8753 0102896 265.3906  93.5518 14.09398370  9251
CZ-6A R/B
1 68661U 26076F   26164.60841530  .00000035  00000-0  99817-5 0  9991
2 68661  86.5087  42.8200 0102906 264.9335  94.0095 14.09398390  9270
CZ-6A R/B
1 68661U 26076F   26164.89240015  .00000037  00000-0  10673-4 0  9997
2 68661  86.5087  42.7094 0102921 264.0202  94.9244 14.09398433  9319
CZ-6A R/B
1 68661U 26076F   26164.89240016  .00000038  00000-0  11094-4 0  9997
2 68661  86.5087  42.7094 0102922 264.0196  94.9249 14.09398433  9317
CZ-6A R/B
1 68661U 26076F   26165.17638516  .00000040  00000-0  12291-4 0  9998
2 68661  86.5087  42.5990 0102939 263.1134  95.8329 14.09398456  9358
CZ-6A R/B
1 68661U 26076F   26165.31837767  .00000041  00000-0  12714-4 0  9994
2 68661  86.5087  42.5437 0102947 262.6571  96.2902 14.09398457  9377
CZ-6A R/B
1 68661U 26076F   26165.53136656  .00000044  00000-0  14453-4 0  9992
2 68661  86.5089  42.4609 0102953 261.9922  96.9567 14.09398467  9407
CZ-6A R/B
1 68661U 26076F   26165.60236284  .00000044  00000-0  14574-4 0  9992
2 68661  86.5088  42.4332 0102961 261.7645  97.1850 14.09398478  9419
CZ-6A R/B
1 68661U 26076F   26165.88634792  .00000045  00000-0  15189-4 0  9992
2 68661  86.5087  42.3227 0102981 260.8480  98.1040 14.09398488  9456
CZ-6A R/B
1 68661U 26076F   26165.88634793  .00000046  00000-0  15627-4 0  9991
2 68661  86.5087  42.3227 0102982 260.8475  98.1045 14.09398484  9452
CZ-6A R/B
1 68661U 26076F   26166.17033315  .00000048  00000-0  16760-4 0  9998
2 68661  86.5086  42.2122 0103006 259.9587  98.9960 14.09398518  9491
CZ-6A R/B
1 68661U 26076F   26166.24132946  .00000048  00000-0  16809-4 0  9990
2 68661  86.5086  42.1846 0103008 259.7334  99.2221 14.09398523  9505
CZ-6A R/B
1 68661U 26076F   26166.52531466  .00000052  00000-0  18770-4 0  9995
2 68661  86.5088  42.0743 0103032 258.8228 100.1358 14.09398556  9544
CZ-6A R/B
1 68661U 26076F   26166.59631098  .00000052  00000-0  18835-4 0  9996
2 68661  86.5087  42.0467 0103038 258.5960 100.3634 14.09398567  9554
CZ-6A R/B
1 68661U 26076F   26166.95129259  .00000054  00000-0  20284-4 0  9990
2 68661  86.5087  41.9085 0103070 257.4588 101.5050 14.09398578  9601
CZ-6A R/B
1 68661U 26076F   26167.16428163  .00000055  00000-0  20638-4 0  9994
2 68661  86.5087  41.8256 0103082 256.7855 102.1812 14.09398603  9637
CZ-6A R/B
1 68661U 26076F   26167.30627431  .00000055  00000-0  20802-4 0  9992
2 68661  86.5087  41.7702 0103093 256.3273 102.6414 14.09398613  9650
CZ-6A R/B
1 68661U 26076F   26167.51926315  .00000058  00000-0  22099-4 0  9991
2 68661  86.5087  41.6873 0103138 255.6073 103.3645 14.09398663  9680
CZ-6A R/B
1 68661U 26076F   26167.59025949  .00000058  00000-0  22079-4 0  9990
2 68661  86.5087  41.6594 0103146 255.3831 103.5897 14.09398687  9696
CZ-6A R/B
1 68661U 26076F   26167.87424494  .00000058  00000-0  22060-4 0  9999
2 68661  86.5087  41.5490 0103167 254.4780 104.4993 14.09398712  9737
CZ-6A R/B
1 68661U 26076F   26168.15823052  .00000060  00000-0  23219-4 0  9994
2 68661  86.5085  41.4384 0103191 253.5876 105.3944 14.09398739  9778
CZ-6A R/B
1 68661U 26076F   26168.51321255  .00000062  00000-0  24404-4 0  9991
2 68661  86.5085  41.3003 0103203 252.4620 106.5265 14.09398805  9823
CZ-6A R/B
1 68661U 26076F   26168.58420894  .00000062  00000-0  24384-4 0  9994
2 68661  86.5085  41.2727 0103209 252.2369 106.7529 14.09398821  9833
CZ-6A R/B
1 68661U 26076F   26168.86819451  .00000062  00000-0  24273-4 0  9993
2 68661  86.5083  41.1623 0103235 251.3267 107.6686 14.09398855  9876
CZ-6A R/B
1 68661U 26076F   26168.93919095  .00000063  00000-0  25094-4 0  9999
2 68661  86.5082  41.1347 0103240 251.0999 107.8968 14.09398869  9884
CZ-6A R/B
1 68661U 26076F   26169.29417308  .00000064  00000-0  25281-4 0  9998
2 68661  86.5082  40.9966 0103270 249.9651 109.0390 14.09398896  9931
CZ-6A R/B
1 68661U 26076F   26169.64915528  .00000065  00000-0  25933-4 0  9999
2 68661  86.5082  40.8585 0103284 248.8372 110.1749 14.09398977  9986
CZ-6A R/B
1 68661U 26076F   26169.72015170  .00000065  00000-0  25739-4 0  9996
2 68661  86.5082  40.8307 0103292 248.6098 110.4038 14.09398991  9991
CZ-6A R/B
1 68661U 26076F   26169.86214462  .00000065  00000-0  26226-4 0  9998
2 68661  86.5077  40.7754 0103302 248.1598 110.8572 14.09398995 10018
CZ-6A R/B
1 68661U 26076F   26170.00413751  .00000067  00000-0  27332-4 0  9999
2 68661  86.5076  40.7201 0103322 247.7018 111.3185 14.09399025 10031
CZ-6A R/B
1 68661U 26076F   26170.14613043  .00000067  00000-0  27138-4 0  9994
2 68661  86.5075  40.6649 0103336 247.2510 111.7727 14.09399050 10058
CZ-6A R/B
1 68661U 26076F   26170.28812338  .00000067  00000-0  26938-4 0  9994
2 68661  86.5076  40.6096 0103343 246.8011 112.2261 14.09399059 10074
CZ-6A R/B
1 68661U 26076F   26170.64310573  .00000069  00000-0  27929-4 0  9991
2 68661  86.5077  40.4715 0103382 245.6605 113.3756 14.09399128 10124
CZ-6A R/B
1 68661U 26076F   26170.85609520  .00000070  00000-0  28503-4 0  9998
2 68661  86.5077  40.3885 0103405 244.9812 114.0606 14.09399142 10150
CZ-6A R/B
1 68661U 26076F   26170.92709170  .00000071  00000-0  29411-4 0  9998
2 68661  86.5076  40.3608 0103413 244.7603 114.2833 14.09399163 10165
CZ-6A R/B
1 68661U 26076F   26171.28207421  .00000072  00000-0  29796-4 0  9997
2 68661  86.5075  40.2228 0103443 243.6316 115.4217 14.09399229 10211
CZ-6A R/B
1 68661U 26076F   26171.56606021  .00000075  00000-0  31410-4 0  9996
2 68661  86.5075  40.1125 0103484 242.7109 116.3506 14.09399295 10259
CZ-6A R/B
1 68661U 26076F   26172.13403252  .00000079  00000-0  33691-4 0  9998
2 68661  86.5074  39.8911 0103541 240.9054 118.1730 14.09399345 10333
CZ-6A R/B
1 68661U 26076F   26172.56001183  .00000083  00000-0  35968-4 0  9996
2 68661  86.5075  39.7254 0103586 239.5432 119.5487 14.09399416 10395
CZ-6A R/B
1 68661U 26076F   26173.83795044  .00000099  00000-0  44186-4 0  9992
2 68661  86.5076  39.2281 0103693 235.4909 123.6450 14.09399649 10578
CZ-6A R/B
1 68661U 26076F   26174.97389649  .00000117  00000-0  54177-4 0  9990
2 68661  86.5078  38.7860 0103779 231.8884 127.2908 14.09399942 10736
CZ-6A R/B
1 68661U 26076F   26175.25788306  .00000120  00000-0  56072-4 0  9995
2 68661  86.5077  38.6753 0103789 231.0004 128.1902 14.09400060 10774
CZ-6A R/B
1 68661U 26076F   26176.18083985  .00000135  00000-0  64095-4 0  9999
2 68661  86.5077  38.3161 0103825 228.0731 131.1566 14.09400298 10906
CZ-6A R/B
1 68661U 26076F   26176.25183653  .00000136  00000-0  64357-4 0  9992
2 68661  86.5077  38.2885 0103830 227.8483 131.3844 14.09400307 10918
CZ-6A R/B
1 68661U 26076F   26176.60681986  .00000141  00000-0  67344-4 0  9998
2 68661  86.5079  38.1502 0103877 226.7092 132.5393 14.09400436 10960
CZ-6A R/B
1 68661U 26076F   26176.67781649  .00000141  00000-0  67486-4 0  9999
2 68661  86.5079  38.1228 0103884 226.4818 132.7699 14.09400481 10978
CZ-6A R/B
1 68661U 26076F   26176.81980985  .00000144  00000-0  68792-4 0  9993
2 68661  86.5078  38.0675 0103901 226.0233 133.2348 14.09400518 10999
CZ-6A R/B
1 68661U 26076F   26177.17479337  .00000147  00000-0  70751-4 0  9998
2 68661  86.5076  37.9292 0103912 224.9005 134.3739 14.09400629 11042
CZ-6A R/B
1 68661U 26076F   26177.24579010  .00000148  00000-0  70941-4 0  9997
2 68661  86.5076  37.9016 0103902 224.6780 134.5997 14.09400652 11057
CZ-6A R/B
1 68661U 26076F   26177.60077361  .00000150  00000-0  72313-4 0  9997
2 68661  86.5078  37.7635 0103937 223.5380 135.7565 14.09400758 11103
CZ-6A R/B
1 68661U 26076F   26177.74276703  .00000150  00000-0  72338-4 0  9990
2 68661  86.5078  37.7082 0103947 223.0858 136.2155 14.09400787 11120
CZ-6A R/B
1 68661U 26076F   26177.95575716  .00000155  00000-0  74736-4 0  9998
2 68661  86.5077  37.6254 0103964 222.3977 136.9140 14.09400855 11152
CZ-6A R/B
1 68661U 26076F   26178.16874729  .00000154  00000-0  74282-4 0  9993
2 68661  86.5078  37.5426 0103983 221.7140 137.6081 14.09400922 11189
CZ-6A R/B
1 68661U 26076F   26178.31074075  .00000155  00000-0  74867-4 0  9996
2 68661  86.5078  37.4871 0103981 221.2642 138.0649 14.09400970 11203
CZ-6A R/B
1 68661U 26076F   26178.52373091  .00000156  00000-0  75412-4 0  9997
2 68661  86.5078  37.4042 0103988 220.5899 138.7498 14.09401068 11237
CZ-6A R/B
1 68661U 26076F   26178.87871447  .00000155  00000-0  74730-4 0  9994
2 68661  86.5077  37.2662 0104020 219.4601 139.8975 14.09401196 11287
CZ-6A R/B
1 68661U 26076F   26178.94971122  .00000156  00000-0  75450-4 0  9994
2 68661  86.5077  37.2386 0104027 219.2323 140.1289 14.09401224 11292
CZ-6A R/B
1 68661U 26076F   26179.16270141  .00000154  00000-0  74310-4 0  9994
2 68661  86.5076  37.1556 0104033 218.5539 140.8183 14.09401289 11322
CZ-6A R/B
1 68661U 26076F   26179.30469488  .00000154  00000-0  74041-4 0  9995
2 68661  86.5077  37.1003 0104037 218.1068 141.2726 14.09401327 11340
CZ-6A R/B
1 68661U 26076F   26179.65967847  .00000150  00000-0  72301-4 0  9998
2 68661  86.5079  36.9618 0104081 216.9807 142.4171 14.09401452 11398
CZ-6A R/B
1 68661U 26076F   26179.94366546  .00000150  00000-0  72175-4 0  9998
2 68661  86.5078  36.8511 0104100 216.0745 143.3384 14.09401517 11435
CZ-6A R/B
1 68661U 26076F   26180.58263613  .00000142  00000-0  67385-4 0  9999
2 68661  86.5077  36.6022 0104153 214.0191 145.4286 14.09401742 11524
CZ-6A R/B
1 68661U 26076F   26181.57659071  .00000122  00000-0  56627-4 0  9991
2 68661  86.5075  36.2152 0104219 210.8584 148.6447 14.09401991 11660
CZ-6A R/B
1 68661U 26076F   26181.86057767  .00000116  00000-0  53450-4 0  9991
2 68661  86.5074  36.1047 0104248 209.9495 149.5699 14.09402076 11702
CZ-6A R/B
1 68661U 26076F   26181.93157447  .00000115  00000-0  52845-4 0  9991
2 68661  86.5074  36.0770 0104250 209.7233 149.8002 14.09402089 11711
CZ-6A R/B
1 68661U 26076F   26182.14456475  .00000107  00000-0  48660-4 0  9999
2 68661  86.5074  35.9942 0104267 209.0375 150.4985 14.09402157 11745
CZ-6A R/B
1 68661U 26076F   26182.28655826  .00000104  00000-0  46594-4 0  9996
2 68661  86.5075  35.9388 0104275 208.5860 150.9583 14.09402193 11763
CZ-6A R/B
1 68661U 26076F   26182.49954858  .00000100  00000-0  44453-4 0  9994
2 68661  86.5077  35.8561 0104296 207.9047 151.6519 14.09402243 11796
CZ-6A R/B
1 68661U 26076F   26182.64154212  .00000092  00000-0  40490-4 0  9994
2 68661  86.5076  35.8008 0104305 207.4535 152.1115 14.09402263 11812
CZ-6A R/B
1 68661U 26076F   26182.92552925  .00000085  00000-0  36625-4 0  9995
2 68661  86.5075  35.6902 0104328 206.5349 153.0472 14.09402297 11857
CZ-6A R/B
1 68661U 26076F   26183.28051314  .00000074  00000-0  30219-4 0  9992
2 68661  86.5074  35.5522 0104349 205.3986 154.2048 14.09402382 11903
CZ-6A R/B
1 68661U 26076F   26183.63549705  .00000060  00000-0  22958-4 0  9993
2 68661  86.5075  35.4142 0104371 204.2705 155.3543 14.09402445 11950
CZ-6A R/B
1 68661U 26076F   26183.77749061  .00000055  00000-0  20202-4 0  9999
2 68661  86.5068  35.3591 0104384 203.8176 155.8158 14.09402453 11978
CZ-6A R/B
1 68661U 26076F   26184.13247456  .00000042  00000-0  12783-4 0  9992
2 68661  86.5072  35.2210 0104397 202.6840 156.9713 14.09402516 12025
CZ-6A R/B
1 68661U 26076F   26184.70044891  .00000019  00000-0  14357-6 0  9998
2 68661  86.5072  34.9999 0104433 200.8731 158.8174 14.09402576 12102
CZ-6A R/B
1 68661U 26076F   26184.70044892  .00000019  00000-0  19229-6 0  9992
2 68661  86.5072  34.9999 0104430 200.8749 158.8156 14.09402569 12100
CZ-6A R/B
1 68661U 26076F   26184.84244250  .00000016  00000-0 -14643-5 0  9999
2 68661  86.5072  34.9447 0104449 200.4183 159.2811 14.09402594 12129
CZ-6A R/B
1 68661U 26076F   26185.19742656 -.00000000  00000-0 -10293-4 0  9991
2 68661  86.5072  34.8064 0104455 199.2912 160.4304 14.09402608 12177
CZ-6A R/B
1 68661U 26076F   26185.26842337 -.00000002  00000-0 -11141-4 0  9991
2 68661  86.5072  34.7788 0104458 199.0654 160.6607 14.09402615 12180
CZ-6A R/B
1 68661U 26076F   26185.55241056 -.00000012  00000-0 -16473-4 0  9998
2 68661  86.5071  34.6682 0104497 198.1569 161.5871 14.09402650 12226
CZ-6A R/B
1 68661U 26076F   26185.62340734 -.00000013  00000-0 -17167-4 0  9991
2 68661  86.5071  34.6406 0104507 197.9308 161.8178 14.09402664 12239
CZ-6A R/B
1 68661U 26076F   26185.97839142 -.00000028  00000-0 -25255-4 0  9998
2 68661  86.5069  34.5024 0104547 196.7955 162.9757 14.09402640 12284
CZ-6A R/B
1 68661U 26076F   26186.19138187 -.00000038  00000-0 -30958-4 0  9991
2 68661  86.5069  34.4192 0104557 196.1178 163.6671 14.09402626 12312
CZ-6A R/B
1 68661U 26076F   26186.26237870 -.00000041  00000-0 -32600-4 0  9998
2 68661  86.5069  34.3916 0104565 195.8917 163.8978 14.09402614 12321
CZ-6A R/B
1 68661U 26076F   26186.54636601 -.00000052  00000-0 -38287-4 0  9993
2 68661  86.5068  34.2810 0104591 194.9927 164.8149 14.09402603 12365
CZ-6A R/B
1 68661U 26076F   26186.61736281 -.00000057  00000-0 -40958-4 0  9999
2 68661  86.5068  34.2533 0104592 194.7694 165.0428 14.09402602 12370
CZ-6A R/B
1 68661U 26076F   26186.90135013 -.00000065  00000-0 -45761-4 0  9993
2 68661  86.5068  34.1428 0104623 193.8637 165.9669 14.09402579 12418
CZ-6A R/B
1 68661U 26076F   26187.18533751 -.00000079  00000-0 -53106-4 0  9992
2 68661  86.5068  34.0323 0104618 192.9646 166.8844 14.09402559 12452
CZ-6A R/B
1 68661U 26076F   26187.25633436 -.00000081  00000-0 -54272-4 0  9999
2 68661  86.5068  34.0046 0104619 192.7394 167.1143 14.09402551 12462
CZ-6A R/B
1 68661U 26076F   26187.61131846 -.00000093  00000-0 -60609-4 0  9991
2 68661  86.5069  33.8662 0104657 191.6200 168.2567 14.09402563 12511
CZ-6A R/B
1 68661U 26076F   26187.89530582 -.00000100  00000-0 -64641-4 0  9990
2 68661  86.5068  33.7557 0104691 190.7176 169.1776 14.09402530 12552
CZ-6A R/B
1 68661U 26076F   26188.17929317 -.00000110  00000-0 -70418-4 0  9990
2 68661  86.5069  33.6453 0104749 189.8032 170.1109 14.09402515 12590
CZ-6A R/B
1 68661U 26076F   26188.25029003 -.00000112  00000-0 -71258-4 0  9997
2 68661  86.5070  33.6176 0104748 189.5793 170.3395 14.09402511 12601
CZ-6A R/B
1 68661U 26076F   26188.46328059 -.00000116  00000-0 -73491-4 0  9998
2 68661  86.5070  33.5346 0104778 188.9064 171.0264 14.09402488 12635
CZ-6A R/B
1 68661U 26076F   26188.60527431 -.00000121  00000-0 -76076-4 0  9997
2 68661  86.5070  33.4794 0104797 188.4549 171.4872 14.09402461 12657
CZ-6A R/B
1 68661U 26076F   26188.88926177 -.00000126  00000-0 -78771-4 0  9996
2 68661  86.5068  33.3689 0104814 187.5610 172.3998 14.09402407 12698
CZ-6A R/B
1 68661U 26076F   26189.17324926 -.00000134  00000-0 -83265-4 0  9996
2 68661  86.5069  33.2581 0104851 186.6601 173.3196 14.09402337 12738
CZ-6A R/B
1 68661U 26076F   26189.52823366 -.00000138  00000-0 -85651-4 0  9992
2 68661  86.5069  33.1199 0104907 185.5353 174.4679 14.09402255 12788
CZ-6A R/B
1 68661U 26076F   26189.59923054 -.00000140  00000-0 -86817-4 0  9992
2 68661  86.5069  33.0922 0104913 185.3116 174.6963 14.09402229 12793
CZ-6A R/B
1 68661U 26076F   26189.95421501 -.00000143  00000-0 -88192-4 0  9993
2 68661  86.5069  32.9540 0104948 184.1929 175.8386 14.09402124 12846
CZ-6A R/B
1 68661U 26076F   26190.30919944 -.00000146  00000-0 -89861-4 0  9994
2 68661  86.5070  32.8158 0105010 183.0686 176.9866 14.09402043 12891
CZ-6A R/B
1 68661U 26076F   26190.80617772 -.00000149  00000-0 -91571-4 0  9997
2 68661  86.5069  32.6222 0105073 181.5046 178.5836 14.09401915 12961
CZ-6A R/B
1 68661U 26076F   26191.30315615 -.00000149  00000-0 -91650-4 0  9992
2 68661  86.5069  32.4286 0105112 179.9381 180.1834 14.09401815 13031
CZ-6A R/B
1 68661U 26076F   26191.58714380 -.00000149  00000-0 -91781-4 0  9999
2 68661  86.5069  32.3178 0105146 179.0482 181.0922 14.09401753 13073
CZ-6A R/B
1 68661U 26076F   26191.87113146 -.00000147  00000-0 -90339-4 0  9990
2 68661  86.5069  32.2073 0105181 178.1597 181.9995 14.09401683 13118
CZ-6A R/B
1 68661U 26076F   26192.22611611 -.00000144  00000-0 -88800-4 0  9997
2 68661  86.5069  32.0689 0105209 177.0436 183.1392 14.09401611 13161
CZ-6A R/B
1 68661U 26076F   26192.51010381 -.00000140  00000-0 -86552-4 0  9994
2 68661  86.5069  31.9584 0105250 176.1564 184.0452 14.09401549 13203
CZ-6A R/B
1 68661U 26076F   26192.72309458 -.00000138  00000-0 -85722-4 0  9998
2 68661  86.5068  31.8756 0105274 175.4909 184.7248 14.09401493 13234
CZ-6A R/B
1 68661U 26076F   26192.86508847 -.00000135  00000-0 -83771-4 0  9995
2 68661  86.5068  31.8204 0105288 175.0476 185.1775 14.09401452 13259
CZ-6A R/B
1 68661U 26076F   26192.93608541 -.00000133  00000-0 -82659-4 0  9997
2 68661  86.5068  31.7926 0105288 174.8264 185.4033 14.09401459 13269
CZ-6A R/B
1 68661U 26076F   26193.22007316 -.00000129  00000-0 -80670-4 0  9999
2 68661  86.5069  31.6821 0105317 173.9356 186.3130 14.09401378 13301
CZ-6A R/B
1 68661U 26076F   26193.29107013 -.00000127  00000-0 -79716-4 0  9998
2 68661  86.5069  31.6545 0105322 173.7117 186.5416 14.09401366 13310
CZ-6A R/B
1 68661U 26076F   26193.50406094 -.00000123  00000-0 -77574-4 0  9999
2 68661  86.5069  31.5716 0105347 173.0505 187.2169 14.09401319 13344
CZ-6A R/B
1 68661U 26076F   26193.57505786 -.00000123  00000-0 -77145-4 0  9998
2 68661  86.5069  31.5439 0105354 172.8315 187.4405 14.09401310 13357
CZ-6A R/B
1 68661U 26076F   26193.85904561 -.00000115  00000-0 -72863-4 0  9996
2 68661  86.5069  31.4332 0105382 171.9476 188.3430 14.09401242 13393
CZ-6A R/B
1 68661U 26076F   26194.21403035 -.00000108  00000-0 -69014-4 0  9993
2 68661  86.5069  31.2950 0105410 170.8369 189.4771 14.09401187 13442
CZ-6A R/B
1 68661U 26076F   26194.28502730 -.00000105  00000-0 -67851-4 0  9996
2 68661  86.5069  31.2674 0105416 170.6134 189.7052 14.09401178 13455
CZ-6A R/B
1 68661U 26076F   26194.49801810 -.00000100  00000-0 -64876-4 0  9999
2 68661  86.5069  31.1846 0105446 169.9544 190.3782 14.09401161 13487
CZ-6A R/B
1 68661U 26076F   26194.64001197 -.00000098  00000-0 -63862-4 0  9996
2 68661  86.5070  31.1294 0105462 169.5124 190.8294 14.09401133 13509
CZ-6A R/B
1 68661U 26076F   26194.85300284 -.00000090  00000-0 -59264-4 0  9991
2 68661  86.5071  31.0464 0105478 168.8504 191.5052 14.09401091 13535
CZ-6A R/B
1 68661U 26076F   26195.20798753 -.00000081  00000-0 -54559-4 0  9995
2 68661  86.5069  30.9081 0105523 167.7469 192.6318 14.09401033 13582
CZ-6A R/B
1 68661U 26076F   26195.63396912 -.00000070  00000-0 -48527-4 0  9999
2 68661  86.5069  30.7424 0105589 166.4273 193.9790 14.09400996 13644
CZ-6A R/B
1 68661U 26076F   26195.84695997 -.00000061  00000-0 -43504-4 0  9997
2 68661  86.5069  30.6595 0105609 165.7668 194.6532 14.09400965 13676
CZ-6A R/B
1 68661U 26076F   26195.98895385 -.00000056  00000-0 -41121-4 0  9992
2 68661  86.5068  30.6041 0105617 165.3262 195.1028 14.09400960 13699
CZ-6A R/B
1 68661U 26076F   26196.20194466 -.00000051  00000-0 -38327-4 0  9999
2 68661  86.5068  30.5210 0105633 164.6605 195.7822 14.09400948 13725
CZ-6A R/B
1 68661U 26076F   26196.55692927 -.00000040  00000-0 -32366-4 0  9997
2 68661  86.5068  30.3827 0105664 163.5653 196.9000 14.09400971 13774
CZ-6A R/B
1 68661U 26076F   26196.62792619 -.00000039  00000-0 -31704-4 0  9997
2 68661  86.5067  30.3551 0105672 163.3459 197.1238 14.09400961 13784
CZ-6A R/B
1 68661U 26076F   26196.84091706 -.00000030  00000-0 -26667-4 0  9993
2 68661  86.5066  30.2721 0105683 162.6815 197.8018 14.09400926 13819
CZ-6A R/B
1 68661U 26076F   26196.98291093 -.00000026  00000-0 -24378-4 0  9991
2 68661  86.5066  30.2169 0105691 162.2406 198.2517 14.09400929 13830
CZ-6A R/B
1 68661U 26076F   26197.19590170 -.00000020  00000-0 -21215-4 0  9994
2 68661  86.5065  30.1337 0105704 161.5803 198.9254 14.09400910 13861
CZ-6A R/B
1 68661U 26076F   26197.26689859 -.00000016  00000-0 -19054-4 0  9998
2 68661  86.5065  30.1061 0105729 161.3619 199.1483 14.09400919 13872
CZ-6A R/B
1 68661U 26076F   26197.62188315 -.00000006  00000-0 -13839-4 0  9993
2 68661  86.5064  29.9676 0105763 160.2674 200.2649 14.09400934 13927
CZ-6A R/B
1 68661U 26076F   26197.90587078  .00000004  00000-0 -81421-5 0  9993
2 68661  86.5064  29.8571 0105785 159.3902 201.1597 14.09400951 13962
CZ-6A R/B
1 68661U 26076F   26198.18985843  .00000013  00000-0 -35831-5 0  9990
2 68661  86.5065  29.7466 0105805 158.5091 202.0583 14.09400956 14004
CZ-6A R/B
1 68661U 26076F   26198.33185220  .00000019  00000-0 -28774-6 0  9993
2 68661  86.5064  29.6913 0105840 158.0749 202.5013 14.09400967 14020
CZ-6A R/B
1 68661U 26076F   26198.61583970  .00000025  00000-0  29482-5 0  9990
2 68661  86.5064  29.5807 0105878 157.2048 203.3887 14.09400993 14066
CZ-6A R/B
1 68661U 26076F   26198.68683659  .00000028  00000-0  44591-5 0  9993
2 68661  86.5064  29.5531 0105882 156.9858 203.6120 14.09400999 14070
CZ-6A R/B
1 68661U 26076F   26198.89982730  .00000037  00000-0  98154-5 0  9992
2 68661  86.5063  29.4701 0105892 156.3263 204.2845 14.09401026 14109
CZ-6A R/B
1 68661U 26076F   26199.32580860  .00000050  00000-0  16653-4 0  9997
2 68661  86.5063  29.3042 0105926 155.0111 205.6254 14.09401046 14169
CZ-6A R/B
1 68661U 26076F   26199.60979606  .00000056  00000-0  19849-4 0  9994
2 68661  86.5063  29.1938 0105954 154.1390 206.5144 14.09401077 14208
CZ-6A R/B
1 68661U 26076F   26199.89378348  .00000065  00000-0  25003-4 0  9990
2 68661  86.5063  29.0832 0105979 153.2659 207.4043 14.09401121 14247
CZ-6A R/B
1 68661U 26076F   26199.96478035  .00000069  00000-0  26892-4 0  9993
2 68661  86.5063  29.0557 0105985 153.0471 207.6272 14.09401147 14253
CZ-6A R/B
1 68661U 26076F   26200.31976459  .00000078  00000-0  32111-4 0  9999
2 68661  86.5063  28.9174 0106021 151.9534 208.7418 14.09401182 14304
CZ-6A R/B
1 68661U 26076F   26200.60375193  .00000083  00000-0  34849-4 0  9995
2 68661  86.5063  28.8068 0106044 151.0796 209.6320 14.09401235 14346
CZ-6A R/B
1 68661U 26076F   26200.88773926  .00000092  00000-0  39461-4 0  9996
2 68661  86.5063  28.6964 0106064 150.2030 210.5250 14.09401282 14382
CZ-6A R/B
1 68661U 26076F   26201.31372019  .00000103  00000-0  45631-4 0  9992
2 68661  86.5063  28.5306 0106109 148.8887 211.8637 14.09401361 14442
CZ-6A R/B
1 68661U 26076F   26201.59770738  .00000108  00000-0  48292-4 0  9993
2 68661  86.5062  28.4200 0106128 148.0152 212.7532 14.09401428 14483
CZ-6A R/B
1 68661U 26076F   26201.88169451  .00000118  00000-0  53525-4 0  9995
2 68661  86.5061  28.3093 0106161 147.1441 213.6402 14.09401511 14523
CZ-6A R/B
1 68661U 26076F   26201.95269135  .00000119  00000-0  54243-4 0  9992
2 68661  86.5060  28.2815 0106113 146.9182 213.8698 14.09401541 14532
CZ-6A R/B
1 68661U 26076F   26202.30767520  .00000126  00000-0  58272-4 0  9997
2 68661  86.5061  28.1433 0106162 145.8257 214.9820 14.09401633 14589
CZ-6A R/B
1 68661U 26076F   26202.59166220  .00000130  00000-0  60174-4 0  9997
2 68661  86.5062  28.0327 0106187 144.9544 215.8687 14.09401712 14621
CZ-6A R/B
1 68661U 26076F   26203.23063287  .00000142  00000-0  66749-4 0  9995
2 68661  86.5065  27.7839 0106222 142.9815 217.8758 14.09401894 14719
CZ-6A R/B
1 68661U 26076F   26203.58561640  .00000144  00000-0  67665-4 0  9999
2 68661  86.5065  27.6458 0106247 141.8908 218.9850 14.09402025 14760
CZ-6A R/B
1 68661U 26076F   26203.94059990  .00000151  00000-0  71819-4 0  9993
2 68661  86.5065  27.5075 0106269 140.7951 220.0991 14.09402156 14815
CZ-6A R/B
1 68661U 26076F   26204.29558325  .00000153  00000-0  72918-4 0  9991
2 68661  86.5068  27.3694 0106315 139.7042 221.2082 14.09402269 14868
CZ-6A R/B
1 68661U 26076F   26204.57956980  .00000153  00000-0  72620-4 0  9991
2 68661  86.5068  27.2587 0106335 138.8371 222.0894 14.09402397 14902
CZ-6A R/B
1 68661U 26076F   26204.72156310  .00000154  00000-0  73245-4 0  9992
2 68661  86.5065  27.2035 0106342 138.4000 222.5336 14.09402429 14924
CZ-6A R/B
1 68661U 26076F   26204.86355641  .00000158  00000-0  75097-4 0  9996
2 68661  86.5065  27.1482 0106347 137.9628 222.9777 14.09402479 14944
CZ-6A R/B
1 68661U 26076F   26205.00554966  .00000157  00000-0  74714-4 0  9998
2 68661  86.5065  27.0929 0106353 137.5253 223.4222 14.09402535 14962
CZ-6A R/B
1 68661U 26076F   26205.28953612  .00000159  00000-0  76117-4 0  9990
2 68661  86.5065  26.9823 0106387 136.6533 224.3080 14.09402638 15003
CZ-6A R/B
1 68661U 26076F   26205.57352248  .00000155  00000-0  73504-4 0  9993
2 68661  86.5067  26.8718 0106407 135.7804 225.1944 14.09402762 15041
CZ-6A R/B
1 68661U 26076F   26205.85750883  .00000156  00000-0  74279-4 0  9992
2 68661  86.5066  26.7613 0106430 134.9026 226.0857 14.09402878 15081
CZ-6A R/B
1 68661U 26076F   26205.85750884  .00000156  00000-0  74223-4 0  9992
2 68661  86.5067  26.7613 0106431 134.9032 226.0851 14.09402873 15089
CZ-6A R/B
1 68661U 26076F   26206.56747446  .00000152  00000-0  72008-4 0  9996
2 68661  86.5067  26.4849 0106455 132.7059 228.3149 14.09403149 15181
CZ-6A R/B
1 68661U 26076F   26206.92245711  .00000152  00000-0  71790-4 0  9991
2 68661  86.5067  26.3468 0106484 131.6133 229.4234 14.09403272 15230
CZ-6A R/B
1 68661U 26076F   26207.27743969  .00000150  00000-0  70961-4 0  9995
2 68661  86.5068  26.2085 0106501 130.5107 230.5415 14.09403397 15281
CZ-6A R/B
1 68661U 26076F   26207.63242212  .00000146  00000-0  68509-4 0  9990
2 68661  86.5070  26.0702 0106510 129.4139 231.6533 14.09403537 15335
CZ-6A R/B
1 68661U 26076F   26208.27139028  .00000139  00000-0  64868-4 0  9997
2 68661  86.5069  25.8215 0106534 127.4280 233.6655 14.09403781 15428
CZ-6A R/B
1 68661U 26076F   26208.48437955  .00000136  00000-0  63150-4 0  9990
2 68661  86.5071  25.7385 0106556 126.7767 234.3253 14.09403864 15451
CZ-6A R/B
1 68661U 26076F   26208.62637242  .00000133  00000-0  61788-4 0  9999
2 68661  86.5071  25.6833 0106554 126.3342 234.7735 14.09403899 15470
CZ-6A R/B
1 68661U 26076F   26208.91035807  .00000131  00000-0  60844-4 0  9990
2 68661  86.5070  25.5727 0106598 125.4636 235.6553 14.09403977 15514
CZ-6A R/B
1 68661U 26076F   26209.19434361  .00000126  00000-0  57779-4 0  9996
2 68661  86.5071  25.4623 0106637 124.5882 236.5417 14.09404080 15555
CZ-6A R/B
1 68661U 26076F   26209.90430725  .00000116  00000-0  52301-4 0  9990
2 68661  86.5072  25.1857 0106689 122.3941 238.7619 14.09404349 15658
CZ-6A R/B
1 68661U 26076F   26210.18829262  .00000110  00000-0  49183-4 0  9998
2 68661  86.5073  25.0752 0106709 121.5099 239.6562 14.09404421 15692
CZ-6A R/B
1 68661U 26076F   26210.25928894  .00000112  00000-0  50036-4 0  9998
2 68661  86.5073  25.0476 0106715 121.2913 239.8773 14.09404452 15706
CZ-6A R/B
1 68661U 26076F   26210.96925198  .00000100  00000-0  43447-4 0  9995
2 68661  86.5073  24.7711 0106785 119.1015 242.0911 14.09404656 15807
CZ-6A R/B
1 68661U 26076F   26211.25323704  .00000096  00000-0  41279-4 0  9998
2 68661  86.5074  24.6604 0106816 118.2271 242.9746 14.09404744 15844
CZ-6A R/B
1 68661U 26076F   26211.89220321  .00000089  00000-0  37863-4 0  9995
2 68661  86.5073  24.4115 0106875 116.2623 244.9590 14.09404957 15937
CZ-6A R/B
1 68661U 26076F   26212.17618809  .00000083  00000-0  34430-4 0  9990
2 68661  86.5074  24.3011 0106901 115.3800 245.8496 14.09405015 15974
CZ-6A R/B
1 68661U 26076F   26212.60216525  .00000076  00000-0  30656-4 0  9995
2 68661  86.5076  24.1351 0106933 114.0680 247.1735 14.09405136 16031
CZ-6A R/B
1 68661U 26076F   26212.88615006  .00000074  00000-0  29732-4 0  9993
2 68661  86.5075  24.0247 0106951 113.1766 248.0726 14.09405207 16071
CZ-6A R/B
1 68661U 26076F   26212.95714618  .00000071  00000-0  27691-4 0  9999
2 68661  86.5074  23.9970 0106967 112.9684 248.2827 14.09405211 16084
CZ-6A R/B
1 68661U 26076F   26213.24113083  .00000067  00000-0  25453-4 0  9990
2 68661  86.5076  23.8865 0106990 112.0860 249.1724 14.09405270 16127
CZ-6A R/B
1 68661U 26076F   26213.66710769  .00000062  00000-0  22893-4 0  9990
2 68661  86.5076  23.7205 0107019 110.7660 250.5028 14.09405362 16181
CZ-6A R/B
1 68661U 26076F   26213.95109222  .00000058  00000-0  20971-4 0  9998
2 68661  86.5075  23.6102 0107055 109.8851 251.3905 14.09405420 16229
CZ-6A R/B
1 68661U 26076F   26214.16408057  .00000055  00000-0  19093-4 0  9990
2 68661  86.5077  23.5273 0107073 109.2213 252.0592 14.09405446 16256
CZ-6A R/B
1 68661U 26076F   26214.30607277  .00000053  00000-0  17828-4 0  9993
2 68661  86.5078  23.4720 0107083 108.7833 252.5003 14.09405461 16277
CZ-6A R/B
1 68661U 26076F   26214.66105316  .00000048  00000-0  15245-4 0  9994
2 68661  86.5078  23.3337 0107098 107.6828 253.6082 14.09405537 16327
CZ-6A R/B
1 68661U 26076F   26214.94503744  .00000047  00000-0  14705-4 0  9991
2 68661  86.5077  23.2236 0107114 106.7983 254.4982 14.09405614 16362
CZ-6A R/B
1 68661U 26076F   26215.58400177  .00000039  00000-0  10597-4 0  9994
2 68661  86.5081  22.9748 0107174 104.8299 256.4785 14.09405713 16459
CZ-6A R/B
1 68661U 26076F   26215.93898185  .00000035  00000-0  83568-5 0  9998
2 68661  86.5079  22.8366 0107210 103.7368 257.5775 14.09405751 16506
CZ-6A R/B
1 68661U 26076F   26217.28790506  .00000023  00000-0  15512-5 0  9997
2 68661  86.5082  22.3116 0107335  99.6088 261.7241 14.09405917 16697
CZ-6A R/B
1 68661U 26076F   26217.57188878  .00000018  00000-0 -76484-6 0  9993
2 68661  86.5082  22.2013 0107350  98.7225 262.6134 14.09405929 16731
CZ-6A R/B
1 68661U 26076F   26218.28184778  .00000014  00000-0 -31555-5 0  9992
2 68661  86.5083  21.9250 0107395  96.5265 264.8157 14.09405979 16835
CZ-6A R/B
1 68661U 26076F   26218.56583126  .00000010  00000-0 -50847-5 0  9994
2 68661  86.5083  21.8144 0107405  95.6441 265.7001 14.09406000 16872
CZ-6A R/B
1 68661U 26076F   26218.99180632  .00000008  00000-0 -64803-5 0  9990
2 68661  86.5081  21.6487 0107441  94.3444 267.0023 14.09406036 16932
CZ-6A R/B
1 68661U 26076F   26219.27578963  .00000008  00000-0 -65637-5 0  9996
2 68661  86.5082  21.5381 0107454  93.4753 267.8727 14.09406041 16971
CZ-6A R/B
1 68661U 26076F   26219.70176448  .00000005  00000-0 -80637-5 0  9990
2 68661  86.5083  21.3724 0107473  92.1652 269.1841 14.09406047 17032
CZ-6A R/B
1 68661U 26076F   26219.84375610  .00000005  00000-0 -81199-5 0  9991
2 68661  86.5082  21.3172 0107473  91.7247 269.6248 14.09406051 17056
CZ-6A R/B
1 68661U 26076F   26219.98574767  .00000002  00000-0 -94762-5 0  9997
2 68661  86.5081  21.2620 0107478  91.2859 270.0639 14.09406061 17074
CZ-6A R/B
1 68661U 26076F   26220.19873501  .00000002  00000-0 -95542-5 0  9997
2 68661  86.5083  21.1791 0107491  90.6354 270.7146 14.09406053 17107
CZ-6A R/B
1 68661U 26076F   26220.26973080  .00000002  00000-0 -95732-5 0  9999
2 68661  86.5084  21.1515 0107489  90.4158 270.9342 14.09406055 17112
CZ-6A R/B
1 68661U 26076F   26220.48271810  .00000000  00000-0 -10681-4 0  9992
2 68661  86.5085  21.0686 0107499  89.7620 271.5880 14.09406064 17144
CZ-6A R/B
1 68661U 26076F   26220.62470963  .00000000  00000-0 -10938-4 0  9993
2 68661  86.5085  21.0133 0107503  89.3253 272.0245 14.09406045 17167
CZ-6A R/B
1 68661U 26076F   26220.83769685  .00000002  00000-0 -97953-5 0  9993
2 68661  86.5086  20.9305 0107507  88.6784 272.6711 14.09406061 17197
CZ-6A R/B
1 68661U 26076F   26220.97968832  .00000000  00000-0 -10756-4 0  9996
2 68661  86.5085  20.8752 0107509  88.2413 273.1079 14.09406061 17214
CZ-6A R/B
1 68661U 26076F   26221.19267551  .00000001  00000-0 -10298-4 0  9993
2 68661  86.5087  20.7923 0107515  87.5934 273.7553 14.09406050 17246
CZ-6A R/B
1 68661U 26076F   26221.26367125  .00000002  00000-0 -98950-5 0  9992
2 68661  86.5087  20.7647 0107517  87.3757 273.9727 14.09406053 17251
CZ-6A R/B
1 68661U 26076F   26221.47665836 -.00000001  00000-0 -11153-4 0  9994
2 68661  86.5087  20.6817 0107515  86.7184 274.6291 14.09406073 17283
CZ-6A R/B
1 68661U 26076F   26221.83163691  .00000002  00000-0 -98675-5 0  9991
2 68661  86.5087  20.5436 0107523  85.6297 275.7162 14.09406063 17335
CZ-6A R/B
1 68661U 26076F   26222.18661532  .00000001  00000-0 -10093-4 0  9993
2 68661  86.5088  20.4054 0107527  84.5381 276.8055 14.09406063 17385
CZ-6A R/B
1 68661U 26076F   26222.47059797  .00000002  00000-0 -96670-5 0  9996
2 68661  86.5089  20.2950 0107520  83.6580 277.6834 14.09406097 17429
CZ-6A R/B
1 68661U 26076F   26222.89657185  .00000005  00000-0 -78009-5 0  9996
2 68661  86.5089  20.1294 0107515  82.3544 278.9833 14.09406107 17480
CZ-6A R/B
1 68661U 26076F   26222.96756750  .00000005  00000-0 -80108-5 0  9995
2 68661  86.5088  20.1017 0107515  82.1334 279.2037 14.09406108 17499
CZ-6A R/B
1 68661U 26076F   26223.18055439  .00000008  00000-0 -65258-5 0  9998
2 68661  86.5089  20.0188 0107515  81.4784 279.8565 14.09406109 17526
CZ-6A R/B
1 68661U 26076F   26223.25155001  .00000009  00000-0 -59523-5 0  9991
2 68661  86.5090  19.9911 0107512  81.2598 280.0743 14.09406121 17534
CZ-6A R/B
1 68661U 26076F   26223.53553244  .00000009  00000-0 -59330-5 0  9999
2 68661  86.5091  19.8809 0107502  80.3838 280.9470 14.09406131 17577
CZ-6A R/B
1 68661U 26076F   26223.89051044  .00000015  00000-0 -27664-5 0  9991
2 68661  86.5090  19.7426 0107494  79.2935 282.0329 14.09406153 17621
CZ-6A R/B
1 68661U 26076F   26223.96150602  .00000014  00000-0 -28602-5 0  9991
2 68661  86.5090  19.7151 0107490  79.0703 282.2550 14.09406162 17632
CZ-6A R/B
1 68661U 26076F   26224.17449277  .00000018  00000-0 -84263-6 0  9994
2 68661  86.5090  19.6323 0107486  78.4174 282.9050 14.09406160 17665
CZ-6A R/B
1 68661U 26076F   26224.52947056  .00000020  00000-0  44473-6 0  9992
2 68661  86.5091  19.4943 0107470  77.3174 283.9997 14.09406197 17710
CZ-6A R/B
1 68661U 26076F   26224.60046610  .00000022  00000-0  11191-5 0  9999
2 68661  86.5091  19.4666 0107463  77.0976 284.2184 14.09406196 17723
CZ-6A R/B
1 68661U 26076F   26225.16843039  .00000030  00000-0  58657-5 0  9998
2 68661  86.5092  19.2455 0107433  75.3474 285.9589 14.09406225 17808
CZ-6A R/B
1 68661U 26076F   26225.87838545  .00000043  00000-0  12985-4 0  9999
2 68661  86.5094  18.9694 0107394  73.1521 288.1406 14.09406297 17909
CZ-6A R/B
1 68661U 26076F   26225.94938093  .00000044  00000-0  13238-4 0  9999
2 68661  86.5094  18.9417 0107391  72.9310 288.3603 14.09406301 17910
CZ-6A R/B
1 68661U 26076F   26226.16236736  .00000048  00000-0  15409-4 0  9995
2 68661  86.5095  18.8592 0107380  72.2762 289.0106 14.09406311 17946
CZ-6A R/B
1 68661U 26076F   26226.30435831  .00000051  00000-0  17293-4 0  9995
2 68661  86.5096  18.8039 0107373  71.8389 289.4449 14.09406330 17962
CZ-6A R/B
1 68661U 26076F   26226.51734469  .00000053  00000-0  18134-4 0  9994
2 68661  86.5097  18.7212 0107363  71.1766 290.1025 14.09406351 17991
CZ-6A R/B
1 68661U 26076F   26226.58834014  .00000055  00000-0  19092-4 0  9994
2 68661  86.5097  18.6935 0107358  70.9583 290.3191 14.09406350 18008
CZ-6A R/B
1 68661U 26076F   26226.87232190  .00000061  00000-0  22363-4 0  9995
2 68661  86.5097  18.5832 0107336  70.0848 291.1860 14.09406387 18040
CZ-6A R/B
1 68661U 26076F   26226.94331731  .00000061  00000-0  22719-4 0  9999
2 68661  86.5097  18.5556 0107334  69.8628 291.4063 14.09406404 18052
CZ-6A R/B
1 68661U 26076F   26227.15630358  .00000065  00000-0  24630-4 0  9998
2 68661  86.5098  18.4728 0107318  69.2065 292.0574 14.09406413 18081
CZ-6A R/B
1 68661U 26076F   26227.22729900  .00000067  00000-0  25659-4 0  9992
2 68661  86.5099  18.4451 0107314  68.9878 292.2743 14.09406428 18096
CZ-6A R/B
1 68661U 26076F   26227.36928981  .00000069  00000-0  26756-4 0  9998
2 68661  86.5099  18.3898 0107303  68.5474 292.7111 14.09406454 18112
CZ-6A R/B
1 68661U 26076F   26227.51128059  .00000069  00000-0  27152-4 0  9994
2 68661  86.5100  18.3345 0107288  68.1085 293.1463 14.09406475 18138
CZ-6A R/B
1 68661U 26076F   26227.58227598  .00000070  00000-0  27697-4 0  9995
2 68661  86.5099  18.3069 0107282  67.8863 293.3667 14.09406475 18141
CZ-6A R/B
1 68661U 26076F   26227.86625751  .00000076  00000-0  30600-4 0  9993
2 68661  86.5099  18.1964 0107255  67.0112 294.2341 14.09406519 18184
CZ-6A R/B
1 68661U 26076F   26227.93725291  .00000077  00000-0  31162-4 0  9996
2 68661  86.5099  18.1688 0107252  66.7843 294.4591 14.09406536 18190
CZ-6A R/B
1 68661U 26076F   26228.22123432  .00000082  00000-0  33853-4 0  9993
2 68661  86.5101  18.0583 0107225  65.9214 295.3141 14.09406580 18235
CZ-6A R/B
1 68661U 26076F   26228.29222964  .00000082  00000-0  34007-4 0  9992
2 68661  86.5101  18.0306 0107214  65.7034 295.5301 14.09406599 18245
CZ-6A R/B
1 68661U 26076F   26228.64720638  .00000084  00000-0  35018-4 0  9997
2 68661  86.5102  17.8928 0107188  64.5986 296.6245 14.09406633 18299
CZ-6A R/B
1 68661U 26076F   26228.93118766  .00000088  00000-0  37382-4 0  9992
2 68661  86.5102  17.7824 0107157  63.7217 297.4928 14.09406698 18330
CZ-6A R/B
1 68661U 26076F   26229.28616417  .00000091  00000-0  39135-4 0  9999
2 68661  86.5105  17.6443 0107119  62.6270 298.5764 14.09406759 18387
CZ-6A R/B
1 68661U 26076F   26229.57014528  .00000090  00000-0  38671-4 0  9999
2 68661  86.5105  17.5338 0107087  61.7493 299.4449 14.09406797 18427
CZ-6A R/B
1 68661U 26076F   26229.92512161  .00000092  00000-0  39539-4 0  9990
2 68661  86.5105  17.3958 0107049  60.6476 300.5347 14.09406870 18478
CZ-6A R/B
1 68661U 26076F   26230.35109310  .00000094  00000-0  40348-4 0  9999
2 68661  86.5106  17.2300 0107007  59.3218 301.8457 14.09406943 18536
CZ-6A R/B
1 68661U 26076F   26230.56407874  .00000091  00000-0  38774-4 0  9995
2 68661  86.5105  17.1471 0106979  58.6668 302.4931 14.09406976 18564
CZ-6A R/B
1 68661U 26076F   26230.91905479  .00000088  00000-0  37430-4 0  9992
2 68661  86.5105  17.0092 0106937  57.5712 303.5759 14.09407039 18611
CZ-6A R/B
1 68661U 26076F   26231.20303561  .00000086  00000-0  36116-4 0  9997
2 68661  86.5106  16.8988 0106917  56.6828 304.4537 14.09407072 18654
CZ-6A R/B
1 68661U 26076F   26231.27403080  .00000086  00000-0  36451-4 0  9993
2 68661  86.5106  16.8712 0106907  56.4609 304.6728 14.09407091 18669
CZ-6A R/B
1 68661U 26076F   26231.55801148  .00000080  00000-0  32993-4 0  9992
2 68661  86.5106  16.7607 0106877  55.5781 305.5448 14.09407133 18709
CZ-6A R/B
1 68661U 26076F   26231.91298729  .00000074  00000-0  29582-4 0  9990
2 68661  86.5105  16.6228 0106848  54.4617 306.6471 14.09407203 18751
CZ-6A R/B
1 68661U 26076F   26232.33895813  .00000066  00000-0  25264-4 0  9998
2 68661  86.5107  16.4570 0106795  53.1461 307.9455 14.09407242 18811
CZ-6A R/B
1 68661U 26076F   26232.62293856  .00000057  00000-0  20490-4 0  9995
2 68661  86.5106  16.3466 0106756  52.2665 308.8133 14.09407263 18856
CZ-6A R/B
1 68661U 26076F   26232.90691896  .00000051  00000-0  17050-4 0  9994
2 68661  86.5107  16.2363 0106715  51.3913 309.6765 14.09407314 18894
CZ-6A R/B
1 68661U 26076F   26233.33288951  .00000040  00000-0  11243-4 0  9992
2 68661  86.5109  16.0704 0106672  50.0658 310.9837 14.09407352 18951
CZ-6A R/B
1 68661U 26076F   26233.47487965  .00000033  00000-0  77771-5 0  9994
2 68661  86.5109  16.0152 0106654  49.6261 311.4171 14.09407356 18975
CZ-6A R/B
1 68661U 26076F   26233.61686979  .00000029  00000-0  55814-5 0  9995
2 68661  86.5108  15.9599 0106637  49.1869 311.8501 14.09407363 18998
CZ-6A R/B
1 68661U 26076F   26233.90085002  .00000020  00000-0  63371-6 0  9996
2 68661  86.5108  15.8495 0106605  48.3070 312.7173 14.09407403 19038
CZ-6A R/B
1 68661U 26076F   26234.25582525  .00000010  00000-0 -49832-5 0  9992
2 68661  86.5109  15.7113 0106558  47.2094 313.7987 14.09407415 19088
CZ-6A R/B
1 68661U 26076F   26234.46881036  .00000001  00000-0 -99470-5 0  9997
2 68661  86.5110  15.6284 0106532  46.5474 314.4508 14.09407417 19117
CZ-6A R/B
1 68661U 26076F   26234.61080043 -.00000004  00000-0 -12371-4 0  9991
2 68661  86.5110  15.5732 0106515  46.1059 314.8857 14.09407404 19139
CZ-6A R/B
1 68661U 26076F   26234.89478053 -.00000013  00000-0 -17571-4 0  9990
2 68661  86.5109  15.4627 0106482  45.2234 315.7548 14.09407408 19172
CZ-6A R/B
1 68661U 26076F   26235.32075060 -.00000027  00000-0 -24918-4 0  9998
2 68661  86.5111  15.2970 0106431  43.9074 317.0504 14.09407413 19235
CZ-6A R/B
1 68661U 26076F   26235.67572562 -.00000039  00000-0 -31627-4 0  9993
2 68661  86.5110  15.1590 0106396  42.8044 318.1361 14.09407377 19283
CZ-6A R/B
1 68661U 26076F   26235.95970558 -.00000050  00000-0 -37407-4 0  9996
2 68661  86.5111  15.0486 0106360  41.9221 319.0041 14.09407363 19320
CZ-6A R/B
1 68661U 26076F   26236.31468054 -.00000059  00000-0 -42458-4 0  9991
2 68661  86.5114  14.9105 0106327  40.8185 320.0899 14.09407344 19376
CZ-6A R/B
1 68661U 26076F   26236.52766547 -.00000067  00000-0 -47074-4 0  9990
2 68661  86.5114  14.8277 0106317  40.1453 320.7522 14.09407327 19400
CZ-6A R/B
1 68661U 26076F   26236.59866044 -.00000069  00000-0 -47781-4 0  9997
2 68661  86.5114  14.8003 0106303  39.9318 320.9621 14.09407316 19419
CZ-6A R/B
1 68661U 26076F   26236.95363531 -.00000079  00000-0 -53403-4 0  9999
2 68661  86.5114  14.6623 0106270  38.8277 322.0478 14.09407277 19464
CZ-6A R/B
1 68661U 26076F   26237.30861016 -.00000086  00000-0 -57053-4 0  9993
2 68661  86.5116  14.5242 0106235  37.7218 323.1350 14.09407234 19516
CZ-6A R/B
1 68661U 26076F   26237.52159501 -.00000093  00000-0 -60760-4 0  9993
2 68661  86.5116  14.4414 0106213  37.0595 323.7860 14.09407210 19542
CZ-6A R/B
1 68661U 26076F   26237.59258995 -.00000093  00000-0 -61010-4 0  9996
2 68661  86.5116  14.4138 0106199  36.8455 323.9964 14.09407200 19557
CZ-6A R/B
1 68661U 26076F   26237.80557484 -.00000096  00000-0 -62817-4 0  9994
2 68661  86.5116  14.3311 0106182  36.1792 324.6512 14.09407178 19582
CZ-6A R/B
1 68661U 26076F   26237.94756476 -.00000100  00000-0 -64893-4 0  9993
2 68661  86.5116  14.2759 0106176  35.7333 325.0894 14.09407155 19602
CZ-6A R/B
1 68661U 26076F   26238.23154455 -.00000103  00000-0 -66646-4 0  9996
2 68661  86.5117  14.1654 0106144  34.8561 325.9511 14.09407116 19640
CZ-6A R/B
1 68661U 26076F   26238.30253949 -.00000105  00000-0 -67253-4 0  9999
2 68661  86.5118  14.1378 0106137  34.6341 326.1692 14.09407114 19652
CZ-6A R/B
1 68661U 26076F   26238.51552428 -.00000110  00000-0 -69918-4 0  9992
2 68661  86.5118  14.0551 0106116  33.9735 326.8182 14.09407075 19680
CZ-6A R/B
1 68661U 26076F   26238.58651925 -.00000110  00000-0 -69928-4 0  9992
2 68661  86.5118  14.0275 0106106  33.7552 327.0326 14.09407057 19691
CZ-6A R/B
1 68661U 26076F   26238.79950406 -.00000110  00000-0 -69937-4 0  9991
2 68661  86.5118  13.9448 0106082  33.0959 327.6800 14.09407040 19727
CZ-6A R/B
1 68661U 26076F   26238.94149394 -.00000113  00000-0 -71638-4 0  9998
2 68661  86.5119  13.8897 0106068  32.6563 328.1118 14.09407019 19741
CZ-6A R/B
1 68661U 26076F   26239.22547370 -.00000113  00000-0 -71811-4 0  9999
2 68661  86.5119  13.7792 0106045  31.7740 328.9782 14.09406967 19786
CZ-6A R/B
1 68661U 26076F   26239.29646863 -.00000114  00000-0 -72079-4 0  9991
2 68661  86.5119  13.7515 0106037  31.5544 329.1938 14.09406958 19797
CZ-6A R/B
1 68661U 26076F   26239.65144331 -.00000114  00000-0 -72324-4 0  9997
2 68661  86.5119  13.6135 0106007  30.4516 330.2764 14.09406882 19840
CZ-6A R/B
1 68661U 26076F   26239.72243826 -.00000113  00000-0 -71630-4 0  9992
2 68661  86.5119  13.5859 0106004  30.2278 330.4961 14.09406877 19858
CZ-6A R/B
1 68661U 26076F   26239.79343317 -.00000113  00000-0 -72008-4 0  9995
2 68661  86.5119  13.5584 0105990  30.0098 330.7101 14.09406866 19862
CZ-6A R/B
1 68661U 26076F   26239.93542303 -.00000114  00000-0 -72442-4 0  9990
2 68661  86.5119  13.5032 0105979  29.5709 331.1409 14.09406840 19889
CZ-6A R/B
1 68661U 26076F   26240.14840782 -.00000112  00000-0 -71276-4 0  9999
2 68661  86.5120  13.4202 0105959  28.9111 331.7884 14.09406803 19913
CZ-6A R/B
1 68661U 26076F   26240.29039769 -.00000112  00000-0 -71405-4 0  9994
2 68661  86.5120  13.3650 0105941  28.4707 332.2205 14.09406772 19936
CZ-6A R/B
1 68661U 26076F   26240.64537225 -.00000110  00000-0 -69959-4 0  9992
2 68661  86.5120  13.2271 0105890  27.3717 333.2988 14.09406705 19986
CZ-6A R/B
1 68661U 26076F   26240.71636723 -.00000107  00000-0 -68505-4 0  9995
2 68661  86.5120  13.1995 0105894  27.1485 333.5178 14.09406689 19998
CZ-6A R/B
1 68661U 26076F   26240.85835703 -.00000107  00000-0 -68308-4 0  9990
2 68661  86.5120  13.1443 0105861  26.7107 333.9472 14.09406661 20012
CZ-6A R/B
1 68661U 26076F   26240.92935194 -.00000106  00000-0 -68176-4 0  9995
2 68661  86.5120  13.1167 0105853  26.4914 334.1623 14.09406649 20027
CZ-6A R/B
1 68661U 26076F   26241.14233672 -.00000102  00000-0 -65915-4 0  9996
2 68661  86.5120  13.0339 0105842  25.8318 334.8094 14.09406619 20055
CZ-6A R/B
1 68661U 26076F   26241.28432656 -.00000099  00000-0 -63946-4 0  9991
2 68661  86.5121  12.9786 0105831  25.3878 335.2449 14.09406621 20078
CZ-6A R/B
1 68661U 26076F   26241.56830624 -.00000095  00000-0 -61880-4 0  9990
2 68661  86.5122  12.8683 0105815  24.5023 336.1134 14.09406576 20114
CZ-6A R/B
1 68661U 26076F   26241.56830624 -.00000094  00000-0 -61546-4 0  9998
2 68661  86.5122  12.8682 0105813  24.5019 336.1138 14.09406580 20115
CZ-6A R/B
1 68661U 26076F   26241.85228589 -.00000088  00000-0 -58352-4 0  9995
2 68661  86.5122  12.7581 0105770  23.6297 336.9691 14.09406537 20150
CZ-6A R/B
1 68661U 26076F   26241.92328080 -.00000088  00000-0 -58066-4 0  9992
2 68661  86.5123  12.7305 0105763  23.4113 337.1832 14.09406533 20169
CZ-6A R/B
1 68661U 26076F   26242.13626552 -.00000082  00000-0 -54872-4 0  9996
2 68661  86.5123  12.6476 0105730  22.7580 337.8237 14.09406510 20195
CZ-6A R/B
1 68661U 26076F   26242.34925025 -.00000078  00000-0 -52445-4 0  9995
2 68661  86.5124  12.5646 0105718  22.0941 338.4747 14.09406510 20221
CZ-6A R/B
1 68661U 26076F   26242.56223500 -.00000072  00000-0 -49513-4 0  9994
2 68661  86.5124  12.4818 0105701  21.4342 339.1217 14.09406467 20255
CZ-6A R/B
1 68661U 26076F   26242.56223500 -.00000072  00000-0 -49150-4 0  9991
2 68661  86.5124  12.4818 0105700  21.4348 339.1210 14.09406466 20252
CZ-6A R/B
1 68661U 26076F   26242.84621462 -.00000064  00000-0 -44773-4 0  9998
2 68661  86.5124  12.3716 0105654  20.5636 339.9750 14.09406444 20293
CZ-6A R/B
1 68661U 26076F   26242.98820442 -.00000061  00000-0 -43279-4 0  9999
2 68661  86.5125  12.3163 0105643  20.1278 340.4021 14.09406437 20319
CZ-6A R/B
1 68661U 26076F   26243.20118916 -.00000054  00000-0 -39322-4 0  9997
2 68661  86.5124  12.2334 0105623  19.4681 341.0487 14.09406415 20346
CZ-6A R/B
1 68661U 26076F   26243.27218404 -.00000051  00000-0 -38056-4 0  9997
2 68661  86.5125  12.2058 0105612  19.2482 341.2643 14.09406422 20350
CZ-6A R/B
1 68661U 26076F   26243.48516874 -.00000046  00000-0 -35190-4 0  9992
2 68661  86.5125  12.1230 0105596  18.5859 341.9133 14.09406409 20381
CZ-6A R/B
1 68661U 26076F   26243.55616363 -.00000043  00000-0 -33414-4 0  9998
2 68661  86.5125  12.0954 0105583  18.3687 342.1262 14.09406404 20398
CZ-6A R/B
1 68661U 26076F   26243.84014326 -.00000033  00000-0 -28158-4 0  9999
2 68661  86.5126  11.9852 0105563  17.4844 342.9927 14.09406388 20439
CZ-6A R/B
1 68661U 26076F   26243.91113816 -.00000033  00000-0 -27858-4 0  9997
2 68661  86.5126  11.9576 0105557  17.2644 343.2083 14.09406374 20444
CZ-6A R/B
1 68661U 26076F   26244.19511773 -.00000024  00000-0 -22859-4 0  9998
2 68661  86.5127  11.8471 0105520  16.3900 344.0650 14.09406367 20488
CZ-6A R/B
1 68661U 26076F   26244.19511773 -.00000024  00000-0 -22859-4 0  9998
2 68661  86.5127  11.8471 0105520  16.3900 344.0650 14.09406367 20488
CZ-6A R/B
1 68661U 26076F   26244.47909730 -.00000015  00000-0 -18482-4 0  9990
2 68661  86.5127  11.7369 0105532  15.5016 344.9356 14.09406398 20526
CZ-6A R/B
1 68661U 26076F   26244.62108707 -.00000011  00000-0 -16084-4 0  9994
2 68661  86.5127  11.6817 0105515  15.0607 345.3675 14.09406386 20543
CZ-6A R/B
1 68661U 26076F   26244.90506663 -.00000002  00000-0 -10891-4 0  9998
2 68661  86.5127  11.5715 0105481  14.1838 346.2265 14.09406389 20589
