CZ-6A DEB
1 69092U 22151AJK 26189.02882494  .00004918  00000-0  17589-2 0  9994
2 69092  98.8324 216.1910 0028207 208.5412 151.4229 14.34289715164439
CZ-6A DEB
1 69092U 22151AJK 26195.02812172  .00004339  00000-0  15513-2 0  9999
2 69092  98.8317 222.3200 0029718 190.2648 169.7932 14.34349389165290
CZ-6A DEB
1 69092U 22151AJK 26195.02812173  .00004339  00000-0  15513-2 0  9990
2 69092  98.8317 222.3200 0029718 190.2649 169.7932 14.34349389165291
CZ-6A DEB
1 69092U 22151AJK 26196.00472912  .00004379  00000-0  15652-2 0  9990
2 69092  98.8342 223.3227 0029860 187.5716 172.5021 14.34358843165433
CZ-6A DEB
1 69092U 22151AJK 26196.00472913  .00004379  00000-0  15652-2 0  9991
2 69092  98.8342 223.3227 0029860 187.5716 172.5021 14.34358843165433
CZ-6A DEB
1 69092U 22151AJK 26197.53938663  .00004222  00000-0  15089-2 0  9990
2 69092  98.8323 224.8877 0030130 183.6999 176.3966 14.34372055165656
CZ-6A DEB
1 69092U 22151AJK 26197.53938664  .00004222  00000-0  15089-2 0  9991
2 69092  98.8323 224.8877 0030130 183.6999 176.3967 14.34372055165657
CZ-6A DEB
1 69092U 22151AJK 26198.02768264  .00004412  00000-0  15761-2 0  9991
2 69092  98.8333 225.3880 0029895 182.9325 177.1688 14.34377628165727
CZ-6A DEB
1 69092U 22151AJK 26198.02768264  .00004412  00000-0  15761-2 0  9991
2 69092  98.8333 225.3880 0029895 182.9325 177.1688 14.34377628165727
CZ-6A DEB
1 69092U 22151AJK 26198.51597782  .00004147  00000-0  14824-2 0  9994
2 69092  98.8328 225.8863 0029999 181.6155 178.4937 14.34381435165798
CZ-6A DEB
1 69092U 22151AJK 26198.51597783  .00004147  00000-0  14824-2 0  9995
2 69092  98.8328 225.8863 0029999 181.6155 178.4937 14.34381435165798
CZ-6A DEB
1 69092U 22151AJK 26200.05061064  .00004327  00000-0  15455-2 0  9997
2 69092  98.8331 227.4546 0030256 177.3358 182.7993 14.34395181166012
CZ-6A DEB
1 69092U 22151AJK 26200.32963334  .00004267  00000-0  15243-2 0  9996
2 69092  98.8328 227.7397 0030309 176.5611 183.5787 14.34397422166051
CZ-6A DEB
1 69092U 22151AJK 26201.30620860  .00004608  00000-0  16440-2 0  9998
2 69092  98.8331 228.7376 0030482 173.8944 186.2618 14.34406808166191
CZ-6A DEB
1 69092U 22151AJK 26201.30620860  .00004608  00000-0  16440-2 0  9998
2 69092  98.8331 228.7376 0030482 173.8944 186.2618 14.34406808166191
CZ-6A DEB
1 69092U 22151AJK 26203.32909003  .00007874  00000-0  27946-2 0  9992
2 69092  98.8336 230.8048 0030788 168.3775 191.8126 14.34436137166482
CZ-6A DEB
1 69092U 22151AJK 26204.02662579  .00008208  00000-0  29114-2 0  9995
2 69092  98.8335 231.5172 0030949 166.5444 193.6572 14.34446257166589
CZ-6A DEB
1 69092U 22151AJK 26205.35192867  .00009050  00000-0  32063-2 0  9993
2 69092  98.8343 232.8729 0031085 162.9987 197.2246 14.34468504166772
CZ-6A DEB
1 69092U 22151AJK 26206.53771032  .00007075  00000-0  25100-2 0  9990
2 69092  98.8341 234.0846 0031236 159.9854 200.2563 14.34483592166941
CZ-6A DEB
1 69092U 22151AJK 26206.81671576  .00007145  00000-0  25345-2 0  9992
2 69092  98.8339 234.3696 0031245 159.1907 201.0557 14.34487379166988
CZ-6A DEB
1 69092U 22151AJK 26207.02596893  .00007192  00000-0  25508-2 0  9997
2 69092  98.8338 234.5834 0031242 158.7370 201.5120 14.34490831167012
CZ-6A DEB
1 69092U 22151AJK 26209.04872950  .00008238  00000-0  29170-2 0  9993
2 69092  98.8339 236.6514 0031462 153.3227 206.9584 14.34521259167301
CZ-6A DEB
1 69092U 22151AJK 26209.53697558  .00007550  00000-0  26746-2 0  9998
2 69092  98.8337 237.1505 0031504 152.0170 208.2717 14.34527662167379
CZ-6A DEB
1 69092U 22151AJK 26212.53614528  .00006933  00000-0  24552-2 0  9995
2 69092  98.8339 240.2172 0031753 144.1183 216.2143 14.34571973167802
CZ-6A DEB
1 69092U 22151AJK 26212.53614528  .00006933  00000-0  24552-2 0  9995
2 69092  98.8339 240.2171 0031753 144.1182 216.2143 14.34571973167800
CZ-6A DEB
1 69092U 22151AJK 26213.02437393  .00006914  00000-0  24482-2 0  9994
2 69092  98.8339 240.7163 0031785 142.8163 217.5231 14.34578379167871
CZ-6A DEB
1 69092U 22151AJK 26214.00082473  .00006767  00000-0  23960-2 0  9994
2 69092  98.8337 241.7144 0031824 140.3556 219.9963 14.34590756168010
CZ-6A DEB
1 69092U 22151AJK 26214.00082474  .00006767  00000-0  23960-2 0  9995
2 69092  98.8337 241.7144 0031824 140.3556 219.9963 14.34590756168010
CZ-6A DEB
1 69092U 22151AJK 26215.04701218  .00007664  00000-0  27103-2 0  9994
2 69092  98.8341 242.7840 0031892 137.6457 222.7198 14.34605940168163
CZ-6A DEB
1 69092U 22151AJK 26216.02344477  .00006708  00000-0  23737-2 0  9990
2 69092  98.8345 243.7823 0031952 135.0773 225.3005 14.34617494168308
CZ-6A DEB
1 69092U 22151AJK 26218.32500321  .00004031  00000-0  14331-2 0  9994
2 69092  98.8349 246.1351 0032012 129.0585 231.3455 14.34640318168630
CZ-6A DEB
1 69092U 22151AJK 26218.60397772  .00004006  00000-0  14240-2 0  9990
2 69092  98.8343 246.4201 0031965 128.3443 232.0621 14.34642954168677
CZ-6A DEB
1 69092U 22151AJK 26218.60397772  .00004006  00000-0  14240-2 0  9990
2 69092  98.8343 246.4201 0031965 128.3443 232.0621 14.34642954168677
CZ-6A DEB
1 69092U 22151AJK 26222.02137787  .00004532  00000-0  16078-2 0  9994
2 69092  98.8346 249.9144 0031973 119.4847 240.9533 14.34672978169166
CZ-6A DEB
1 69092U 22151AJK 26222.02137788  .00004532  00000-0  16078-2 0  9995
2 69092  98.8346 249.9144 0031973 119.4847 240.9533 14.34672978169166
CZ-6A DEB
1 69092U 22151AJK 26223.83466332  .00003830  00000-0  13609-2 0  9992
2 69092  98.8344 251.7689 0031954 114.7353 245.7162 14.34686927169427
CZ-6A DEB
1 69092U 22151AJK 26223.83466333  .00003830  00000-0  13609-2 0  9993
2 69092  98.8344 251.7689 0031954 114.7353 245.7162 14.34686927169427
CZ-6A DEB
1 69092U 22151AJK 26224.04388708  .00004041  00000-0  14352-2 0  9997
2 69092  98.8343 251.9831 0031893 114.2295 246.2227 14.34689173169456
CZ-6A DEB
1 69092U 22151AJK 26224.53207580  .00003610  00000-0  12837-2 0  9996
2 69092  98.8343 252.4824 0031886 112.9461 247.5094 14.34691916169528
CZ-6A DEB
1 69092U 22151AJK 26224.53207580  .00003610  00000-0  12837-2 0  9996
2 69092  98.8343 252.4824 0031886 112.9461 247.5094 14.34691916169528
CZ-6A DEB
1 69092U 22151AJK 26225.02026345  .00003556  00000-0  12648-2 0  9998
2 69092  98.8344 252.9817 0031869 111.6267 248.8317 14.34695165169596
CZ-6A DEB
1 69092U 22151AJK 26225.02026345  .00003556  00000-0  12648-2 0  9998
2 69092  98.8344 252.9817 0031869 111.6267 248.8317 14.34695165169596
CZ-6A DEB
1 69092U 22151AJK 26227.04274131  .00004522  00000-0  16033-2 0  9996
2 69092  98.8345 255.0501 0031800 106.2949 254.1737 14.34712104169884
CZ-6A DEB
1 69092U 22151AJK 26227.04274131  .00004522  00000-0  16033-2 0  9996
2 69092  98.8345 255.0501 0031800 106.2949 254.1737 14.34712104169884
CZ-6A DEB
1 69092U 22151AJK 26228.01910110  .00004789  00000-0  16966-2 0  9998
2 69092  98.8339 256.0481 0031723 103.7361 256.7358 14.34720690170023
CZ-6A DEB
1 69092U 22151AJK 26228.01910111  .00004789  00000-0  16966-2 0  9999
2 69092  98.8339 256.0481 0031723 103.7361 256.7358 14.34720690170023
CZ-6A DEB
1 69092U 22151AJK 26230.04154170  .00005661  00000-0  20016-2 0  9991
2 69092  98.8349 258.1166 0031592  98.4243 262.0524 14.34740233170312
CZ-6A DEB
1 69092U 22151AJK 26230.52971228  .00006302  00000-0  22260-2 0  9991
2 69092  98.8354 258.6161 0031560  97.1314 263.3460 14.34746689170389
CZ-6A DEB
1 69092U 22151AJK 26233.04027137  .00006683  00000-0  23583-2 0  9993
2 69092  98.8344 261.1821 0031252  90.4583 270.0183 14.34777066170742
CZ-6A DEB
1 69092U 22151AJK 26233.52842946  .00006135  00000-0  21661-2 0  9996
2 69092  98.8358 261.6826 0031196  89.1519 271.3239 14.34781807170810
CZ-6A DEB
1 69092U 22151AJK 26234.01658523  .00006199  00000-0  21882-2 0  9992
2 69092  98.8359 262.1822 0031151  87.9008 272.5743 14.34787817170880
CZ-6A DEB
1 69092U 22151AJK 26234.50473944  .00005779  00000-0  20411-2 0  9998
2 69092  98.8357 262.6813 0031072  86.5364 273.9374 14.34792484170954
CZ-6A DEB
1 69092U 22151AJK 26234.50473945  .00005779  00000-0  20411-2 0  9999
2 69092  98.8357 262.6813 0031072  86.5364 273.9374 14.34792484170954
CZ-6A DEB
1 69092U 22151AJK 26236.03892521  .00005764  00000-0  20354-2 0  9994
2 69092  98.8360 264.2507 0030891  82.4034 278.0658 14.34810210171177
CZ-6A DEB
1 69092U 22151AJK 26236.52707125  .00005739  00000-0  20265-2 0  9996
2 69092  98.8360 264.7500 0030829  81.0738 279.3935 14.34815679171246
CZ-6A DEB
1 69092U 22151AJK 26236.52707126  .00005739  00000-0  20265-2 0  9997
2 69092  98.8360 264.7500 0030829  81.0738 279.3935 14.34815679171246
CZ-6A DEB
1 69092U 22151AJK 26239.87430654  .00006796  00000-0  23948-2 0  9992
2 69092  98.8347 268.1740 0030416  71.8996 288.5497 14.34855240171726
CZ-6A DEB
1 69092U 22151AJK 26240.01377209  .00006969  00000-0  24551-2 0  9999
2 69092  98.8349 268.3168 0030271  71.5894 288.8578 14.34857384171743
CZ-6A DEB
1 69092U 22151AJK 26240.01377210  .00006969  00000-0  24551-2 0  9991
2 69092  98.8349 268.3168 0030271  71.5894 288.8578 14.34857384171743
CZ-6A DEB
1 69092U 22151AJK 26241.33869387  .00007103  00000-0  25016-2 0  9996
2 69092  98.8345 269.6723 0030134  67.8349 292.6028 14.34872162171936
CZ-6A DEB
1 69092U 22151AJK 26241.54789130  .00006667  00000-0  23492-2 0  9996
2 69092  98.8346 269.8864 0030074  67.2454 293.1904 14.34873237171965
CZ-6A DEB
1 69092U 22151AJK 26241.54789130  .00006667  00000-0  23492-2 0  9996
2 69092  98.8346 269.8864 0030074  67.2454 293.1904 14.34873237171965
CZ-6A DEB
1 69092U 22151AJK 26242.52413763  .00006040  00000-0  21293-2 0  9993
2 69092  98.8346 270.8852 0029927  64.4999 295.9276 14.34884330172107
CZ-6A DEB
1 69092U 22151AJK 26242.52413763  .00006040  00000-0  21293-2 0  9993
2 69092  98.8346 270.8851 0029927  64.4999 295.9276 14.34884330172106
CZ-6A DEB
1 69092U 22151AJK 26244.54633820  .00004263  00000-0  15077-2 0  9993
2 69092  98.8348 272.9538 0029616  58.7829 301.6252 14.34904312172399
