TBA - TO BE ASSIGNED
1 69122U 26108U   26148.84819087 -.01688752  00000-0 -63780+0 0  9995
2 69122  89.0123  24.3397 0066788  81.0937 279.7814 14.34147449  1624
CZ-8 R/B
1 69122U 26108U   26149.12620966 -.01621510  00000-0 -61172+0 0  9995
2 69122  89.0123  24.3076 0068328  78.7823 282.1045 14.33983994  1667
CZ-8 R/B
1 69122U 26108U   26149.12620967 -.01621510  00000-0 -61172+0 0  9996
2 69122  89.0123  24.3076 0068328  78.7823 282.1045 14.33983994  1667
CZ-8 R/B
1 69122U 26108U   26149.89290037  .00000276  00000-0  81575-4 0  9992
2 69122  89.0126  24.2191 0069292  80.0015 280.8996 14.39186863  1775
CZ-8 R/B
1 69122U 26108U   26150.10148595  .00000284  00000-0  84255-4 0  9996
2 69122  89.0125  24.1949 0069290  79.3298 281.5695 14.39187014  1803
CZ-8 R/B
1 69122U 26108U   26150.51865700  .00000311  00000-0  92536-4 0  9997
2 69122  89.0124  24.1467 0069283  77.9790 282.9164 14.39187341  1865
CZ-8 R/B
1 69122U 26108U   26150.58818550  .00000310  00000-0  92416-4 0  9991
2 69122  89.0124  24.1386 0069281  77.7538 283.1409 14.39187387  1877
CZ-8 R/B
1 69122U 26108U   26150.79677089  .00000308  00000-0  91641-4 0  9990
2 69122  89.0124  24.1145 0069276  77.0832 283.8095 14.39187502  1905
CZ-8 R/B
1 69122U 26108U   26150.93582791  .00000294  00000-0  87302-4 0  9994
2 69122  89.0124  24.0984 0069269  76.6270 284.2641 14.39187505  1925
CZ-8 R/B
1 69122U 26108U   26151.21394164  .00000313  00000-0  93286-4 0  9991
2 69122  89.0123  24.0662 0069255  75.7290 285.1589 14.39187807  1964
CZ-8 R/B
1 69122U 26108U   26151.49205552  .00000292  00000-0  86598-4 0  9997
2 69122  89.0122  24.0341 0069242  74.8291 286.0554 14.39187812  2008
CZ-8 R/B
1 69122U 26108U   26151.83969765  .00000280  00000-0  83004-4 0  9994
2 69122  89.0122  23.9938 0069232  73.7041 287.1759 14.39187936  2059
CZ-8 R/B
1 69122U 26108U   26152.11781125  .00000282  00000-0  83601-4 0  9993
2 69122  89.0121  23.9616 0069221  72.8106 288.0657 14.39188119  2096
CZ-8 R/B
1 69122U 26108U   26152.25686808  .00000280  00000-0  83021-4 0  9994
2 69122  89.0121  23.9455 0069218  72.3575 288.5169 14.39188181  2113
CZ-8 R/B
1 69122U 26108U   26152.53498161  .00000304  00000-0  90424-4 0  9990
2 69122  89.0120  23.9133 0069207  71.4581 289.4122 14.39188438  2158
CZ-8 R/B
1 69122U 26108U   26152.88262329  .00000298  00000-0  88628-4 0  9998
2 69122  89.0120  23.8731 0069192  70.3277 290.5372 14.39188651  2207
CZ-8 R/B
1 69122U 26108U   26153.23026494  .00000297  00000-0  88250-4 0  9999
2 69122  89.0120  23.8329 0069178  69.2054 291.6539 14.39188856  2253
CZ-8 R/B
1 69122U 26108U   26153.57790653  .00000329  00000-0  98411-4 0  9997
2 69122  89.0119  23.7926 0069157  68.0768 292.7766 14.39189207  2300
CZ-8 R/B
1 69122U 26108U   26153.78649133  .00000312  00000-0  92851-4 0  9990
2 69122  89.0119  23.7685 0069145  67.4043 293.4453 14.39189259  2339
CZ-8 R/B
1 69122U 26108U   26153.92554788  .00000329  00000-0  98326-4 0  9998
2 69122  89.0119  23.7524 0069138  66.9623 293.8849 14.39189399  2351
CZ-8 R/B
1 69122U 26108U   26154.13413266  .00000333  00000-0  99469-4 0  9991
2 69122  89.0119  23.7283 0069128  66.2863 294.5570 14.39189556  2388
CZ-8 R/B
1 69122U 26108U   26154.27318915  .00000347  00000-0  10397-3 0  9998
2 69122  89.0118  23.7122 0069122  65.8358 295.0049 14.39189734  2405
CZ-8 R/B
1 69122U 26108U   26154.48177396  .00000336  00000-0  10062-3 0  9994
2 69122  89.0118  23.6880 0069108  65.1566 295.6800 14.39189824  2437
CZ-8 R/B
1 69122U 26108U   26154.48177396  .00000336  00000-0  10062-3 0  9994
2 69122  89.0118  23.6880 0069108  65.1566 295.6800 14.39189824  2437
CZ-8 R/B
1 69122U 26108U   26154.82941507  .00000308  00000-0  91733-4 0  9999
2 69122  89.0118  23.6478 0069086  64.0312 296.7984 14.39189948  2489
CZ-8 R/B
1 69122U 26108U   26154.89894330  .00000305  00000-0  90750-4 0  9992
2 69122  89.0118  23.6397 0069080  63.8060 297.0222 14.39189975  2490
CZ-8 R/B
1 69122U 26108U   26155.10752793  .00000336  00000-0  10041-3 0  9991
2 69122  89.0118  23.6156 0069068  63.1314 297.6924 14.39190291  2526
CZ-8 R/B
1 69122U 26108U   26155.24658430  .00000333  00000-0  99527-4 0  9993
2 69122  89.0118  23.5995 0069061  62.6789 298.1420 14.39190371  2547
CZ-8 R/B
1 69122U 26108U   26155.66375344  .00000316  00000-0  94249-4 0  9996
2 69122  89.0117  23.5512 0069035  61.3327 299.4791 14.39190572  2601
CZ-8 R/B
1 69122U 26108U   26155.94186606  .00000312  00000-0  92917-4 0  9994
2 69122  89.0117  23.5190 0069016  60.4318 300.3737 14.39190705  2646
CZ-8 R/B
1 69122U 26108U   26156.15045058  .00000277  00000-0  82135-4 0  9994
2 69122  89.0117  23.4949 0069001  59.7533 301.0474 14.39190672  2673
CZ-8 R/B
1 69122U 26108U   26156.21997872  .00000276  00000-0  81633-4 0  9992
2 69122  89.0117  23.4869 0068998  59.5272 301.2719 14.39190704  2687
CZ-8 R/B
1 69122U 26108U   26156.63714742  .00000287  00000-0  85027-4 0  9994
2 69122  89.0117  23.4386 0068963  58.1712 302.6178 14.39191025  2745
CZ-8 R/B
1 69122U 26108U   26156.77620352  .00000307  00000-0  91515-4 0  9994
2 69122  89.0117  23.4225 0068946  57.7208 303.0647 14.39191229  2767
CZ-8 R/B
1 69122U 26108U   26156.91525968  .00000315  00000-0  93967-4 0  9999
2 69122  89.0117  23.4064 0068936  57.2699 303.5122 14.39191351  2787
CZ-8 R/B
1 69122U 26108U   26156.91525968  .00000315  00000-0  93967-4 0  9999
2 69122  89.0117  23.4064 0068936  57.2699 303.5122 14.39191351  2787
CZ-8 R/B
1 69122U 26108U   26156.91525968  .00000315  00000-0  93967-4 0  9999
2 69122  89.0117  23.4064 0068936  57.2699 303.5122 14.39191351  2787
CZ-8 R/B
1 69122U 26108U   26157.40195617  .00000321  00000-0  95759-4 0  9996
2 69122  89.0116  23.3500 0068900  55.6934 305.0762 14.39191683  2858
CZ-8 R/B
1 69122U 26108U   26157.54101239  .00000320  00000-0  95431-4 0  9994
2 69122  89.0116  23.3339 0068889  55.2431 305.5230 14.39191744  2877
CZ-8 R/B
1 69122U 26108U   26157.74959652  .00000321  00000-0  95720-4 0  9998
2 69122  89.0116  23.3098 0068872  54.5687 306.1918 14.39191878  2908
CZ-8 R/B
1 69122U 26108U   26157.88865265  .00000304  00000-0  90499-4 0  9998
2 69122  89.0116  23.2937 0068859  54.1168 306.6400 14.39191852  2929
CZ-8 R/B
1 69122U 26108U   26157.88865266  .00000304  00000-0  90499-4 0  9999
2 69122  89.0116  23.2937 0068859  54.1168 306.6400 14.39191852  2929
CZ-8 R/B
1 69122U 26108U   26158.37534891  .00000326  00000-0  97364-4 0  9993
2 69122  89.0116  23.2373 0068818  52.5365 308.2068 14.39192260  2998
CZ-8 R/B
1 69122U 26108U   26158.72298900  .00000328  00000-0  98180-4 0  9999
2 69122  89.0116  23.1970 0068792  51.4049 309.3285 14.39192479  3040
CZ-8 R/B
1 69122U 26108U   26159.14015703  .00000277  00000-0  82187-4 0  9997
2 69122  89.0115  23.1487 0068754  50.0422 310.6790 14.39192438  3108
CZ-8 R/B
1 69122U 26108U   26159.20968504  .00000264  00000-0  77984-4 0  9995
2 69122  89.0115  23.1406 0068750  49.8119 310.9072 14.39192423  3115
CZ-8 R/B
1 69122U 26108U   26159.41826902  .00000242  00000-0  70948-4 0  9992
2 69122  89.0115  23.1165 0068728  49.1321 311.5807 14.39192427  3140
CZ-8 R/B
1 69122U 26108U   26159.48779699  .00000248  00000-0  72830-4 0  9997
2 69122  89.0115  23.1085 0068722  48.9069 311.8038 14.39192511  3155
CZ-8 R/B
1 69122U 26108U   26159.76590881  .00000229  00000-0  66920-4 0  9994
2 69122  89.0115  23.0762 0068694  48.0085 312.6938 14.39192593  3195
CZ-8 R/B
1 69122U 26108U   26159.90496483  .00000189  00000-0  54321-4 0  9990
2 69122  89.0115  23.0601 0068685  47.5519 313.1461 14.39192428  3210
CZ-8 R/B
1 69122U 26108U   26160.25260460  .00000179  00000-0  51281-4 0  9995
2 69122  89.0114  23.0199 0068653  46.4161 314.2710 14.39192543  3269
CZ-8 R/B
1 69122U 26108U   26160.39166054  .00000159  00000-0  44859-4 0  9995
2 69122  89.0114  23.0038 0068639  45.9611 314.7215 14.39192502  3281
CZ-8 R/B
1 69122U 26108U   26160.53071645  .00000158  00000-0  44757-4 0  9998
2 69122  89.0114  22.9877 0068624  45.5112 315.1669 14.39192569  3300
CZ-8 R/B
1 69122U 26108U   26160.87835615  .00000128  00000-0  35125-4 0  9996
2 69122  89.0114  22.9473 0068595  44.3742 316.2927 14.39192557  3356
CZ-8 R/B
1 69122U 26108U   26161.08693993  .00000127  00000-0  34870-4 0  9996
2 69122  89.0113  22.9232 0068572  43.6957 316.9643 14.39192624  3383
CZ-8 R/B
1 69122U 26108U   26161.22599578  .00000125  00000-0  34307-4 0  9999
2 69122  89.0113  22.9071 0068561  43.2411 317.4143 14.39192649  3404
CZ-8 R/B
1 69122U 26108U   26161.43457955  .00000123  00000-0  33579-4 0  9992
2 69122  89.0113  22.8829 0068536  42.5611 318.0873 14.39192679  3433
CZ-8 R/B
1 69122U 26108U   26161.64316328  .00000119  00000-0  32545-4 0  9990
2 69122  89.0113  22.8588 0068516  41.8780 318.7633 14.39192734  3468
CZ-8 R/B
1 69122U 26108U   26162.19938648  .00000119  00000-0  32553-4 0  9995
2 69122  89.0112  22.7943 0068456  40.0619 320.5602 14.39192843  3543
CZ-8 R/B
1 69122U 26108U   26162.61655371  .00000141  00000-0  39282-4 0  9992
2 69122  89.0112  22.7459 0068406  38.6980 321.9093 14.39193044  3604
CZ-8 R/B
1 69122U 26108U   26162.68608156  .00000139  00000-0  38786-4 0  9993
2 69122  89.0112  22.7379 0068398  38.4708 322.1339 14.39193054  3619
CZ-8 R/B
1 69122U 26108U   26162.89466516  .00000141  00000-0  39278-4 0  9998
2 69122  89.0112  22.7137 0068370  37.7910 322.8062 14.39193100  3643
CZ-8 R/B
1 69122U 26108U   26163.24230437  .00000168  00000-0  47923-4 0  9994
2 69122  89.0111  22.6734 0068336  36.6487 323.9358 14.39193329  3691
CZ-8 R/B
1 69122U 26108U   26163.86805491  .00000168  00000-0  47933-4 0  9991
2 69122  89.0111  22.6009 0068262  34.6029 325.9585 14.39193501  3780
CZ-8 R/B
1 69122U 26108U   26164.21569402  .00000165  00000-0  47018-4 0  9991
2 69122  89.0110  22.5606 0068220  33.4639 327.0844 14.39193599  3833
CZ-8 R/B
1 69122U 26108U   26164.49380528  .00000163  00000-0  46276-4 0  9994
2 69122  89.0110  22.5283 0068186  32.5534 327.9843 14.39193670  3871
CZ-8 R/B
1 69122U 26108U   26164.63286085  .00000165  00000-0  46826-4 0  9996
2 69122  89.0109  22.5122 0068167  32.0958 328.4364 14.39193728  3895
CZ-8 R/B
1 69122U 26108U   26164.84144426  .00000156  00000-0  44245-4 0  9994
2 69122  89.0109  22.4881 0068138  31.4159 329.1084 14.39193741  3926
CZ-8 R/B
1 69122U 26108U   26164.91097206  .00000154  00000-0  43493-4 0  9997
2 69122  89.0109  22.4800 0068130  31.1871 329.3344 14.39193753  3932
CZ-8 R/B
1 69122U 26108U   26165.11955544  .00000147  00000-0  41318-4 0  9994
2 69122  89.0109  22.4558 0068106  30.5014 330.0120 14.39193804  3968
CZ-8 R/B
1 69122U 26108U   26165.25861102  .00000139  00000-0  38848-4 0  9990
2 69122  89.0109  22.4397 0068091  30.0429 330.4650 14.39193797  3982
CZ-8 R/B
1 69122U 26108U   26165.46719439  .00000137  00000-0  38173-4 0  9997
2 69122  89.0109  22.4155 0068060  29.3596 331.1401 14.39193828  4018
CZ-8 R/B
1 69122U 26108U   26165.53672216  .00000136  00000-0  37780-4 0  9998
2 69122  89.0108  22.4074 0068051  29.1301 331.3668 14.39193850  4022
CZ-8 R/B
1 69122U 26108U   26165.88436100  .00000136  00000-0  37872-4 0  9998
2 69122  89.0108  22.3671 0068003  27.9900 332.4930 14.39193933  4073
CZ-8 R/B
1 69122U 26108U   26165.88436100  .00000136  00000-0  37872-4 0  9998
2 69122  89.0108  22.3671 0068003  27.9900 332.4930 14.39193933  4073
CZ-8 R/B
1 69122U 26108U   26166.16247205  .00000210  00000-0  61241-4 0  9996
2 69122  89.0108  22.3349 0067984  27.0682 333.4037 14.39194066  4112
CZ-8 R/B
1 69122U 26108U   26166.23199981  .00000220  00000-0  64292-4 0  9991
2 69122  89.0108  22.3268 0067976  26.8377 333.6313 14.39194099  4127
CZ-8 R/B
1 69122U 26108U   26166.51011078  .00000217  00000-0  63496-4 0  9993
2 69122  89.0107  22.2946 0067937  25.9226 334.5351 14.39194228  4168
CZ-8 R/B
1 69122U 26108U   26166.57963852  .00000217  00000-0  63354-4 0  9998
2 69122  89.0107  22.2865 0067929  25.6943 334.7606 14.39194259  4172
CZ-8 R/B
1 69122U 26108U   26166.85774949  .00000202  00000-0  58650-4 0  9993
2 69122  89.0107  22.2543 0067893  24.7787 335.6648 14.39194329  4210
CZ-8 R/B
1 69122U 26108U   26167.13586041  .00000189  00000-0  54419-4 0  9992
2 69122  89.0107  22.2220 0067856  23.8601 336.5719 14.39194418  4258
CZ-8 R/B
1 69122U 26108U   26167.27491585  .00000187  00000-0  53968-4 0  9991
2 69122  89.0107  22.2060 0067839  23.4020 337.0242 14.39194456  4273
CZ-8 R/B
1 69122U 26108U   26167.48349904  .00000163  00000-0  46245-4 0  9995
2 69122  89.0107  22.1818 0067804  22.7190 337.6986 14.39194458  4302
CZ-8 R/B
1 69122U 26108U   26167.55302676  .00000163  00000-0  46297-4 0  9995
2 69122  89.0107  22.1738 0067796  22.4883 337.9264 14.39194488  4315
CZ-8 R/B
1 69122U 26108U   26167.83113759  .00000164  00000-0  46689-4 0  9994
2 69122  89.0107  22.1415 0067758  21.5711 338.8319 14.39194572  4354
CZ-8 R/B
1 69122U 26108U   26168.10924845  .00000148  00000-0  41780-4 0  9990
2 69122  89.0107  22.1093 0067719  20.6525 339.7389 14.39194614  4394
CZ-8 R/B
1 69122U 26108U   26168.52641470  .00000118  00000-0  32178-4 0  9994
2 69122  89.0106  22.0609 0067662  19.2744 341.0992 14.39194626  4455
CZ-8 R/B
1 69122U 26108U   26168.52641470  .00000118  00000-0  32178-4 0  9994
2 69122  89.0106  22.0609 0067662  19.2744 341.0992 14.39194626  4455
CZ-8 R/B
1 69122U 26108U   26168.80452551  .00000094  00000-0  24633-4 0  9995
2 69122  89.0106  22.0287 0067619  18.3538 342.0079 14.39194604  4497
CZ-8 R/B
1 69122U 26108U   26168.87405321  .00000094  00000-0  24615-4 0  9995
2 69122  89.0106  22.0206 0067609  18.1238 342.2350 14.39194619  4504
CZ-8 R/B
1 69122U 26108U   26169.29121938  .00000082  00000-0  20880-4 0  9998
2 69122  89.0106  21.9723 0067553  16.7437 343.5971 14.39194658  4561
CZ-8 R/B
1 69122U 26108U   26169.56933009  .00000092  00000-0  24042-4 0  9993
2 69122  89.0106  21.9400 0067509  15.8249 344.5039 14.39194766  4606
CZ-8 R/B
1 69122U 26108U   26169.63885775  .00000088  00000-0  22845-4 0  9991
2 69122  89.0106  21.9320 0067498  15.5937 344.7321 14.39194773  4610
CZ-8 R/B
1 69122U 26108U   26169.84744079  .00000105  00000-0  28250-4 0  9991
2 69122  89.0106  21.9078 0067473  14.8993 345.4175 14.39194839  4648
CZ-8 R/B
1 69122U 26108U   26169.91696846  .00000111  00000-0  30056-4 0  9991
2 69122  89.0106  21.8997 0067463  14.6687 345.6450 14.39194877  4655
CZ-8 R/B
1 69122U 26108U   26170.12555142  .00000121  00000-0  33213-4 0  9998
2 69122  89.0105  21.8755 0067434  13.9765 346.3281 14.39194984  4685
CZ-8 R/B
1 69122U 26108U   26170.26460675  .00000130  00000-0  36053-4 0  9994
2 69122  89.0105  21.8594 0067415  13.5164 346.7822 14.39195045  4701
CZ-8 R/B
1 69122U 26108U   26170.54271740  .00000128  00000-0  35292-4 0  9999
2 69122  89.0105  21.8272 0067367  12.5940 347.6924 14.39195104  4744
CZ-8 R/B
1 69122U 26108U   26170.68177271  .00000124  00000-0  34315-4 0  9999
2 69122  89.0105  21.8111 0067345  12.1343 348.1460 14.39195128  4764
CZ-8 R/B
1 69122U 26108U   26170.82082803  .00000125  00000-0  34378-4 0  9991
2 69122  89.0105  21.7949 0067325  11.6718 348.6024 14.39195154  4782
CZ-8 R/B
1 69122U 26108U   26170.89035569  .00000127  00000-0  35160-4 0  9997
2 69122  89.0105  21.7869 0067310  11.4430 348.8282 14.39195183  4797
CZ-8 R/B
1 69122U 26108U   26171.23799395  .00000131  00000-0  36427-4 0  9992
2 69122  89.0105  21.7465 0067268  10.2845 349.9713 14.39195271  4843
CZ-8 R/B
1 69122U 26108U   26171.37704931  .00000120  00000-0  32903-4 0  9992
2 69122  89.0105  21.7304 0067250   9.8207 350.4290 14.39195247  4864
CZ-8 R/B
1 69122U 26108U   26173.81051679  .00000100  00000-0  26805-4 0  9999
2 69122  89.0104  21.4482 0066893   1.7080 358.4336 14.39195596  5215
CZ-8 R/B
1 69122U 26108U   26174.92295881  .00000112  00000-0  30479-4 0  9992
2 69122  89.0104  21.3192 0066735 357.9778   2.1142 14.39195841  5375
CZ-8 R/B
1 69122U 26108U   26175.27059690  .00000121  00000-0  33373-4 0  9993
2 69122  89.0103  21.2789 0066691 356.8116   3.2649 14.39195935  5424
CZ-8 R/B
1 69122U 26108U   26176.03540059  .00000135  00000-0  37750-4 0  9990
2 69122  89.0103  21.1902 0066564 354.2486   5.7942 14.39196194  5534
CZ-8 R/B
1 69122U 26108U   26176.03540060  .00000135  00000-0  37750-4 0  9992
2 69122  89.0103  21.1902 0066564 354.2486   5.7942 14.39196194  5534
CZ-8 R/B
1 69122U 26108U   26176.59162138  .00000148  00000-0  41726-4 0  9991
2 69122  89.0103  21.1257 0066481 352.3811   7.6373 14.39196410  5615
CZ-8 R/B
1 69122U 26108U   26176.66114897  .00000150  00000-0  42569-4 0  9997
2 69122  89.0103  21.1176 0066469 352.1475   7.8678 14.39196435  5623
CZ-8 R/B
1 69122U 26108U   26176.80020419  .00000147  00000-0  41623-4 0  9995
2 69122  89.0103  21.1015 0066446 351.6792   8.3300 14.39196436  5647
CZ-8 R/B
1 69122U 26108U   26177.14784219  .00000151  00000-0  42904-4 0  9996
2 69122  89.0102  21.0612 0066394 350.5079   9.4862 14.39196563  5697
CZ-8 R/B
1 69122U 26108U   26177.21736977  .00000155  00000-0  44160-4 0  9992
2 69122  89.0102  21.0531 0066384 350.2744   9.7166 14.39196598  5702
CZ-8 R/B
1 69122U 26108U   26177.56500778  .00000150  00000-0  42636-4 0  9999
2 69122  89.0101  21.0128 0066341 349.1012  10.8747 14.39196652  5755
CZ-8 R/B
1 69122U 26108U   26177.70406295  .00000152  00000-0  43035-4 0  9990
2 69122  89.0101  20.9966 0066318 348.6326  11.3372 14.39196687  5779
CZ-8 R/B
1 69122U 26108U   26177.91264573  .00000163  00000-0  46517-4 0  9994
2 69122  89.0101  20.9725 0066290 347.9291  12.0318 14.39196794  5805
CZ-8 R/B
1 69122U 26108U   26178.05170090  .00000163  00000-0  46590-4 0  9991
2 69122  89.0101  20.9563 0066275 347.4596  12.4952 14.39196835  5827
CZ-8 R/B
1 69122U 26108U   26178.26028368  .00000169  00000-0  48600-4 0  9994
2 69122  89.0101  20.9321 0066245 346.7579  13.1880 14.39196914  5858
CZ-8 R/B
1 69122U 26108U   26178.53839407  .00000154  00000-0  43911-4 0  9992
2 69122  89.0100  20.8999 0066217 345.8200  14.1139 14.39196928  5894
CZ-8 R/B
1 69122U 26108U   26178.88603201  .00000157  00000-0  44651-4 0  9996
2 69122  89.0100  20.8595 0066170 344.6456  15.2735 14.39197018  5945
CZ-8 R/B
1 69122U 26108U   26178.88603202  .00000157  00000-0  44651-4 0  9997
2 69122  89.0100  20.8595 0066170 344.6456  15.2735 14.39197018  5945
CZ-8 R/B
1 69122U 26108U   26179.16414236  .00000154  00000-0  43669-4 0  9991
2 69122  89.0100  20.8273 0066134 343.7053  16.2020 14.39197092  5985
CZ-8 R/B
1 69122U 26108U   26179.30319755  .00000153  00000-0  43442-4 0  9995
2 69122  89.0100  20.8111 0066110 343.2347  16.6667 14.39197117  6004
CZ-8 R/B
1 69122U 26108U   26179.58130788  .00000148  00000-0  41796-4 0  9996
2 69122  89.0099  20.7789 0066074 342.2917  17.5981 14.39197198  6044
CZ-8 R/B
1 69122U 26108U   26179.92894580  .00000148  00000-0  41818-4 0  9996
2 69122  89.0099  20.7386 0066023 341.1104  18.7648 14.39197289  6096
CZ-8 R/B
1 69122U 26108U   26180.55469402  .00000166  00000-0  47632-4 0  9998
2 69122  89.0099  20.6660 0065936 338.9859  20.8634 14.39197559  6182
CZ-8 R/B
1 69122U 26108U   26181.52808016  .00000163  00000-0  46680-4 0  9993
2 69122  89.0098  20.5530 0065795 335.6753  24.1345 14.39197844  6325
CZ-8 R/B
1 69122U 26108U   26181.80619047  .00000153  00000-0  43476-4 0  9997
2 69122  89.0098  20.5208 0065747 334.7283  25.0705 14.39197905  6364
CZ-8 R/B
1 69122U 26108U   26181.87571806  .00000151  00000-0  42889-4 0  9999
2 69122  89.0098  20.5127 0065732 334.4888  25.3072 14.39197930  6375
CZ-8 R/B
1 69122U 26108U   26182.15382833  .00000161  00000-0  46040-4 0  9995
2 69122  89.0098  20.4804 0065694 333.5428  26.2423 14.39198095  6411
CZ-8 R/B
1 69122U 26108U   26182.29288351  .00000161  00000-0  45921-4 0  9997
2 69122  89.0098  20.4643 0065673 333.0700  26.7097 14.39198117  6436
CZ-8 R/B
1 69122U 26108U   26182.50146631  .00000148  00000-0  41956-4 0  9994
2 69122  89.0098  20.4401 0065646 332.3586  27.4129 14.39198113  6465
CZ-8 R/B
1 69122U 26108U   26182.57099389  .00000146  00000-0  41326-4 0  9997
2 69122  89.0098  20.4321 0065637 332.1217  27.6471 14.39198128  6474
CZ-8 R/B
1 69122U 26108U   26182.91863180  .00000148  00000-0  41986-4 0  9997
2 69122  89.0098  20.3917 0065583 330.9303  28.8252 14.39198245  6522
CZ-8 R/B
1 69122U 26108U   26183.26626977  .00000156  00000-0  44374-4 0  9990
2 69122  89.0098  20.3514 0065544 329.7478  29.9944 14.39198372  6577
CZ-8 R/B
1 69122U 26108U   26183.54438019  .00000162  00000-0  46297-4 0  9992
2 69122  89.0098  20.3191 0065511 328.7993  30.9325 14.39198459  6619
CZ-8 R/B
1 69122U 26108U   26183.75296295  .00000168  00000-0  48184-4 0  9996
2 69122  89.0098  20.2949 0065485 328.0866  31.6374 14.39198528  6643
CZ-8 R/B
1 69122U 26108U   26183.82249050  .00000171  00000-0  49288-4 0  9991
2 69122  89.0098  20.2868 0065474 327.8476  31.8739 14.39198578  6658
CZ-8 R/B
1 69122U 26108U   26184.58729416  .00000152  00000-0  43419-4 0  9993
2 69122  89.0098  20.1981 0065385 325.2395  34.4541 14.39198674  6765
CZ-8 R/B
1 69122U 26108U   26185.00445984  .00000146  00000-0  41291-4 0  9995
2 69122  89.0098  20.1497 0065344 323.8156  35.8632 14.39198733  6820
CZ-8 R/B
1 69122U 26108U   26185.00445984  .00000146  00000-0  41291-4 0  9995
2 69122  89.0098  20.1497 0065344 323.8156  35.8632 14.39198733  6820
CZ-8 R/B
1 69122U 26108U   26185.49115288  .00000195  00000-0  56917-4 0  9994
2 69122  89.0098  20.0932 0065296 322.1561  37.5058 14.39199173  6898
CZ-8 R/B
1 69122U 26108U   26185.49115289  .00000195  00000-0  56917-4 0  9995
2 69122  89.0098  20.0932 0065296 322.1561  37.5058 14.39199173  6898
CZ-8 R/B
1 69122U 26108U   26185.97784610  .00000192  00000-0  55913-4 0  9990
2 69122  89.0099  20.0368 0065246 320.4858  39.1594 14.39199286  6963
CZ-8 R/B
1 69122U 26108U   26186.25595646  .00000204  00000-0  59772-4 0  9992
2 69122  89.0099  20.0045 0065210 319.5281  40.1079 14.39199443  7006
CZ-8 R/B
1 69122U 26108U   26186.53406698  .00000194  00000-0  56482-4 0  9994
2 69122  89.0099  19.9722 0065179 318.5712  41.0556 14.39199463  7043
CZ-8 R/B
1 69122U 26108U   26186.53406698  .00000194  00000-0  56482-4 0  9994
2 69122  89.0099  19.9722 0065179 318.5712  41.0556 14.39199463  7043
CZ-8 R/B
1 69122U 26108U   26186.81217742  .00000195  00000-0  56834-4 0  9997
2 69122  89.0099  19.9400 0065150 317.6178  41.9999 14.39199539  7089
CZ-8 R/B
1 69122U 26108U   26187.09028787  .00000168  00000-0  48376-4 0  9999
2 69122  89.0099  19.9077 0065116 316.6560  42.9529 14.39199503  7121
CZ-8 R/B
1 69122U 26108U   26187.22934314  .00000162  00000-0  46431-4 0  9990
2 69122  89.0099  19.8915 0065099 316.1783  43.4262 14.39199492  7142
CZ-8 R/B
1 69122U 26108U   26187.50745366  .00000143  00000-0  40455-4 0  9997
2 69122  89.0099  19.8593 0065064 315.2152  44.3807 14.39199505  7180
CZ-8 R/B
1 69122U 26108U   26187.78556417  .00000139  00000-0  39286-4 0  9999
2 69122  89.0099  19.8270 0065036 314.2650  45.3224 14.39199514  7222
CZ-8 R/B
1 69122U 26108U   26188.20272998  .00000128  00000-0  35782-4 0  9991
2 69122  89.0099  19.7786 0064998 312.8325  46.7423 14.39199590  7288
CZ-8 R/B
1 69122U 26108U   26188.27225764  .00000124  00000-0  34433-4 0  9995
2 69122  89.0099  19.7705 0064995 312.5993  46.9735 14.39199596  7299
CZ-8 R/B
1 69122U 26108U   26188.48084053  .00000126  00000-0  35034-4 0  9992
2 69122  89.0099  19.7463 0064973 311.8765  47.6902 14.39199665  7320
CZ-8 R/B
1 69122U 26108U   26188.55036818  .00000123  00000-0  34174-4 0  9997
2 69122  89.0099  19.7382 0064967 311.6368  47.9279 14.39199678  7335
CZ-8 R/B
1 69122U 26108U   26188.75895110  .00000119  00000-0  32975-4 0  9999
2 69122  89.0099  19.7140 0064946 310.9162  48.6425 14.39199702  7360
CZ-8 R/B
1 69122U 26108U   26189.17611700  .00000105  00000-0  28429-4 0  9991
2 69122  89.0099  19.6656 0064907 309.4778  50.0692 14.39199754  7421
CZ-8 R/B
1 69122U 26108U   26189.52375529  .00000114  00000-0  31455-4 0  9999
2 69122  89.0099  19.6253 0064882 308.2851  51.2524 14.39199870  7476
CZ-8 R/B
1 69122U 26108U   26189.59328294  .00000117  00000-0  32406-4 0  9993
2 69122  89.0099  19.6172 0064875 308.0427  51.4930 14.39199894  7485
CZ-8 R/B
1 69122U 26108U   26189.94092126  .00000115  00000-0  31598-4 0  9993
2 69122  89.0099  19.5768 0064842 306.8394  52.6871 14.39199943  7536
CZ-8 R/B
1 69122U 26108U   26190.28855957  .00000126  00000-0  35279-4 0  9993
2 69122  89.0099  19.5365 0064811 305.6387  53.8789 14.39200070  7584
CZ-8 R/B
1 69122U 26108U   26190.70572560  .00000120  00000-0  33121-4 0  9994
2 69122  89.0099  19.4881 0064774 304.1952  55.3120 14.39200141  7648
CZ-8 R/B
1 69122U 26108U   26191.26194706  .00000117  00000-0  32363-4 0  9991
2 69122  89.0099  19.4235 0064725 302.2659  57.2281 14.39200270  7721
CZ-8 R/B
1 69122U 26108U   26191.60958554  .00000108  00000-0  29572-4 0  9996
2 69122  89.0099  19.3832 0064704 301.0691  58.4169 14.39200315  7776
CZ-8 R/B
1 69122U 26108U   26191.81816860  .00000114  00000-0  31211-4 0  9992
2 69122  89.0099  19.3590 0064693 300.3336  59.1476 14.39200386  7803
CZ-8 R/B
1 69122U 26108U   26192.16580713  .00000113  00000-0  31187-4 0  9997
2 69122  89.0099  19.3187 0064667 299.1338  60.3400 14.39200457  7858
CZ-8 R/B
1 69122U 26108U   26192.51344571  .00000119  00000-0  33065-4 0  9999
2 69122  89.0099  19.2783 0064642 297.9337  61.5328 14.39200526  7902
CZ-8 R/B
1 69122U 26108U   26192.72202886  .00000113  00000-0  30991-4 0  9993
2 69122  89.0099  19.2541 0064627 297.2042  62.2581 14.39200546  7937
CZ-8 R/B
1 69122U 26108U   26192.86108431  .00000116  00000-0  31940-4 0  9997
2 69122  89.0099  19.2380 0064617 296.7211  62.7385 14.39200586  7952
CZ-8 R/B
1 69122U 26108U   26192.93061204  .00000113  00000-0  31017-4 0  9993
2 69122  89.0099  19.2299 0064613 296.4769  62.9813 14.39200598  7964
CZ-8 R/B
1 69122U 26108U   26193.20872295  .00000110  00000-0  30250-4 0  9999
2 69122  89.0099  19.1976 0064594 295.5174  63.9356 14.39200634  8003
CZ-8 R/B
1 69122U 26108U   26193.27825070  .00000110  00000-0  30245-4 0  9999
2 69122  89.0099  19.1896 0064589 295.2763  64.1753 14.39200644  8015
CZ-8 R/B
1 69122U 26108U   26193.48683391  .00000106  00000-0  28895-4 0  9993
2 69122  89.0099  19.1653 0064577 294.5648  64.8831 14.39200668  8040
CZ-8 R/B
1 69122U 26108U   26193.55636165  .00000105  00000-0  28426-4 0  9997
2 69122  89.0099  19.1573 0064573 294.3232  65.1235 14.39200681  8052
CZ-8 R/B
1 69122U 26108U   26193.83447262  .00000108  00000-0  29399-4 0  9999
2 69122  89.0099  19.1250 0064555 293.3573  66.0845 14.39200742  8090
CZ-8 R/B
1 69122U 26108U   26194.18211140  .00000106  00000-0  28926-4 0  9995
2 69122  89.0099  19.0847 0064538 292.1617  67.2743 14.39200793  8140
CZ-8 R/B
1 69122U 26108U   26194.25163916  .00000110  00000-0  30169-4 0  9997
2 69122  89.0099  19.0766 0064534 291.9235  67.5114 14.39200817  8152
CZ-8 R/B
1 69122U 26108U   26194.46022241  .00000111  00000-0  30328-4 0  9993
2 69122  89.0099  19.0524 0064523 291.1931  68.2384 14.39200881  8188
CZ-8 R/B
1 69122U 26108U   26194.59927791  .00000107  00000-0  29211-4 0  9995
2 69122  89.0100  19.0363 0064517 290.7093  68.7200 14.39200901  8207
CZ-8 R/B
1 69122U 26108U   26194.80786118  .00000112  00000-0  30614-4 0  9990
2 69122  89.0100  19.0121 0064507 289.9819  69.4443 14.39200949  8236
CZ-8 R/B
1 69122U 26108U   26195.15550001  .00000122  00000-0  33931-4 0  9995
2 69122  89.0100  18.9717 0064490 288.7775  70.6436 14.39201070  8281
CZ-8 R/B
1 69122U 26108U   26195.57266671  .00000111  00000-0  30283-4 0  9993
2 69122  89.0100  18.9233 0064472 287.3244  72.0911 14.39201124  8341
CZ-8 R/B
1 69122U 26108U   26195.78125006  .00000112  00000-0  30666-4 0  9998
2 69122  89.0100  18.8991 0064464 286.5927  72.8201 14.39201161  8375
CZ-8 R/B
1 69122U 26108U   26195.92030568  .00000101  00000-0  27156-4 0  9990
2 69122  89.0100  18.8830 0064458 286.1102  73.3009 14.39201150  8393
CZ-8 R/B
1 69122U 26108U   26196.19841687  .00000092  00000-0  24332-4 0  9994
2 69122  89.0100  18.8507 0064449 285.1479  74.2599 14.39201171  8432
CZ-8 R/B
1 69122U 26108U   26196.54605591  .00000082  00000-0  21324-4 0  9992
2 69122  89.0101  18.8104 0064436 283.9407  75.4633 14.39201226  8487
CZ-8 R/B
1 69122U 26108U   26196.61558372  .00000084  00000-0  21930-4 0  9999
2 69122  89.0101  18.8023 0064435 283.6978  75.7054 14.39201242  8495
CZ-8 R/B
1 69122U 26108U   26196.82416720  .00000076  00000-0  19453-4 0  9990
2 69122  89.0101  18.7781 0064426 282.9722  76.4289 14.39201237  8520
CZ-8 R/B
1 69122U 26108U   26196.96322285  .00000074  00000-0  18856-4 0  9991
2 69122  89.0101  18.7620 0064423 282.4875  76.9124 14.39201263  8547
CZ-8 R/B
1 69122U 26108U   26197.17180632  .00000071  00000-0  17659-4 0  9990
2 69122  89.0101  18.7378 0064416 281.7638  77.6341 14.39201271  8579
CZ-8 R/B
1 69122U 26108U   26197.24133417  .00000074  00000-0  18715-4 0  9994
2 69122  89.0101  18.7297 0064414 281.5236  77.8737 14.39201287  8588
CZ-8 R/B
1 69122U 26108U   26197.58897331  .00000084  00000-0  21770-4 0  9999
2 69122  89.0102  18.6894 0064408 280.3124  79.0820 14.39201392  8637
CZ-8 R/B
1 69122U 26108U   26197.79755683  .00000087  00000-0  22975-4 0  9996
2 69122  89.0102  18.6652 0064405 279.5810  79.8117 14.39201429  8669
CZ-8 R/B
1 69122U 26108U   26198.14519608  .00000089  00000-0  23345-4 0  9995
2 69122  89.0102  18.6249 0064400 278.3728  81.0175 14.39201495  8719
CZ-8 R/B
1 69122U 26108U   26198.28425181  .00000095  00000-0  25399-4 0  9990
2 69122  89.0102  18.6088 0064396 277.8932  81.4963 14.39201526  8731
CZ-8 R/B
1 69122U 26108U   26198.56236324  .00000094  00000-0  25213-4 0  9994
2 69122  89.0103  18.5765 0064394 276.9220  82.4658 14.39201587  8774
CZ-8 R/B
1 69122U 26108U   26198.63189111  .00000092  00000-0  24448-4 0  9990
2 69122  89.0103  18.5684 0064391 276.6800  82.7075 14.39201583  8785
CZ-8 R/B
1 69122U 26108U   26198.91000266  .00000094  00000-0  25200-4 0  9993
2 69122  89.0103  18.5362 0064384 275.7183  83.6679 14.39201632  8824
CZ-8 R/B
1 69122U 26108U   26199.25764208  .00000094  00000-0  25106-4 0  9999
2 69122  89.0103  18.4959 0064378 274.5142  84.8707 14.39201679  8871
CZ-8 R/B
1 69122U 26108U   26199.53575362  .00000093  00000-0  24866-4 0  9992
2 69122  89.0104  18.4636 0064378 273.5440  85.8400 14.39201734  8912
CZ-8 R/B
1 69122U 26108U   26199.81386524  .00000094  00000-0  25016-4 0  9992
2 69122  89.0104  18.4313 0064373 272.5732  86.8101 14.39201766  8950
CZ-8 R/B
1 69122U 26108U   26199.88339315  .00000092  00000-0  24573-4 0  9990
2 69122  89.0104  18.4233 0064373 272.3312  87.0520 14.39201778  8965
CZ-8 R/B
1 69122U 26108U   26200.23103271  .00000097  00000-0  26084-4 0  9996
2 69122  89.0105  18.3829 0064371 271.1235  88.2592 14.39201841  9015
CZ-8 R/B
1 69122U 26108U   26200.57867227  .00000099  00000-0  26559-4 0  9990
2 69122  89.0105  18.3426 0064374 269.9166  89.4658 14.39201916  9063
CZ-8 R/B
1 69122U 26108U   26200.78725602  .00000111  00000-0  30558-4 0  9992
2 69122  89.0105  18.3184 0064381 269.1833  90.1991 14.39201997  9096
CZ-8 R/B
1 69122U 26108U   26201.27395158  .00000120  00000-0  33271-4 0  9991
2 69122  89.0106  18.2620 0064386 267.4882  91.8947 14.39202122  9169
CZ-8 R/B
1 69122U 26108U   26201.55206333  .00000122  00000-0  33941-4 0  9994
2 69122  89.0106  18.2297 0064391 266.5217  92.8618 14.39202199  9202
CZ-8 R/B
1 69122U 26108U   26201.83017514  .00000151  00000-0  42901-4 0  9994
2 69122  89.0106  18.1975 0064389 265.5614  93.8229 14.39202361  9245
CZ-8 R/B
1 69122U 26108U   26201.89970310  .00000149  00000-0  42362-4 0  9990
2 69122  89.0107  18.1894 0064392 265.3181  94.0664 14.39202376  9250
CZ-8 R/B
1 69122U 26108U   26202.24734289  .00000153  00000-0  43798-4 0  9992
2 69122  89.0107  18.1491 0064398 264.1092  95.2766 14.39202483  9308
CZ-8 R/B
1 69122U 26108U   26202.59498265  .00000167  00000-0  47978-4 0  9990
2 69122  89.0107  18.1088 0064397 262.9058  96.4818 14.39202638  9355
CZ-8 R/B
1 69122U 26108U   26203.22073440  .00000184  00000-0  53555-4 0  9992
2 69122  89.0107  18.0362 0064406 260.7365  98.6548 14.39202858  9445
CZ-8 R/B
1 69122U 26108U   26203.49884630  .00000181  00000-0  52587-4 0  9993
2 69122  89.0107  18.0040 0064414 259.7692  99.6241 14.39202931  9485
CZ-8 R/B
1 69122U 26108U   26203.91601423  .00000194  00000-0  56422-4 0  9993
2 69122  89.0108  17.9556 0064430 258.3199 101.0767 14.39203102  9540
CZ-8 R/B
1 69122U 26108U   26204.26365426  .00000191  00000-0  55595-4 0  9999
2 69122  89.0108  17.9153 0064440 257.1128 102.2869 14.39203164  9592
CZ-8 R/B
1 69122U 26108U   26204.47223817  .00000190  00000-0  55225-4 0  9998
2 69122  89.0108  17.8911 0064456 256.3829 103.0188 14.39203263  9626
CZ-8 R/B
1 69122U 26108U   26204.68082216  .00000188  00000-0  54761-4 0  9998
2 69122  89.0108  17.8670 0064465 255.6575 103.7463 14.39203304  9650
CZ-8 R/B
1 69122U 26108U   26204.81987821  .00000205  00000-0  60004-4 0  9996
2 69122  89.0108  17.8508 0064472 255.1735 104.2318 14.39203417  9673
CZ-8 R/B
1 69122U 26108U   26204.95893421  .00000208  00000-0  60837-4 0  9990
2 69122  89.0108  17.8347 0064475 254.6953 104.7116 14.39203489  9695
CZ-8 R/B
1 69122U 26108U   26205.23704614  .00000225  00000-0  66205-4 0  9991
2 69122  89.0108  17.8025 0064479 253.7342 105.6759 14.39203688  9733
CZ-8 R/B
1 69122U 26108U   26205.58468619  .00000223  00000-0  65585-4 0  9999
2 69122  89.0108  17.7622 0064491 252.5252 106.8893 14.39203801  9780
CZ-8 R/B
1 69122U 26108U   26205.79327021  .00000244  00000-0  72268-4 0  9992
2 69122  89.0109  17.7380 0064507 251.7997 107.6175 14.39203966  9815
CZ-8 R/B
1 69122U 26108U   26206.55807839  .00000242  00000-0  71518-4 0  9992
2 69122  89.0109  17.6494 0064551 249.1469 110.2812 14.39204258  9929
CZ-8 R/B
1 69122U 26108U   26206.90571849  .00000241  00000-0  71190-4 0  9995
2 69122  89.0109  17.6091 0064577 247.9404 111.4931 14.39204409  9973
CZ-8 R/B
1 69122U 26108U   26207.25335862  .00000258  00000-0  76735-4 0  9995
2 69122  89.0109  17.5688 0064592 246.7398 112.6994 14.39204638 10024
CZ-8 R/B
1 69122U 26108U   26207.60099875  .00000257  00000-0  76460-4 0  9999
2 69122  89.0110  17.5286 0064616 245.5368 113.9084 14.39204803 10074
CZ-8 R/B
1 69122U 26108U   26208.22675103  .00000270  00000-0  80370-4 0  9992
2 69122  89.0110  17.4560 0064650 243.3741 116.0828 14.39205102 10160
CZ-8 R/B
1 69122U 26108U   26208.50486319  .00000267  00000-0  79377-4 0  9993
2 69122  89.0111  17.4238 0064664 242.4113 117.0511 14.39205225 10202
CZ-8 R/B
1 69122U 26108U   26208.57439123  .00000267  00000-0  79515-4 0  9995
2 69122  89.0111  17.4157 0064669 242.1716 117.2922 14.39205259 10219
CZ-8 R/B
1 69122U 26108U   26208.78297530  .00000269  00000-0  80133-4 0  9992
2 69122  89.0111  17.3916 0064685 241.4472 118.0209 14.39205363 10246
CZ-8 R/B
1 69122U 26108U   26209.20014356  .00000259  00000-0  76932-4 0  9994
2 69122  89.0111  17.3432 0064704 240.0077 119.4692 14.39205503 10301
CZ-8 R/B
1 69122U 26108U   26209.89542400  .00000242  00000-0  71754-4 0  9994
2 69122  89.0113  17.2626 0064764 237.6019 121.8905 14.39205776 10408
CZ-8 R/B
1 69122U 26108U   26210.17353619  .00000256  00000-0  76008-4 0  9991
2 69122  89.0113  17.2304 0064778 236.6416 122.8574 14.39205971 10440
CZ-8 R/B
1 69122U 26108U   26210.24306426  .00000255  00000-0  75848-4 0  9993
2 69122  89.0113  17.2224 0064784 236.4018 123.0989 14.39206000 10452
CZ-8 R/B
1 69122U 26108U   26210.93834480  .00000232  00000-0  68364-4 0  9995
2 69122  89.0115  17.1418 0064850 233.9956 125.5223 14.39206217 10554
CZ-8 R/B
1 69122U 26108U   26211.21645705  .00000231  00000-0  68128-4 0  9994
2 69122  89.0115  17.1096 0064876 233.0292 126.4959 14.39206328 10591
CZ-8 R/B
1 69122U 26108U   26211.84220951  .00000234  00000-0  69173-4 0  9999
2 69122  89.0116  17.0372 0064941 230.8780 128.6637 14.39206650 10683
CZ-8 R/B
1 69122U 26108U   26212.18984981  .00000223  00000-0  65630-4 0  9999
2 69122  89.0116  16.9970 0064983 229.6813 129.8700 14.39206747 10731
CZ-8 R/B
1 69122U 26108U   26212.60701821  .00000249  00000-0  73916-4 0  9990
2 69122  89.0117  16.9486 0065024 228.2489 131.3143 14.39207071 10791
CZ-8 R/B
1 69122U 26108U   26212.81560240  .00000265  00000-0  78656-4 0  9995
2 69122  89.0118  16.9245 0065047 227.5294 132.0399 14.39207216 10822
CZ-8 R/B
1 69122U 26108U   26212.88513042  .00000241  00000-0  71151-4 0  9997
2 69122  89.0118  16.9164 0065057 227.2901 132.2811 14.39207152 10836
CZ-8 R/B
1 69122U 26108U   26213.23277084  .00000246  00000-0  72765-4 0  9997
2 69122  89.0118  16.8762 0065087 226.0940 133.4877 14.39207308 10885
CZ-8 R/B
1 69122U 26108U   26213.58041123  .00000257  00000-0  76296-4 0  9993
2 69122  89.0119  16.8359 0065121 224.8996 134.6928 14.39207541 10939
CZ-8 R/B
1 69122U 26108U   26213.92805161  .00000233  00000-0  68827-4 0  9996
2 69122  89.0120  16.7957 0065149 223.7039 135.8994 14.39207577 10980
CZ-8 R/B
1 69122U 26108U   26214.13663582  .00000230  00000-0  67727-4 0  9994
2 69122  89.0120  16.7715 0065168 222.9852 136.6247 14.39207654 11018
CZ-8 R/B
1 69122U 26108U   26214.20616394  .00000218  00000-0  63922-4 0  9990
2 69122  89.0120  16.7635 0065176 222.7405 136.8718 14.39207589 11023
CZ-8 R/B
1 69122U 26108U   26214.55380438  .00000238  00000-0  70133-4 0  9999
2 69122  89.0121  16.7232 0065209 221.5519 138.0716 14.39207828 11070
CZ-8 R/B
1 69122U 26108U   26214.90144471  .00000238  00000-0  70358-4 0  9992
2 69122  89.0121  16.6829 0065246 220.3584 139.2767 14.39208009 11128
CZ-8 R/B
1 69122U 26108U   26215.59672551  .00000247  00000-0  73082-4 0  9990
2 69122  89.0122  16.6025 0065318 217.9794 141.6793 14.39208352 11220
CZ-8 R/B
1 69122U 26108U   26215.87483787  .00000232  00000-0  68257-4 0  9994
2 69122  89.0123  16.5703 0065350 217.0280 142.6403 14.39208380 11264
CZ-8 R/B
1 69122U 26108U   26216.91775916  .00000213  00000-0  62206-4 0  9995
2 69122  89.0124  16.4496 0065468 213.4598 146.2459 14.39208735 11417
CZ-8 R/B
1 69122U 26108U   26217.54351193  .00000210  00000-0  61377-4 0  9997
2 69122  89.0124  16.3772 0065539 211.3259 148.4031 14.39208972 11506
CZ-8 R/B
1 69122U 26108U   26218.23879281  .00000192  00000-0  55701-4 0  9990
2 69122  89.0125  16.2967 0065633 208.9559 150.7996 14.39209167 11606
CZ-8 R/B
1 69122U 26108U   26218.58643324  .00000196  00000-0  57011-4 0  9995
2 69122  89.0126  16.2565 0065678 207.7763 151.9926 14.39209309 11653
CZ-8 R/B
1 69122U 26108U   26218.93407368  .00000185  00000-0  53566-4 0  9999
2 69122  89.0126  16.2163 0065727 206.5928 153.1897 14.39209405 11706
CZ-8 R/B
1 69122U 26108U   26219.28171415  .00000180  00000-0  51752-4 0  9999
2 69122  89.0126  16.1760 0065772 205.4069 154.3895 14.39209503 11757
CZ-8 R/B
1 69122U 26108U   26219.69888270  .00000174  00000-0  50002-4 0  9998
2 69122  89.0127  16.1278 0065825 203.9900 155.8231 14.39209628 11813
CZ-8 R/B
1 69122U 26108U   26219.83793889  .00000165  00000-0  47161-4 0  9997
2 69122  89.0127  16.1117 0065851 203.5152 156.3035 14.39209641 11834
CZ-8 R/B
1 69122U 26108U   26219.97699506  .00000165  00000-0  47228-4 0  9997
2 69122  89.0127  16.0956 0065865 203.0422 156.7822 14.39209691 11859
CZ-8 R/B
1 69122U 26108U   26220.18557939  .00000168  00000-0  48076-4 0  9990
2 69122  89.0128  16.0715 0065892 202.3296 157.5034 14.39209738 11883
CZ-8 R/B
1 69122U 26108U   26220.25510748  .00000167  00000-0  47720-4 0  9999
2 69122  89.0128  16.0634 0065900 202.0945 157.7413 14.39209761 11891
CZ-8 R/B
1 69122U 26108U   26220.46369175  .00000165  00000-0  47212-4 0  9992
2 69122  89.0128  16.0393 0065928 201.3877 158.4567 14.39209839 11927
CZ-8 R/B
1 69122U 26108U   26220.60274791  .00000174  00000-0  49913-4 0  9997
2 69122  89.0128  16.0232 0065947 200.9126 158.9376 14.39209908 11944
CZ-8 R/B
1 69122U 26108U   26220.81133213  .00000174  00000-0  50008-4 0  9990
2 69122  89.0129  15.9991 0065980 200.2047 159.6541 14.39209998 11971
CZ-8 R/B
1 69122U 26108U   26220.95038831  .00000171  00000-0  48869-4 0  9994
2 69122  89.0129  15.9830 0065996 199.7329 160.1317 14.39210044 11999
CZ-8 R/B
1 69122U 26108U   26221.15897259  .00000165  00000-0  47049-4 0  9996
2 69122  89.0129  15.9589 0066017 199.0254 160.8481 14.39210089 12028
CZ-8 R/B
1 69122U 26108U   26221.22850070  .00000160  00000-0  45621-4 0  9993
2 69122  89.0129  15.9508 0066031 198.7888 161.0876 14.39210093 12031
CZ-8 R/B
1 69122U 26108U   26221.50661308  .00000155  00000-0  44072-4 0  9991
2 69122  89.0130  15.9187 0066067 197.8489 162.0392 14.39210150 12074
CZ-8 R/B
1 69122U 26108U   26221.85425350  .00000149  00000-0  41970-4 0  9991
2 69122  89.0131  15.8785 0066122 196.6773 163.2254 14.39210234 12122
CZ-8 R/B
1 69122U 26108U   26222.20189396  .00000145  00000-0  40839-4 0  9997
2 69122  89.0131  15.8383 0066167 195.5017 164.4159 14.39210318 12179
CZ-8 R/B
1 69122U 26108U   26222.48000632  .00000142  00000-0  39791-4 0  9994
2 69122  89.0131  15.8061 0066203 194.5605 165.3691 14.39210403 12216
CZ-8 R/B
1 69122U 26108U   26222.82764679  .00000133  00000-0  36957-4 0  9991
2 69122  89.0132  15.7659 0066257 193.3863 166.5583 14.39210446 12266
CZ-8 R/B
1 69122U 26108U   26222.89717489  .00000133  00000-0  37070-4 0  9992
2 69122  89.0132  15.7579 0066266 193.1495 166.7982 14.39210472 12271
CZ-8 R/B
1 69122U 26108U   26223.17528726  .00000128  00000-0  35557-4 0  9990
2 69122  89.0133  15.7257 0066302 192.2140 167.7457 14.39210519 12318
CZ-8 R/B
1 69122U 26108U   26223.31434344  .00000129  00000-0  35576-4 0  9990
2 69122  89.0133  15.7097 0066322 191.7458 168.2200 14.39210561 12339
CZ-8 R/B
1 69122U 26108U   26223.45339961  .00000128  00000-0  35302-4 0  9990
2 69122  89.0133  15.6936 0066340 191.2776 168.6943 14.39210602 12354
CZ-8 R/B
1 69122U 26108U   26223.87056810  .00000137  00000-0  38231-4 0  9999
2 69122  89.0134  15.6454 0066404 189.8716 170.1186 14.39210734 12418
CZ-8 R/B
1 69122U 26108U   26223.94009619  .00000136  00000-0  37998-4 0  9990
2 69122  89.0134  15.6373 0066412 189.6382 170.3551 14.39210752 12423
CZ-8 R/B
1 69122U 26108U   26224.14868050  .00000125  00000-0  34428-4 0  9998
2 69122  89.0134  15.6132 0066438 188.9345 171.0680 14.39210725 12459
CZ-8 R/B
1 69122U 26108U   26224.49632088  .00000122  00000-0  33640-4 0  9998
2 69122  89.0135  15.5731 0066492 187.7696 172.2481 14.39210828 12502
CZ-8 R/B
1 69122U 26108U   26224.56584898  .00000123  00000-0  33787-4 0  9994
2 69122  89.0135  15.5650 0066499 187.5363 172.4845 14.39210840 12519
CZ-8 R/B
1 69122U 26108U   26225.12207370  .00000113  00000-0  30613-4 0  9998
2 69122  89.0136  15.5007 0066584 185.6634 174.3822 14.39210936 12591
CZ-8 R/B
1 69122U 26108U   26225.88688257  .00000127  00000-0  34996-4 0  9991
2 69122  89.0138  15.4124 0066699 183.0999 176.9799 14.39211175 12705
CZ-8 R/B
1 69122U 26108U   26225.95641066  .00000125  00000-0  34300-4 0  9993
2 69122  89.0138  15.4043 0066706 182.8659 177.2170 14.39211186 12714
CZ-8 R/B
1 69122U 26108U   26226.16499488  .00000130  00000-0  35925-4 0  9996
2 69122  89.0138  15.3802 0066737 182.1618 177.9305 14.39211251 12741
CZ-8 R/B
1 69122U 26108U   26226.30405104  .00000131  00000-0  36248-4 0  9994
2 69122  89.0138  15.3641 0066758 181.6969 178.4016 14.39211293 12761
CZ-8 R/B
1 69122U 26108U   26226.51263522  .00000133  00000-0  36934-4 0  9997
2 69122  89.0139  15.3401 0066785 180.9985 179.1094 14.39211357 12794
CZ-8 R/B
1 69122U 26108U   26226.65169137  .00000128  00000-0  35298-4 0  9995
2 69122  89.0139  15.3240 0066803 180.5389 179.5752 14.39211355 12816
CZ-8 R/B
1 69122U 26108U   26226.86027556  .00000150  00000-0  42138-4 0  9992
2 69122  89.0140  15.2999 0066841 179.8426 180.2808 14.39211512 12842
CZ-8 R/B
1 69122U 26108U   26226.92980361  .00000148  00000-0  41724-4 0  9998
2 69122  89.0140  15.2919 0066849 179.6115 180.5150 14.39211529 12857
CZ-8 R/B
1 69122U 26108U   26227.20791595  .00000142  00000-0  39677-4 0  9997
2 69122  89.0140  15.2597 0066887 178.6755 181.4636 14.39211528 12892
CZ-8 R/B
1 69122U 26108U   26227.20791596  .00000142  00000-0  39677-4 0  9998
2 69122  89.0140  15.2597 0066887 178.6755 181.4636 14.39211528 12892
CZ-8 R/B
1 69122U 26108U   26227.34697209  .00000141  00000-0  39347-4 0  9992
2 69122  89.0140  15.2437 0066909 178.2106 181.9347 14.39211567 12916
CZ-8 R/B
1 69122U 26108U   26227.48602819  .00000130  00000-0  36098-4 0  9998
2 69122  89.0141  15.2276 0066927 177.7454 182.4062 14.39211562 12935
CZ-8 R/B
1 69122U 26108U   26227.55555628  .00000128  00000-0  35455-4 0  9994
2 69122  89.0141  15.2196 0066938 177.5116 182.6431 14.39211561 12943
CZ-8 R/B
1 69122U 26108U   26227.83366854  .00000131  00000-0  36226-4 0  9997
2 69122  89.0142  15.1875 0066981 176.5883 183.5789 14.39211652 12986
CZ-8 R/B
1 69122U 26108U   26227.90319660  .00000130  00000-0  35988-4 0  9991
2 69122  89.0142  15.1794 0066989 176.3553 183.8151 14.39211671 12994
CZ-8 R/B
1 69122U 26108U   26228.18130885  .00000132  00000-0  36528-4 0  9995
2 69122  89.0142  15.1473 0067028 175.4201 184.7628 14.39211733 13037
CZ-8 R/B
1 69122U 26108U   26228.25083691  .00000140  00000-0  39162-4 0  9991
2 69122  89.0142  15.1393 0067035 175.1892 184.9969 14.39211781 13043
CZ-8 R/B
1 69122U 26108U   26228.59847712  .00000150  00000-0  42293-4 0  9990
2 69122  89.0143  15.0991 0067082 174.0294 186.1723 14.39211902 13095
CZ-8 R/B
1 69122U 26108U   26228.87658935  .00000160  00000-0  45349-4 0  9994
2 69122  89.0144  15.0670 0067126 173.1036 187.1105 14.39212015 13139
CZ-8 R/B
1 69122U 26108U   26229.22422957  .00000177  00000-0  50777-4 0  9996
2 69122  89.0144  15.0269 0067170 171.9421 188.2877 14.39212151 13180
CZ-8 R/B
1 69122U 26108U   26229.57186970  .00000172  00000-0  49023-4 0  9993
2 69122  89.0145  14.9867 0067214 170.7853 189.4599 14.39212217 13231
CZ-8 R/B
1 69122U 26108U   26229.91950983  .00000183  00000-0  52635-4 0  9999
2 69122  89.0146  14.9466 0067264 169.6307 190.6300 14.39212394 13288
CZ-8 R/B
1 69122U 26108U   26230.26714993  .00000207  00000-0  60073-4 0  9990
2 69122  89.0146  14.9064 0067305 168.4773 191.7989 14.39212611 13335
CZ-8 R/B
1 69122U 26108U   26230.54526194  .00000194  00000-0  55949-4 0  9996
2 69122  89.0146  14.8743 0067343 167.5539 192.7345 14.39212644 13377
CZ-8 R/B
1 69122U 26108U   26230.89290198  .00000208  00000-0  60325-4 0  9996
2 69122  89.0147  14.8342 0067397 166.3963 193.9075 14.39212814 13428
CZ-8 R/B
1 69122U 26108U   26231.17101390  .00000226  00000-0  66017-4 0  9997
2 69122  89.0147  14.8021 0067433 165.4743 194.8417 14.39212995 13463
CZ-8 R/B
1 69122U 26108U   26231.24054189  .00000228  00000-0  66650-4 0  9993
2 69122  89.0147  14.7941 0067441 165.2434 195.0756 14.39213030 13478
CZ-8 R/B
1 69122U 26108U   26231.58818182  .00000214  00000-0  62402-4 0  9997
2 69122  89.0148  14.7540 0067490 164.0870 196.2474 14.39213066 13524
CZ-8 R/B
1 69122U 26108U   26231.86629375  .00000215  00000-0  62538-4 0  9993
2 69122  89.0148  14.7219 0067530 163.1663 197.1802 14.39213166 13562
CZ-8 R/B
1 69122U 26108U   26232.28346151  .00000230  00000-0  67222-4 0  9990
2 69122  89.0148  14.6737 0067578 161.7831 198.5814 14.39213376 13627
CZ-8 R/B
1 69122U 26108U   26232.56157330  .00000221  00000-0  64454-4 0  9994
2 69122  89.0149  14.6416 0067614 160.8615 199.5150 14.39213435 13667
CZ-8 R/B
1 69122U 26108U   26232.90921300  .00000226  00000-0  66192-4 0  9994
2 69122  89.0149  14.6015 0067659 159.7090 200.6824 14.39213623 13712
CZ-8 R/B
1 69122U 26108U   26233.25685264  .00000236  00000-0  69061-4 0  9998
2 69122  89.0150  14.5614 0067703 158.5604 201.8457 14.39213796 13767
CZ-8 R/B
1 69122U 26108U   26233.46543635  .00000228  00000-0  66812-4 0  9998
2 69122  89.0150  14.5374 0067732 157.8792 202.5356 14.39213854 13796
CZ-8 R/B
1 69122U 26108U   26233.53496426  .00000231  00000-0  67541-4 0  9995
2 69122  89.0150  14.5293 0067741 157.6497 202.7681 14.39213886 13806
CZ-8 R/B
1 69122U 26108U   26233.88260376  .00000239  00000-0  70019-4 0  9998
2 69122  89.0150  14.4892 0067793 156.5081 203.9242 14.39214076 13857
CZ-8 R/B
1 69122U 26108U   26234.23024323  .00000242  00000-0  71169-4 0  9999
2 69122  89.0151  14.4491 0067838 155.3550 205.0919 14.39214233 13906
CZ-8 R/B
1 69122U 26108U   26234.50835473  .00000242  00000-0  71107-4 0  9997
2 69122  89.0151  14.4170 0067870 154.4368 206.0216 14.39214359 13947
CZ-8 R/B
1 69122U 26108U   26234.57788264  .00000236  00000-0  69299-4 0  9991
2 69122  89.0152  14.4090 0067881 154.2074 206.2538 14.39214358 13952
CZ-8 R/B
1 69122U 26108U   26234.92552196  .00000229  00000-0  66988-4 0  9997
2 69122  89.0152  14.3688 0067924 153.0663 207.4091 14.39214505 14001
CZ-8 R/B
1 69122U 26108U   26235.27316123  .00000234  00000-0  68596-4 0  9997
2 69122  89.0152  14.3287 0067968 151.9189 208.5705 14.39214656 14050
CZ-8 R/B
1 69122U 26108U   26235.55127255  .00000235  00000-0  68924-4 0  9990
2 69122  89.0153  14.2967 0067996 151.0049 209.4957 14.39214802 14098
CZ-8 R/B
1 69122U 26108U   26235.89891170  .00000218  00000-0  63348-4 0  9997
2 69122  89.0154  14.2566 0068039 149.8641 210.6502 14.39214912 14144
CZ-8 R/B
1 69122U 26108U   26236.31607857  .00000228  00000-0  66539-4 0  9998
2 69122  89.0154  14.2085 0068092 148.4957 212.0350 14.39215136 14207
CZ-8 R/B
1 69122U 26108U   26236.45513414  .00000233  00000-0  68157-4 0  9992
2 69122  89.0155  14.1924 0068108 148.0417 212.4943 14.39215221 14223
CZ-8 R/B
1 69122U 26108U   26236.59418975  .00000233  00000-0  68220-4 0  9994
2 69122  89.0155  14.1764 0068124 147.5833 212.9582 14.39215272 14241
CZ-8 R/B
1 69122U 26108U   26236.87230092  .00000221  00000-0  64376-4 0  9992
2 69122  89.0155  14.1443 0068160 146.6703 213.8818 14.39215370 14286
CZ-8 R/B
1 69122U 26108U   26237.21993983  .00000224  00000-0  65210-4 0  9997
2 69122  89.0156  14.1042 0068201 145.5265 215.0388 14.39215538 14337
CZ-8 R/B
1 69122U 26108U   26237.42852308  .00000231  00000-0  67649-4 0  9991
2 69122  89.0156  14.0802 0068224 144.8395 215.7337 14.39215677 14369
CZ-8 R/B
1 69122U 26108U   26237.56757862  .00000216  00000-0  62793-4 0  9993
2 69122  89.0157  14.0642 0068242 144.3852 216.1932 14.39215652 14386
CZ-8 R/B
1 69122U 26108U   26237.77616190  .00000220  00000-0  64034-4 0  9999
2 69122  89.0157  14.0401 0068273 143.7006 216.8856 14.39215781 14416
CZ-8 R/B
1 69122U 26108U   26237.84568964  .00000221  00000-0  64239-4 0  9990
2 69122  89.0158  14.0321 0068283 143.4715 217.1172 14.39215821 14424
CZ-8 R/B
1 69122U 26108U   26238.12380058  .00000216  00000-0  62941-4 0  9990
2 69122  89.0158  14.0000 0068309 142.5585 218.0404 14.39215913 14466
CZ-8 R/B
1 69122U 26108U   26238.26285612  .00000233  00000-0  68119-4 0  9997
2 69122  89.0158  13.9840 0068322 142.1042 218.4997 14.39216045 14485
CZ-8 R/B
1 69122U 26108U   26238.47143926  .00000252  00000-0  74115-4 0  9995
2 69122  89.0159  13.9600 0068341 141.4209 219.1904 14.39216232 14516
CZ-8 R/B
1 69122U 26108U   26238.54096698  .00000252  00000-0  74190-4 0  9999
2 69122  89.0159  13.9519 0068348 141.1928 219.4211 14.39216258 14520
CZ-8 R/B
1 69122U 26108U   26238.81907779  .00000258  00000-0  75999-4 0  9994
2 69122  89.0159  13.9199 0068382 140.2872 220.3365 14.39216410 14565
CZ-8 R/B
1 69122U 26108U   26238.88860550  .00000230  00000-0  67231-4 0  9996
2 69122  89.0160  13.9119 0068387 140.0587 220.5674 14.39216303 14572
CZ-8 R/B
1 69122U 26108U   26239.16671630  .00000235  00000-0  68892-4 0  9996
2 69122  89.0160  13.8798 0068421 139.1521 221.4837 14.39216454 14613
CZ-8 R/B
1 69122U 26108U   26239.23624399  .00000236  00000-0  68940-4 0  9999
2 69122  89.0160  13.8718 0068428 138.9252 221.7130 14.39216488 14627
CZ-8 R/B
1 69122U 26108U   26239.65341007  .00000248  00000-0  72824-4 0  9996
2 69122  89.0161  13.8238 0068467 137.5619 223.0906 14.39216708 14687
CZ-8 R/B
1 69122U 26108U   26239.72293773  .00000252  00000-0  74075-4 0  9995
2 69122  89.0161  13.8157 0068474 137.3352 223.3196 14.39216755 14694
CZ-8 R/B
1 69122U 26108U   26239.79246538  .00000252  00000-0  73996-4 0  9990
2 69122  89.0161  13.8077 0068480 137.1107 223.5463 14.39216792 14700
CZ-8 R/B
1 69122U 26108U   26239.86199305  .00000244  00000-0  71488-4 0  9992
2 69122  89.0161  13.7997 0068486 136.8822 223.7772 14.39216779 14717
CZ-8 R/B
1 69122U 26108U   26240.07057601  .00000243  00000-0  71270-4 0  9997
2 69122  89.0162  13.7756 0068507 136.1969 224.4695 14.39216865 14741
CZ-8 R/B
1 69122U 26108U   26240.27915907  .00000214  00000-0  62153-4 0  9999
2 69122  89.0162  13.7516 0068529 135.5170 225.1563 14.39216764 14779
CZ-8 R/B
1 69122U 26108U   26240.55726967  .00000220  00000-0  64028-4 0  9996
2 69122  89.0163  13.7196 0068555 134.6073 226.0750 14.39216905 14815
CZ-8 R/B
1 69122U 26108U   26240.69632492  .00000233  00000-0  68249-4 0  9993
2 69122  89.0163  13.7036 0068567 134.1565 226.5301 14.39217000 14838
CZ-8 R/B
1 69122U 26108U   26240.83538010  .00000224  00000-0  65308-4 0  9993
2 69122  89.0163  13.6875 0068578 133.7038 226.9872 14.39217044 14857
CZ-8 R/B
1 69122U 26108U   26240.83538011  .00000224  00000-0  65308-4 0  9994
2 69122  89.0163  13.6875 0068578 133.7039 226.9872 14.39217044 14858
CZ-8 R/B
1 69122U 26108U   26241.11349057  .00000221  00000-0  64174-4 0  9993
2 69122  89.0164  13.6555 0068605 132.7925 227.9074 14.39217137 14890
CZ-8 R/B
1 69122U 26108U   26241.25254575  .00000231  00000-0  67560-4 0  9991
2 69122  89.0164  13.6395 0068619 132.3389 228.3653 14.39217243 14916
CZ-8 R/B
1 69122U 26108U   26241.46112860  .00000229  00000-0  66955-4 0  9998
2 69122  89.0164  13.6155 0068637 131.6578 229.0528 14.39217315 14944
CZ-8 R/B
1 69122U 26108U   26241.60018379  .00000230  00000-0  67066-4 0  9990
2 69122  89.0165  13.5995 0068649 131.2044 229.5104 14.39217364 14964
CZ-8 R/B
1 69122U 26108U   26241.80876654  .00000210  00000-0  60852-4 0  9994
2 69122  89.0165  13.5754 0068672 130.5301 230.1909 14.39217352 14992
CZ-8 R/B
1 69122U 26108U   26241.87829410  .00000209  00000-0  60588-4 0  9993
2 69122  89.0165  13.5674 0068675 130.3029 230.4201 14.39217379 15001
CZ-8 R/B
1 69122U 26108U   26242.15640437  .00000204  00000-0  58896-4 0  9999
2 69122  89.0166  13.5354 0068702 129.3979 231.3333 14.39217461 15042
CZ-8 R/B
1 69122U 26108U   26242.29545950  .00000199  00000-0  57296-4 0  9994
2 69122  89.0166  13.5194 0068710 128.9462 231.7890 14.39217510 15064
CZ-8 R/B
1 69122U 26108U   26242.43451457  .00000198  00000-0  57176-4 0  9994
2 69122  89.0166  13.5034 0068721 128.4949 232.2443 14.39217569 15080
CZ-8 R/B
1 69122U 26108U   26242.57356970  .00000207  00000-0  59922-4 0  9995
2 69122  89.0166  13.4873 0068732 128.0405 232.7027 14.39217634 15104
CZ-8 R/B
1 69122U 26108U   26242.78215233  .00000216  00000-0  62673-4 0  9991
2 69122  89.0167  13.4633 0068751 127.3624 233.3866 14.39217751 15136
CZ-8 R/B
1 69122U 26108U   26242.92120735  .00000200  00000-0  57651-4 0  9992
2 69122  89.0167  13.4473 0068763 126.9078 233.8450 14.39217741 15154
CZ-8 R/B
1 69122U 26108U   26243.12978992  .00000202  00000-0  58436-4 0  9995
2 69122  89.0167  13.4232 0068786 126.2284 234.5302 14.39217823 15182
CZ-8 R/B
1 69122U 26108U   26243.19931743  .00000210  00000-0  60845-4 0  9991
2 69122  89.0167  13.4152 0068791 126.0001 234.7604 14.39217875 15199
CZ-8 R/B
1 69122U 26108U   26243.47742743  .00000209  00000-0  60582-4 0  9998
2 69122  89.0168  13.3832 0068814 125.0989 235.6689 14.39217994 15234
CZ-8 R/B
1 69122U 26108U   26243.61648244  .00000208  00000-0  60245-4 0  9990
2 69122  89.0168  13.3672 0068823 124.6458 236.1258 14.39218031 15255
CZ-8 R/B
1 69122U 26108U   26243.82506491  .00000197  00000-0  56627-4 0  9996
2 69122  89.0168  13.3432 0068846 123.9711 236.8058 14.39218070 15289
CZ-8 R/B
1 69122U 26108U   26243.89459240  .00000189  00000-0  54125-4 0  9994
2 69122  89.0168  13.3352 0068848 123.7451 237.0336 14.39218065 15298
CZ-8 R/B
1 69122U 26108U   26244.10317485  .00000185  00000-0  53091-4 0  9990
2 69122  89.0169  13.3111 0068870 123.0682 237.7158 14.39218115 15325
CZ-8 R/B
1 69122U 26108U   26244.17270233  .00000185  00000-0  53077-4 0  9990
2 69122  89.0169  13.3032 0068871 122.8405 237.9452 14.39218135 15330
CZ-8 R/B
1 69122U 26108U   26244.17270233  .00000185  00000-0  53077-4 0  9990
2 69122  89.0169  13.3031 0068871 122.8405 237.9452 14.39218135 15339
CZ-8 R/B
1 69122U 26108U   26244.45081213  .00000190  00000-0  54474-4 0  9997
2 69122  89.0169  13.2711 0068886 121.9420 238.8504 14.39218281 15370
CZ-8 R/B
1 69122U 26108U   26244.58986703  .00000193  00000-0  55366-4 0  9993
2 69122  89.0169  13.2551 0068896 121.4908 239.3049 14.39218327 15392
CZ-8 R/B
1 69122U 26108U   26244.86797675  .00000189  00000-0  54352-4 0  9991
2 69122  89.0169  13.2231 0068914 120.5888 240.2135 14.39218444 15437
