CZ-8 R/B
1 69419U 26125U   26168.68493888 -.01609728  00000-0 -60085+0 0  9995
2 69419  88.9969 280.3514 0072012  76.3550 284.5654 14.34345649  1795
CZ-8 R/B
1 69419U 26125U   26169.86807531  .00000120  00000-0  32176-4 0  9993
2 69419  88.9974 280.2125 0070515  76.1436 284.7598 14.39869543  1962
CZ-8 R/B
1 69419U 26125U   26169.86807532  .00000120  00000-0  32176-4 0  9994
2 69419  88.9974 280.2126 0070515  76.1436 284.7598 14.39869543  1963
CZ-8 R/B
1 69419U 26125U   26170.00706641  .00000121  00000-0  32237-4 0  9990
2 69419  88.9974 280.1962 0070510  75.6951 285.2066 14.39869563  1981
CZ-8 R/B
1 69419U 26125U   26170.28504857  .00000122  00000-0  32671-4 0  9998
2 69419  88.9975 280.1636 0070498  74.7923 286.1059 14.39869645  2023
CZ-8 R/B
1 69419U 26125U   26170.77151719  .00000130  00000-0  35267-4 0  9990
2 69419  88.9975 280.1064 0070474  73.2206 287.6712 14.39869789  2098
CZ-8 R/B
1 69419U 26125U   26170.77151719  .00000130  00000-0  35267-4 0  9990
2 69419  88.9975 280.1064 0070474  73.2206 287.6712 14.39869789  2098
CZ-8 R/B
1 69419U 26125U   26171.18849027  .00000111  00000-0  29353-4 0  9990
2 69419  88.9975 280.0575 0070453  71.8691 289.0166 14.39869785  2155
CZ-8 R/B
1 69419U 26125U   26171.39697676  .00000104  00000-0  27233-4 0  9991
2 69419  88.9975 280.0330 0070449  71.1898 289.6928 14.39869804  2188
CZ-8 R/B
1 69419U 26125U   26173.75982170  .00000083  00000-0  20573-4 0  9995
2 69419  88.9975 279.7554 0070298  63.5207 297.3182 14.39870148  2521
CZ-8 R/B
1 69419U 26125U   26174.87174762  .00000077  00000-0  18823-4 0  9997
2 69419  88.9975 279.6248 0070212  59.8997 300.9140 14.39870332  2687
CZ-8 R/B
1 69419U 26125U   26175.21922432  .00000091  00000-0  23036-4 0  9999
2 69419  88.9974 279.5840 0070182  58.7680 302.0373 14.39870445  2738
CZ-8 R/B
1 69419U 26125U   26176.19215853  .00000122  00000-0  32615-4 0  9997
2 69419  88.9975 279.4697 0070090  55.5964 305.1837 14.39870823  2870
CZ-8 R/B
1 69419U 26125U   26176.26165387  .00000120  00000-0  32031-4 0  9991
2 69419  88.9975 279.4615 0070092  55.3710 305.4074 14.39870826  2889
CZ-8 R/B
1 69419U 26125U   26176.53963497  .00000122  00000-0  32761-4 0  9991
2 69419  88.9975 279.4289 0070064  54.4649 306.3058 14.39870886  2929
CZ-8 R/B
1 69419U 26125U   26176.60913023  .00000126  00000-0  33900-4 0  9999
2 69419  88.9975 279.4207 0070060  54.2391 306.5297 14.39870919  2932
CZ-8 R/B
1 69419U 26125U   26176.81761604  .00000123  00000-0  32970-4 0  9991
2 69419  88.9975 279.3962 0070041  53.5584 307.2046 14.39870961  2964
CZ-8 R/B
1 69419U 26125U   26177.09559707  .00000127  00000-0  34359-4 0  9998
2 69419  88.9975 279.3636 0070017  52.6526 308.1025 14.39871035  3007
CZ-8 R/B
1 69419U 26125U   26177.30408283  .00000132  00000-0  35909-4 0  9992
2 69419  88.9975 279.3391 0069999  51.9695 308.7797 14.39871122  3033
CZ-8 R/B
1 69419U 26125U   26177.58206380  .00000131  00000-0  35570-4 0  9999
2 69419  88.9976 279.3064 0069971  51.0628 309.6782 14.39871155  3072
CZ-8 R/B
1 69419U 26125U   26177.72105426  .00000126  00000-0  34097-4 0  9991
2 69419  88.9976 279.2901 0069956  50.6093 310.1275 14.39871177  3095
CZ-8 R/B
1 69419U 26125U   26177.92953993  .00000133  00000-0  36190-4 0  9997
2 69419  88.9976 279.2656 0069940  49.9231 310.8074 14.39871264  3125
CZ-8 R/B
1 69419U 26125U   26178.20752079  .00000142  00000-0  38942-4 0  9998
2 69419  88.9976 279.2330 0069908  49.0161 311.7059 14.39871369  3164
CZ-8 R/B
1 69419U 26125U   26178.27701599  .00000142  00000-0  38942-4 0  9996
2 69419  88.9976 279.2249 0069902  48.7880 311.9318 14.39871392  3178
CZ-8 R/B
1 69419U 26125U   26178.55499683  .00000132  00000-0  35774-4 0  9994
2 69419  88.9976 279.1922 0069874  47.8793 312.8318 14.39871386  3214
CZ-8 R/B
1 69419U 26125U   26178.83297760  .00000129  00000-0  34902-4 0  9995
2 69419  88.9976 279.1596 0069842  46.9677 313.7345 14.39871461  3255
CZ-8 R/B
1 69419U 26125U   26178.90247280  .00000127  00000-0  34510-4 0  9998
2 69419  88.9976 279.1514 0069835  46.7404 313.9596 14.39871467  3260
CZ-8 R/B
1 69419U 26125U   26179.18045355  .00000127  00000-0  34217-4 0  9992
2 69419  88.9976 279.1188 0069803  45.8287 314.8621 14.39871514  3308
CZ-8 R/B
1 69419U 26125U   26179.31944391  .00000118  00000-0  31547-4 0  9998
2 69419  88.9977 279.1025 0069788  45.3714 315.3149 14.39871526  3327
CZ-8 R/B
1 69419U 26125U   26179.59742464  .00000100  00000-0  26057-4 0  9996
2 69419  88.9977 279.0699 0069757  44.4683 316.2088 14.39871504  3366
CZ-8 R/B
1 69419U 26125U   26179.94490046  .00000084  00000-0  21038-4 0  9996
2 69419  88.9977 279.0291 0069711  43.3271 317.3382 14.39871507  3413
CZ-8 R/B
1 69419U 26125U   26180.50086167  .00000091  00000-0  23097-4 0  9990
2 69419  88.9977 278.9638 0069647  41.5052 319.1408 14.39871621  3495
CZ-8 R/B
1 69419U 26125U   26181.54328858  .00000109  00000-0  28744-4 0  9995
2 69419  88.9978 278.8413 0069523  38.0881 322.5205 14.39871825  3646
CZ-8 R/B
1 69419U 26125U   26181.75177389  .00000113  00000-0  30144-4 0  9991
2 69419  88.9978 278.8169 0069500  37.4051 323.1958 14.39871892  3670
CZ-8 R/B
1 69419U 26125U   26181.89076408  .00000118  00000-0  31545-4 0  9997
2 69419  88.9977 278.8006 0069487  36.9464 323.6493 14.39871945  3695
CZ-8 R/B
1 69419U 26125U   26182.16874442  .00000143  00000-0  39348-4 0  9999
2 69419  88.9977 278.7679 0069450  36.0448 324.5407 14.39872096  3731
CZ-8 R/B
1 69419U 26125U   26182.23823952  .00000141  00000-0  38607-4 0  9992
2 69419  88.9977 278.7597 0069442  35.8160 324.7668 14.39872110  3748
CZ-8 R/B
1 69419U 26125U   26182.51621993  .00000114  00000-0  30492-4 0  9998
2 69419  88.9978 278.7271 0069408  34.9048 325.6675 14.39872011  3787
CZ-8 R/B
1 69419U 26125U   26182.58571503  .00000116  00000-0  30950-4 0  9997
2 69419  88.9978 278.7190 0069400  34.6769 325.8927 14.39872029  3798
CZ-8 R/B
1 69419U 26125U   26182.93319039  .00000120  00000-0  32332-4 0  9991
2 69419  88.9977 278.6781 0069365  33.5333 327.0229 14.39872118  3841
CZ-8 R/B
1 69419U 26125U   26183.28066567  .00000140  00000-0  38457-4 0  9991
2 69419  88.9977 278.6374 0069314  32.3902 328.1525 14.39872294  3893
CZ-8 R/B
1 69419U 26125U   26183.55864585  .00000161  00000-0  45118-4 0  9992
2 69419  88.9977 278.6047 0069266  31.4658 329.0657 14.39872425  3931
CZ-8 R/B
1 69419U 26125U   26183.69763593  .00000163  00000-0  45502-4 0  9993
2 69419  88.9977 278.5884 0069247  31.0066 329.5194 14.39872475  3955
CZ-8 R/B
1 69419U 26125U   26183.76713096  .00000162  00000-0  45373-4 0  9999
2 69419  88.9977 278.5803 0069238  30.7771 329.7461 14.39872495  3967
CZ-8 R/B
1 69419U 26125U   26184.67056632  .00000160  00000-0  44632-4 0  9991
2 69419  88.9977 278.4742 0069111  27.7959 332.6907 14.39872681  4092
CZ-8 R/B
1 69419U 26125U   26185.01804128  .00000177  00000-0  50051-4 0  9991
2 69419  88.9977 278.4334 0069057  26.6406 333.8316 14.39872842  4145
CZ-8 R/B
1 69419U 26125U   26185.01804129  .00000177  00000-0  50051-4 0  9992
2 69419  88.9977 278.4334 0069057  26.6406 333.8316 14.39872842  4145
CZ-8 R/B
1 69419U 26125U   26185.50450610  .00000211  00000-0  60585-4 0  9990
2 69419  88.9976 278.3763 0068995  25.0277 335.4242 14.39873211  4213
CZ-8 R/B
1 69419U 26125U   26185.50450610  .00000211  00000-0  60585-4 0  9990
2 69419  88.9976 278.3763 0068995  25.0277 335.4242 14.39873211  4213
CZ-8 R/B
1 69419U 26125U   26185.71299104  .00000200  00000-0  57197-4 0  9995
2 69419  88.9976 278.3518 0068961  24.3354 336.1077 14.39873245  4246
CZ-8 R/B
1 69419U 26125U   26185.85198109  .00000188  00000-0  53319-4 0  9990
2 69419  88.9976 278.3354 0068950  23.8782 336.5591 14.39873180  4266
CZ-8 R/B
1 69419U 26125U   26186.33844572  .00000219  00000-0  63021-4 0  9992
2 69419  88.9976 278.2783 0068885  22.2664 338.1502 14.39873491  4333
CZ-8 R/B
1 69419U 26125U   26186.33844572  .00000219  00000-0  63021-4 0  9992
2 69419  88.9976 278.2783 0068885  22.2664 338.1502 14.39873491  4333
CZ-8 R/B
1 69419U 26125U   26186.75541547  .00000212  00000-0  60724-4 0  9994
2 69419  88.9976 278.2294 0068829  20.8816 339.5171 14.39873575  4397
CZ-8 R/B
1 69419U 26125U   26187.03339527  .00000195  00000-0  55677-4 0  9990
2 69419  88.9975 278.1967 0068795  19.9709 340.4160 14.39873552  4433
CZ-8 R/B
1 69419U 26125U   26187.17238514  .00000195  00000-0  55456-4 0  9994
2 69419  88.9975 278.1804 0068774  19.5101 340.8708 14.39873587  4454
CZ-8 R/B
1 69419U 26125U   26187.31137499  .00000188  00000-0  53584-4 0  9992
2 69419  88.9975 278.1641 0068751  19.0456 341.3292 14.39873617  4476
CZ-8 R/B
1 69419U 26125U   26187.79783951  .00000148  00000-0  40990-4 0  9997
2 69419  88.9975 278.1069 0068678  17.4299 342.9236 14.39873589  4546
CZ-8 R/B
1 69419U 26125U   26188.21480904  .00000126  00000-0  34148-4 0  9991
2 69419  88.9975 278.0580 0068623  16.0406 344.2945 14.39873662  4609
CZ-8 R/B
1 69419U 26125U   26188.28430397  .00000121  00000-0  32735-4 0  9994
2 69419  88.9975 278.0498 0068613  15.8107 344.5214 14.39873672  4615
CZ-8 R/B
1 69419U 26125U   26188.49278875  .00000105  00000-0  27783-4 0  9997
2 69419  88.9975 278.0254 0068584  15.1216 345.2013 14.39873667  4648
CZ-8 R/B
1 69419U 26125U   26188.56228366  .00000103  00000-0  26973-4 0  9993
2 69419  88.9975 278.0172 0068574  14.8902 345.4297 14.39873679  4654
CZ-8 R/B
1 69419U 26125U   26188.77076838  .00000090  00000-0  23233-4 0  9992
2 69419  88.9975 277.9927 0068544  14.1941 346.1165 14.39873711  4685
CZ-8 R/B
1 69419U 26125U   26189.11824294  .00000067  00000-0  15851-4 0  9999
2 69419  88.9974 277.9519 0068496  13.0343 347.2607 14.39873697  4733
CZ-8 R/B
1 69419U 26125U   26189.53521238  .00000067  00000-0  16075-4 0  9996
2 69419  88.9974 277.9030 0068442  11.6486 348.6278 14.39873753  4792
CZ-8 R/B
1 69419U 26125U   26189.53521239  .00000067  00000-0  16075-4 0  9997
2 69419  88.9974 277.9030 0068442  11.6486 348.6278 14.39873753  4792
CZ-8 R/B
1 69419U 26125U   26189.95218179  .00000039  00000-0  74014-5 0  9996
2 69419  88.9974 277.8540 0068375  10.2556 350.0021 14.39873728  4857
CZ-8 R/B
1 69419U 26125U   26190.23016139  .00000038  00000-0  70749-5 0  9991
2 69419  88.9974 277.8214 0068334   9.3261 350.9191 14.39873765  4894
CZ-8 R/B
1 69419U 26125U   26190.71662568  .00000036  00000-0  63835-5 0  9993
2 69419  88.9974 277.7643 0068262   7.7018 352.5214 14.39873791  4962
CZ-8 R/B
1 69419U 26125U   26191.27258485  .00000038  00000-0  69849-5 0  9997
2 69419  88.9973 277.6990 0068184   5.8436 354.3545 14.39873838  5040
CZ-8 R/B
1 69419U 26125U   26191.62005932  .00000043  00000-0  85571-5 0  9999
2 69419  88.9973 277.6582 0068131   4.6795 355.5028 14.39873861  5094
CZ-8 R/B
1 69419U 26125U   26191.75904910  .00000042  00000-0  83468-5 0  9999
2 69419  88.9973 277.6419 0068115   4.2160 355.9600 14.39873877  5117
CZ-8 R/B
1 69419U 26125U   26192.17601850  .00000039  00000-0  73651-5 0  9992
2 69419  88.9973 277.5929 0068055   2.8163 357.3407 14.39873877  5179
CZ-8 R/B
1 69419U 26125U   26192.52349293  .00000040  00000-0  75325-5 0  9993
2 69419  88.9973 277.5521 0068002   1.6450 358.4961 14.39873895  5228
CZ-8 R/B
1 69419U 26125U   26192.73197759  .00000035  00000-0  59674-5 0  9997
2 69419  88.9973 277.5277 0067969   0.9413 359.1903 14.39873906  5258
CZ-8 R/B
1 69419U 26125U   26192.87096736  .00000032  00000-0  53053-5 0  9997
2 69419  88.9973 277.5113 0067948   0.4720 359.6533 14.39873896  5274
CZ-8 R/B
1 69419U 26125U   26192.87096737  .00000032  00000-0  53053-5 0  9998
2 69419  88.9973 277.5113 0067948   0.4720 359.6533 14.39873896  5274
CZ-8 R/B
1 69419U 26125U   26193.21844184  .00000023  00000-0  23002-5 0  9995
2 69419  88.9972 277.4705 0067898 359.3022   0.8072 14.39873886  5322
CZ-8 R/B
1 69419U 26125U   26193.28793674  .00000023  00000-0  22462-5 0  9998
2 69419  88.9972 277.4624 0067888 359.0681   1.0382 14.39873888  5339
CZ-8 R/B
1 69419U 26125U   26193.49642145  .00000020  00000-0  15637-5 0  9990
2 69419  88.9973 277.4379 0067855 358.3684   1.7284 14.39873860  5367
CZ-8 R/B
1 69419U 26125U   26193.56591635  .00000021  00000-0  18210-5 0  9996
2 69419  88.9973 277.4297 0067845 358.1346   1.9591 14.39873864  5376
CZ-8 R/B
1 69419U 26125U   26193.70490613  .00000019  00000-0  11223-5 0  9990
2 69419  88.9973 277.4134 0067823 357.6636   2.4238 14.39873868  5398
CZ-8 R/B
1 69419U 26125U   26194.19137041  .00000024  00000-0  28070-5 0  9991
2 69419  88.9972 277.3562 0067757 356.0280   4.0374 14.39873897  5464
CZ-8 R/B
1 69419U 26125U   26194.26086530  .00000024  00000-0  28005-5 0  9993
2 69419  88.9972 277.3481 0067748 355.7947   4.2676 14.39873897  5478
CZ-8 R/B
1 69419U 26125U   26194.53884490  .00000027  00000-0  37214-5 0  9999
2 69419  88.9972 277.3154 0067706 354.8581   5.1916 14.39873895  5513
CZ-8 R/B
1 69419U 26125U   26194.60833980  .00000033  00000-0  55506-5 0  9996
2 69419  88.9972 277.3072 0067697 354.6236   5.4230 14.39873917  5524
CZ-8 R/B
1 69419U 26125U   26194.81682448  .00000031  00000-0  49990-5 0  9998
2 69419  88.9972 277.2827 0067666 353.9200   6.1172 14.39873918  5557
CZ-8 R/B
1 69419U 26125U   26195.16429897  .00000047  00000-0  99892-5 0  9997
2 69419  88.9972 277.2419 0067618 352.7498   7.2718 14.39873979  5608
CZ-8 R/B
1 69419U 26125U   26195.58126836  .00000052  00000-0  11523-4 0  9990
2 69419  88.9972 277.1930 0067558 351.3407   8.6622 14.39874003  5667
CZ-8 R/B
1 69419U 26125U   26195.78975303  .00000049  00000-0  10606-4 0  9990
2 69419  88.9972 277.1684 0067536 350.6359   9.3577 14.39874017  5692
CZ-8 R/B
1 69419U 26125U   26195.92874285  .00000050  00000-0  10758-4 0  9993
2 69419  88.9972 277.1521 0067516 350.1678   9.8196 14.39874015  5712
CZ-8 R/B
1 69419U 26125U   26196.20672243  .00000056  00000-0  12754-4 0  9999
2 69419  88.9971 277.1195 0067474 349.2321  10.7431 14.39874063  5755
CZ-8 R/B
1 69419U 26125U   26196.55419696  .00000055  00000-0  12401-4 0  9996
2 69419  88.9972 277.0786 0067425 348.0582  11.9016 14.39874071  5800
CZ-8 R/B
1 69419U 26125U   26196.55419696  .00000055  00000-0  12401-4 0  9996
2 69419  88.9972 277.0786 0067425 348.0582  11.9016 14.39874071  5800
CZ-8 R/B
1 69419U 26125U   26196.76268166  .00000052  00000-0  11303-4 0  9990
2 69419  88.9971 277.0541 0067395 347.3523  12.5984 14.39874083  5838
CZ-8 R/B
1 69419U 26125U   26196.90167148  .00000046  00000-0  97049-5 0  9999
2 69419  88.9971 277.0378 0067378 346.8828  13.0617 14.39874067  5852
CZ-8 R/B
1 69419U 26125U   26197.17965110  .00000042  00000-0  84575-5 0  9990
2 69419  88.9971 277.0052 0067339 345.9349  13.9974 14.39874076  5895
CZ-8 R/B
1 69419U 26125U   26197.24914600  .00000042  00000-0  82702-5 0  9996
2 69419  88.9971 276.9970 0067330 345.6993  14.2300 14.39874080  5909
CZ-8 R/B
1 69419U 26125U   26197.59662056  .00000036  00000-0  66170-5 0  9993
2 69419  88.9971 276.9562 0067279 344.5220  15.3922 14.39874068  5952
CZ-8 R/B
1 69419U 26125U   26197.87460020  .00000030  00000-0  46453-5 0  9997
2 69419  88.9971 276.9235 0067244 343.5798  16.3224 14.39874057  5998
CZ-8 R/B
1 69419U 26125U   26198.15257943  .00000014  00000-0 -33754-6 0  9991
2 69419  88.9969 276.8907 0067252 342.5277  17.3610 14.39874017  6032
CZ-8 R/B
1 69419U 26125U   26198.29156965  .00000032  00000-0  53016-5 0  9999
2 69419  88.9970 276.8745 0067185 342.1550  17.7292 14.39874094  6056
CZ-8 R/B
1 69419U 26125U   26198.63904422  .00000032  00000-0  51390-5 0  9999
2 69419  88.9970 276.8337 0067131 340.9660  18.9032 14.39874104  6105
CZ-8 R/B
1 69419U 26125U   26198.63904423  .00000032  00000-0  51390-5 0  9990
2 69419  88.9970 276.8337 0067131 340.9661  18.9032 14.39874104  6106
CZ-8 R/B
1 69419U 26125U   26198.91702390  .00000032  00000-0  52914-5 0  9993
2 69419  88.9969 276.8011 0067098 340.0238  19.8337 14.39874115  6140
CZ-8 R/B
1 69419U 26125U   26199.26449847  .00000044  00000-0  90525-5 0  9990
2 69419  88.9969 276.7602 0067048 338.8393  21.0036 14.39874193  6199
CZ-8 R/B
1 69419U 26125U   26199.54247818  .00000049  00000-0  10719-4 0  9996
2 69419  88.9969 276.7276 0067010 337.8936  21.9378 14.39874210  6230
CZ-8 R/B
1 69419U 26125U   26199.82045787  .00000046  00000-0  95109-5 0  9992
2 69419  88.9968 276.6949 0066975 336.9488  22.8711 14.39874232  6275
CZ-8 R/B
1 69419U 26125U   26199.88995282  .00000043  00000-0  88281-5 0  9992
2 69419  88.9968 276.6867 0066965 336.7120  23.1050 14.39874223  6285
CZ-8 R/B
1 69419U 26125U   26200.23742746  .00000046  00000-0  94935-5 0  9995
2 69419  88.9968 276.6459 0066916 335.5251  24.2777 14.39874269  6334
CZ-8 R/B
1 69419U 26125U   26200.58490217  .00000034  00000-0  60061-5 0  9996
2 69419  88.9967 276.6051 0066869 334.3390  25.4497 14.39874241  6386
CZ-8 R/B
1 69419U 26125U   26200.86288192  .00000030  00000-0  47346-5 0  9991
2 69419  88.9967 276.5724 0066837 333.3921  26.3854 14.39874247  6424
CZ-8 R/B
1 69419U 26125U   26201.21035668  .00000024  00000-0  29814-5 0  9992
2 69419  88.9966 276.5316 0066792 332.2042  27.5595 14.39874252  6478
CZ-8 R/B
1 69419U 26125U   26201.55783148  .00000015  00000-0  65111-7 0  9994
2 69419  88.9966 276.4908 0066750 331.0193  28.7308 14.39874221  6529
CZ-8 R/B
1 69419U 26125U   26201.83581130  .00000011  00000-0 -12891-5 0  9994
2 69419  88.9966 276.4581 0066720 330.0684  29.6709 14.39874226  6561
CZ-8 R/B
1 69419U 26125U   26201.90351251 -.01708706  00000-0 -63394+0 0  9997
2 69419  88.9960 276.4499 0070330 331.1303  28.6011 14.34954266  6579
CZ-8 R/B
1 69419U 26125U   26202.25278105  .00000069  00000-0  16813-4 0  9995
2 69419  88.9965 276.4091 0066675 328.6437  31.0795 14.39874439  6629
CZ-8 R/B
1 69419U 26125U   26202.60025594  .00000032  00000-0  52018-5 0  9994
2 69419  88.9965 276.3683 0066631 327.4537  32.2564 14.39874333  6670
CZ-8 R/B
1 69419U 26125U   26203.22571066  .00000064  00000-0  15263-4 0  9998
2 69419  88.9964 276.2948 0066562 325.3148  34.3721 14.39874529  6765
CZ-8 R/B
1 69419U 26125U   26203.50369058  .00000064  00000-0  15144-4 0  9993
2 69419  88.9964 276.2621 0066531 324.3612  35.3155 14.39874539  6802
CZ-8 R/B
1 69419U 26125U   26203.92066049  .00000072  00000-0  17720-4 0  9994
2 69419  88.9963 276.2131 0066484 322.9316  36.7302 14.39874624  6869
CZ-8 R/B
1 69419U 26125U   26204.26813545  .00000080  00000-0  20348-4 0  9992
2 69419  88.9963 276.1723 0066447 321.7389  37.9106 14.39874707  6914
CZ-8 R/B
1 69419U 26125U   26204.61561042  .00000085  00000-0  21679-4 0  9996
2 69419  88.9963 276.1314 0066409 320.5432  39.0942 14.39874766  6965
CZ-8 R/B
1 69419U 26125U   26204.61561042  .00000085  00000-0  21679-4 0  9996
2 69419  88.9963 276.1314 0066409 320.5432  39.0942 14.39874766  6965
CZ-8 R/B
1 69419U 26125U   26204.82409544  .00000088  00000-0  22592-4 0  9995
2 69419  88.9963 276.1069 0066390 319.8292  39.8011 14.39874810  6994
CZ-8 R/B
1 69419U 26125U   26204.96308545  .00000089  00000-0  23055-4 0  9995
2 69419  88.9963 276.0906 0066373 319.3518  40.2738 14.39874825  7012
CZ-8 R/B
1 69419U 26125U   26205.24106540  .00000101  00000-0  26829-4 0  9995
2 69419  88.9962 276.0579 0066344 318.3948  41.2215 14.39874958  7053
CZ-8 R/B
1 69419U 26125U   26205.58728344 -.01925982  00000-0 -69900+0 0  9992
2 69419  88.9955 276.0171 0065535 318.2725  41.3485 14.36072780  7102
CZ-8 R/B
1 69419U 26125U   26206.56147074  .00000102  00000-0  27123-4 0  9997
2 69419  88.9962 275.9027 0066208 313.8314  45.7424 14.39875186  7241
CZ-8 R/B
1 69419U 26125U   26206.90894588  .00000110  00000-0  29618-4 0  9994
2 69419  88.9961 275.8618 0066178 312.6342  46.9291 14.39875264  7296
CZ-8 R/B
1 69419U 26125U   26207.25642105  .00000137  00000-0  37984-4 0  9993
2 69419  88.9961 275.8210 0066150 311.4330  48.1198 14.39875434  7343
CZ-8 R/B
1 69419U 26125U   26207.60389629  .00000139  00000-0  38675-4 0  9991
2 69419  88.9961 275.7801 0066117 310.2318  49.3110 14.39875500  7390
CZ-8 R/B
1 69419U 26125U   26208.22935175  .00000134  00000-0  37145-4 0  9999
2 69419  88.9960 275.7066 0066069 308.0741  51.4511 14.39875601  7484
CZ-8 R/B
1 69419U 26125U   26208.50733200  .00000139  00000-0  38532-4 0  9991
2 69419  88.9960 275.6739 0066044 307.1135  52.4041 14.39875654  7522
CZ-8 R/B
1 69419U 26125U   26208.57682706  .00000142  00000-0  39705-4 0  9999
2 69419  88.9960 275.6657 0066035 306.8704  52.6454 14.39875692  7532
CZ-8 R/B
1 69419U 26125U   26208.78531223  .00000142  00000-0  39446-4 0  9991
2 69419  88.9960 275.6412 0066019 306.1544  53.3559 14.39875736  7564
CZ-8 R/B
1 69419U 26125U   26209.20228266  .00000140  00000-0  38877-4 0  9994
2 69419  88.9959 275.5921 0065985 304.7185  54.7812 14.39875820  7620
CZ-8 R/B
1 69419U 26125U   26209.89723346  .00000152  00000-0  42543-4 0  9996
2 69419  88.9959 275.5104 0065938 302.3224  57.1603 14.39875997  7720
CZ-8 R/B
1 69419U 26125U   26210.03622363  .00000156  00000-0  43914-4 0  9998
2 69419  88.9958 275.4941 0065926 301.8419  57.6375 14.39876044  7741
CZ-8 R/B
1 69419U 26125U   26210.24470889  .00000162  00000-0  45916-4 0  9996
2 69419  88.9958 275.4696 0065913 301.1207  58.3539 14.39876146  7778
CZ-8 R/B
1 69419U 26125U   26210.93965985  .00000150  00000-0  42171-4 0  9995
2 69419  88.9957 275.3878 0065866 298.7099  60.7492 14.39876268  7876
CZ-8 R/B
1 69419U 26125U   26211.28713533  .00000167  00000-0  47375-4 0  9993
2 69419  88.9957 275.3470 0065852 297.5049  61.9469 14.39876434  7929
CZ-8 R/B
1 69419U 26125U   26211.77360108  .00000160  00000-0  45290-4 0  9990
2 69419  88.9956 275.2897 0065825 295.8173  63.6247 14.39876549  7996
CZ-8 R/B
1 69419U 26125U   26212.19057177  .00000160  00000-0  45056-4 0  9996
2 69419  88.9955 275.2407 0065807 294.3686  65.0655 14.39876655  8050
CZ-8 R/B
1 69419U 26125U   26212.60754253  .00000176  00000-0  50029-4 0  9994
2 69419  88.9955 275.1917 0065787 292.9197  66.5070 14.39876851  8115
CZ-8 R/B
1 69419U 26125U   26212.81602792  .00000156  00000-0  43937-4 0  9995
2 69419  88.9954 275.1671 0065775 292.2002  67.2229 14.39876821  8140
CZ-8 R/B
1 69419U 26125U   26212.88552305  .00000157  00000-0  44214-4 0  9996
2 69419  88.9954 275.1589 0065771 291.9583  67.4637 14.39876839  8159
CZ-8 R/B
1 69419U 26125U   26213.23299875  .00000160  00000-0  45038-4 0  9995
2 69419  88.9954 275.1181 0065756 290.7491  68.6672 14.39876967  8205
CZ-8 R/B
1 69419U 26125U   26213.64996965  .00000165  00000-0  46602-4 0  9997
2 69419  88.9953 275.0690 0065733 289.3037  70.1063 14.39877127  8260
CZ-8 R/B
1 69419U 26125U   26213.92795025  .00000156  00000-0  43981-4 0  9999
2 69419  88.9952 275.0363 0065719 288.3423  71.0638 14.39877134  8309
CZ-8 R/B
1 69419U 26125U   26214.13643572  .00000156  00000-0  43824-4 0  9998
2 69419  88.9952 275.0118 0065710 287.6181  71.7850 14.39877207  8338
CZ-8 R/B
1 69419U 26125U   26214.27542602  .00000155  00000-0  43525-4 0  9992
2 69419  88.9952 274.9954 0065707 287.1343  72.2670 14.39877219  8356
CZ-8 R/B
1 69419U 26125U   26214.62290189  .00000150  00000-0  42069-4 0  9998
2 69419  88.9951 274.9545 0065694 285.9240  73.4729 14.39877315  8409
CZ-8 R/B
1 69419U 26125U   26214.90088253  .00000155  00000-0  43713-4 0  9998
2 69419  88.9951 274.9218 0065678 284.9586  74.4351 14.39877415  8447
CZ-8 R/B
1 69419U 26125U   26215.59583436  .00000154  00000-0  43361-4 0  9995
2 69419  88.9950 274.8401 0065654 282.5481  76.8382 14.39877634  8545
CZ-8 R/B
1 69419U 26125U   26215.94331029  .00000153  00000-0  42869-4 0  9994
2 69419  88.9949 274.7992 0065643 281.3421  78.0409 14.39877712  8592
CZ-8 R/B
1 69419U 26125U   26217.19422414  .00000126  00000-0  34712-4 0  9990
2 69419  88.9947 274.6520 0065622 276.9937  82.3804 14.39877955  8771
CZ-8 R/B
1 69419U 26125U   26217.47220505  .00000125  00000-0  34422-4 0  9995
2 69419  88.9947 274.6192 0065623 276.0225  83.3501 14.39878009  8819
CZ-8 R/B
1 69419U 26125U   26218.23665270  .00000118  00000-0  32184-4 0  9997
2 69419  88.9946 274.5293 0065630 273.3687  86.0009 14.39878184  8928
CZ-8 R/B
1 69419U 26125U   26218.58412902  .00000118  00000-0  32206-4 0  9992
2 69419  88.9946 274.4883 0065632 272.1589  87.2098 14.39878259  8971
CZ-8 R/B
1 69419U 26125U   26218.93160536  .00000118  00000-0  32075-4 0  9998
2 69419  88.9945 274.4474 0065630 270.9530  88.4152 14.39878310  9025
CZ-8 R/B
1 69419U 26125U   26219.27908176  .00000112  00000-0  30157-4 0  9999
2 69419  88.9945 274.4065 0065633 269.7400  89.6281 14.39878370  9073
CZ-8 R/B
1 69419U 26125U   26219.69605351  .00000098  00000-0  25985-4 0  9990
2 69419  88.9945 274.3574 0065639 268.2900  91.0783 14.39878426  9135
CZ-8 R/B
1 69419U 26125U   26219.83504411  .00000103  00000-0  27317-4 0  9999
2 69419  88.9944 274.3410 0065636 267.8074  91.5611 14.39878453  9154
CZ-8 R/B
1 69419U 26125U   26219.90453941  .00000104  00000-0  27802-4 0  9998
2 69419  88.9944 274.3329 0065637 267.5653  91.8032 14.39878469  9162
CZ-8 R/B
1 69419U 26125U   26220.18252065  .00000105  00000-0  27992-4 0  9995
2 69419  88.9944 274.3001 0065641 266.5989  92.7702 14.39878530  9203
CZ-8 R/B
1 69419U 26125U   26220.25201595  .00000107  00000-0  28778-4 0  9990
2 69419  88.9944 274.2920 0065643 266.3572  93.0121 14.39878546  9217
CZ-8 R/B
1 69419U 26125U   26220.46050190  .00000110  00000-0  29500-4 0  9994
2 69419  88.9944 274.2674 0065647 265.6311  93.7387 14.39878583  9245
CZ-8 R/B
1 69419U 26125U   26220.59949254  .00000104  00000-0  27644-4 0  9996
2 69419  88.9944 274.2511 0065651 265.1477  94.2226 14.39878602  9260
CZ-8 R/B
1 69419U 26125U   26220.80797847  .00000107  00000-0  28794-4 0  9999
2 69419  88.9943 274.2265 0065654 264.4253  94.9458 14.39878655  9297
CZ-8 R/B
1 69419U 26125U   26220.87747387  .00000103  00000-0  27578-4 0  9995
2 69419  88.9943 274.2183 0065645 264.1884  95.1831 14.39878635  9301
CZ-8 R/B
1 69419U 26125U   26221.15545521  .00000102  00000-0  27254-4 0  9993
2 69419  88.9943 274.1856 0065650 263.2220  96.1508 14.39878693  9347
CZ-8 R/B
1 69419U 26125U   26221.22495052  .00000109  00000-0  29149-4 0  9996
2 69419  88.9943 274.1774 0065652 262.9793  96.3939 14.39878745  9358
CZ-8 R/B
1 69419U 26125U   26221.50293189  .00000109  00000-0  29317-4 0  9991
2 69419  88.9943 274.1447 0065662 262.0093  97.3654 14.39878782  9390
CZ-8 R/B
1 69419U 26125U   26221.85040861  .00000107  00000-0  28802-4 0  9992
2 69419  88.9942 274.1037 0065669 260.8005  98.5764 14.39878841  9447
CZ-8 R/B
1 69419U 26125U   26222.19788542  .00000114  00000-0  30908-4 0  9993
2 69419  88.9942 274.0628 0065677 259.5951  99.7843 14.39878943  9495
CZ-8 R/B
1 69419U 26125U   26222.47586689  .00000116  00000-0  31454-4 0  9991
2 69419  88.9942 274.0301 0065687 258.6261 100.7556 14.39878983  9531
CZ-8 R/B
1 69419U 26125U   26222.82334377  .00000107  00000-0  28540-4 0  9997
2 69419  88.9941 273.9891 0065701 257.4232 101.9616 14.39879007  9587
CZ-8 R/B
1 69419U 26125U   26222.89283916  .00000111  00000-0  29832-4 0  9996
2 69419  88.9941 273.9809 0065703 257.1789 102.2066 14.39879030  9592
CZ-8 R/B
1 69419U 26125U   26223.17082071  .00000112  00000-0  30099-4 0  9995
2 69419  88.9941 273.9482 0065714 256.2127 103.1755 14.39879090  9633
CZ-8 R/B
1 69419U 26125U   26223.24031608  .00000114  00000-0  30946-4 0  9996
2 69419  88.9941 273.9400 0065719 255.9719 103.4170 14.39879112  9641
CZ-8 R/B
1 69419U 26125U   26223.51829770  .00000110  00000-0  29714-4 0  9998
2 69419  88.9941 273.9072 0065728 255.0017 104.3903 14.39879132  9688
CZ-8 R/B
1 69419U 26125U   26223.79627929  .00000104  00000-0  27818-4 0  9996
2 69419  88.9940 273.8745 0065738 254.0413 105.3539 14.39879166  9721
CZ-8 R/B
1 69419U 26125U   26223.86577472  .00000102  00000-0  27078-4 0  9997
2 69419  88.9940 273.8663 0065741 253.8011 105.5950 14.39879169  9738
CZ-8 R/B
1 69419U 26125U   26224.21325176  .00000095  00000-0  24859-4 0  9994
2 69419  88.9940 273.8253 0065763 252.5933 106.8070 14.39879207  9781
CZ-8 R/B
1 69419U 26125U   26224.49123351  .00000085  00000-0  21742-4 0  9992
2 69419  88.9940 273.7926 0065776 251.6250 107.7790 14.39879200  9820
CZ-8 R/B
1 69419U 26125U   26224.63022435  .00000080  00000-0  20291-4 0  9992
2 69419  88.9939 273.7762 0065784 251.1405 108.2655 14.39879220  9842
CZ-8 R/B
1 69419U 26125U   26225.18618786  .00000083  00000-0  21094-4 0  9998
2 69419  88.9938 273.7107 0065808 249.2089 110.2054 14.39879310  9922
CZ-8 R/B
1 69419U 26125U   26225.88114242  .00000080  00000-0  20371-4 0  9997
2 69419  88.9937 273.6288 0065843 246.7979 112.6279 14.39879392 10027
CZ-8 R/B
1 69419U 26125U   26225.95063788  .00000083  00000-0  21264-4 0  9998
2 69419  88.9937 273.6206 0065850 246.5575 112.8695 14.39879419 10030
CZ-8 R/B
1 69419U 26125U   26226.15912426  .00000085  00000-0  21915-4 0  9998
2 69419  88.9937 273.5960 0065864 245.8366 113.5940 14.39879479 10061
CZ-8 R/B
1 69419U 26125U   26226.22861971  .00000085  00000-0  21695-4 0  9999
2 69419  88.9937 273.5878 0065871 245.5965 113.8354 14.39879486 10070
CZ-8 R/B
1 69419U 26125U   26226.50660161  .00000088  00000-0  22608-4 0  9996
2 69419  88.9937 273.5551 0065892 244.6330 114.8039 14.39879531 10114
CZ-8 R/B
1 69419U 26125U   26226.57609707  .00000090  00000-0  23250-4 0  9999
2 69419  88.9936 273.5469 0065897 244.3927 115.0455 14.39879558 10120
CZ-8 R/B
1 69419U 26125U   26226.85407899  .00000096  00000-0  25168-4 0  9994
2 69419  88.9936 273.5141 0065914 243.4310 116.0126 14.39879624 10167
CZ-8 R/B
1 69419U 26125U   26226.92357450  .00000094  00000-0  24655-4 0  9997
2 69419  88.9936 273.5059 0065917 243.1917 116.2533 14.39879630 10170
CZ-8 R/B
1 69419U 26125U   26227.13206096  .00000100  00000-0  26498-4 0  9995
2 69419  88.9935 273.4814 0065927 242.4712 116.9780 14.39879698 10202
CZ-8 R/B
1 69419U 26125U   26227.27105196  .00000097  00000-0  25566-4 0  9999
2 69419  88.9935 273.4650 0065938 241.9867 117.4654 14.39879703 10222
CZ-8 R/B
1 69419U 26125U   26227.34054745  .00000095  00000-0  24978-4 0  9994
2 69419  88.9935 273.4568 0065945 241.7448 117.7087 14.39879701 10233
CZ-8 R/B
1 69419U 26125U   26227.47953845  .00000094  00000-0  24590-4 0  9996
2 69419  88.9935 273.4404 0065956 241.2639 118.1925 14.39879719 10258
CZ-8 R/B
1 69419U 26125U   26227.54903395  .00000089  00000-0  23057-4 0  9990
2 69419  88.9935 273.4322 0065964 241.0213 118.4365 14.39879722 10268
CZ-8 R/B
1 69419U 26125U   26227.82568907 -.01908063  00000-0 -69241+0 0  9999
2 69419  88.9927 273.3995 0065745 241.8686 117.5859 14.36034832 10308
CZ-8 R/B
1 69419U 26125U   26227.96600699  .00000089  00000-0  23111-4 0  9998
2 69419  88.9934 273.3831 0065993 239.5827 119.8842 14.39879806 10321
CZ-8 R/B
1 69419U 26125U   26228.17449353  .00000091  00000-0  23510-4 0  9996
2 69419  88.9933 273.3585 0066010 238.8648 120.6068 14.39879858 10350
CZ-8 R/B
1 69419U 26125U   26228.24398904  .00000092  00000-0  24071-4 0  9993
2 69419  88.9933 273.3503 0066017 238.6239 120.8493 14.39879875 10365
CZ-8 R/B
1 69419U 26125U   26228.59146663  .00000095  00000-0  24873-4 0  9997
2 69419  88.9933 273.3093 0066046 237.4181 122.0633 14.39879952 10416
CZ-8 R/B
1 69419U 26125U   26228.86944874  .00000104  00000-0  27537-4 0  9998
2 69419  88.9932 273.2766 0066069 236.4612 123.0268 14.39880026 10457
CZ-8 R/B
1 69419U 26125U   26229.21692642  .00000104  00000-0  27701-4 0  9994
2 69419  88.9932 273.2356 0066096 235.2656 124.2310 14.39880108 10505
CZ-8 R/B
1 69419U 26125U   26229.56440410  .00000100  00000-0  26455-4 0  9997
2 69419  88.9931 273.1947 0066134 234.0658 125.4397 14.39880153 10554
CZ-8 R/B
1 69419U 26125U   26229.91188183  .00000118  00000-0  31991-4 0  9992
2 69419  88.9931 273.1537 0066160 232.8657 126.6490 14.39880301 10601
CZ-8 R/B
1 69419U 26125U   26230.25935959  .00000136  00000-0  37446-4 0  9993
2 69419  88.9930 273.1128 0066188 231.6665 127.8576 14.39880482 10655
CZ-8 R/B
1 69419U 26125U   26230.53734185  .00000125  00000-0  34139-4 0  9996
2 69419  88.9930 273.0800 0066214 230.7053 128.8265 14.39880491 10692
CZ-8 R/B
1 69419U 26125U   26230.88481970  .00000129  00000-0  35366-4 0  9992
2 69419  88.9929 273.0390 0066239 229.5097 130.0320 14.39880565 10740
CZ-8 R/B
1 69419U 26125U   26231.16280194  .00000142  00000-0  39496-4 0  9992
2 69419  88.9929 273.0062 0066263 228.5499 131.0000 14.39880722 10783
CZ-8 R/B
1 69419U 26125U   26231.23229753  .00000139  00000-0  38442-4 0  9990
2 69419  88.9929 272.9980 0066269 228.3099 131.2421 14.39880720 10798
CZ-8 R/B
1 69419U 26125U   26231.57977541  .00000134  00000-0  36981-4 0  9993
2 69419  88.9929 272.9570 0066307 227.1168 132.4455 14.39880760 10840
CZ-8 R/B
1 69419U 26125U   26231.92725338  .00000128  00000-0  35180-4 0  9990
2 69419  88.9928 272.9160 0066338 225.9221 133.6509 14.39880782 10896
CZ-8 R/B
1 69419U 26125U   26232.34422694  .00000126  00000-0  34413-4 0  9992
2 69419  88.9928 272.8669 0066380 224.4900 135.0960 14.39880845 10958
CZ-8 R/B
1 69419U 26125U   26232.62220932  .00000118  00000-0  31968-4 0  9997
2 69419  88.9928 272.8341 0066414 223.5379 136.0570 14.39880884 10998
CZ-8 R/B
1 69419U 26125U   26232.83069610  .00000129  00000-0  35198-4 0  9995
2 69419  88.9927 272.8095 0066435 222.8190 136.7827 14.39880968 11029
CZ-8 R/B
1 69419U 26125U   26233.24766968  .00000149  00000-0  41481-4 0  9995
2 69419  88.9927 272.7603 0066487 221.3865 138.2289 14.39881139 11089
CZ-8 R/B
1 69419U 26125U   26233.52565213  .00000151  00000-0  42052-4 0  9994
2 69419  88.9927 272.7275 0066518 220.4300 139.1948 14.39881202 11121
CZ-8 R/B
1 69419U 26125U   26233.59514773  .00000152  00000-0  42589-4 0  9992
2 69419  88.9927 272.7193 0066523 220.1928 139.4344 14.39881231 11135
CZ-8 R/B
1 69419U 26125U   26233.94262580  .00000152  00000-0  42429-4 0  9990
2 69419  88.9926 272.6783 0066563 219.0023 140.6368 14.39881301 11188
CZ-8 R/B
1 69419U 26125U   26234.22060823  .00000160  00000-0  44930-4 0  9996
2 69419  88.9926 272.6455 0066596 218.0519 141.5969 14.39881401 11222
CZ-8 R/B
1 69419U 26125U   26234.49859072  .00000161  00000-0  45222-4 0  9993
2 69419  88.9926 272.6127 0066631 217.0986 142.5601 14.39881472 11261
CZ-8 R/B
1 69419U 26125U   26234.56808633  .00000162  00000-0  45624-4 0  9995
2 69419  88.9926 272.6045 0066640 216.8596 142.8016 14.39881502 11272
CZ-8 R/B
1 69419U 26125U   26234.91556443  .00000163  00000-0  45967-4 0  9994
2 69419  88.9925 272.5635 0066681 215.6747 143.9990 14.39881577 11326
CZ-8 R/B
1 69419U 26125U   26235.26304254  .00000157  00000-0  44032-4 0  9999
2 69419  88.9925 272.5225 0066723 214.4921 145.1942 14.39881652 11379
CZ-8 R/B
1 69419U 26125U   26235.54102506  .00000155  00000-0  43262-4 0  9998
2 69419  88.9925 272.4897 0066758 213.5402 146.1565 14.39881727 11415
CZ-8 R/B
1 69419U 26125U   26235.95673313 -.01922197  00000-0 -69676+0 0  9996
2 69419  88.9919 272.4405 0065507 212.9350 146.7761 14.36128246 11476
CZ-8 R/B
1 69419U 26125U   26236.02611357 -.01891285  00000-0 -68778+0 0  9990
2 69419  88.9919 272.4323 0066570 213.0145 146.6891 14.35862894 11487
CZ-8 R/B
1 69419U 26125U   26236.58310838 -.02053876  00000-0 -73711+0 0  9991
2 69419  88.9917 272.3671 0062340 208.9361 150.8378 14.37008867 11564
CZ-8 R/B
1 69419U 26125U   26237.97337228  .00000126  00000-0  34382-4 0  9999
2 69419  88.9922 272.2026 0067058 205.2509 154.5411 14.39882298 11769
CZ-8 R/B
1 69419U 26125U   26238.11236338  .00000198  00000-0  56669-4 0  9997
2 69419  88.9922 272.1862 0067077 204.7737 155.0240 14.39882664 11789
CZ-8 R/B
1 69419U 26125U   26238.32085029  .00000221  00000-0  63929-4 0  9993
2 69419  88.9922 272.1617 0067108 204.0667 155.7395 14.39882813 11815
CZ-8 R/B
1 69419U 26125U   26238.52933716  .00000242  00000-0  70353-4 0  9992
2 69419  88.9922 272.1371 0067134 203.3509 156.4640 14.39883011 11843
CZ-8 R/B
1 69419U 26125U   26238.52933717  .00000242  00000-0  70353-4 0  9993
2 69419  88.9922 272.1371 0067134 203.3509 156.4640 14.39883011 11843
CZ-8 R/B
1 69419U 26125U   26238.87681527  .00000236  00000-0  68396-4 0  9997
2 69419  88.9921 272.0960 0067178 202.1694 157.6601 14.39883080 11896
CZ-8 R/B
1 69419U 26125U   26238.87681527  .00000236  00000-0  68396-4 0  9997
2 69419  88.9921 272.0960 0067178 202.1694 157.6600 14.39883080 11895
CZ-8 R/B
1 69419U 26125U   26239.15479774  .00000251  00000-0  73002-4 0  9995
2 69419  88.9921 272.0632 0067218 201.2238 158.6173 14.39883289 11932
CZ-8 R/B
1 69419U 26125U   26239.22429336  .00000254  00000-0  73929-4 0  9993
2 69419  88.9921 272.0550 0067230 200.9880 158.8560 14.39883322 11945
CZ-8 R/B
1 69419U 26125U   26239.57177150  .00000260  00000-0  75763-4 0  9990
2 69419  88.9920 272.0140 0067278 199.8078 160.0509 14.39883487 11991
CZ-8 R/B
1 69419U 26125U   26239.64126711  .00000259  00000-0  75640-4 0  9997
2 69419  88.9920 272.0058 0067285 199.5728 160.2889 14.39883518 12007
CZ-8 R/B
1 69419U 26125U   26239.78025832  .00000257  00000-0  75064-4 0  9992
2 69419  88.9919 271.9894 0067303 199.0997 160.7680 14.39883551 12028
CZ-8 R/B
1 69419U 26125U   26239.91924957  .00000256  00000-0  74568-4 0  9990
2 69419  88.9919 271.9730 0067324 198.6287 161.2450 14.39883603 12048
CZ-8 R/B
1 69419U 26125U   26240.12773648  .00000226  00000-0  65408-4 0  9994
2 69419  88.9919 271.9484 0067353 197.9207 161.9619 14.39883522 12077
CZ-8 R/B
1 69419U 26125U   26240.33622336  .00000218  00000-0  62833-4 0  9994
2 69419  88.9919 271.9238 0067380 197.2151 162.6765 14.39883560 12101
CZ-8 R/B
1 69419U 26125U   26240.54471022  .00000227  00000-0  65506-4 0  9991
2 69419  88.9918 271.8991 0067412 196.5098 163.3909 14.39883699 12137
CZ-8 R/B
1 69419U 26125U   26240.68370144  .00000225  00000-0  64853-4 0  9991
2 69419  88.9918 271.8827 0067428 196.0391 163.8676 14.39883746 12154
CZ-8 R/B
1 69419U 26125U   26240.82269262  .00000223  00000-0  64268-4 0  9993
2 69419  88.9918 271.8663 0067447 195.5685 164.3444 14.39883794 12177
CZ-8 R/B
1 69419U 26125U   26240.89218823  .00000225  00000-0  64873-4 0  9991
2 69419  88.9918 271.8581 0067458 195.3331 164.5828 14.39883833 12187
CZ-8 R/B
1 69419U 26125U   26241.17017060  .00000225  00000-0  64985-4 0  9997
2 69419  88.9917 271.8253 0067496 194.3959 165.5322 14.39883980 12227
CZ-8 R/B
1 69419U 26125U   26241.23966619  .00000235  00000-0  68141-4 0  9996
2 69419  88.9917 271.8171 0067507 194.1590 165.7722 14.39884045 12238
CZ-8 R/B
1 69419U 26125U   26241.51764863  .00000247  00000-0  71846-4 0  9993
2 69419  88.9917 271.7842 0067550 193.2232 166.7201 14.39884202 12275
CZ-8 R/B
1 69419U 26125U   26241.51764864  .00000247  00000-0  71846-4 0  9994
2 69419  88.9917 271.7842 0067550 193.2232 166.7201 14.39884202 12275
CZ-8 R/B
1 69419U 26125U   26241.79563101  .00000231  00000-0  66928-4 0  9993
2 69419  88.9916 271.7514 0067589 192.2810 167.6747 14.39884240 12315
CZ-8 R/B
1 69419U 26125U   26241.93462219  .00000242  00000-0  70207-4 0  9994
2 69419  88.9916 271.7350 0067611 191.8087 168.1533 14.39884339 12330
CZ-8 R/B
1 69419U 26125U   26242.14310896  .00000236  00000-0  68295-4 0  9998
2 69419  88.9916 271.7104 0067640 191.1042 168.8671 14.39884425 12362
CZ-8 R/B
1 69419U 26125U   26242.21260452  .00000238  00000-0  69008-4 0  9993
2 69419  88.9916 271.7022 0067650 190.8698 169.1046 14.39884471 12377
CZ-8 R/B
1 69419U 26125U   26242.49058691  .00000242  00000-0  70036-4 0  9991
2 69419  88.9915 271.6693 0067691 189.9335 170.0533 14.39884592 12412
CZ-8 R/B
1 69419U 26125U   26242.56008251  .00000240  00000-0  69492-4 0  9998
2 69419  88.9915 271.6611 0067700 189.7002 170.2898 14.39884620 12421
CZ-8 R/B
1 69419U 26125U   26242.83806485  .00000217  00000-0  62355-4 0  9998
2 69419  88.9915 271.6283 0067738 188.7618 171.2407 14.39884627 12467
CZ-8 R/B
1 69419U 26125U   26242.90756044  .00000220  00000-0  63232-4 0  9990
2 69419  88.9915 271.6201 0067747 188.5275 171.4782 14.39884665 12475
CZ-8 R/B
1 69419U 26125U   26243.18554272  .00000216  00000-0  62032-4 0  9992
2 69419  88.9914 271.5873 0067787 187.5930 172.4252 14.39884786 12511
CZ-8 R/B
1 69419U 26125U   26243.18554274  .00000215  00000-0  61927-4 0  9995
2 69419  88.9914 271.5873 0067789 187.5920 172.4262 14.39884785 12512
CZ-8 R/B
1 69419U 26125U   26243.46352506  .00000211  00000-0  60562-4 0  9990
2 69419  88.9914 271.5545 0067829 186.6574 173.3734 14.39884895 12558
CZ-8 R/B
1 69419U 26125U   26243.53302064  .00000209  00000-0  59999-4 0  9991
2 69419  88.9914 271.5463 0067838 186.4245 173.6095 14.39884921 12564
CZ-8 R/B
1 69419U 26125U   26243.81100293  .00000193  00000-0  55037-4 0  9993
2 69419  88.9914 271.5134 0067876 185.4887 174.5579 14.39884949 12604
CZ-8 R/B
1 69419U 26125U   26243.88049850  .00000193  00000-0  55085-4 0  9994
2 69419  88.9914 271.5052 0067889 185.2552 174.7945 14.39884976 12614
CZ-8 R/B
1 69419U 26125U   26244.15848073  .00000192  00000-0  54573-4 0  9999
2 69419  88.9913 271.4724 0067931 184.3279 175.7344 14.39885105 12655
CZ-8 R/B
1 69419U 26125U   26244.22797631  .00000188  00000-0  53542-4 0  9990
2 69419  88.9913 271.4642 0067941 184.0932 175.9723 14.39885115 12663
CZ-8 R/B
1 69419U 26125U   26244.50595855  .00000193  00000-0  54813-4 0  9993
2 69419  88.9913 271.4314 0067984 183.1641 176.9140 14.39885247 12708
CZ-8 R/B
1 69419U 26125U   26244.57545413  .00000185  00000-0  52398-4 0  9992
2 69419  88.9913 271.4231 0067994 182.9317 177.1496 14.39885251 12717
CZ-8 R/B
1 69419U 26125U   26244.92293194  .00000179  00000-0  50699-4 0  9992
2 69419  88.9913 271.3821 0068043 181.7617 178.3356 14.39885343 12762
