TBA - TO BE ASSIGNED
1 69581U 26137K   26168.72518888 -.00000202  00000-0 -24963-4 0  9992
2 69581  49.9892 253.2060 0077487 115.6783 245.2153 14.11690069    81
TBA - TO BE ASSIGNED
1 69581U 26137K   26168.72518888 -.00000202  00000-0 -24963-4 0  9992
2 69581  49.9892 253.2060 0077487 115.6783 245.2153 14.11690069    81
TBA - TO BE ASSIGNED
1 69581U 26137K   26169.29150196 -.00000219  00000-0 -33622-4 0  9999
2 69581  49.9880 250.8682 0077489 117.6122 243.2681 14.11689642   160
CZ-12 // RB
1 69581U 26137K   26169.64544758 -.00000223  00000-0 -35963-4 0  9994
2 69581  49.9885 249.4060 0077508 118.8213 242.0504 14.11689462   212
CZ-12 // RB
1 69581U 26137K   26169.71623670 -.00000225  00000-0 -36776-4 0  9998
2 69581  49.9885 249.1139 0077504 119.0646 241.8052 14.11689442   229
CZ-12 // RB
1 69581U 26137K   26169.71623670 -.00000225  00000-0 -36776-4 0  9998
2 69581  49.9896 249.1139 0077504 119.0646 241.8052 14.11689513   220
CZ-12 // RB
1 69581U 26137K   26169.92860403 -.00000230  00000-0 -39446-4 0  9991
2 69581  49.9895 248.2373 0077497 119.7900 241.0743 14.11689489   254
CZ-12 // RB
1 69581U 26137K   26170.21176057 -.00000230  00000-0 -39822-4 0  9998
2 69581  49.9893 247.0687 0077513 120.7698 240.0871 14.11689375   291
CZ-12 R/B
1 69581U 26137K   26170.28254966 -.00000232  00000-0 -40520-4 0  9990
2 69581  49.9893 246.7765 0077514 121.0141 239.8408 14.11689374   305
CZ-12 R/B
1 69581U 26137K   26170.63649522 -.00000229  00000-0 -38912-4 0  9993
2 69581  49.9892 245.3154 0077519 122.2242 238.6210 14.11689335   351
CZ-12 R/B
1 69581U 26137K   26170.70728436 -.00000208  00000-0 -27765-4 0  9994
2 69581  49.9887 245.0228 0077543 122.4533 238.3902 14.11689327   363
CZ-12 R/B
1 69581U 26137K   26171.20280793 -.00000187  00000-0 -16900-4 0  9994
2 69581  49.9886 242.9771 0077541 124.1507 236.6785 14.11689366   430
CZ-12 R/B
1 69581U 26137K   26171.55675325 -.00000157  00000-0 -84323-6 0  9994
2 69581  49.9886 241.5160 0077543 125.3606 235.4579 14.11689465   485
CZ-12 R/B
1 69581U 26137K   26172.19385372  .00000020  00000-0  92757-4 0  9990
2 69581  49.9885 238.8858 0077549 127.5514 233.2471 14.11690449   576
CZ-12 R/B
1 69581U 26137K   26172.47700938  .00000067  00000-0  11796-3 0  9994
2 69581  49.9884 237.7169 0077550 128.5254 232.2638 14.11690805   617
CZ-12 R/B
1 69581U 26137K   26173.68042000  .00000210  00000-0  19379-3 0  9992
2 69581  49.9881 232.7492 0077541 132.6324 228.1154 14.11692278   783
CZ-12 R/B
1 69581U 26137K   26174.88382968  .00000300  00000-0  24180-3 0  9991
2 69581  49.9879 227.7812 0077533 136.7607 223.9422 14.11693444   956
CZ-12 R/B
1 69581U 26137K   26175.30856207  .00000344  00000-0  26482-3 0  9996
2 69581  49.9880 226.0279 0077524 138.2201 222.4661 14.11693975  1010
CZ-12 R/B
1 69581U 26137K   26176.29960516  .00000346  00000-0  26574-3 0  9998
2 69581  49.9866 221.9366 0077522 141.6273 219.0184 14.11694260  1155
CZ-12 R/B
1 69581U 26137K   26176.44118252  .00000343  00000-0  26431-3 0  9996
2 69581  49.9866 221.3521 0077521 142.1101 218.5296 14.11694341  1177
CZ-12 R/B
1 69581U 26137K   26176.65354873  .00000305  00000-0  24425-3 0  9999
2 69581  49.9865 220.4756 0077504 142.8269 217.8039 14.11694219  1204
CZ-12 R/B
1 69581U 26137K   26177.29064688  .00000246  00000-0  21281-3 0  9993
2 69581  49.9865 217.8453 0077515 145.0163 215.5871 14.11694207  1293
CZ-12 R/B
1 69581U 26137K   26177.29064688  .00000246  00000-0  21281-3 0  9993
2 69581  49.9865 217.8453 0077515 145.0163 215.5871 14.11694207  1293
CZ-12 R/B
1 69581U 26137K   26179.27273448 -.00000104  00000-0  27092-4 0  9990
2 69581  49.9862 209.6633 0077471 151.7780 208.7358 14.11691666  1570
CZ-12 R/B
1 69581U 26137K   26183.30768895 -.00000234  00000-0 -42223-4 0  9992
2 69581  49.9853 193.0058 0077491 165.6304 194.6831 14.11691360  2149
CZ-12 R/B
1 69581U 26137K   26183.44926604 -.00000213  00000-0 -31272-4 0  9990
2 69581  49.9861 192.4210 0077505 166.1024 194.2040 14.11691587  2163
CZ-12 R/B
1 69581U 26137K   26183.73242049 -.00000210  00000-0 -29485-4 0  9996
2 69581  49.9862 191.2522 0077491 167.0686 193.2232 14.11691662  2206
CZ-12 R/B
1 69581U 26137K   26184.01557501 -.00000208  00000-0 -28530-4 0  9997
2 69581  49.9871 190.0832 0077494 168.0396 192.2374 14.11691716  2249
CZ-12 R/B
1 69581U 26137K   26184.51109532 -.00000185  00000-0 -16409-4 0  9995
2 69581  49.9869 188.0381 0077458 169.7347 190.5163 14.11691873  2315
CZ-12 R/B
1 69581U 26137K   26184.72346078 -.00000176  00000-0 -11381-4 0  9990
2 69581  49.9872 187.1607 0077512 170.4789 189.7608 14.11691980  2346
CZ-12 R/B
1 69581U 26137K   26185.00661542 -.00000155  00000-0 -20394-6 0  9991
2 69581  49.9870 185.9917 0077451 171.4410 188.7838 14.11692030  2383
CZ-12 R/B
1 69581U 26137K   26185.28976998 -.00000137  00000-0  94355-5 0  9991
2 69581  49.9871 184.8228 0077440 172.3983 187.8117 14.11692112  2426
CZ-12 R/B
1 69581U 26137K   26185.50213562 -.00000087  00000-0  35571-4 0  9995
2 69581  49.9872 183.9461 0077449 173.1227 187.0762 14.11692421  2459
CZ-12 R/B
1 69581U 26137K   26185.50213564 -.00000087  00000-0  35571-4 0  9997
2 69581  49.9872 183.9461 0077449 173.1227 187.0762 14.11692422  2450
CZ-12 R/B
1 69581U 26137K   26185.71450141 -.00000079  00000-0  40240-4 0  9994
2 69581  49.9873 183.0694 0077454 173.8512 186.3363 14.11692482  2488
CZ-12 R/B
1 69581U 26137K   26186.06844447 -.00000078  00000-0  40322-4 0  9999
2 69581  49.9873 181.6081 0077461 175.0628 185.1060 14.11692462  2537
CZ-12 R/B
1 69581U 26137K   26186.21002170 -.00000073  00000-0  43110-4 0  9998
2 69581  49.9873 181.0237 0077462 175.5477 184.6135 14.11692472  2552
CZ-12 R/B
1 69581U 26137K   26186.42238756 -.00000062  00000-0  48802-4 0  9993
2 69581  49.9875 180.1470 0077464 176.2720 183.8780 14.11692509  2585
CZ-12 R/B
1 69581U 26137K   26186.42238756 -.00000062  00000-0  48802-4 0  9993
2 69581  49.9875 180.1470 0077464 176.2720 183.8780 14.11692509  2585
CZ-12 R/B
1 69581U 26137K   26187.20106225 -.00000046  00000-0  57751-4 0  9990
2 69581  49.9875 176.9324 0077464 178.9373 181.1712 14.11692549  2691
CZ-12 R/B
1 69581U 26137K   26187.20106225 -.00000046  00000-0  57751-4 0  9990
2 69581  49.9875 176.9324 0077464 178.9373 181.1712 14.11692549  2691
CZ-12 R/B
1 69581U 26137K   26187.48421667 -.00000033  00000-0  64143-4 0  9999
2 69581  49.9875 175.7635 0077459 179.9049 180.1886 14.11692597  2737
CZ-12 R/B
1 69581U 26137K   26187.69658245 -.00000024  00000-0  69030-4 0  9996
2 69581  49.9876 174.8868 0077458 180.6334 179.4487 14.11692650  2762
CZ-12 R/B
1 69581U 26137K   26187.97973681 -.00000017  00000-0  73089-4 0  9992
2 69581  49.9876 173.7177 0077462 181.6026 178.4643 14.11692699  2808
CZ-12 R/B
1 69581U 26137K   26187.97973681 -.00000017  00000-0  73089-4 0  9992
2 69581  49.9876 173.7177 0077462 181.6027 178.4643 14.11692699  2809
CZ-12 R/B
1 69581U 26137K   26188.40446836  .00000003  00000-0  83561-4 0  9998
2 69581  49.9876 171.9644 0077459 183.0526 176.9918 14.11692816  2869
CZ-12 R/B
1 69581U 26137K   26188.40446836  .00000003  00000-0  83561-4 0  9998
2 69581  49.9876 171.9644 0077459 183.0526 176.9918 14.11692816  2869
CZ-12 R/B
1 69581U 26137K   26189.25393118  .00000028  00000-0  96501-4 0  9991
2 69581  49.9879 168.4576 0077462 185.9630 174.0362 14.11693088  2985
CZ-12 R/B
1 69581U 26137K   26189.25393118  .00000028  00000-0  96501-4 0  9991
2 69581  49.9879 168.4576 0077462 185.9630 174.0362 14.11693088  2985
CZ-12 R/B
1 69581U 26137K   26189.96181670  .00000038  00000-0  10218-3 0  9998
2 69581  49.9881 165.5353 0077464 188.3859 171.5759 14.11693337  3082
CZ-12 R/B
1 69581U 26137K   26190.59891358  .00000039  00000-0  10246-3 0  9992
2 69581  49.9883 162.9053 0077458 190.5644 169.3639 14.11693566  3178
CZ-12 R/B
1 69581U 26137K   26191.30679890  .00000031  00000-0  98074-4 0  9995
2 69581  49.9885 159.9831 0077460 192.9836 166.9077 14.11693798  3279
CZ-12 R/B
1 69581U 26137K   26191.30679890  .00000031  00000-0  98074-4 0  9995
2 69581  49.9885 159.9831 0077460 192.9836 166.9077 14.11693798  3279
CZ-12 R/B
1 69581U 26137K   26192.01468413 -.00000001  00000-0  81393-4 0  9995
2 69581  49.9885 157.0608 0077462 195.4071 164.4476 14.11693949  3376
CZ-12 R/B
1 69581U 26137K   26192.29783829 -.00000005  00000-0  79104-4 0  9997
2 69581  49.9886 155.8920 0077454 196.3689 163.4715 14.11694045  3414
CZ-12 R/B
1 69581U 26137K   26192.29783829 -.00000005  00000-0  79104-4 0  9997
2 69581  49.9886 155.8920 0077454 196.3689 163.4715 14.11694045  3414
CZ-12 R/B
1 69581U 26137K   26192.86414639 -.00000032  00000-0  64893-4 0  9999
2 69581  49.9887 153.5542 0077453 198.3112 161.5003 14.11694174  3492
CZ-12 R/B
1 69581U 26137K   26192.93493490 -.00000035  00000-0  63124-4 0  9998
2 69581  49.9887 153.2620 0077454 198.5521 161.2558 14.11694199  3504
CZ-12 R/B
1 69581U 26137K   26192.93493490 -.00000035  00000-0  63124-4 0  9998
2 69581  49.9887 153.2620 0077454 198.5521 161.2558 14.11694199  3504
CZ-12 R/B
1 69581U 26137K   26193.99676285 -.00000099  00000-0  28993-4 0  9995
2 69581  49.9888 148.8786 0077444 202.1727 157.5824 14.11694303  3654
CZ-12 R/B
1 69581U 26137K   26194.27991700 -.00000112  00000-0  22245-4 0  9999
2 69581  49.9888 147.7098 0077441 203.1403 156.6010 14.11694334  3692
CZ-12 R/B
1 69581U 26137K   26194.27991700 -.00000112  00000-0  22245-4 0  9999
2 69581  49.9888 147.7098 0077441 203.1402 156.6010 14.11694334  3691
CZ-12 R/B
1 69581U 26137K   26199.02275360 -.00000196  00000-0 -22176-4 0  9990
2 69581  49.9892 128.1306 0077445 219.3522 140.1742 14.11694079  4368
CZ-12 R/B
1 69581U 26137K   26199.51827456 -.00000179  00000-0 -13500-4 0  9995
2 69581  49.9892 126.0851 0077441 221.0515 138.4548 14.11694044  4432
CZ-12 R/B
1 69581U 26137K   26199.80142958 -.00000173  00000-0 -99730-5 0  9998
2 69581  49.9892 124.9163 0077440 222.0183 137.4767 14.11693978  4477
CZ-12 R/B
1 69581U 26137K   26199.80142958 -.00000173  00000-0 -99730-5 0  9998
2 69581  49.9892 124.9163 0077440 222.0183 137.4768 14.11693978  4478
CZ-12 R/B
1 69581U 26137K   26200.08458450 -.00000161  00000-0 -36002-5 0  9998
2 69581  49.9894 123.7474 0077454 222.9810 136.5029 14.11693970  4510
CZ-12 R/B
1 69581U 26137K   26200.50931701 -.00000141  00000-0  70079-5 0  9999
2 69581  49.9895 121.9941 0077447 224.4406 135.0270 14.11693975  4573
CZ-12 R/B
1 69581U 26137K   26200.72168333 -.00000130  00000-0  12529-4 0  9999
2 69581  49.9895 121.1175 0077442 225.1626 134.2972 14.11693979  4609
CZ-12 R/B
1 69581U 26137K   26201.21720479 -.00000108  00000-0  24217-4 0  9991
2 69581  49.9897 119.0720 0077430 226.8505 132.5911 14.11693988  4675
CZ-12 R/B
1 69581U 26137K   26201.71272626 -.00000086  00000-0  36063-4 0  9999
2 69581  49.9899 117.0265 0077430 228.5469 130.8771 14.11694045  4745
CZ-12 R/B
1 69581U 26137K   26201.92509265 -.00000077  00000-0  40622-4 0  9990
2 69581  49.9899 116.1498 0077428 229.2662 130.1505 14.11694070  4772
CZ-12 R/B
1 69581U 26137K   26202.13745913 -.00000073  00000-0  42727-4 0  9990
2 69581  49.9898 115.2732 0077419 229.9874 129.4221 14.11694028  4807
CZ-12 R/B
1 69581U 26137K   26202.49140314 -.00000060  00000-0  49831-4 0  9992
2 69581  49.9898 113.8121 0077419 231.1995 128.1981 14.11694088  4852
CZ-12 R/B
1 69581U 26137K   26202.98692476 -.00000040  00000-0  60404-4 0  9994
2 69581  49.9899 111.7666 0077423 232.8936 126.4879 14.11694205  4928
CZ-12 R/B
1 69581U 26137K   26203.48244650 -.00000025  00000-0  68169-4 0  9996
2 69581  49.9900 109.7211 0077418 234.5885 124.7775 14.11694318  4998
CZ-12 R/B
1 69581U 26137K   26203.76560147 -.00000006  00000-0  78197-4 0  9990
2 69581  49.9899 108.5522 0077447 235.5714 123.7856 14.11694519  5039
CZ-12 R/B
1 69581U 26137K   26204.11954552  .00000021  00000-0  92800-4 0  9990
2 69581  49.9899 107.0911 0077409 236.7501 122.5972 14.11694778  5088
CZ-12 R/B
1 69581U 26137K   26204.40270075  .00000038  00000-0  10162-3 0  9991
2 69581  49.9899 105.9223 0077394 237.7152 121.6241 14.11694982  5128
CZ-12 R/B
1 69581U 26137K   26204.75664463  .00000057  00000-0  11164-3 0  9991
2 69581  49.9901 104.4612 0077421 238.9503 120.3787 14.11695235  5170
CZ-12 R/B
1 69581U 26137K   26204.96901112  .00000051  00000-0  10862-3 0  9997
2 69581  49.9901 103.5846 0077420 239.6776 119.6457 14.11695272  5208
CZ-12 R/B
1 69581U 26137K   26206.38478782  .00000011  00000-0  87529-4 0  9998
2 69581  49.9900  97.7401 0077424 244.5256 114.7627 14.11695620  5404
CZ-12 R/B
1 69581U 26137K   26206.73873229 -.00000005  00000-0  79015-4 0  9997
2 69581  49.9901  96.2790 0077394 245.6969 113.5841 14.11695662  5455
CZ-12 R/B
1 69581U 26137K   26207.09267693 -.00000037  00000-0  61977-4 0  9992
2 69581  49.9905  94.8184 0077382 246.9206 112.3531 14.11695594  5508
CZ-12 R/B
1 69581U 26137K   26207.37583241 -.00000044  00000-0  58292-4 0  9997
2 69581  49.9905  93.6495 0077382 247.8929 111.3750 14.11695694  5549
CZ-12 R/B
1 69581U 26137K   26208.29608863 -.00000119  00000-0  18153-4 0  9992
2 69581  49.9902  89.8504 0077382 251.0496 108.2013 14.11695455  5676
CZ-12 R/B
1 69581U 26137K   26208.29608863 -.00000119  00000-0  18153-4 0  9992
2 69581  49.9902  89.8504 0077382 251.0496 108.2013 14.11695455  5676
CZ-12 R/B
1 69581U 26137K   26208.29608863 -.00000119  00000-0  18153-4 0  9992
2 69581  49.9902  89.8504 0077382 251.0496 108.2013 14.11695455  5676
CZ-12 R/B
1 69581U 26137K   26208.93318943 -.00000161  00000-0 -36990-5 0  9998
2 69581  49.9904  87.2205 0077381 253.2724 105.9681 14.11695330  5762
CZ-12 R/B
1 69581U 26137K   26209.00397839 -.00000161  00000-0 -39740-5 0  9994
2 69581  49.9904  86.9283 0077379 253.5193 105.7202 14.11695349  5772
CZ-12 R/B
1 69581U 26137K   26209.92423550 -.00000235  00000-0 -43196-4 0  9996
2 69581  49.9901  83.1292 0077402 256.6473 102.5796 14.11694951  5906
CZ-12 R/B
1 69581U 26137K   26209.92423550 -.00000235  00000-0 -43196-4 0  9996
2 69581  49.9901  83.1292 0077402 256.6473 102.5796 14.11694950  5905
CZ-12 R/B
1 69581U 26137K   26210.91528345 -.00000179  00000-0 -13710-4 0  9991
2 69581  49.9917  79.0380 0077412 260.0187  99.1977 14.11694712  6040
CZ-12 R/B
1 69581U 26137K   26210.98607259 -.00000182  00000-0 -14842-4 0  9991
2 69581  49.9917  78.7457 0077414 260.2568  98.9590 14.11694685  6056
CZ-12 R/B
1 69581U 26137K   26211.83554208 -.00000188  00000-0 -18246-4 0  9999
2 69581  49.9917  75.2390 0077426 263.1760  96.0333 14.11694633  6173
CZ-12 R/B
1 69581U 26137K   26211.90633126 -.00000189  00000-0 -18705-4 0  9995
2 69581  49.9917  74.9468 0077423 263.4203  95.7886 14.11694620  6183
CZ-12 R/B
1 69581U 26137K   26211.90633127 -.00000189  00000-0 -18705-4 0  9996
2 69581  49.9917  74.9468 0077423 263.4203  95.7886 14.11694620  6183
CZ-12 R/B
1 69581U 26137K   26212.82659044 -.00000186  00000-0 -17010-4 0  9999
2 69581  49.9918  71.1479 0077422 266.5747  92.6302 14.11694635  6311
CZ-12 R/B
1 69581U 26137K   26212.82659045 -.00000186  00000-0 -17010-4 0  9990
2 69581  49.9918  71.1479 0077422 266.5747  92.6302 14.11694635  6311
CZ-12 R/B
1 69581U 26137K   26212.96816876 -.00000180  00000-0 -14152-4 0  9990
2 69581  49.9918  70.5635 0077413 267.0567  92.1480 14.11694683  6331
CZ-12 R/B
1 69581U 26137K   26213.81763906 -.00000165  00000-0 -62149-5 0  9993
2 69581  49.9917  67.0567 0077391 269.9213  89.2827 14.11694817  6453
CZ-12 R/B
1 69581U 26137K   26213.95921670 -.00000198  00000-0 -23402-4 0  9996
2 69581  49.9899  66.4725 0077388 270.4032  88.8008 14.11694500  6470
CZ-12 R/B
1 69581U 26137K   26213.95921671 -.00000198  00000-0 -23402-4 0  9997
2 69581  49.9899  66.4725 0077388 270.4032  88.8008 14.11694500  6470
CZ-12 R/B
1 69581U 26137K   26214.52553055 -.00000161  00000-0 -40912-5 0  9994
2 69581  49.9901  64.1346 0077388 272.3267  86.8781 14.11694652  6552
CZ-12 R/B
1 69581U 26137K   26214.87947661 -.00000118  00000-0  18771-4 0  9990
2 69581  49.9901  62.6735 0077411 273.5459  85.6597 14.11694903  6607
CZ-12 R/B
1 69581U 26137K   26215.30421222 -.00000095  00000-0  31264-4 0  9995
2 69581  49.9900  60.9200 0077409 274.9934  84.2140 14.11694996  6661
CZ-12 R/B
1 69581U 26137K   26215.94131589 -.00000059  00000-0  50441-4 0  9997
2 69581  49.9900  58.2898 0077406 277.1655  82.0457 14.11695145  6750
CZ-12 R/B
1 69581U 26137K   26217.00315561 -.00000013  00000-0  74942-4 0  9992
2 69581  49.9901  53.9062 0077406 280.7820  78.4382 14.11695448  6909
CZ-12 R/B
1 69581U 26137K   26217.28631295 -.00000004  00000-0  79416-4 0  9998
2 69581  49.9902  52.7372 0077407 281.7549  77.4683 14.11695536  6946
CZ-12 R/B
1 69581U 26137K   26218.20657466 -.00000007  00000-0  78154-4 0  9990
2 69581  49.9902  48.9380 0077408 284.8824  74.3521 14.11695616  7074
CZ-12 R/B
1 69581U 26137K   26218.56052154 -.00000008  00000-0  77593-4 0  9999
2 69581  49.9902  47.4768 0077408 286.0846  73.1549 14.11695675  7124
CZ-12 R/B
1 69581U 26137K   26218.77288973 -.00000011  00000-0  75659-4 0  9997
2 69581  49.9903  46.6001 0077403 286.8063  72.4365 14.11695688  7155
CZ-12 R/B
1 69581U 26137K   26219.05604745 -.00000027  00000-0  67298-4 0  9995
2 69581  49.9903  45.4312 0077398 287.7751  71.4722 14.11695630  7191
CZ-12 R/B
1 69581U 26137K   26219.69315230 -.00000057  00000-0  51556-4 0  9996
2 69581  49.9905  42.8011 0077387 289.9414  69.3170 14.11695595  7281
CZ-12 R/B
1 69581U 26137K   26219.83473132 -.00000075  00000-0  41898-4 0  9996
2 69581  49.9906  42.2167 0077384 290.4295  68.8316 14.11695490  7302
CZ-12 R/B
1 69581U 26137K   26219.90552083 -.00000081  00000-0  38689-4 0  9998
2 69581  49.9906  41.9245 0077387 290.6760  68.5864 14.11695457  7316
CZ-12 R/B
1 69581U 26137K   26220.18867860 -.00000115  00000-0  20587-4 0  9998
2 69581  49.9905  40.7555 0077398 291.6411  67.6266 14.11695343  7356
CZ-12 R/B
1 69581U 26137K   26220.18867860 -.00000115  00000-0  20587-4 0  9998
2 69581  49.9905  40.7555 0077398 291.6411  67.6266 14.11695343  7356
CZ-12 R/B
1 69581U 26137K   26220.75499383 -.00000235  00000-0 -42962-4 0  9997
2 69581  49.9922  38.4180 0077398 293.6181  65.6615 14.11694889  7438
CZ-12 R/B
1 69581U 26137K   26220.75499384 -.00000235  00000-0 -42962-4 0  9998
2 69581  49.9922  38.4180 0077398 293.6181  65.6615 14.11694889  7438
CZ-12 R/B
1 69581U 26137K   26221.17973101 -.00000241  00000-0 -46289-4 0  9992
2 69581  49.9922  36.6647 0077400 295.0774  64.2115 14.11694800  7493
CZ-12 R/B
1 69581U 26137K   26221.17973101 -.00000241  00000-0 -46289-4 0  9992
2 69581  49.9922  36.6647 0077400 295.0774  64.2115 14.11694800  7493
CZ-12 R/B
1 69581U 26137K   26221.74604727 -.00000243  00000-0 -47060-4 0  9990
2 69581  49.9922  34.3269 0077398 296.9944  62.3077 14.11694722  7571
CZ-12 R/B
1 69581U 26137K   26221.88762639 -.00000242  00000-0 -46555-4 0  9999
2 69581  49.9922  33.7424 0077394 297.4758  61.8296 14.11694715  7593
CZ-12 R/B
1 69581U 26137K   26222.45394299 -.00000238  00000-0 -44678-4 0  9995
2 69581  49.9924  31.4045 0077397 299.4166  59.9032 14.11694654  7674
CZ-12 R/B
1 69581U 26137K   26222.73710131 -.00000247  00000-0 -49583-4 0  9993
2 69581  49.9925  30.2355 0077391 300.3807  58.9467 14.11694573  7710
CZ-12 R/B
1 69581U 26137K   26222.87868051 -.00000237  00000-0 -44041-4 0  9996
2 69581  49.9924  29.6510 0077395 300.8794  58.4519 14.11694619  7734
CZ-12 R/B
1 69581U 26137K   26222.87868052 -.00000237  00000-0 -44041-4 0  9997
2 69581  49.9924  29.6510 0077395 300.8794  58.4519 14.11694619  7734
CZ-12 R/B
1 69581U 26137K   26223.44499728 -.00000219  00000-0 -34477-4 0  9993
2 69581  49.9925  27.3131 0077402 302.8213  56.5257 14.11694682  7813
CZ-12 R/B
1 69581U 26137K   26223.86973499 -.00000203  00000-0 -25791-4 0  9993
2 69581  49.9925  25.5599 0077388 304.2756  55.0841 14.11694777  7876
CZ-12 R/B
1 69581U 26137K   26223.86973499 -.00000203  00000-0 -25791-4 0  9993
2 69581  49.9925  25.5599 0077388 304.2756  55.0841 14.11694777  7876
CZ-12 R/B
1 69581U 26137K   26224.43605188 -.00000171  00000-0 -87401-5 0  9995
2 69581  49.9926  23.2222 0077408 306.2148  53.1620 14.11695006  7954
CZ-12 R/B
1 69581U 26137K   26224.43605188 -.00000171  00000-0 -87401-5 0  9995
2 69581  49.9926  23.2222 0077408 306.2148  53.1620 14.11695006  7954
CZ-12 R/B
1 69581U 26137K   26225.78105394 -.00000260  00000-0 -56300-4 0  9990
2 69581  49.9912  17.6698 0077418 310.8128  48.6083 14.11695096  8146
CZ-12 R/B
1 69581U 26137K   26225.78105394 -.00000260  00000-0 -56300-4 0  9990
2 69581  49.9912  17.6698 0077418 310.8128  48.6083 14.11695096  8146
CZ-12 R/B
1 69581U 26137K   26226.84289955 -.00000225  00000-0 -37377-4 0  9998
2 69581  49.9912  13.2864 0077418 314.4473  45.0119 14.11695091  8298
CZ-12 R/B
1 69581U 26137K   26226.91368929 -.00000223  00000-0 -36787-4 0  9997
2 69581  49.9912  12.9942 0077419 314.6892  44.7726 14.11695083  8302
CZ-12 R/B
1 69581U 26137K   26226.91368930 -.00000223  00000-0 -36787-4 0  9999
2 69581  49.9912  12.9942 0077419 314.6892  44.7726 14.11695083  8302
CZ-12 R/B
1 69581U 26137K   26226.91368930 -.00000223  00000-0 -36787-4 0  9999
2 69581  49.9912  12.9942 0077419 314.6892  44.7726 14.11695083  8302
CZ-12 R/B
1 69581U 26137K   26227.83395601 -.00000173  00000-0 -97590-5 0  9990
2 69581  49.9913   9.1953 0077413 317.8290  41.6679 14.11695147  8432
CZ-12 R/B
1 69581U 26137K   26227.90474580 -.00000172  00000-0 -95516-5 0  9997
2 69581  49.9913   8.9031 0077412 318.0704  41.4293 14.11695129  8449
CZ-12 R/B
1 69581U 26137K   26227.90474580 -.00000172  00000-0 -95516-5 0  9997
2 69581  49.9913   8.9031 0077412 318.0704  41.4293 14.11695129  8449
CZ-12 R/B
1 69581U 26137K   26227.90474580 -.00000172  00000-0 -95516-5 0  9997
2 69581  49.9913   8.9031 0077412 318.0704  41.4293 14.11695129  8449
CZ-12 R/B
1 69581U 26137K   26228.47106400 -.00000142  00000-0  63154-5 0  9992
2 69581  49.9913   6.5652 0077415 319.9977  39.5244 14.11695164  8529
CZ-12 R/B
1 69581U 26137K   26228.82501299 -.00000111  00000-0  23019-4 0  9997
2 69581  49.9913   5.1041 0077415 321.2095  38.3271 14.11695233  8572
CZ-12 R/B
1 69581U 26137K   26229.46212128 -.00000082  00000-0  38511-4 0  9998
2 69581  49.9914   2.4740 0077417 323.3899  36.1733 14.11695270  8666
CZ-12 R/B
1 69581U 26137K   26229.81607046 -.00000063  00000-0  48692-4 0  9994
2 69581  49.9914   1.0129 0077420 324.6009  34.9775 14.11695276  8717
CZ-12 R/B
1 69581U 26137K   26230.52396875 -.00000031  00000-0  65542-4 0  9997
2 69581  49.9916 358.0907 0077422 327.0222  32.5870 14.11695383  8814
CZ-12 R/B
1 69581U 26137K   26230.87791799 -.00000028  00000-0  67021-4 0  9999
2 69581  49.9916 356.6297 0077425 328.2133  31.4114 14.11695343  8867
CZ-12 R/B
1 69581U 26137K   26231.09028750 -.00000025  00000-0  68969-4 0  9993
2 69581  49.9916 355.7530 0077432 328.9361  30.6980 14.11695358  8896
CZ-12 R/B
1 69581U 26137K   26231.09028751 -.00000025  00000-0  68969-4 0  9994
2 69581  49.9916 355.7530 0077432 328.9362  30.6980 14.11695358  8897
CZ-12 R/B
1 69581U 26137K   26231.86897585 -.00000019  00000-0  72124-4 0  9999
2 69581  49.9918 352.5387 0077420 331.5866  28.0831 14.11695406  9004
CZ-12 R/B
1 69581U 26137K   26232.08134546 -.00000022  00000-0  70117-4 0  9999
2 69581  49.9918 351.6621 0077423 332.3176  27.3620 14.11695400  9036
CZ-12 R/B
1 69581U 26137K   26232.57687454 -.00000028  00000-0  66967-4 0  9998
2 69581  49.9919 349.6166 0077411 334.0225  25.6807 14.11695409  9104
CZ-12 R/B
1 69581U 26137K   26232.86003396 -.00000032  00000-0  65021-4 0  9992
2 69581  49.9919 348.4478 0077418 334.9973  24.7194 14.11695447  9148
CZ-12 R/B
1 69581U 26137K   26233.28477305 -.00000037  00000-0  62239-4 0  9997
2 69581  49.9919 346.6944 0077420 336.4457  23.2914 14.11695512  9207
CZ-12 R/B
1 69581U 26137K   26233.35556288 -.00000042  00000-0  59991-4 0  9990
2 69581  49.9919 346.4022 0077415 336.6869  23.0536 14.11695513  9215
CZ-12 R/B
1 69581U 26137K   26233.56793239 -.00000043  00000-0  59356-4 0  9998
2 69581  49.9918 345.5255 0077408 337.4078  22.3429 14.11695562  9245
CZ-12 R/B
1 69581U 26137K   26234.55899017 -.00000075  00000-0  42401-4 0  9997
2 69581  49.9918 341.4346 0077415 340.7894  19.0100 14.11695731  9384
CZ-12 R/B
1 69581U 26137K   26234.62978002 -.00000073  00000-0  43441-4 0  9990
2 69581  49.9919 341.1425 0077417 341.0419  18.7611 14.11695781  9398
CZ-12 R/B
1 69581U 26137K   26234.84214952 -.00000081  00000-0  39314-4 0  9994
2 69581  49.9916 340.2658 0077413 341.7770  18.0367 14.11695821  9426
CZ-12 R/B
1 69581U 26137K   26235.76241744 -.00000116  00000-0  20551-4 0  9997
2 69581  49.9915 336.4670 0077412 344.9303  14.9300 14.11695983  9557
CZ-12 R/B
1 69581U 26137K   26236.68268532 -.00000156  00000-0 -64125-6 0  9995
2 69581  49.9913 332.6681 0077406 348.0790  11.8284 14.11696093  9687
CZ-12 R/B
1 69581U 26137K   26237.24900402 -.00000175  00000-0 -10937-4 0  9998
2 69581  49.9912 330.3303 0077412 350.0162   9.9205 14.11696166  9766
CZ-12 R/B
1 69581U 26137K   26237.53216336 -.00000186  00000-0 -16446-4 0  9999
2 69581  49.9911 329.1614 0077404 350.9798   8.9715 14.11696185  9802
CZ-12 R/B
1 69581U 26137K   26237.53216336 -.00000186  00000-0 -16446-4 0  9999
2 69581  49.9912 329.1614 0077404 350.9798   8.9715 14.11696185  9803
CZ-12 R/B
1 69581U 26137K   26237.67374309 -.00000190  00000-0 -18563-4 0  9996
2 69581  49.9912 328.5770 0077405 351.4672   8.4915 14.11696195  9827
CZ-12 R/B
1 69581U 26137K   26237.67374310 -.00000190  00000-0 -18563-4 0  9998
2 69581  49.9912 328.5770 0077405 351.4672   8.4915 14.11696195  9827
CZ-12 R/B
1 69581U 26137K   26238.52322140 -.00000203  00000-0 -25499-4 0  9998
2 69581  49.9911 325.0703 0077402 354.3676   5.6354 14.11696231  9947
CZ-12 R/B
1 69581U 26137K   26238.52322141 -.00000203  00000-0 -25499-4 0  9999
2 69581  49.9911 325.0703 0077402 354.3676   5.6354 14.11696231  9947
CZ-12 R/B
1 69581U 26137K   26239.58506957 -.00000206  00000-0 -27061-4 0  9995
2 69581  49.9910 320.6870 0077399 358.0010   2.0578 14.11696204 10097
CZ-12 R/B
1 69581U 26137K   26239.58506958 -.00000206  00000-0 -27061-4 0  9996
2 69581  49.9910 320.6870 0077399 358.0011   2.0578 14.11696204 10098
CZ-12 R/B
1 69581U 26137K   26240.57612807 -.00000190  00000-0 -18673-4 0  9999
2 69581  49.9909 316.5958 0077393   1.3902 358.7208 14.11696150 10235
CZ-12 R/B
1 69581U 26137K   26240.57612807 -.00000190  00000-0 -18673-4 0  9999
2 69581  49.9909 316.5958 0077393   1.3902 358.7208 14.11696150 10235
CZ-12 R/B
1 69581U 26137K   26241.49639676 -.00000156  00000-0 -52579-6 0  9991
2 69581  49.9907 312.7969 0077393   4.5285 355.6307 14.11696146 10367
CZ-12 R/B
1 69581U 26137K   26241.56718670 -.00000151  00000-0  19433-5 0  9996
2 69581  49.9907 312.5047 0077396   4.7694 355.3935 14.11696136 10375
CZ-12 R/B
1 69581U 26137K   26241.56718671 -.00000151  00000-0  19433-5 0  9997
2 69581  49.9907 312.5047 0077396   4.7694 355.3935 14.11696136 10375
CZ-12 R/B
1 69581U 26137K   26242.48745545 -.00000112  00000-0  22885-4 0  9990
2 69581  49.9905 308.7057 0077398   7.9093 352.3016 14.11696146 10504
CZ-12 R/B
1 69581U 26137K   26242.55824543 -.00000107  00000-0  25499-4 0  9992
2 69581  49.9905 308.4136 0077406   8.1452 352.0694 14.11696131 10515
CZ-12 R/B
1 69581U 26137K   26242.55824543 -.00000107  00000-0  25499-4 0  9992
2 69581  49.9905 308.4136 0077406   8.1452 352.0694 14.11696131 10515
CZ-12 R/B
1 69581U 26137K   26242.91219490 -.00000093  00000-0  33167-4 0  9996
2 69581  49.9905 306.9525 0077405   9.3565 350.8765 14.11696163 10562
CZ-12 R/B
1 69581U 26137K   26242.91219490 -.00000093  00000-0  33167-4 0  9996
2 69581  49.9905 306.9525 0077405   9.3565 350.8765 14.11696163 10562
CZ-12 R/B
1 69581U 26137K   26243.40772416 -.00000068  00000-0  46520-4 0  9992
2 69581  49.9904 304.9068 0077405  11.0546 349.2041 14.11696224 10635
CZ-12 R/B
1 69581U 26137K   26243.54930395 -.00000057  00000-0  51968-4 0  9999
2 69581  49.9904 304.3224 0077409  11.5399 348.7262 14.11696253 10651
CZ-12 R/B
1 69581U 26137K   26243.54930395 -.00000057  00000-0  51968-4 0  9999
2 69581  49.9904 304.3224 0077409  11.5399 348.7262 14.11696253 10651
CZ-12 R/B
1 69581U 26137K   26243.90325330 -.00000044  00000-0  59174-4 0  9999
2 69581  49.9903 302.8613 0077407  12.7502 347.5341 14.11696316 10703
CZ-12 R/B
1 69581U 26137K   26243.90325331 -.00000044  00000-0  59174-4 0  9990
2 69581  49.9903 302.8613 0077407  12.7502 347.5341 14.11696316 10703
CZ-12 R/B
1 69581U 26137K   26244.39878242 -.00000023  00000-0  69961-4 0  9990
2 69581  49.9902 300.8157 0077403  14.4470 345.8627 14.11696397 10776
CZ-12 R/B
1 69581U 26137K   26244.54036216 -.00000015  00000-0  74189-4 0  9993
2 69581  49.9902 300.2312 0077406  14.9311 345.3857 14.11696435 10790
