TBA - TO BE ASSIGNED
1 69973U 26158B   26191.77979863 -.00000129  00000-0  13045-4 0  9991
2 69973  49.9859 299.0538 0005686 297.8015  62.2321 14.24884895    79
TBA - TO BE ASSIGNED
1 69973U 26158B   26192.20059846 -.00000106  00000-0  22777-4 0  9997
2 69973  49.9857 297.2778 0005703 298.9027  61.1314 14.24885391   137
CZ-10B DEB
1 69973U 26158B   26192.55126534  .00000128  00000-0  12249-3 0  9999
2 69973  49.9848 295.7993 0005672 299.2394  60.7952 14.24885271   180
CZ-10B DEB
1 69973U 26158B   26192.76166539  .00000080  00000-0  10222-3 0  9997
2 69973  49.9848 294.9117 0005677 299.9157  60.1192 14.24885315   211
CZ-10B DEB
1 69973U 26158B   26192.76166539  .00000080  00000-0  10222-3 0  9997
2 69973  49.9848 294.9117 0005677 299.9157  60.1192 14.24885315   211
CZ-10B DEB
1 69973U 26158B   26192.90193206  .00000087  00000-0  10488-3 0  9995
2 69973  49.9848 294.3200 0005682 300.3748  59.6603 14.24885395   237
CZ-10B DEB
1 69973U 26158B   26193.18246542  .00000091  00000-0  10655-3 0  9999
2 69973  49.9848 293.1365 0005689 301.2600  58.7756 14.24885520   273
CZ-10B DEB
1 69973U 26158B   26193.32273213  .00000060  00000-0  93368-4 0  9999
2 69973  49.9848 292.5448 0005683 301.6932  58.3427 14.24885509   294
CZ-10B DEB
1 69973U 26158B   26193.53313218  .00000069  00000-0  97378-4 0  9996
2 69973  49.9847 291.6573 0005685 302.3631  57.6732 14.24885574   325
CZ-10B DEB
1 69973U 26158B   26193.60326551  .00000070  00000-0  97883-4 0  9991
2 69973  49.9848 291.3614 0005686 302.6077  57.4287 14.24885601   332
CZ-10B DEB
1 69973U 26158B   26193.74353218  .00000086  00000-0  10464-3 0  9992
2 69973  49.9847 290.7697 0005688 303.0912  56.9455 14.24885695   356
CZ-10B DEB
1 69973U 26158B   26194.23446541  .00000107  00000-0  11372-3 0  9992
2 69973  49.9847 288.6986 0005700 304.6532  55.3844 14.24885937   425
CZ-10B DEB
1 69973U 26158B   26194.30459872  .00000104  00000-0  11233-3 0  9994
2 69973  49.9847 288.4027 0005700 304.8625  55.1752 14.24885951   437
CZ-10B DEB
1 69973U 26158B   26194.51499874  .00000095  00000-0  10825-3 0  9998
2 69973  49.9846 287.5152 0005700 305.5704  54.4678 14.24885964   467
CZ-10B DEB
1 69973U 26158B   26194.58513205  .00000099  00000-0  11013-3 0  9994
2 69973  49.9846 287.2193 0005701 305.8104  54.2279 14.24885997   479
CZ-10B DEB
1 69973U 26158B   26194.58513205  .00000099  00000-0  11013-3 0  9994
2 69973  49.9846 287.2193 0005701 305.8104  54.2279 14.24885997   479
CZ-10B DEB
1 69973U 26158B   26198.93339296  .00000075  00000-0  99845-4 0  9997
2 69973  49.9842 268.8757 0005785 320.0176  40.0311 14.24888186  1098
CZ-10B DEB
1 69973U 26158B   26199.21392490  .00000114  00000-0  11667-3 0  9993
2 69973  49.9841 267.6920 0005727 321.1283  38.9217 14.24888801  1133
CZ-10B DEB
1 69973U 26158B   26199.56459074  .00000090  00000-0  10639-3 0  9994
2 69973  49.9839 266.2127 0005712 322.4784  37.5730 14.24888906  1184
CZ-10B DEB
1 69973U 26158B   26199.56459074  .00000090  00000-0  10639-3 0  9994
2 69973  49.9839 266.2127 0005712 322.4784  37.5730 14.24888906  1184
CZ-10B DEB
1 69973U 26158B   26200.19578766  .00000106  00000-0  11298-3 0  9996
2 69973  49.9840 263.5500 0005853 323.4723  36.5791 14.24889741  1275
CZ-10B DEB
1 69973U 26158B   26200.54645206  .00000196  00000-0  15132-3 0  9999
2 69973  49.9838 262.0705 0005828 325.2209  34.8323 14.24890871  1328
CZ-10B DEB
1 69973U 26158B   26201.10751627  .00000178  00000-0  14371-3 0  9991
2 69973  49.9836 259.7035 0005837 327.1045  32.9504 14.24891319  1401
CZ-10B DEB
1 69973U 26158B   26201.45818118  .00000179  00000-0  14402-3 0  9994
2 69973  49.9834 258.2242 0005848 328.4253  31.6308 14.24891723  1452
CZ-10B DEB
1 69973U 26158B   26201.87897899  .00000202  00000-0  15382-3 0  9998
2 69973  49.9833 256.4490 0005851 329.8507  30.2068 14.24892309  1513
CZ-10B DEB
1 69973U 26158B   26201.87897899  .00000202  00000-0  15382-3 0  9998
2 69973  49.9833 256.4490 0005851 329.8508  30.2068 14.24892309  1514
CZ-10B DEB
1 69973U 26158B   26202.08937773  .00000261  00000-0  17899-3 0  9998
2 69973  49.9833 255.5614 0005857 330.3890  29.6691 14.24892855  1542
CZ-10B DEB
1 69973U 26158B   26202.58030870  .00000237  00000-0  16868-3 0  9993
2 69973  49.9833 253.4904 0005826 332.3023  27.7580 14.24893144  1613
CZ-10B DEB
1 69973U 26158B   26203.49203627  .00000311  00000-0  20015-3 0  9998
2 69973  49.9831 249.6440 0005850 335.2967  24.7665 14.24894511  1743
CZ-10B DEB
1 69973U 26158B   26204.05309937  .00000340  00000-0  21248-3 0  9993
2 69973  49.9830 247.2769 0005884 337.1473  22.9178 14.24895163  1822
CZ-10B DEB
1 69973U 26158B   26204.54403148  .00000244  00000-0  17192-3 0  9992
2 69973  49.9827 245.2062 0005901 339.4366  20.6309 14.24894504  1894
CZ-10B DEB
1 69973U 26158B   26204.54403148  .00000244  00000-0  17192-3 0  9992
2 69973  49.9827 245.2062 0005901 339.4366  20.6309 14.24894503  1893
CZ-10B DEB
1 69973U 26158B   26205.31549564  .00000094  00000-0  10817-3 0  9991
2 69973  49.9826 241.9514 0005987 342.2687  17.8016 14.24893626  2001
CZ-10B DEB
1 69973U 26158B   26205.52589446  .00000090  00000-0  10622-3 0  9997
2 69973  49.9828 241.0642 0005966 342.7773  17.2937 14.24893665  2036
CZ-10B DEB
1 69973U 26158B   26206.43762350  .00000038  00000-0  84027-4 0  9998
2 69973  49.9825 237.2173 0005929 345.9871  14.0877 14.24893445  2160
CZ-10B DEB
1 69973U 26158B   26207.48961817  .00000043  00000-0  86444-4 0  9994
2 69973  49.9824 232.7788 0005905 349.3234  10.7553 14.24893558  2312
CZ-10B DEB
1 69973U 26158B   26207.77015005  .00000037  00000-0  83759-4 0  9994
2 69973  49.9824 231.5955 0005933 350.2744   9.8053 14.24893577  2352
CZ-10B DEB
1 69973U 26158B   26208.47147943  .00000077  00000-0  10089-3 0  9998
2 69973  49.9822 228.6365 0005936 352.7299   7.3527 14.24893951  2453
CZ-10B DEB
1 69973U 26158B   26208.47147943  .00000077  00000-0  10089-3 0  9998
2 69973  49.9822 228.6365 0005936 352.7299   7.3527 14.24893951  2453
CZ-10B DEB
1 69973U 26158B   26208.75201109  .00000089  00000-0  10600-3 0  9996
2 69973  49.9823 227.4530 0005935 353.6462   6.4375 14.24894125  2495
CZ-10B DEB
1 69973U 26158B   26209.03254256  .00000118  00000-0  11818-3 0  9994
2 69973  49.9812 226.2698 0005962 354.6403   5.4446 14.24894372  2538
CZ-10B DEB
1 69973U 26158B   26209.31307394  .00000137  00000-0  12620-3 0  9990
2 69973  49.9811 225.0863 0005920 355.4191   4.6667 14.24894606  2575
CZ-10B DEB
1 69973U 26158B   26210.71573048  .00000346  00000-0  21515-3 0  9992
2 69973  49.9826 219.1681 0005933   0.6075 359.4844 14.24896798  2771
CZ-10B DEB
1 69973U 26158B   26211.27679267  .00000348  00000-0  21614-3 0  9996
2 69973  49.9822 216.8009 0005960   2.2687 357.8252 14.24897265  2856
CZ-10B DEB
1 69973U 26158B   26211.97812019  .00000377  00000-0  22816-3 0  9994
2 69973  49.9822 213.8420 0005965   4.7487 355.3481 14.24897994  2957
CZ-10B DEB
1 69973U 26158B   26212.25865089  .00000407  00000-0  24116-3 0  9990
2 69973  49.9822 212.6588 0005924   5.6761 354.4218 14.24898474  2995
CZ-10B DEB
1 69973U 26158B   26212.67944706  .00000479  00000-0  27185-3 0  9998
2 69973  49.9822 210.8836 0005930   7.2585 352.8413 14.24899298  3052
CZ-10B DEB
1 69973U 26158B   26212.67944707  .00000479  00000-0  27185-3 0  9999
2 69973  49.9822 210.8836 0005930   7.2585 352.8413 14.24899299  3053
CZ-10B DEB
1 69973U 26158B   26213.24050833  .00000476  00000-0  27053-3 0  9992
2 69973  49.9822 208.5165 0005933   9.2741 350.8281 14.24899882  3139
CZ-10B DEB
1 69973U 26158B   26213.38077358  .00000492  00000-0  27710-3 0  9996
2 69973  49.9822 207.9248 0005943   9.8518 350.2511 14.24900126  3159
CZ-10B DEB
1 69973U 26158B   26214.15223211  .00000449  00000-0  25909-3 0  9993
2 69973  49.9823 204.6700 0005937  12.5017 347.6042 14.24900851  3261
CZ-10B DEB
1 69973U 26158B   26214.22236467  .00000451  00000-0  25956-3 0  9993
2 69973  49.9823 204.3742 0005934  12.7241 347.3820 14.24900939  3271
CZ-10B DEB
1 69973U 26158B   26214.36262981  .00000451  00000-0  25958-3 0  9990
2 69973  49.9823 203.7824 0005936  13.2376 346.8692 14.24901111  3298
CZ-10B DEB
1 69973U 26158B   26214.71329262  .00000482  00000-0  27311-3 0  9994
2 69973  49.9823 202.3031 0005936  14.4344 345.6738 14.24901704  3343
CZ-10B DEB
1 69973U 26158B   26215.48475005  .00000487  00000-0  27512-3 0  9994
2 69973  49.9823 199.0483 0005939  17.1664 342.9449 14.24902783  3453
CZ-10B DEB
1 69973U 26158B   26215.90554483  .00000440  00000-0  25490-3 0  9991
2 69973  49.9824 197.2729 0005940  18.5984 341.5146 14.24903092  3519
CZ-10B DEB
1 69973U 26158B   26217.16792869  .00000333  00000-0  20941-3 0  9990
2 69973  49.9825 191.9471 0005940  23.0573 337.0606 14.24904101  3692
CZ-10B DEB
1 69973U 26158B   26217.30819344  .00000313  00000-0  20117-3 0  9997
2 69973  49.9826 191.3552 0005911  23.4232 336.6949 14.24904169  3713
CZ-10B DEB
1 69973U 26158B   26218.14978217  .00000221  00000-0  16177-3 0  9994
2 69973  49.9827 187.8045 0005944  26.4844 333.6372 14.24904607  3836
CZ-10B DEB
1 69973U 26158B   26218.92123816  .00000148  00000-0  13087-3 0  9992
2 69973  49.9829 184.5501 0005980  29.0737 331.0508 14.24905030  3945
CZ-10B DEB
1 69973U 26158B   26219.27190042  .00000084  00000-0  10394-3 0  9993
2 69973  49.9829 183.0708 0006004  30.5820 329.5442 14.24904890  3993
CZ-10B DEB
1 69973U 26158B   26219.62256213  .00000060  00000-0  93501-4 0  9991
2 69973  49.9830 181.5914 0006018  31.8543 328.2733 14.24905073  4048
CZ-10B DEB
1 69973U 26158B   26219.62256213  .00000060  00000-0  93501-4 0  9991
2 69973  49.9830 181.5914 0006018  31.8543 328.2733 14.24905073  4048
CZ-10B DEB
1 69973U 26158B   26220.11348843  .00000011  00000-0  72908-4 0  9992
2 69973  49.9831 179.5203 0006009  33.4909 326.6384 14.24905216  4112
CZ-10B DEB
1 69973U 26158B   26220.11348843  .00000011  00000-0  72908-4 0  9992
2 69973  49.9831 179.5203 0006009  33.4909 326.6384 14.24905216  4112
CZ-10B DEB
1 69973U 26158B   26220.32388551 -.00000001  00000-0  67771-4 0  9997
2 69973  49.9831 178.6327 0006016  34.2447 325.8853 14.24905278  4146
CZ-10B DEB
1 69973U 26158B   26220.32388551 -.00000001  00000-0  67771-4 0  9997
2 69973  49.9831 178.6327 0006016  34.2447 325.8853 14.24905278  4146
CZ-10B DEB
1 69973U 26158B   26221.16547275 -.00000003  00000-0  66828-4 0  9994
2 69973  49.9832 175.0822 0006035  37.2066 322.9264 14.24905992  4269
CZ-10B DEB
1 69973U 26158B   26221.23560509 -.00000006  00000-0  65599-4 0  9994
2 69973  49.9831 174.7864 0006046  37.5081 322.6253 14.24906018  4278
CZ-10B DEB
1 69973U 26158B   26221.37586963 -.00000001  00000-0  67523-4 0  9995
2 69973  49.9831 174.1946 0006093  38.3705 321.7641 14.24906184  4294
CZ-10B DEB
1 69973U 26158B   26221.58626635 -.00000005  00000-0  65724-4 0  9994
2 69973  49.9831 173.3069 0006078  39.2000 320.9352 14.24906314  4321
CZ-10B DEB
1 69973U 26158B   26222.14732406  .00000019  00000-0  76042-4 0  9990
2 69973  49.9832 170.9397 0006064  41.0359 319.1010 14.24906891  4402
CZ-10B DEB
1 69973U 26158B   26222.35772071  .00000083  00000-0  10329-3 0  9991
2 69973  49.9832 170.0523 0006087  42.0288 318.1091 14.24907406  4435
CZ-10B DEB
1 69973U 26158B   26222.84864637  .00000065  00000-0  95555-4 0  9990
2 69973  49.9832 167.9811 0006095  43.8148 316.3248 14.24907613  4505
CZ-10B DEB
1 69973U 26158B   26222.84864637  .00000065  00000-0  95555-4 0  9990
2 69973  49.9832 167.9811 0006095  43.8148 316.3248 14.24907613  4505
CZ-10B DEB
1 69973U 26158B   26223.19930712  .00000119  00000-0  11855-3 0  9997
2 69973  49.9832 166.5016 0006086  45.1390 315.0017 14.24908203  4552
CZ-10B DEB
1 69973U 26158B   26223.19930712  .00000119  00000-0  11855-3 0  9997
2 69973  49.9832 166.5016 0006086  45.1390 315.0017 14.24908203  4552
CZ-10B DEB
1 69973U 26158B   26223.83049672  .00000162  00000-0  13685-3 0  9995
2 69973  49.9832 163.8387 0006104  47.4228 312.7200 14.24908873  4640
CZ-10B DEB
1 69973U 26158B   26223.83049673  .00000162  00000-0  13685-3 0  9996
2 69973  49.9832 163.8387 0006104  47.4228 312.7200 14.24908873  4640
CZ-10B DEB
1 69973U 26158B   26224.11102532  .00000176  00000-0  14297-3 0  9997
2 69973  49.9832 162.6552 0006102  48.4704 311.6731 14.24909155  4684
CZ-10B DEB
1 69973U 26158B   26224.53181836  .00000169  00000-0  13985-3 0  9992
2 69973  49.9831 160.8800 0006118  49.9671 310.1778 14.24909378  4744
CZ-10B DEB
1 69973U 26158B   26224.53181836  .00000169  00000-0  13985-3 0  9992
2 69973  49.9831 160.8800 0006118  49.9671 310.1778 14.24909378  4744
CZ-10B DEB
1 69973U 26158B   26225.09287550  .00000200  00000-0  15301-3 0  9994
2 69973  49.9832 158.5129 0006113  51.8605 308.2858 14.24909881  4822
CZ-10B DEB
1 69973U 26158B   26225.79419669  .00000262  00000-0  17930-3 0  9997
2 69973  49.9831 155.5541 0006116  54.3874 305.7608 14.24910651  4928
CZ-10B DEB
1 69973U 26158B   26225.79419669  .00000262  00000-0  17930-3 0  9997
2 69973  49.9831 155.5541 0006116  54.3874 305.7608 14.24910651  4928
CZ-10B DEB
1 69973U 26158B   26226.07472517  .00000295  00000-0  19360-3 0  9995
2 69973  49.9832 154.3707 0006120  55.4322 304.7168 14.24910984  4968
CZ-10B DEB
1 69973U 26158B   26226.21498936  .00000311  00000-0  20038-3 0  9997
2 69973  49.9832 153.7790 0006125  55.9326 304.2168 14.24911159  4989
CZ-10B DEB
1 69973U 26158B   26226.21498937  .00000311  00000-0  20038-3 0  9998
2 69973  49.9832 153.7790 0006125  55.9326 304.2168 14.24911159  4989
CZ-10B DEB
1 69973U 26158B   26226.77604595  .00000318  00000-0  20334-3 0  9994
2 69973  49.9832 151.4119 0006128  57.9357 302.2150 14.24911577  5061
CZ-10B DEB
1 69973U 26158B   26226.77604595  .00000318  00000-0  20334-3 0  9994
2 69973  49.9832 151.4119 0006128  57.9357 302.2150 14.24911577  5061
CZ-10B DEB
1 69973U 26158B   26227.05657439  .00000357  00000-0  21980-3 0  9992
2 69973  49.9832 150.2283 0006134  59.0222 301.1294 14.24911908  5101
CZ-10B DEB
1 69973U 26158B   26227.05657439  .00000357  00000-0  21980-3 0  9992
2 69973  49.9832 150.2283 0006134  59.0222 301.1294 14.24911908  5101
CZ-10B DEB
1 69973U 26158B   26227.47736681  .00000338  00000-0  21190-3 0  9997
2 69973  49.9833 148.4531 0006107  60.2073 299.9447 14.24912022  5163
CZ-10B DEB
1 69973U 26158B   26227.47736681  .00000338  00000-0  21190-3 0  9997
2 69973  49.9833 148.4531 0006107  60.2073 299.9447 14.24912022  5163
CZ-10B DEB
1 69973U 26158B   26227.75789486  .00000362  00000-0  22167-3 0  9991
2 69973  49.9832 147.2695 0006100  61.1648 298.9877 14.24912344  5209
CZ-10B DEB
1 69973U 26158B   26227.75789487  .00000362  00000-0  22167-3 0  9992
2 69973  49.9832 147.2695 0006100  61.1648 298.9877 14.24912344  5209
CZ-10B DEB
1 69973U 26158B   26228.03842302  .00000442  00000-0  25576-3 0  9996
2 69973  49.9834 146.0861 0006092  62.1514 298.0016 14.24912929  5245
CZ-10B DEB
1 69973U 26158B   26228.03842303  .00000442  00000-0  25576-3 0  9997
2 69973  49.9834 146.0861 0006092  62.1514 298.0016 14.24912929  5245
CZ-10B DEB
1 69973U 26158B   26228.80987520  .00000441  00000-0  25558-3 0  9992
2 69973  49.9835 142.8316 0006128  65.2570 294.8980 14.24913462  5350
CZ-10B DEB
1 69973U 26158B   26228.95013933  .00000465  00000-0  26586-3 0  9994
2 69973  49.9836 142.2399 0006113  65.7054 294.4497 14.24913631  5371
CZ-10B DEB
1 69973U 26158B   26229.02027134  .00000474  00000-0  26944-3 0  9999
2 69973  49.9836 141.9441 0006105  65.9119 294.2432 14.24913702  5387
CZ-10B DEB
1 69973U 26158B   26229.93198719  .00000482  00000-0  27278-3 0  9997
2 69973  49.9835 138.0976 0006081  68.8949 291.2613 14.24914309  5519
CZ-10B DEB
1 69973U 26158B   26230.14238379  .00000491  00000-0  27670-3 0  9995
2 69973  49.9834 137.2100 0006081  69.6107 290.5459 14.24914269  5541
CZ-10B DEB
1 69973U 26158B   26230.42291153  .00000475  00000-0  27008-3 0  9992
2 69973  49.9834 136.0263 0006072  70.5162 289.6407 14.24914405  5588
CZ-10B DEB
1 69973U 26158B   26230.91383479  .00000506  00000-0  28304-3 0  9994
2 69973  49.9834 133.9552 0006059  72.1083 288.0490 14.24915015  5651
CZ-10B DEB
1 69973U 26158B   26230.98396674  .00000502  00000-0  28128-3 0  9992
2 69973  49.9835 133.6594 0006059  72.2687 287.8887 14.24915042  5664
CZ-10B DEB
1 69973U 26158B   26231.96581627  .00000301  00000-0  19588-3 0  9992
2 69973  49.9840 129.5182 0006438  76.9300 283.2332 14.24914240  5801
CZ-10B DEB
1 69973U 26158B   26232.94766420  .00000027  00000-0  79457-4 0  9994
2 69973  49.9838 125.3753 0006259  80.8251 279.3370 14.24912886  5943
CZ-10B DEB
1 69973U 26158B   26233.08792810  .00000020  00000-0  76658-4 0  9995
2 69973  49.9839 124.7836 0006272  81.3336 278.8288 14.24912919  5965
CZ-10B DEB
1 69973U 26158B   26233.64898349  .00000004  00000-0  69608-4 0  9990
2 69973  49.9839 122.4166 0006274  83.3257 276.8370 14.24913100  6045
CZ-10B DEB
1 69973U 26158B   26233.71911533  .00000003  00000-0  69313-4 0  9991
2 69973  49.9839 122.1208 0006280  83.5226 276.6402 14.24913171  6057
CZ-10B DEB
1 69973U 26158B   26234.06977489 -.00000011  00000-0  63287-4 0  9996
2 69973  49.9838 120.6414 0006298  84.9141 275.2491 14.24913251  6106
CZ-10B DEB
1 69973U 26158B   26234.42043417 -.00000010  00000-0  63963-4 0  9991
2 69973  49.9839 119.1620 0006350  86.6620 273.5020 14.24913527  6159
CZ-10B DEB
1 69973U 26158B   26234.63082965  .00000003  00000-0  69099-4 0  9992
2 69973  49.9838 118.2741 0006338  87.4980 272.6658 14.24913712  6182
CZ-10B DEB
1 69973U 26158B   26234.91135685  .00000034  00000-0  82323-4 0  9990
2 69973  49.9838 117.0909 0006331  88.2060 271.9579 14.24914140  6221
CZ-10B DEB
1 69973U 26158B   26235.05162060  .00000026  00000-0  79106-4 0  9999
2 69973  49.9837 116.4991 0006343  88.7302 271.4338 14.24914165  6248
CZ-10B DEB
1 69973U 26158B   26235.61267460  .00000065  00000-0  95636-4 0  9990
2 69973  49.9836 114.1317 0006333  91.0427 269.1212 14.24914865  6329
CZ-10B DEB
1 69973U 26158B   26235.96333347  .00000058  00000-0  92844-4 0  9996
2 69973  49.9838 112.6529 0006292  91.8166 268.3468 14.24915149  6376
CZ-10B DEB
1 69973U 26158B   26236.03346538  .00000032  00000-0  81421-4 0  9992
2 69973  49.9838 112.3572 0006287  91.9064 268.2569 14.24915023  6386
CZ-10B DEB
1 69973U 26158B   26236.59451986 -.00000005  00000-0  65732-4 0  9995
2 69973  49.9838 109.9901 0006287  93.7819 266.3814 14.24915158  6462
CZ-10B DEB
1 69973U 26158B   26236.94517802  .00000033  00000-0  82012-4 0  9994
2 69973  49.9837 108.5105 0006243  95.0367 265.1259 14.24915764  6516
CZ-10B DEB
1 69973U 26158B   26237.01531002  .00000012  00000-0  72913-4 0  9997
2 69973  49.9835 108.2149 0006227  94.9460 265.2165 14.24915639  6522
CZ-10B DEB
1 69973U 26158B   26237.36596774  .00000122  00000-0  11973-3 0  9992
2 69973  49.9826 106.7350 0006234  97.5285 262.6337 14.24916723  6573
CZ-10B DEB
1 69973U 26158B   26237.36596775  .00000122  00000-0  11973-3 0  9993
2 69973  49.9826 106.7350 0006234  97.5285 262.6337 14.24916723  6573
CZ-10B DEB
1 69973U 26158B   26237.64649455  .00000099  00000-0  10991-3 0  9990
2 69973  49.9831 105.5513 0006267  98.3531 261.8093 14.24916856  6618
CZ-10B DEB
1 69973U 26158B   26237.64649456  .00000099  00000-0  10991-3 0  9991
2 69973  49.9831 105.5513 0006267  98.3531 261.8093 14.24916856  6618
CZ-10B DEB
1 69973U 26158B   26237.92702125  .00000111  00000-0  11531-3 0  9991
2 69973  49.9831 104.3678 0006265  99.4407 260.7214 14.24917183  6650
CZ-10B DEB
1 69973U 26158B   26237.92702125  .00000111  00000-0  11531-3 0  9991
2 69973  49.9831 104.3678 0006265  99.4407 260.7214 14.24917183  6650
CZ-10B DEB
1 69973U 26158B   26238.62833809  .00000134  00000-0  12506-3 0  9991
2 69973  49.9830 101.4088 0006260 102.0021 258.1594 14.24917822  6753
CZ-10B DEB
1 69973U 26158B   26238.62833810  .00000134  00000-0  12506-3 0  9993
2 69973  49.9830 101.4088 0006260 102.0021 258.1594 14.24917823  6754
CZ-10B DEB
1 69973U 26158B   26238.62833810  .00000134  00000-0  12506-3 0  9993
2 69973  49.9830 101.4088 0006260 102.0021 258.1594 14.24917823  6754
CZ-10B DEB
1 69973U 26158B   26238.97899641  .00000092  00000-0  10729-3 0  9993
2 69973  49.9830  99.9294 0006265 103.2537 256.9075 14.24917858  6808
CZ-10B DEB
1 69973U 26158B   26238.97899642  .00000092  00000-0  10729-3 0  9994
2 69973  49.9830  99.9294 0006265 103.2537 256.9075 14.24917858  6808
CZ-10B DEB
1 69973U 26158B   26240.59202435  .00000080  00000-0  10209-3 0  9993
2 69973  49.9834  93.1241 0006371 109.0443 251.1161 14.24918843  7032
CZ-10B DEB
1 69973U 26158B   26240.59202436  .00000080  00000-0  10209-3 0  9994
2 69973  49.9834  93.1241 0006371 109.0443 251.1161 14.24918843  7032
CZ-10B DEB
1 69973U 26158B   26241.29334003  .00000112  00000-0  11576-3 0  9992
2 69973  49.9834  90.1653 0006373 111.3586 248.8008 14.24919524  7133
CZ-10B DEB
1 69973U 26158B   26241.57386653  .00000126  00000-0  12136-3 0  9999
2 69973  49.9834  88.9817 0006384 112.3824 247.7766 14.24919696  7171
CZ-10B DEB
1 69973U 26158B   26241.85439294  .00000098  00000-0  10946-3 0  9995
2 69973  49.9834  87.7981 0006388 113.3129 246.8457 14.24919676  7213
CZ-10B DEB
1 69973U 26158B   26241.85439294  .00000098  00000-0  10946-3 0  9995
2 69973  49.9834  87.7981 0006388 113.3129 246.8457 14.24919676  7213
CZ-10B DEB
1 69973U 26158B   26242.27518220  .00000119  00000-0  11840-3 0  9997
2 69973  49.9835  86.0230 0006399 114.6968 245.4612 14.24920082  7277
CZ-10B DEB
1 69973U 26158B   26242.27518221  .00000119  00000-0  11840-3 0  9998
2 69973  49.9835  86.0230 0006399 114.6968 245.4612 14.24920082  7277
CZ-10B DEB
1 69973U 26158B   26242.55570857  .00000119  00000-0  11878-3 0  9993
2 69973  49.9836  84.8394 0006410 115.7059 244.4517 14.24920192  7312
CZ-10B DEB
1 69973U 26158B   26242.76610318  .00000130  00000-0  12314-3 0  9992
2 69973  49.9836  83.9517 0006412 116.4903 243.6668 14.24920362  7347
CZ-10B DEB
1 69973U 26158B   26242.83623469  .00000110  00000-0  11488-3 0  9990
2 69973  49.9836  83.6559 0006416 116.7314 243.4257 14.24920313  7352
CZ-10B DEB
1 69973U 26158B   26242.97649772  .00000118  00000-0  11813-3 0  9990
2 69973  49.9834  83.0639 0006418 117.2235 242.9332 14.24920420  7372
CZ-10B DEB
1 69973U 26158B   26242.97649773  .00000118  00000-0  11813-3 0  9991
2 69973  49.9834  83.0639 0006418 117.2235 242.9332 14.24920420  7372
CZ-10B DEB
1 69973U 26158B   26243.53754985  .00000144  00000-0  12911-3 0  9995
2 69973  49.9834  80.6967 0006412 119.2669 240.8886 14.24920866  7450
CZ-10B DEB
1 69973U 26158B   26243.53754986  .00000144  00000-0  12911-3 0  9996
2 69973  49.9834  80.6967 0006412 119.2669 240.8886 14.24920866  7450
CZ-10B DEB
1 69973U 26158B   26243.81807553  .00000171  00000-0  14081-3 0  9996
2 69973  49.9835  79.5133 0006424 120.5443 239.6105 14.24921270  7495
CZ-10B DEB
1 69973U 26158B   26243.81807554  .00000171  00000-0  14081-3 0  9997
2 69973  49.9835  79.5133 0006424 120.5443 239.6105 14.24921271  7496
CZ-10B DEB
1 69973U 26158B   26244.23886440  .00000184  00000-0  14618-3 0  9995
2 69973  49.9838  77.7383 0006450 121.8224 238.3318 14.24921695  7555
CZ-10B DEB
1 69973U 26158B   26244.51939025  .00000208  00000-0  15655-3 0  9993
2 69973  49.9837  76.5546 0006450 122.8485 237.3050 14.24921988  7593
CZ-10B DEB
1 69973U 26158B   26244.58952172  .00000209  00000-0  15699-3 0  9997
2 69973  49.9837  76.2587 0006452 123.1079 237.0454 14.24922044  7601
